station_id,begin_time,phase_index,phase_time,phase_score,phase_type,file_name,phase_amplitude,phase_amp,sta_dist_km,diting_polarity,diting_sharpness,pyrocko_phase_time,pyrocko_polarity,mag,depth,lat,long
XQ.ME35.01.BH,2009-03-06 13:38:43.850,4143.0,2009-03-06 13:39:25.205,0.985,P,nc40232766.mseed,2190.077880859375,2190.077880859375,69.13,-1,I,,,2.45,40.545,40.1426667,-123.067
XQ.ME44.01.BH,2009-03-06 13:38:43.850,4245.0,2009-03-06 13:39:26.225,0.957,P,nc40232766.mseed,688.6563110351562,688.6563110351562,72.88,-1,E,,,2.45,40.545,40.1426667,-123.067
PB.B933..EH,2009-03-06 13:38:43.850,4267.0,2009-03-06 13:39:26.445,0.966,P,nc40232766.mseed,362.5145263671875,362.5145263671875,77.46,1,I,,,2.45,40.545,40.1426667,-123.067
XQ.ME32.01.BH,2009-03-06 13:38:43.850,4409.0,2009-03-06 13:39:27.865,0.959,P,nc40232766.mseed,925.5824584960938,925.5824584960938,83.67,1,I,,,2.45,40.545,40.1426667,-123.067
XQ.ME52.01.BH,2009-03-06 13:38:43.850,4455.0,2009-03-06 13:39:28.325,0.957,P,nc40232766.mseed,639.396240234375,639.396240234375,91.96,-1,I,,,2.45,40.545,40.1426667,-123.067
XQ.ME61.01.BH,2009-03-06 13:38:43.850,4598.0,2009-03-06 13:39:29.755,0.954,P,nc40232766.mseed,1430.420654296875,1430.420654296875,94.62,1,I,,,2.45,40.545,40.1426667,-123.067
XQ.ME34.01.BH,2009-03-06 13:38:43.850,4554.0,2009-03-06 13:39:29.315,0.976,P,nc40232766.mseed,1582.320556640625,1582.320556640625,97.71,1,I,,,2.45,40.545,40.1426667,-123.067
NC.GFC..EH,2009-03-06 13:38:43.850,4865.0,2009-03-06 13:39:32.425,0.953,P,nc40232766.mseed,36.73099899291992,36.73099899291992,112.52,,,,,2.45,40.545,40.1426667,-123.067
NC.OCR..EH,2009-03-06 13:38:43.850,4739.0,2009-03-06 13:39:31.165,0.977,P,nc40232766.mseed,219.25059509277344,219.25059509277344,116.37,,,,,2.45,40.545,40.1426667,-123.067
NC.GHO..EH,2009-03-06 13:38:43.850,4879.0,2009-03-06 13:39:32.565,0.989,P,nc40232766.mseed,196.8816070556641,196.8816070556641,128.55,-1,I,,,2.45,40.545,40.1426667,-123.067
NC.GSN..EH,2009-03-06 13:38:43.850,4982.0,2009-03-06 13:39:33.595,0.968,P,nc40232766.mseed,106.65979766845705,106.65979766845705,133.92,-1,I,,,2.45,40.545,40.1426667,-123.067
NC.GGU..EH,2009-03-06 13:38:43.850,5103.0,2009-03-06 13:39:34.805,0.986,P,nc40232766.mseed,122.92706298828124,122.92706298828124,147.55,-1,I,,,2.45,40.545,40.1426667,-123.067
NC.OBHB..EH,2009-03-06 13:38:43.850,5158.0,2009-03-06 13:39:35.355,0.982,P,nc40232766.mseed,158.4968719482422,158.4968719482422,147.69,,,,,2.45,40.545,40.1426667,-123.067
XQ.ME04.01.BH,2009-03-30 15:32:52.580,3703.0,2009-03-30 15:33:29.535,0.982,P,nc40234034.mseed,13993.421875,13993.421875,13.78,,,2009-03-30T15:33:29.5664,,2.94,38.139,41.4356667,-123.3888333
XQ.ME01.01.BH,2009-03-30 15:32:52.580,3858.0,2009-03-30 15:33:31.085,0.963,P,nc40234034.mseed,14142.7998046875,14142.7998046875,37.73,,,2009-03-30T15:33:31.1351,1.0,2.94,38.139,41.4356667,-123.3888333
XQ.ME29.01.BH,2009-03-30 15:32:52.580,3890.0,2009-03-30 15:33:31.405,0.973,P,nc40234034.mseed,99402.2578125,99402.2578125,38.67,,,2009-03-30T15:33:31.4739,-1.0,2.94,38.139,41.4356667,-123.3888333
XQ.ME30.01.BH,2009-03-30 15:32:52.580,4247.0,2009-03-30 15:33:34.975,0.969,P,nc40234034.mseed,12385.734375,12385.734375,67.46,,,2009-03-30T15:33:35.0500,1.0,2.94,38.139,41.4356667,-123.3888333
NC.KHMB..HN,2009-03-30 15:32:52.580,4282.0,2009-03-30 15:33:35.325,0.977,P,nc40234034.mseed,1.4280887842178345,1.4280887842178345,68.65,1,I,,,2.94,38.139,41.4356667,-123.3888333
PB.B039..EH,2009-03-30 15:32:52.580,4311.0,2009-03-30 15:33:35.615,0.964,P,nc40234034.mseed,787.7366943359375,787.7366943359375,75.63,-1,E,,,2.94,38.139,41.4356667,-123.3888333
XQ.ME31.01.BH,2009-03-30 15:32:52.580,4553.0,2009-03-30 15:33:38.035,0.959,P,nc40234034.mseed,2559.44482421875,2559.44482421875,92.1,,,2009-03-30T15:33:38.0532,1.0,2.94,38.139,41.4356667,-123.3888333
XQ.ME32.01.BH,2009-03-30 15:32:52.580,4693.0,2009-03-30 15:33:39.435,0.962,P,nc40234034.mseed,2601.59521484375,2601.59521484375,101.83,,,2009-03-30T15:33:39.4765,1.0,2.94,38.139,41.4356667,-123.3888333
PB.B935..EH,2009-03-30 15:32:52.580,4754.0,2009-03-30 15:33:40.045,0.953,P,nc40234034.mseed,347.5118103027344,347.5118103027344,107.4,1,I,2009-03-30T15:33:40.1140,1.0,2.94,38.139,41.4356667,-123.3888333
XQ.ME35.01.BH,2009-03-30 15:32:52.580,4895.0,2009-03-30 15:33:41.455,0.957,P,nc40234034.mseed,1769.949462890625,1769.949462890625,110.03,,,2009-03-30T15:33:41.4742,,2.94,38.139,41.4356667,-123.3888333
NC.KMPB..HN,2009-03-30 15:32:52.580,4996.0,2009-03-30 15:33:42.465,0.977,P,nc40234034.mseed,2.6137330532073975,2.6137330532073975,128.81,1,I,,,2.94,38.139,41.4356667,-123.3888333
PB.B049..EH,2009-03-30 15:32:52.580,5111.0,2009-03-30 15:33:43.615,0.984,P,nc40234034.mseed,1260.1815185546875,1260.1815185546875,137.93,1,I,2009-03-30T15:33:43.6655,1.0,2.94,38.139,41.4356667,-123.3888333
PB.B046..EH,2009-03-30 15:32:52.580,5176.0,2009-03-30 15:33:44.265,0.975,P,nc40234034.mseed,1317.2784423828125,1317.2784423828125,144.89,1,I,2009-03-30T15:33:44.3300,1.0,2.94,38.139,41.4356667,-123.3888333
PB.B047..EH,2009-03-30 15:32:52.580,5213.0,2009-03-30 15:33:44.635,0.971,P,nc40234034.mseed,1279.29931640625,1279.29931640625,147.23,1,E,2009-03-30T15:33:44.7048,1.0,2.94,38.139,41.4356667,-123.3888333
NC.KHBB..HN,2009-04-07 22:16:54.490,3518.0,2009-04-07 22:17:29.595,0.984,P,nc40234475.mseed,46.95335388183594,46.95335388183594,12.54,-1,I,,,2.94,24.958,40.7505,-123.3081667
XQ.ME30.01.BH,2009-04-07 22:16:54.490,3595.0,2009-04-07 22:17:30.365,0.983,P,nc40234475.mseed,40855.796875,40855.796875,23.99,1,I,,,2.94,24.958,40.7505,-123.3081667
XQ.ME13.01.BH,2009-04-07 22:16:54.490,3694.0,2009-04-07 22:17:31.355,0.976,P,nc40234475.mseed,23057.513671875,23057.513671875,32.98,,,,,2.94,24.958,40.7505,-123.3081667
XQ.ME27.01.BH,2009-04-07 22:16:54.490,3730.0,2009-04-07 22:17:31.715,0.956,P,nc40234475.mseed,21048.84375,21048.84375,35.49,,,,,2.94,24.958,40.7505,-123.3081667
PB.B935..EH,2009-04-07 22:16:54.490,3783.0,2009-04-07 22:17:32.245,0.98,P,nc40234475.mseed,5360.8681640625,5360.8681640625,37.6,1,I,,,2.94,24.958,40.7505,-123.3081667
NC.KHMB..HN,2009-04-07 22:16:54.490,3779.0,2009-04-07 22:17:32.205,0.982,P,nc40234475.mseed,6.002018928527832,6.002018928527832,38.38,1,I,,,2.94,24.958,40.7505,-123.3081667
XQ.ME29.01.BH,2009-04-07 22:16:54.490,3847.0,2009-04-07 22:17:32.885,0.956,P,nc40234475.mseed,40066.578125,40066.578125,45.7,,,,,2.94,24.958,40.7505,-123.3081667
XQ.ME35.01.BH,2009-04-07 22:16:54.490,3999.0,2009-04-07 22:17:34.405,0.98,P,nc40234475.mseed,9147.1552734375,9147.1552734375,47.62,1,E,,,2.94,24.958,40.7505,-123.3081667
XQ.ME33.01.BH,2009-04-07 22:16:54.490,3986.0,2009-04-07 22:17:34.275,0.951,P,nc40234475.mseed,9941.7578125,9941.7578125,51.27,,,,,2.94,24.958,40.7505,-123.3081667
XQ.ME08.01.BH,2009-04-07 22:16:54.490,4050.0,2009-04-07 22:17:34.915,0.956,P,nc40234475.mseed,8155.55078125,8155.55078125,58.69,,,,,2.94,24.958,40.7505,-123.3081667
XQ.ME39.01.BH,2009-04-07 22:16:54.490,4149.0,2009-04-07 22:17:35.905,0.963,P,nc40234475.mseed,3718.989013671875,3718.989013671875,66.99,1,E,,,2.94,24.958,40.7505,-123.3081667
BK.WDC..HH,2009-04-07 22:16:54.490,4141.0,2009-04-07 22:17:35.825,0.968,P,nc40234475.mseed,6928.849609375,6928.849609375,67.57,1,E,,,2.94,24.958,40.7505,-123.3081667
PB.B045..EH,2009-04-07 22:16:54.490,4150.0,2009-04-07 22:17:35.915,0.979,P,nc40234475.mseed,1979.9449462890625,1979.9449462890625,67.93,1,I,,,2.94,24.958,40.7505,-123.3081667
PB.B049..EH,2009-04-07 22:16:54.490,4184.0,2009-04-07 22:17:36.255,0.982,P,nc40234475.mseed,2945.57177734375,2945.57177734375,71.59,1,I,,,2.94,24.958,40.7505,-123.3081667
NC.KRP..HN,2009-04-07 22:16:54.490,4291.0,2009-04-07 22:17:37.325,0.977,P,nc40234475.mseed,1.983731031417847,1.983731031417847,75.3,-1,I,,,2.94,24.958,40.7505,-123.3081667
NC.KMPB..HN,2009-04-07 22:16:54.490,4275.0,2009-04-07 22:17:37.165,0.983,P,nc40234475.mseed,1.328464388847351,1.328464388847351,78.12,1,I,,,2.94,24.958,40.7505,-123.3081667
PB.B047..EH,2009-04-07 22:16:54.490,4426.0,2009-04-07 22:17:38.675,0.977,P,nc40234475.mseed,767.5139770507812,767.5139770507812,91.79,1,E,,,2.94,24.958,40.7505,-123.3081667
PB.B933..EH,2009-04-07 22:16:54.490,4477.0,2009-04-07 22:17:39.185,0.977,P,nc40234475.mseed,589.9746704101562,589.9746704101562,95.0,1,I,,,2.94,24.958,40.7505,-123.3081667
PB.B046..EH,2009-04-07 22:16:54.490,4469.0,2009-04-07 22:17:39.105,0.964,P,nc40234475.mseed,672.0089111328125,672.0089111328125,95.41,1,E,,,2.94,24.958,40.7505,-123.3081667
PB.B046..EH,2009-06-10 14:00:54.080,3303.0,2009-06-10 14:01:27.035,0.985,P,nc40237942.mseed,8962.884765625,8962.884765625,13.12,-1,I,,,2.16,8.377,40.3203333,-124.4386667
NC.KCT..HN,2009-06-10 14:00:54.080,3460.0,2009-06-10 14:01:28.605,0.977,P,nc40237942.mseed,1.7204405069351196,1.7204405069351196,19.26,-1,I,,,2.16,8.377,40.3203333,-124.4386667
PB.B047..EH,2009-06-10 14:00:54.080,3508.0,2009-06-10 14:01:29.085,0.976,P,nc40237942.mseed,12523.9267578125,12523.9267578125,24.16,1,I,,,2.16,8.377,40.3203333,-124.4386667
XQ.ME36.01.BH,2009-06-10 14:00:54.080,3532.0,2009-06-10 14:01:29.325,0.982,P,nc40237942.mseed,25196.96875,25196.96875,24.71,1,I,,,2.16,8.377,40.3203333,-124.4386667
PB.B045..EH,2009-06-10 14:00:54.080,3793.0,2009-06-10 14:01:31.935,0.956,P,nc40237942.mseed,1067.5361328125,1067.5361328125,39.69,-1,I,,,2.16,8.377,40.3203333,-124.4386667
PB.B933..EH,2009-06-10 14:00:54.080,3902.0,2009-06-10 14:01:33.025,0.975,P,nc40237942.mseed,1252.2825927734375,1252.2825927734375,49.35,1,E,,,2.16,8.377,40.3203333,-124.4386667
XQ.ME31.01.BH,2009-06-10 14:00:54.080,4191.0,2009-06-10 14:01:35.915,0.957,P,nc40237942.mseed,1322.5040283203125,1322.5040283203125,61.04,,,,,2.16,8.377,40.3203333,-124.4386667
XQ.ME35.01.BH,2009-06-10 14:00:54.080,4131.0,2009-06-10 14:01:35.315,0.974,P,nc40237942.mseed,1877.023193359375,1877.023193359375,61.35,,,,,2.16,8.377,40.3203333,-124.4386667
XQ.ME39.01.BH,2009-06-10 14:00:54.080,4379.0,2009-06-10 14:01:37.795,0.969,P,nc40237942.mseed,1070.02587890625,1070.02587890625,73.32,,,,,2.16,8.377,40.3203333,-124.4386667
PB.B935..EH,2009-06-10 14:00:54.080,4427.0,2009-06-10 14:01:38.275,0.971,P,nc40237942.mseed,214.8238067626953,214.8238067626953,75.55,1,I,,,2.16,8.377,40.3203333,-124.4386667
XQ.ME38.01.BH,2009-06-10 14:00:54.080,4523.0,2009-06-10 14:01:39.235,0.954,P,nc40237942.mseed,470.9090576171875,470.9090576171875,83.28,,,,,2.16,8.377,40.3203333,-124.4386667
NC.KRMB..HN,2009-06-16 09:13:41.050,3760.0,2009-06-16 09:14:18.575,0.97,P,nc40238256.mseed,1.3033264875411987,1.3033264875411987,39.05,,,,,2.39,14.979,41.3835,-123.479
NC.KHMB..HN,2009-06-16 09:13:41.050,4098.0,2009-06-16 09:14:21.955,0.972,P,nc40238256.mseed,0.5295832753181458,0.5295832753181458,60.38,1,I,,,2.39,14.979,41.3835,-123.479
XQ.ME30.01.BH,2009-06-16 09:13:41.050,4086.0,2009-06-16 09:14:21.835,0.964,P,nc40238256.mseed,3101.925537109375,3101.925537109375,60.46,1,I,,,2.39,14.979,41.3835,-123.479
PB.B039..EH,2009-06-16 09:13:41.050,4379.0,2009-06-16 09:14:24.765,0.961,P,nc40238256.mseed,267.5395202636719,267.5395202636719,83.63,1,E,,,2.39,14.979,41.3835,-123.479
PB.B045..EH,2009-06-16 09:13:41.050,4731.0,2009-06-16 09:14:28.285,0.985,P,nc40238256.mseed,131.6220703125,131.6220703125,113.9,1,I,,,2.39,14.979,41.3835,-123.479
PB.B049..EH,2009-06-16 09:13:41.050,4943.0,2009-06-16 09:14:30.405,0.987,P,nc40238256.mseed,61.0196647644043,61.0196647644043,130.47,1,I,,,2.39,14.979,41.3835,-123.479
PB.B046..EH,2009-06-16 09:13:41.050,4978.0,2009-06-16 09:14:30.755,0.978,P,nc40238256.mseed,90.2054672241211,90.2054672241211,136.04,1,E,,,2.39,14.979,41.3835,-123.479
PB.B047..EH,2009-06-16 09:13:41.050,5021.0,2009-06-16 09:14:31.185,0.97,P,nc40238256.mseed,85.41439819335938,85.41439819335938,138.72,1,E,,,2.39,14.979,41.3835,-123.479
BK.JCC..HH,2009-06-17 13:11:03.960,3431.0,2009-06-17 13:11:38.195,0.98,P,nc40238305.mseed,7113.45556640625,7113.45556640625,15.83,1,I,,,2.22,15.417,40.7466667,-124.1923333
NC.KHMB..HN,2009-06-17 13:11:03.960,3838.0,2009-06-17 13:11:42.265,0.98,P,nc40238305.mseed,3.3376593589782715,3.3376593589782715,41.32,1,I,,,2.22,15.417,40.7466667,-124.1923333
NC.KHBB..HH,2009-06-21 11:46:44.140,3463.0,2009-06-21 11:47:18.695,0.988,P,nc40238541.mseed,409579.96875,409579.96875,16.93,1,I,,,2.51,-1.007,40.7411667,-123.0501667
BK.WDC..HH,2009-06-21 11:46:44.140,3983.0,2009-06-21 11:47:23.895,0.963,P,nc40238541.mseed,12653.578125,12653.578125,46.62,1,I,,,2.51,-1.007,40.7411667,-123.0501667
NC.KHMB..HN,2008-01-01 05:57:48.290,3564.0,2008-01-01 05:58:23.855,0.977,P,nc51193680.mseed,2.0558605194091797,2.0558605194091797,17.84,-1,I,,,2.04,20.319,40.7805,-123.5613333
NC.KHBB..HN,2008-01-01 05:57:48.290,3689.0,2008-01-01 05:58:25.105,0.987,P,nc51193680.mseed,3.273737907409668,3.273737907409668,31.82,1,I,,,2.04,20.319,40.7805,-123.5613333
XQ.ME35.01.BH,2008-01-01 05:57:48.290,3895.0,2008-01-01 05:58:27.165,0.958,P,nc51193680.mseed,2242.916015625,2242.916015625,36.62,1,I,,,2.04,20.319,40.7805,-123.5613333
BK.JCC..HH,2008-01-01 05:57:48.290,3798.0,2008-01-01 05:58:26.195,0.968,P,nc51193680.mseed,2431.41162109375,2431.41162109375,39.73,1,I,,,2.04,20.319,40.7805,-123.5613333
XQ.ME07.01.BH,2008-01-01 05:57:48.290,3974.0,2008-01-01 05:58:27.955,0.955,P,nc51193680.mseed,2989.205322265625,2989.205322265625,52.18,1,I,,,2.04,20.319,40.7805,-123.5613333
XQ.ME13.01.BH,2008-01-01 05:57:48.290,3969.0,2008-01-01 05:58:27.905,0.953,P,nc51193680.mseed,1756.4302978515625,1756.4302978515625,54.34,,,,,2.04,20.319,40.7805,-123.5613333
XQ.ME08.01.BH,2008-01-01 05:57:48.290,4158.0,2008-01-01 05:58:29.795,0.976,P,nc51193680.mseed,1188.8682861328125,1188.8682861328125,65.71,,,,,2.04,20.319,40.7805,-123.5613333
XQ.ME39.01.BH,2008-01-01 05:57:48.290,4171.0,2008-01-01 05:58:29.925,0.952,P,nc51193680.mseed,1238.7891845703125,1238.7891845703125,65.83,,,,,2.04,20.319,40.7805,-123.5613333
XQ.ME30.01.BH,2008-01-14 19:11:01.050,3443.0,2008-01-14 19:11:35.405,0.986,P,nc51194589.mseed,78891.2109375,78891.2109375,7.02,-1,I,,,2.5,22.509,40.7798333,-123.564
NC.KHMB..HN,2008-01-14 19:11:01.050,3522.0,2008-01-14 19:11:36.195,0.963,P,nc51194589.mseed,14.564324378967283,14.564324378967283,17.7,-1,E,,,2.5,22.509,40.7798333,-123.564
NC.KHBB..HN,2008-01-14 19:11:01.050,3692.0,2008-01-14 19:11:37.895,0.98,P,nc51194589.mseed,18.352725982666016,18.352725982666016,32.0,-1,I,,,2.5,22.509,40.7798333,-123.564
XQ.ME35.01.BH,2008-01-14 19:11:01.050,3888.0,2008-01-14 19:11:39.855,0.98,P,nc51194589.mseed,4696.884765625,4696.884765625,36.45,1,I,,,2.5,22.509,40.7798333,-123.564
XQ.ME33.01.BH,2008-01-14 19:11:01.050,3809.0,2008-01-14 19:11:39.065,0.962,P,nc51194589.mseed,6426.99462890625,6426.99462890625,38.63,1,I,,,2.5,22.509,40.7798333,-123.564
BK.JCC..HH,2008-01-14 19:11:01.050,3762.0,2008-01-14 19:11:38.595,0.975,P,nc51194589.mseed,9949.1708984375,9949.1708984375,39.51,1,I,,,2.5,22.509,40.7798333,-123.564
XQ.ME27.01.BH,2008-01-14 19:11:01.050,3934.0,2008-01-14 19:11:40.315,0.977,P,nc51194589.mseed,11697.357421875,11697.357421875,50.15,1,I,,,2.5,22.509,40.7798333,-123.564
XQ.ME07.01.BH,2008-01-14 19:11:01.050,3935.0,2008-01-14 19:11:40.325,0.973,P,nc51194589.mseed,4291.38671875,4291.38671875,52.12,1,I,,,2.5,22.509,40.7798333,-123.564
XQ.ME13.01.BH,2008-01-14 19:11:01.050,3975.0,2008-01-14 19:11:40.725,0.97,P,nc51194589.mseed,10281.03125,10281.03125,54.57,1,I,,,2.5,22.509,40.7798333,-123.564
XQ.ME34.01.BH,2008-01-14 19:11:01.050,4031.0,2008-01-14 19:11:41.285,0.959,P,nc51194589.mseed,6059.20703125,6059.20703125,57.92,1,E,,,2.5,22.509,40.7798333,-123.564
XQ.ME04.01.BH,2008-01-14 19:11:01.050,4074.0,2008-01-14 19:11:41.715,0.952,P,nc51194589.mseed,7162.5029296875,7162.5029296875,64.01,1,E,,,2.5,22.509,40.7798333,-123.564
XQ.ME09.01.BH,2008-01-14 19:11:01.050,4287.0,2008-01-14 19:11:43.845,0.979,P,nc51194589.mseed,3472.291748046875,3472.291748046875,78.34,1,I,,,2.5,22.509,40.7798333,-123.564
BK.WDC..HH,2008-01-14 19:11:01.050,4488.0,2008-01-14 19:11:45.855,0.952,P,nc51194589.mseed,3471.729248046875,3471.729248046875,89.28,1,E,,,2.5,22.509,40.7798333,-123.564
XQ.ME34.01.BH,2008-01-15 17:02:42.430,12760.0,2008-01-15 17:04:49.955,0.976,P,nc51194666.mseed,9319.7333984375,9319.7333984375,9.68,,,,,2.28,10.268,40.5533333,-124.1945
XQ.ME34.01.BH,2008-01-15 17:02:42.430,3300.0,2008-01-15 17:03:15.355,0.972,P,nc51194666.mseed,103786.203125,103786.203125,9.68,-1,I,,,2.28,10.268,40.5533333,-124.1945
NC.KCT..HN,2008-01-15 17:02:42.430,3391.0,2008-01-15 17:03:16.265,0.966,P,nc51194666.mseed,4.054595470428467,4.054595470428467,14.88,1,I,,,2.28,10.268,40.5533333,-124.1945
NC.KMPB..HN,2008-01-15 17:02:42.430,3385.0,2008-01-15 17:03:16.205,0.983,P,nc51194666.mseed,18.718965530395508,18.718965530395508,16.36,-1,I,,,2.28,10.268,40.5533333,-124.1945
XQ.ME31.01.BH,2008-01-15 17:02:42.430,3607.0,2008-01-15 17:03:18.425,0.976,P,nc51194666.mseed,4312.572265625,4312.572265625,28.09,-1,I,,,2.28,10.268,40.5533333,-124.1945
BK.JCC..HH,2008-01-15 17:02:42.430,3674.0,2008-01-15 17:03:19.095,0.972,P,nc51194666.mseed,8466.98046875,8466.98046875,32.48,-1,I,,,2.28,10.268,40.5533333,-124.1945
XQ.ME36.01.BH,2008-01-15 17:02:42.430,3674.0,2008-01-15 17:03:19.095,0.979,P,nc51194666.mseed,19566.4375,19566.4375,33.98,,,,,2.28,10.268,40.5533333,-124.1945
XQ.ME36.01.BH,2008-01-15 17:02:42.430,13141.0,2008-01-15 17:04:53.765,0.977,P,nc51194666.mseed,3123.606201171875,3123.606201171875,33.98,,,,,2.28,10.268,40.5533333,-124.1945
XQ.ME33.01.BH,2008-01-15 17:02:42.430,3706.0,2008-01-15 17:03:19.415,0.968,P,nc51194666.mseed,5518.8349609375,5518.8349609375,34.17,,,,,2.28,10.268,40.5533333,-124.1945
XQ.ME35.01.BH,2008-01-15 17:02:42.430,3806.0,2008-01-15 17:03:20.415,0.977,P,nc51194666.mseed,5483.1455078125,5483.1455078125,38.64,,,,,2.28,10.268,40.5533333,-124.1945
XQ.ME35.01.BH,2008-01-15 17:02:42.430,13280.0,2008-01-15 17:04:55.155,0.97,P,nc51194666.mseed,1456.146484375,1456.146484375,38.64,,,,,2.28,10.268,40.5533333,-124.1945
NC.KHMB..HN,2008-01-15 17:02:42.430,4063.0,2008-01-15 17:03:22.985,0.978,P,nc51194666.mseed,4.599430561065674,4.599430561065674,52.89,1,I,,,2.28,10.268,40.5533333,-124.1945
XQ.ME37.01.BH,2008-01-15 17:02:42.430,4037.0,2008-01-15 17:03:22.725,0.955,P,nc51194666.mseed,3810.69091796875,3810.69091796875,54.7,,,,,2.28,10.268,40.5533333,-124.1945
XQ.ME30.01.BH,2008-01-15 17:02:42.430,4157.0,2008-01-15 17:03:23.925,0.976,P,nc51194666.mseed,4673.69921875,4673.69921875,62.17,1,E,,,2.28,10.268,40.5533333,-124.1945
XQ.ME30.01.BH,2008-01-15 17:02:42.430,13622.0,2008-01-15 17:04:58.575,0.974,P,nc51194666.mseed,857.5007934570312,857.5007934570312,62.17,,,,,2.28,10.268,40.5533333,-124.1945
NC.KHBB..HN,2008-01-15 17:02:42.430,4464.0,2008-01-15 17:03:26.995,0.97,P,nc51194666.mseed,0.40812548995018,0.40812548995018,83.35,1,E,,,2.28,10.268,40.5533333,-124.1945
XQ.ME42.01.BH,2008-01-18 04:23:00.440,3561.0,2008-01-18 04:23:35.975,0.958,P,nc51194828.mseed,3764.545654296875,3764.545654296875,25.99,,,,,2.02,8.434,39.9443333,-123.3305
XQ.ME08.01.BH,2008-01-18 04:23:00.440,3687.0,2008-01-18 04:23:37.235,0.958,P,nc51194828.mseed,3380.64794921875,3380.64794921875,30.91,,,,,2.02,8.434,39.9443333,-123.3305
XQ.ME49.01.BH,2008-01-18 04:23:00.440,3702.0,2008-01-18 04:23:37.385,0.963,P,nc51194828.mseed,2064.09765625,2064.09765625,34.45,,,,,2.02,8.434,39.9443333,-123.3305
XQ.ME39.01.BH,2008-01-18 04:23:00.440,3722.0,2008-01-18 04:23:37.585,0.972,P,nc51194828.mseed,4083.037841796875,4083.037841796875,35.21,,,,,2.02,8.434,39.9443333,-123.3305
NC.KCPB..HN,2008-01-18 04:23:00.440,4562.0,2008-01-18 04:23:45.985,0.956,P,nc51194828.mseed,2.5859925746917725,2.5859925746917725,35.86,1,E,,,2.02,8.434,39.9443333,-123.3305
XQ.ME43.01.BH,2008-01-18 04:23:00.440,3886.0,2008-01-18 04:23:39.225,0.96,P,nc51194828.mseed,1460.898193359375,1460.898193359375,43.61,,,,,2.02,8.434,39.9443333,-123.3305
XQ.ME37.01.BH,2008-01-18 04:23:00.440,3941.0,2008-01-18 04:23:39.775,0.953,P,nc51194828.mseed,1774.67626953125,1774.67626953125,46.81,,,,,2.02,8.434,39.9443333,-123.3305
XQ.ME44.01.BH,2008-01-18 04:23:00.440,4007.0,2008-01-18 04:23:40.435,0.96,P,nc51194828.mseed,1558.944580078125,1558.944580078125,51.62,,,,,2.02,8.434,39.9443333,-123.3305
