station_id,begin_time,phase_index,phase_time,phase_score,phase_type,file_name,phase_amplitude,phase_amp,sta_dist_km,diting_polarity,diting_sharpness,pyrocko_phase_time,pyrocko_polarity,mag,depth,lat,long
PB.B933..EH,2009-05-05 01:11:27.490,4154.0,2009-05-05 01:12:08.955,0.98,P,nc51221033.mseed,115.26246643066406,115.26246643066406,56.52,1,E,,,2.08,6.43,40.548,-124.1581667
XQ.ME30.01.BH,2009-05-15 05:30:32.920,3527.0,2009-05-15 05:31:08.115,0.969,P,nc51221590.mseed,25333.986328125,25333.986328125,15.76,,,,,2.36,25.905,40.9691667,-123.4793333
NC.KHMB..HN,2009-05-15 05:30:32.920,3618.0,2009-05-15 05:31:09.025,0.985,P,nc51221590.mseed,3.7221548557281494,3.7221548557281494,23.77,1,I,,,2.36,25.905,40.9691667,-123.4793333
XQ.ME29.01.BH,2009-05-15 05:30:32.920,3690.0,2009-05-15 05:31:09.745,0.974,P,nc51221590.mseed,14380.5732421875,14380.5732421875,34.33,-1,I,,,2.36,25.905,40.9691667,-123.4793333
XQ.ME04.01.BH,2009-05-15 05:30:32.920,3808.0,2009-05-15 05:31:10.925,0.973,P,nc51221590.mseed,4474.4736328125,4474.4736328125,42.95,1,I,,,2.36,25.905,40.9691667,-123.4793333
BK.JCC..HH,2009-05-15 05:30:32.920,3913.0,2009-05-15 05:31:11.975,0.979,P,nc51221590.mseed,5403.9365234375,5403.9365234375,49.33,1,I,,,2.36,25.905,40.9691667,-123.4793333
XQ.ME13.01.BH,2009-05-15 05:30:32.920,3938.0,2009-05-15 05:31:12.225,0.977,P,nc51221590.mseed,3463.51416015625,3463.51416015625,52.52,,,,,2.36,25.905,40.9691667,-123.4793333
XQ.ME08.01.BH,2009-05-15 05:30:32.920,4382.0,2009-05-15 05:31:16.665,0.956,P,nc51221590.mseed,398.6151123046875,398.6151123046875,84.27,,,,,2.36,25.905,40.9691667,-123.4793333
PB.B049..EH,2009-05-15 05:30:32.920,4374.0,2009-05-15 05:31:16.585,0.961,P,nc51221590.mseed,260.1117858886719,260.1117858886719,86.2,1,I,,,2.36,25.905,40.9691667,-123.4793333
XQ.ME01.01.BH,2009-05-15 05:30:32.920,4437.0,2009-05-15 05:31:17.215,0.951,P,nc51221590.mseed,784.1320190429688,784.1320190429688,89.74,,,,,2.36,25.905,40.9691667,-123.4793333
PB.B047..EH,2009-05-15 05:30:32.920,4530.0,2009-05-15 05:31:18.145,0.982,P,nc51221590.mseed,357.1187438964844,357.1187438964844,98.96,1,I,,,2.36,25.905,40.9691667,-123.4793333
PB.B046..EH,2009-05-15 05:30:32.920,4519.0,2009-05-15 05:31:18.035,0.975,P,nc51221590.mseed,187.28253173828125,187.28253173828125,99.0,1,E,,,2.36,25.905,40.9691667,-123.4793333
PB.B933..EH,2009-05-15 05:30:32.920,4668.0,2009-05-15 05:31:19.525,0.979,P,nc51221590.mseed,211.8624725341797,211.8624725341797,109.15,1,I,,,2.36,25.905,40.9691667,-123.4793333
PB.B046..EH,2009-05-16 18:04:10.470,3431.0,2009-05-16 18:04:44.705,0.969,P,nc51221693.mseed,2784.61279296875,2784.61279296875,20.26,1,I,,,2.52,10.407,40.312,-124.5223333
NC.KCT..HN,2009-05-16 18:04:10.470,3547.0,2009-05-16 18:04:45.865,0.987,P,nc51221693.mseed,12.700732231140137,12.700732231140137,24.0,1,I,,,2.52,10.407,40.312,-124.5223333
PB.B047..EH,2009-05-16 18:04:10.470,3613.0,2009-05-16 18:04:46.525,0.976,P,nc51221693.mseed,10564.1708984375,10564.1708984375,30.76,1,I,,,2.52,10.407,40.312,-124.5223333
XQ.ME36.01.BH,2009-05-16 18:04:10.470,3634.0,2009-05-16 18:04:46.735,0.971,P,nc51221693.mseed,33746.5390625,33746.5390625,31.3,,,,,2.52,10.407,40.312,-124.5223333
NC.KMPB..HN,2009-05-16 18:04:10.470,3714.0,2009-05-16 18:04:47.535,0.982,P,nc51221693.mseed,6.556746006011963,6.556746006011963,36.05,1,I,,,2.52,10.407,40.312,-124.5223333
XQ.ME34.01.BH,2009-05-16 18:04:10.470,3783.0,2009-05-16 18:04:48.225,0.967,P,nc51221693.mseed,19480.814453125,19480.814453125,38.56,1,I,,,2.52,10.407,40.312,-124.5223333
PB.B045..EH,2009-05-16 18:04:10.470,3891.0,2009-05-16 18:04:49.305,0.982,P,nc51221693.mseed,2768.016845703125,2768.016845703125,46.73,1,I,,,2.52,10.407,40.312,-124.5223333
PB.B933..EH,2009-05-16 18:04:10.470,3986.0,2009-05-16 18:04:50.255,0.98,P,nc51221693.mseed,3804.16064453125,3804.16064453125,54.8,-1,E,,,2.52,10.407,40.312,-124.5223333
XQ.ME32.01.BH,2009-05-16 18:04:10.470,4206.0,2009-05-16 18:04:52.455,0.968,P,nc51221693.mseed,4663.1533203125,4663.1533203125,64.22,,,,,2.52,10.407,40.312,-124.5223333
XQ.ME31.01.BH,2009-05-16 18:04:10.470,4206.0,2009-05-16 18:04:52.455,0.963,P,nc51221693.mseed,3038.7314453125,3038.7314453125,66.71,,,,,2.52,10.407,40.312,-124.5223333
XQ.ME35.01.BH,2009-05-16 18:04:10.470,4223.0,2009-05-16 18:04:52.625,0.98,P,nc51221693.mseed,3485.939208984375,3485.939208984375,68.43,,,,,2.52,10.407,40.312,-124.5223333
BK.JCC..HH,2009-05-16 18:04:10.470,4199.0,2009-05-16 18:04:52.385,0.971,P,nc51221693.mseed,877.2935180664062,877.2935180664062,69.94,1,I,,,2.52,10.407,40.312,-124.5223333
NC.KHMB..HN,2009-05-16 18:04:10.470,4555.0,2009-05-16 18:04:55.945,0.954,P,nc51221693.mseed,0.6275588870048523,0.6275588870048523,91.51,1,E,,,2.52,10.407,40.312,-124.5223333
XQ.ME30.01.BH,2009-05-16 18:04:10.470,4634.0,2009-05-16 18:04:56.735,0.977,P,nc51221693.mseed,827.0735473632812,827.0735473632812,100.23,,,,,2.52,10.407,40.312,-124.5223333
PB.B046..EH,2009-05-24 00:36:26.590,3359.0,2009-05-24 00:37:00.105,0.985,P,nc51222068.mseed,17220.724609375,17220.724609375,16.03,1,I,,,2.3,6.817,40.3131667,-124.4725
NC.KCT..HN,2009-05-24 00:36:26.590,3494.0,2009-05-24 00:37:01.455,0.963,P,nc51222068.mseed,7.495275497436523,7.495275497436523,21.37,1,I,,,2.3,6.817,40.3131667,-124.4725
PB.B047..EH,2009-05-24 00:36:26.590,3544.0,2009-05-24 00:37:01.955,0.986,P,nc51222068.mseed,5421.74609375,5421.74609375,26.68,-1,I,,,2.3,6.817,40.3131667,-124.4725
XQ.ME36.01.BH,2009-05-24 00:36:26.590,3567.0,2009-05-24 00:37:02.185,0.986,P,nc51222068.mseed,7986.5263671875,7986.5263671875,27.23,,,,,2.3,6.817,40.3131667,-124.4725
PB.B045..EH,2009-05-24 00:36:26.590,3834.0,2009-05-24 00:37:04.855,0.977,P,nc51222068.mseed,979.5076293945312,979.5076293945312,42.66,1,I,,,2.3,6.817,40.3131667,-124.4725
PB.B933..EH,2009-05-24 00:36:26.590,3927.0,2009-05-24 00:37:05.785,0.984,P,nc51222068.mseed,1841.6142578125,1841.6142578125,51.27,-1,E,,,2.3,6.817,40.3131667,-124.4725
XQ.ME31.01.BH,2009-05-24 00:36:26.590,4207.0,2009-05-24 00:37:08.585,0.969,P,nc51222068.mseed,2723.415771484375,2723.415771484375,63.59,,,,,2.3,6.817,40.3131667,-124.4725
XQ.ME04.01.BH,2009-05-24 00:36:26.590,5202.0,2009-05-24 00:37:18.535,0.963,P,nc51222068.mseed,564.672119140625,564.672119140625,141.14,,,,,2.3,6.817,40.3131667,-124.4725
PB.B046..EH,2009-05-24 01:10:50.020,9379.0,2009-05-24 01:12:23.735,0.986,P,nc51222070.mseed,1343.9136962890625,1343.9136962890625,18.27,-1,I,,,2.52,6.567,40.3071667,-124.4983333
PB.B046..EH,2009-05-24 01:10:50.020,3391.0,2009-05-24 01:11:23.855,0.985,P,nc51222070.mseed,18542.9140625,18542.9140625,18.27,-1,I,,,2.52,6.567,40.3071667,-124.4983333
PB.B047..EH,2009-05-24 01:10:50.020,3575.0,2009-05-24 01:11:25.695,0.985,P,nc51222070.mseed,6560.06494140625,6560.06494140625,28.65,-1,I,,,2.52,6.567,40.3071667,-124.4983333
PB.B047..EH,2009-05-24 01:10:50.020,9563.0,2009-05-24 01:12:25.575,0.979,P,nc51222070.mseed,300.06512451171875,300.06512451171875,28.65,-1,I,,,2.52,6.567,40.3071667,-124.4983333
XQ.ME36.01.BH,2009-05-24 01:10:50.020,9586.0,2009-05-24 01:12:25.805,0.968,P,nc51222070.mseed,1598.9942626953125,1598.9942626953125,29.19,,,,,2.52,6.567,40.3071667,-124.4983333
XQ.ME36.01.BH,2009-05-24 01:10:50.020,3599.0,2009-05-24 01:11:25.935,0.96,P,nc51222070.mseed,13905.0048828125,13905.0048828125,29.19,,,,,2.52,6.567,40.3071667,-124.4983333
PB.B045..EH,2009-05-24 01:10:50.020,3866.0,2009-05-24 01:11:28.605,0.974,P,nc51222070.mseed,1955.2706298828125,1955.2706298828125,44.96,1,I,,,2.52,6.567,40.3071667,-124.4983333
PB.B933..EH,2009-05-24 01:10:50.020,3959.0,2009-05-24 01:11:29.535,0.984,P,nc51222070.mseed,2616.866943359375,2616.866943359375,52.78,-1,I,,,2.52,6.567,40.3071667,-124.4983333
XQ.ME31.01.BH,2009-05-24 01:10:50.020,4239.0,2009-05-24 01:11:32.335,0.965,P,nc51222070.mseed,3752.039794921875,3752.039794921875,65.61,,,,,2.52,6.567,40.3071667,-124.4983333
NC.KHMB..HN,2009-05-24 01:10:50.020,4590.0,2009-05-24 01:11:35.845,0.952,P,nc51222070.mseed,0.5987365245819092,0.5987365245819092,90.41,1,I,,,2.52,6.567,40.3071667,-124.4983333
PB.B046..EH,2009-05-24 01:14:43.810,3375.0,2009-05-24 01:15:17.485,0.986,P,nc51222072.mseed,34530.2421875,34530.2421875,17.03,-1,I,,,2.55,7.607,40.307,-124.4836667
NC.KCT..HN,2009-05-24 01:14:43.810,3508.0,2009-05-24 01:15:18.815,0.974,P,nc51222072.mseed,13.595335006713867,13.595335006713867,22.46,1,I,,,2.55,7.607,40.307,-124.4836667
PB.B047..EH,2009-05-24 01:14:43.810,3559.0,2009-05-24 01:15:19.325,0.983,P,nc51222072.mseed,6216.8486328125,6216.8486328125,27.43,-1,I,,,2.55,7.607,40.307,-124.4836667
XQ.ME36.01.BH,2009-05-24 01:14:43.810,3582.0,2009-05-24 01:15:19.555,0.972,P,nc51222072.mseed,21714.517578125,21714.517578125,27.98,-1,I,,,2.55,7.607,40.307,-124.4836667
PB.B045..EH,2009-05-24 01:14:43.810,3849.0,2009-05-24 01:15:22.225,0.972,P,nc51222072.mseed,2758.703857421875,2758.703857421875,43.78,1,I,,,2.55,7.607,40.307,-124.4836667
PB.B933..EH,2009-05-24 01:14:43.810,3941.0,2009-05-24 01:15:23.145,0.984,P,nc51222072.mseed,3227.53125,3227.53125,51.7,-1,I,,,2.55,7.607,40.307,-124.4836667
PB.B049..EH,2009-05-24 01:14:43.810,4071.0,2009-05-24 01:15:24.445,0.968,P,nc51222072.mseed,981.3678588867188,981.3678588867188,57.0,-1,E,,,2.55,7.607,40.307,-124.4836667
XQ.ME32.01.BH,2009-05-24 01:14:43.810,4202.0,2009-05-24 01:15:25.755,0.954,P,nc51222072.mseed,4071.001708984375,4071.001708984375,61.65,1,I,,,2.55,7.607,40.307,-124.4836667
XQ.ME31.01.BH,2009-05-24 01:14:43.810,4221.0,2009-05-24 01:15:25.945,0.972,P,nc51222072.mseed,3872.294189453125,3872.294189453125,64.75,1,I,,,2.55,7.607,40.307,-124.4836667
XQ.ME44.01.BH,2009-05-24 01:14:43.810,5215.0,2009-05-24 01:15:35.885,0.963,P,nc51222072.mseed,1087.91455078125,1087.91455078125,143.07,-1,I,,,2.55,7.607,40.307,-124.4836667
XQ.ME38.01.BH,2009-05-24 03:22:24.410,3757.0,2009-05-24 03:23:01.905,0.968,P,nc51222078.mseed,1446.3746337890625,1446.3746337890625,30.79,1,I,,,2.05,34.643,40.1741667,-123.1546667
XQ.ME27.01.BH,2009-05-24 03:22:24.410,3734.0,2009-05-24 03:23:01.675,0.963,P,nc51222078.mseed,1482.0888671875,1482.0888671875,30.96,1,I,,,2.05,34.643,40.1741667,-123.1546667
XQ.ME39.01.BH,2009-05-24 03:22:24.410,3810.0,2009-05-24 03:23:02.435,0.98,P,nc51222078.mseed,1834.9442138671875,1834.9442138671875,37.47,1,I,,,2.05,34.643,40.1741667,-123.1546667
XQ.ME37.01.BH,2009-05-24 03:22:24.410,3893.0,2009-05-24 03:23:03.265,0.953,P,nc51222078.mseed,874.013916015625,874.013916015625,44.24,1,I,,,2.05,34.643,40.1741667,-123.1546667
PB.B935..EH,2009-05-24 03:22:24.410,3962.0,2009-05-24 03:23:03.955,0.97,P,nc51222078.mseed,139.4314727783203,139.4314727783203,49.08,1,I,,,2.05,34.643,40.1741667,-123.1546667
NC.GRO..EH,2009-05-24 03:22:24.410,4006.0,2009-05-24 03:23:04.395,0.961,P,nc51222078.mseed,180.05307006835938,180.05307006835938,50.19,1,I,,,2.05,34.643,40.1741667,-123.1546667
XQ.ME12.01.BH,2009-05-24 03:22:24.410,4137.0,2009-05-24 03:23:05.705,0.958,P,nc51222078.mseed,1132.9500732421875,1132.9500732421875,56.5,1,E,,,2.05,34.643,40.1741667,-123.1546667
PB.B049..EH,2009-05-24 03:22:24.410,4010.0,2009-05-24 03:23:04.435,0.983,P,nc51222078.mseed,219.36965942382812,219.36965942382812,57.05,1,I,,,2.05,34.643,40.1741667,-123.1546667
XQ.ME35.01.BH,2009-05-24 03:22:24.410,4010.0,2009-05-24 03:23:04.435,0.979,P,nc51222078.mseed,1099.533203125,1099.533203125,60.98,-1,I,,,2.05,34.643,40.1741667,-123.1546667
XQ.ME13.01.BH,2009-05-24 03:22:24.410,4182.0,2009-05-24 03:23:06.155,0.969,P,nc51222078.mseed,786.5922241210938,786.5922241210938,68.5,-1,E,,,2.05,34.643,40.1741667,-123.1546667
PB.B933..EH,2009-05-24 03:22:24.410,4172.0,2009-05-24 03:23:06.055,0.968,P,nc51222078.mseed,424.48931884765625,424.48931884765625,70.57,1,I,,,2.05,34.643,40.1741667,-123.1546667
PB.B935..EH,2012-05-03 13:39:51.250,3266.0,2012-05-03 13:40:23.835,0.977,P,nc71062519.mseed,8396.1923828125,8396.1923828125,10.05,1,I,,,2.05,5.552,40.4476667,-123.4618333
NC.KCS..EH,2012-05-03 13:39:51.250,3319.0,2012-05-03 13:40:24.365,0.978,P,nc71062519.mseed,1921.3516845703125,1921.3516845703125,10.95,-1,E,,,2.05,5.552,40.4476667,-123.4618333
TA.M02C..HN,2012-09-06 04:38:20.010,3951.0,2012-09-06 04:38:59.445,0.983,P,nc71065069.mseed,0.3466233611106872,0.3466233611106872,51.67,-1,I,,,2.1,23.973,41.2975,-123.4583333
NC.KHBB..HN,2012-09-06 04:38:20.010,4258.0,2012-09-06 04:39:02.515,0.965,P,nc71065069.mseed,0.1720593422651291,0.1720593422651291,73.6,,,,,2.1,23.973,41.2975,-123.4583333
NC.KCO..EH,2014-03-20 17:06:45.880,3434.0,2014-03-20 17:07:20.145,0.96,P,nc71081449.mseed,2290.30908203125,2290.30908203125,18.69,-1,I,,,2.59,6.851,40.3143333,-124.4725
NC.KOM.02.EH,2014-03-20 17:06:45.880,5175.0,2014-03-20 17:07:37.555,0.956,P,nc71081449.mseed,783.204345703125,783.204345703125,137.37,1,I,,,2.59,6.851,40.3143333,-124.4725
NC.KHMB..HN,2008-01-13 02:33:44.790,3268.0,2008-01-13 02:34:17.395,0.987,P,nc71093761.mseed,154.0489959716797,154.0489959716797,4.38,1,I,,,2.23,11.235,40.8826667,-123.6816667
XQ.ME30.01.BH,2008-01-13 02:33:44.790,3369.0,2008-01-13 02:34:18.405,0.961,P,nc71093761.mseed,26283.490234375,26283.490234375,10.78,,,,,2.23,11.235,40.8826667,-123.6816667
BK.JCC..HH,2008-01-13 02:33:44.790,3511.0,2008-01-13 02:34:19.825,0.971,P,nc71093761.mseed,2715.711669921875,2715.711669921875,30.22,-1,E,,,2.23,11.235,40.8826667,-123.6816667
XQ.ME07.01.BH,2008-01-13 02:33:44.790,3700.0,2008-01-13 02:34:21.715,0.977,P,nc71093761.mseed,5109.8759765625,5109.8759765625,37.14,,,,,2.23,11.235,40.8826667,-123.6816667
XQ.ME04.01.BH,2008-01-13 02:33:44.790,4001.0,2008-01-13 02:34:24.725,0.965,P,nc71093761.mseed,2931.51904296875,2931.51904296875,54.31,,,,,2.23,11.235,40.8826667,-123.6816667
XQ.ME34.01.BH,2008-01-13 02:33:44.790,4110.0,2008-01-13 02:34:25.815,0.978,P,nc71093761.mseed,7917.0927734375,7917.0927734375,58.2,,,,,2.23,11.235,40.8826667,-123.6816667
XQ.ME09.01.BH,2008-01-13 02:33:44.790,4489.0,2008-01-13 02:34:29.605,0.962,P,nc71093761.mseed,1906.208740234375,1906.208740234375,83.53,,,,,2.23,11.235,40.8826667,-123.6816667
XQ.ME30.01.BH,2008-02-24 12:59:50.860,3413.0,2008-02-24 13:00:24.915,0.979,P,nc71100926.mseed,322384.65625,322384.65625,14.66,1,I,2008-02-24T13:00:24.9899,1.0,3.28,4.19,40.9003333,-123.7216667
BK.JCC..HH,2008-02-24 12:59:50.860,3554.0,2008-02-24 13:00:26.325,0.964,P,nc71100926.mseed,30881.181640625,30881.181640625,27.54,-1,E,2008-02-24T13:00:26.3991,-1.0,3.28,4.19,40.9003333,-123.7216667
XQ.ME32.01.BH,2008-02-24 12:59:50.860,3754.0,2008-02-24 13:00:28.325,0.956,P,nc71100926.mseed,80464.4375,80464.4375,36.29,-1,I,2008-02-24T13:00:28.4170,-1.0,3.28,4.19,40.9003333,-123.7216667
XQ.ME29.01.BH,2008-02-24 12:59:50.860,4057.0,2008-02-24 13:00:31.355,0.956,P,nc71100926.mseed,96368.2109375,96368.2109375,55.74,-1,E,2008-02-24T13:00:31.4306,-1.0,3.28,4.19,40.9003333,-123.7216667
XQ.ME34.01.BH,2008-02-24 12:59:50.860,4154.0,2008-02-24 13:00:32.325,0.964,P,nc71100926.mseed,144067.703125,144067.703125,57.63,-1,I,2008-02-24T13:00:32.4140,-1.0,3.28,4.19,40.9003333,-123.7216667
XQ.ME13.01.BH,2008-02-24 12:59:50.860,4252.0,2008-02-24 13:00:33.305,0.954,P,nc71100926.mseed,31794.666015625,31794.666015625,69.46,-1,I,2008-02-24T13:00:33.3802,-1.0,3.28,4.19,40.9003333,-123.7216667
NC.KRMB..HN,2008-02-24 12:59:50.860,4330.0,2008-02-24 13:00:34.085,0.97,P,nc71100926.mseed,5.830755233764648,5.830755233764648,70.89,-1,I,,,3.28,4.19,40.9003333,-123.7216667
XQ.ME09.01.BH,2008-02-24 12:59:50.860,4532.0,2008-02-24 13:00:36.105,0.952,P,nc71100926.mseed,24860.396484375,24860.396484375,86.28,-1,I,2008-02-24T13:00:36.1674,-1.0,3.28,4.19,40.9003333,-123.7216667
XQ.ME03.01.BH,2008-02-24 12:59:50.860,4610.0,2008-02-24 13:00:36.885,0.968,P,nc71100926.mseed,8163.68896484375,8163.68896484375,90.03,-1,E,2008-02-24T13:00:36.9434,-1.0,3.28,4.19,40.9003333,-123.7216667
XQ.ME34.01.BH,2008-03-03 04:26:35.530,4033.0,2008-03-03 04:27:15.785,0.96,P,nc71102321.mseed,27103.130859375,27103.130859375,45.27,,,,,2.01,3.694,40.3325,-124.6226667
NC.KHMB..HN,2008-03-13 08:05:56.160,3519.0,2008-03-13 08:06:31.275,0.987,P,nc71104386.mseed,2.116804599761963,2.116804599761963,11.65,-1,I,,,2.0,14.413,40.8238333,-123.8533333
XQ.ME31.01.BH,2008-03-13 08:05:56.160,3498.0,2008-03-13 08:06:31.065,0.968,P,nc71104386.mseed,2376.49853515625,2376.49853515625,13.8,1,I,,,2.0,14.413,40.8238333,-123.8533333
BK.JCC..HH,2008-03-13 08:05:56.160,3473.0,2008-03-13 08:06:30.815,0.985,P,nc71104386.mseed,1940.6861572265625,1940.6861572265625,14.88,1,I,,,2.0,14.413,40.8238333,-123.8533333
XQ.ME30.01.BH,2008-03-13 08:05:56.160,3603.0,2008-03-13 08:06:32.115,0.975,P,nc71104386.mseed,2348.173095703125,2348.173095703125,24.41,1,I,,,2.0,14.413,40.8238333,-123.8533333
XQ.ME32.01.BH,2008-03-13 08:05:56.160,3639.0,2008-03-13 08:06:32.475,0.952,P,nc71104386.mseed,1819.3719482421875,1819.3719482421875,25.89,1,I,,,2.0,14.413,40.8238333,-123.8533333
XQ.ME33.01.BH,2008-03-13 08:05:56.160,3806.0,2008-03-13 08:06:34.145,0.971,P,nc71104386.mseed,1848.7642822265625,1848.7642822265625,38.1,-1,I,,,2.0,14.413,40.8238333,-123.8533333
PB.B935..EH,2017-01-29 19:37:43.970,3560.0,2017-01-29 19:38:19.495,0.984,P,nc71105674.mseed,231.75379943847656,231.75379943847656,18.63,-1,I,,,2.02,26.9,40.6461667,-123.5601667
NC.KHBB..HN,2017-01-29 19:37:43.970,3659.0,2017-01-29 19:38:20.485,0.979,P,nc71105674.mseed,1.193218231201172,1.193218231201172,28.84,-1,I,,,2.02,26.9,40.6461667,-123.5601667
NC.KPP..EH,2017-01-29 19:37:43.970,3799.0,2017-01-29 19:38:21.885,0.987,P,nc71105674.mseed,321.19305419921875,321.19305419921875,37.3,-1,I,,,2.02,26.9,40.6461667,-123.5601667
BK.JCC.00.HN,2017-01-29 19:37:43.970,3834.0,2017-01-29 19:38:22.235,0.982,P,nc71105674.mseed,0.115853451192379,0.115853451192379,43.98,1,I,,,2.02,26.9,40.6461667,-123.5601667
NC.KKP..EH,2017-01-29 19:37:43.970,4054.0,2017-01-29 19:38:24.435,0.958,P,nc71105674.mseed,44.91780090332031,44.91780090332031,56.09,,,,,2.02,26.9,40.6461667,-123.5601667
NC.KBS.02.EH,2017-01-29 19:37:43.970,4388.0,2017-01-29 19:38:27.775,0.969,P,nc71105674.mseed,47.58226776123047,47.58226776123047,81.0,,,,,2.02,26.9,40.6461667,-123.5601667
XQ.ME01.01.BH,2008-03-29 18:39:31.790,3678.0,2008-03-29 18:40:08.495,0.956,P,nc71106981.mseed,5864.48828125,5864.48828125,38.35,,,,,2.44,30.182,41.43,-123.4133333
XQ.ME29.01.BH,2008-03-29 18:39:31.790,3851.0,2008-03-29 18:40:10.225,0.967,P,nc71106981.mseed,8588.466796875,8588.466796875,39.3,,,,,2.44,30.182,41.43,-123.4133333
NC.KRMB..HN,2008-03-29 18:39:31.790,3702.0,2008-03-29 18:40:08.735,0.975,P,nc71106981.mseed,3.4604060649871826,3.4604060649871826,42.59,1,I,,,2.44,30.182,41.43,-123.4133333
XQ.ME03.01.BH,2008-03-29 18:39:31.790,3745.0,2008-03-29 18:40:09.165,0.979,P,nc71106981.mseed,3912.09619140625,3912.09619140625,49.34,1,I,,,2.44,30.182,41.43,-123.4133333
NC.KSXB..HN,2008-03-29 18:39:31.790,3878.0,2008-03-29 18:40:10.495,0.966,P,nc71106981.mseed,1.2423721551895142,1.2423721551895142,58.9,1,I,,,2.44,30.182,41.43,-123.4133333
XQ.ME09.01.BH,2008-03-29 18:39:31.790,4238.0,2008-03-29 18:40:14.095,0.964,P,nc71106981.mseed,2260.8349609375,2260.8349609375,69.12,,,,,2.44,30.182,41.43,-123.4133333
XQ.ME13.01.BH,2008-03-29 18:39:31.790,4427.0,2008-03-29 18:40:15.985,0.951,P,nc71106981.mseed,592.2177734375,592.2177734375,84.87,,,,,2.44,30.182,41.43,-123.4133333
XQ.ME13.01.BH,2008-04-07 21:03:01.130,3679.0,2008-04-07 21:03:37.845,0.961,P,nc71108755.mseed,3224.278564453125,3224.278564453125,17.83,,,,,2.11,38.348,40.7676667,-123.1291667
XQ.ME27.01.BH,2008-04-07 21:03:01.130,3831.0,2008-04-07 21:03:39.365,0.964,P,nc71108755.mseed,1041.676025390625,1041.676025390625,35.01,,,,,2.11,38.348,40.7676667,-123.1291667
XQ.ME29.01.BH,2008-04-07 21:03:01.130,3888.0,2008-04-07 21:03:39.935,0.982,P,nc71108755.mseed,6693.47021484375,6693.47021484375,41.58,,,,,2.11,38.348,40.7676667,-123.1291667
NC.KMPB..HN,2008-05-17 18:41:40.640,4075.0,2008-05-17 18:42:21.315,0.974,P,nc71118291.mseed,1.623178005218506,1.623178005218506,51.65,1,E,,,2.38,6.369,40.531,-124.7113333
NC.KCT..HN,2008-06-02 03:22:44.650,3502.0,2008-06-02 03:23:19.595,0.955,P,nc71122560.mseed,1.8134933710098269,1.8134933710098269,22.35,1,E,,,2.01,8.067,40.2918333,-124.445
