station_id,begin_time,phase_index,phase_time,phase_score,phase_type,file_name,phase_amplitude,phase_amp,sta_dist_km,diting_polarity,diting_sharpness,pyrocko_phase_time,pyrocko_polarity,mag,depth,lat,long
NC.GRO..EH,2008-01-18 04:23:00.440,4106.0,2008-01-18 04:23:41.425,0.981,P,nc51194828.mseed,152.94552612304688,152.94552612304688,56.44,1,I,,,2.02,8.434,39.9443333,-123.3305
XQ.ME35.01.BH,2008-01-18 04:23:00.440,4171.0,2008-01-18 04:23:42.075,0.959,P,nc51194828.mseed,1509.5267333984375,1509.5267333984375,69.58,,,,,2.02,8.434,39.9443333,-123.3305
XQ.ME30.01.BH,2008-02-08 00:17:14.590,3505.0,2008-02-08 00:17:49.565,0.979,P,nc51196020.mseed,14474.6767578125,14474.6767578125,13.71,,,,,2.43,24.377,40.8278333,-123.4036667
NC.KHBB..HN,2008-02-08 00:17:14.590,3615.0,2008-02-08 00:17:50.665,0.982,P,nc51196020.mseed,10.905403137207031,10.905403137207031,24.28,-1,I,,,2.43,24.377,40.8278333,-123.4036667
NC.KHMB..HN,2008-02-08 00:17:14.590,3661.0,2008-02-08 00:17:51.125,0.964,P,nc51196020.mseed,2.2895023822784424,2.2895023822784424,28.22,-1,E,,,2.43,24.377,40.8278333,-123.4036667
XQ.ME35.01.BH,2008-02-08 00:17:14.590,4017.0,2008-02-08 00:17:54.685,0.968,P,nc51196020.mseed,3106.212158203125,3106.212158203125,48.11,,,,,2.43,24.377,40.8278333,-123.4036667
XQ.ME33.01.BH,2008-02-08 00:17:14.590,3975.0,2008-02-08 00:17:54.265,0.952,P,nc51196020.mseed,3221.67822265625,3221.67822265625,51.0,,,,,2.43,24.377,40.8278333,-123.4036667
XQ.ME08.01.BH,2008-02-08 00:17:14.590,4167.0,2008-02-08 00:17:56.185,0.957,P,nc51196020.mseed,2366.228759765625,2366.228759765625,67.79,,,,,2.43,24.377,40.8278333,-123.4036667
XQ.ME35.01.BH,2008-02-22 03:07:41.090,3521.0,2008-02-22 03:08:16.225,0.957,P,nc51196872.mseed,4290.9892578125,4290.9892578125,12.94,,,,,2.2,20.034,40.526,-123.6061667
XQ.ME33.01.BH,2008-02-22 03:07:41.090,3527.0,2008-02-22 03:08:16.285,0.951,P,nc51196872.mseed,10251.47265625,10251.47265625,17.27,,,,,2.2,20.034,40.526,-123.6061667
NC.KHBB..HN,2008-02-22 03:07:41.090,3724.0,2008-02-22 03:08:18.255,0.98,P,nc51196872.mseed,1.310214281082153,1.310214281082153,35.94,1,I,,,2.2,20.034,40.526,-123.6061667
XQ.ME31.01.BH,2008-02-22 03:07:41.090,3722.0,2008-02-22 03:08:18.235,0.962,P,nc51196872.mseed,8940.15234375,8940.15234375,36.13,,,,,2.2,20.034,40.526,-123.6061667
XQ.ME27.01.BH,2008-02-22 03:07:41.090,3773.0,2008-02-22 03:08:18.745,0.963,P,nc51196872.mseed,2762.540283203125,2762.540283203125,39.1,,,,,2.2,20.034,40.526,-123.6061667
NC.KHMB..HN,2008-02-22 03:07:41.090,3778.0,2008-02-22 03:08:18.795,0.976,P,nc51196872.mseed,4.452354907989502,4.452354907989502,40.17,1,I,,,2.2,20.034,40.526,-123.6061667
XQ.ME08.01.BH,2008-02-22 03:07:41.090,3847.0,2008-02-22 03:08:19.485,0.973,P,nc51196872.mseed,2845.131591796875,2845.131591796875,42.35,,,,,2.2,20.034,40.526,-123.6061667
XQ.ME34.01.BH,2008-02-22 03:07:41.090,3844.0,2008-02-22 03:08:19.455,0.969,P,nc51196872.mseed,7539.66015625,7539.66015625,44.4,,,,,2.2,20.034,40.526,-123.6061667
XQ.ME36.01.BH,2008-02-22 03:07:41.090,4019.0,2008-02-22 03:08:21.205,0.962,P,nc51196872.mseed,3886.8759765625,3886.8759765625,56.51,,,,,2.2,20.034,40.526,-123.6061667
NC.GRO..EH,2008-02-22 03:07:41.090,4729.0,2008-02-22 03:08:28.305,0.962,P,nc51196872.mseed,304.32080078125,304.32080078125,104.44,,,,,2.2,20.034,40.526,-123.6061667
XQ.ME29.01.BH,2008-02-27 00:10:12.820,3590.0,2008-02-27 00:10:48.645,0.952,P,nc51197189.mseed,30145.453125,30145.453125,8.46,1,E,2008-02-27T00:10:48.6991,1.0,2.83,35.504,41.0988333,-123.2238333
XQ.ME09.01.BH,2008-02-27 00:10:12.820,3862.0,2008-02-27 00:10:51.365,0.975,P,nc51197189.mseed,4569.8916015625,4569.8916015625,41.85,,,2008-02-27T00:10:51.4453,-1.0,2.83,35.504,41.0988333,-123.2238333
XQ.ME13.01.BH,2008-02-27 00:10:12.820,3910.0,2008-02-27 00:10:51.845,0.98,P,nc51197189.mseed,3575.557373046875,3575.557373046875,45.23,,,2008-02-27T00:10:51.9300,-1.0,2.83,35.504,41.0988333,-123.2238333
XQ.ME10.01.BH,2008-02-27 00:10:12.820,4170.0,2008-02-27 00:10:54.445,0.962,P,nc51197189.mseed,2836.3427734375,2836.3427734375,65.93,,,,,2.83,35.504,41.0988333,-123.2238333
XQ.ME01.01.BH,2008-02-27 00:10:12.820,4378.0,2008-02-27 00:10:56.525,0.976,P,nc51197189.mseed,1455.07275390625,1455.07275390625,76.6,,,2008-02-27T00:10:56.3905,-1.0,2.83,35.504,41.0988333,-123.2238333
XQ.ME43.01.BH,2008-03-07 16:43:47.600,3650.0,2008-03-07 16:44:24.025,0.963,P,nc51197782.mseed,2563.4677734375,2563.4677734375,34.35,-1,E,,,2.29,9.185,39.8795,-123.1901667
XQ.ME38.01.BH,2008-03-07 16:43:47.600,3704.0,2008-03-07 16:44:24.565,0.955,P,nc51197782.mseed,5596.56787109375,5596.56787109375,36.33,-1,E,,,2.29,9.185,39.8795,-123.1901667
NC.KCPB..HN,2008-03-07 16:43:47.600,3763.0,2008-03-07 16:44:25.155,0.967,P,nc51197782.mseed,0.9521134495735168,0.9521134495735168,39.86,1,I,,,2.29,9.185,39.8795,-123.1901667
XQ.ME44.01.BH,2008-03-07 16:43:47.600,3785.0,2008-03-07 16:44:25.375,0.971,P,nc51197782.mseed,4355.44091796875,4355.44091796875,42.94,-1,E,,,2.29,9.185,39.8795,-123.1901667
NC.GRO..EH,2008-03-07 16:43:47.600,3831.0,2008-03-07 16:44:25.835,0.982,P,nc51197782.mseed,592.8152465820312,592.8152465820312,44.58,1,I,,,2.29,9.185,39.8795,-123.1901667
BK.GASB..HH,2008-03-07 16:43:47.600,3867.0,2008-03-07 16:44:26.195,0.966,P,nc51197782.mseed,2361.09619140625,2361.09619140625,47.69,-1,I,,,2.29,9.185,39.8795,-123.1901667
XQ.ME37.01.BH,2008-03-07 16:43:47.600,4121.0,2008-03-07 16:44:28.735,0.957,P,nc51197782.mseed,2132.932861328125,2132.932861328125,59.94,-1,E,,,2.29,9.185,39.8795,-123.1901667
XQ.ME27.01.BH,2008-03-07 16:43:47.600,4110.0,2008-03-07 16:44:28.625,0.984,P,nc51197782.mseed,1331.4544677734375,1331.4544677734375,63.75,-1,I,,,2.29,9.185,39.8795,-123.1901667
XQ.ME12.01.BH,2008-03-07 16:43:47.600,4239.0,2008-03-07 16:44:29.915,0.97,P,nc51197782.mseed,2567.663818359375,2567.663818359375,64.15,1,I,,,2.29,9.185,39.8795,-123.1901667
XQ.ME35.01.BH,2008-03-07 16:43:47.600,4348.0,2008-03-07 16:44:31.005,0.956,P,nc51197782.mseed,2484.581787109375,2484.581787109375,82.14,-1,I,,,2.29,9.185,39.8795,-123.1901667
XQ.ME30.01.BH,2008-03-07 16:43:47.600,4862.0,2008-03-07 16:44:36.145,0.976,P,nc51197782.mseed,2063.86376953125,2063.86376953125,111.63,-1,I,,,2.29,9.185,39.8795,-123.1901667
XQ.ME35.01.BH,2008-03-30 02:27:42.960,3613.0,2008-03-30 02:28:19.015,0.972,P,nc51199341.mseed,12523.658203125,12523.658203125,18.42,1,I,,,2.25,25.924,40.5331667,-123.5408333
XQ.ME33.01.BH,2008-03-30 02:27:42.960,3618.0,2008-03-30 02:28:19.065,0.962,P,nc51199341.mseed,10290.7783203125,10290.7783203125,22.83,1,I,,,2.25,25.924,40.5331667,-123.5408333
NC.KHBB..HN,2008-03-30 02:27:42.960,3676.0,2008-03-30 02:28:19.645,0.988,P,nc51199341.mseed,3.5250937938690186,3.5250937938690186,30.61,1,I,,,2.25,25.924,40.5331667,-123.5408333
XQ.ME27.01.BH,2008-03-30 02:27:42.960,3727.0,2008-03-30 02:28:20.155,0.967,P,nc51199341.mseed,5761.61376953125,5761.61376953125,33.9,1,I,,,2.25,25.924,40.5331667,-123.5408333
XQ.ME30.01.BH,2008-03-30 02:27:42.960,3693.0,2008-03-30 02:28:19.815,0.973,P,nc51199341.mseed,4291.14111328125,4291.14111328125,34.47,1,I,,,2.25,25.924,40.5331667,-123.5408333
NC.KMR..HN,2008-03-30 02:27:42.960,3815.0,2008-03-30 02:28:21.035,0.979,P,nc51199341.mseed,1.666132926940918,1.666132926940918,39.42,1,I,,,2.25,25.924,40.5331667,-123.5408333
XQ.ME08.01.BH,2008-03-30 02:27:42.960,3830.0,2008-03-30 02:28:21.185,0.979,P,nc51199341.mseed,2829.701904296875,2829.701904296875,39.94,-1,I,,,2.25,25.924,40.5331667,-123.5408333
NC.KHMB..HN,2008-03-30 02:27:42.960,3802.0,2008-03-30 02:28:20.905,0.981,P,nc51199341.mseed,1.4907690286636353,1.4907690286636353,41.25,-1,I,,,2.25,25.924,40.5331667,-123.5408333
XQ.ME36.01.BH,2008-03-30 02:27:42.960,4058.0,2008-03-30 02:28:23.465,0.964,P,nc51199341.mseed,1728.522216796875,1728.522216796875,61.64,1,E,,,2.25,25.924,40.5331667,-123.5408333
XQ.ME41.01.BH,2008-05-17 21:41:17.010,3317.0,2008-05-17 21:41:50.105,0.957,P,nc51202870.mseed,46339.76953125,46339.76953125,13.29,1,E,,,2.18,7.805,39.8871667,-123.2056667
NC.KCPB..HN,2008-05-17 21:41:17.010,3747.0,2008-05-17 21:41:54.405,0.974,P,nc51202870.mseed,1.2855345010757446,1.2855345010757446,39.23,1,I,,,2.18,7.805,39.8871667,-123.2056667
XQ.ME49.01.BH,2008-05-17 21:41:17.010,3814.0,2008-05-17 21:41:55.075,0.955,P,nc51202870.mseed,3548.419921875,3548.419921875,44.03,1,I,,,2.18,7.805,39.8871667,-123.2056667
NC.GRO..EH,2008-05-17 21:41:17.010,3847.0,2008-05-17 21:41:55.405,0.979,P,nc51202870.mseed,968.8993530273438,968.8993530273438,45.83,,,,,2.18,7.805,39.8871667,-123.2056667
XQ.ME39.01.BH,2008-05-17 21:41:17.010,3879.0,2008-05-17 21:41:55.725,0.961,P,nc51202870.mseed,2178.43408203125,2178.43408203125,47.09,1,I,,,2.18,7.805,39.8871667,-123.2056667
BK.GASB..HH,2008-05-17 21:41:17.010,3887.0,2008-05-17 21:41:55.805,0.968,P,nc51202870.mseed,1447.0634765625,1447.0634765625,49.26,1,I,,,2.18,7.805,39.8871667,-123.2056667
XQ.ME52.01.BH,2008-05-17 21:41:17.010,7826.0,2008-05-17 21:42:35.195,0.965,P,nc51202870.mseed,1566.7900390625,1566.7900390625,62.67,1,I,,,2.18,7.805,39.8871667,-123.2056667
XQ.ME12.01.BH,2008-05-17 21:41:17.010,4250.0,2008-05-17 21:41:59.435,0.968,P,nc51202870.mseed,2717.040771484375,2717.040771484375,65.05,1,I,,,2.18,7.805,39.8871667,-123.2056667
NC.GWR..EH,2008-05-17 21:41:17.010,8020.0,2008-05-17 21:42:37.135,0.977,P,nc51202870.mseed,44.624267578125,44.624267578125,76.1,-1,E,,,2.18,7.805,39.8871667,-123.2056667
NC.GTS..EH,2008-05-17 21:41:17.010,4465.0,2008-05-17 21:42:01.585,0.965,P,nc51202870.mseed,436.0086059570313,436.0086059570313,82.22,,,,,2.18,7.805,39.8871667,-123.2056667
BK.WDC..HH,2008-05-17 21:41:17.010,4614.0,2008-05-17 21:42:03.075,0.964,P,nc51202870.mseed,284.1703796386719,284.1703796386719,95.47,1,I,,,2.18,7.805,39.8871667,-123.2056667
XQ.ME29.01.BH,2008-05-18 05:23:13.260,3626.0,2008-05-18 05:23:49.445,0.977,P,nc51202893.mseed,13393.4482421875,13393.4482421875,24.12,-1,I,,,2.3,27.803,41.0281667,-123.3853333
XQ.ME30.01.BH,2008-05-18 05:23:13.260,3638.0,2008-05-18 05:23:49.565,0.98,P,nc51202893.mseed,7410.158203125,7410.158203125,25.53,1,I,,,2.3,27.803,41.0281667,-123.3853333
XQ.ME04.01.BH,2008-05-18 05:23:13.260,3766.0,2008-05-18 05:23:50.845,0.968,P,nc51202893.mseed,2832.21240234375,2832.21240234375,37.87,1,I,,,2.3,27.803,41.0281667,-123.3853333
NC.KHBB..HN,2008-05-18 05:23:13.260,3864.0,2008-05-18 05:23:51.825,0.965,P,nc51202893.mseed,1.0980339050292969,1.0980339050292969,43.22,-1,E,,,2.3,27.803,41.0281667,-123.3853333
XQ.ME09.01.BH,2008-05-18 05:23:13.260,3980.0,2008-05-18 05:23:52.985,0.958,P,nc51202893.mseed,858.6089477539062,858.6089477539062,55.8,-1,I,,,2.3,27.803,41.0281667,-123.3853333
XQ.ME36.01.BH,2008-05-18 05:23:13.260,12305.0,2008-05-18 05:25:16.235,0.955,P,nc51202893.mseed,1198.0841064453125,1198.0841064453125,108.8,-1,I,,,2.3,27.803,41.0281667,-123.3853333
XQ.ME08.01.BH,2008-06-05 21:58:44.860,3653.0,2008-06-05 21:59:21.315,0.985,P,nc51203864.mseed,2069.81884765625,2069.81884765625,13.93,1,I,,,2.2,36.603,40.2166667,-123.1415
XQ.ME38.01.BH,2008-06-05 21:58:44.860,3798.0,2008-06-05 21:59:22.765,0.977,P,nc51203864.mseed,1387.7667236328125,1387.7667236328125,33.38,1,I,,,2.2,36.603,40.2166667,-123.1415
XQ.ME39.01.BH,2008-06-05 21:58:44.860,3838.0,2008-06-05 21:59:23.165,0.978,P,nc51203864.mseed,1296.4287109375,1296.4287109375,38.68,1,I,,,2.2,36.603,40.2166667,-123.1415
XQ.ME37.01.BH,2008-06-05 21:58:44.860,3911.0,2008-06-05 21:59:23.895,0.971,P,nc51203864.mseed,1080.970947265625,1080.970947265625,44.26,1,I,,,2.2,36.603,40.2166667,-123.1415
NC.KHBB..HN,2008-06-05 21:58:44.860,3971.0,2008-06-05 21:59:24.495,0.963,P,nc51203864.mseed,0.7317091226577759,0.7317091226577759,49.66,-1,E,,,2.2,36.603,40.2166667,-123.1415
NC.GRO..EH,2008-06-05 21:58:44.860,4037.0,2008-06-05 21:59:25.155,0.97,P,nc51203864.mseed,213.5514678955078,213.5514678955078,52.14,,,,,2.2,36.603,40.2166667,-123.1415
BK.GASB..HH,2008-06-05 21:58:44.860,4306.0,2008-06-05 21:59:27.845,0.973,P,nc51203864.mseed,430.4246520996094,430.4246520996094,72.22,-1,I,,,2.2,36.603,40.2166667,-123.1415
XQ.ME30.01.BH,2008-06-05 21:58:44.860,4294.0,2008-06-05 21:59:27.725,0.975,P,nc51203864.mseed,624.97802734375,624.97802734375,78.26,-1,I,,,2.2,36.603,40.2166667,-123.1415
NC.KRP..HN,2008-08-17 05:56:29.370,3424.0,2008-08-17 05:57:03.535,0.954,P,nc51207076.mseed,786.951416015625,786.951416015625,16.53,-1,E,,,4.6,15.66,41.1885,-124.216
BK.JCC..HH,2008-08-17 05:56:29.370,3854.0,2008-08-17 05:57:07.835,0.957,P,nc51207076.mseed,213326.515625,213326.515625,44.09,1,I,2008-08-17T05:57:07.8893,1.0,4.6,15.66,41.1885,-124.216
NC.KRMB..HN,2008-08-17 05:56:29.370,3849.0,2008-08-17 05:57:07.785,0.953,P,nc51207076.mseed,187.90855407714844,187.90855407714844,45.21,-1,E,,,4.6,15.66,41.1885,-124.216
XQ.ME27.01.BH,2008-08-21 09:26:00.070,3549.0,2008-08-21 09:26:35.485,0.961,P,nc51207214.mseed,89981.625,89981.625,6.05,,,2008-08-21T09:26:35.5600,-1.0,2.67,32.347,40.4336667,-123.0883333
NC.KHBB..HH,2008-08-21 09:26:00.070,3705.0,2008-08-21 09:26:37.045,0.982,P,nc51207214.mseed,22590.037109375,22590.037109375,27.48,1,I,2008-08-21T09:26:37.1017,1.0,2.67,32.347,40.4336667,-123.0883333
BK.WDC..HH,2008-08-21 09:26:00.070,3929.0,2008-08-21 09:26:39.285,0.976,P,nc51207214.mseed,3677.20654296875,3677.20654296875,49.14,-1,I,2008-08-21T09:26:39.3600,-1.0,2.67,32.347,40.4336667,-123.0883333
XQ.ME39.01.BH,2008-08-21 09:26:00.070,3958.0,2008-08-21 09:26:39.575,0.953,P,nc51207214.mseed,5546.5771484375,5546.5771484375,50.92,-1,I,2008-08-21T09:26:39.6500,-1.0,2.67,32.347,40.4336667,-123.0883333
BK.GASB..HH,2008-08-21 09:26:00.070,4554.0,2008-08-21 09:26:45.535,0.958,P,nc51207214.mseed,1099.3038330078125,1099.3038330078125,92.14,1,I,2008-08-21T09:26:45.6100,1.0,2.67,32.347,40.4336667,-123.0883333
XQ.ME27.01.BH,2008-09-04 03:54:37.590,3559.0,2008-09-04 03:55:13.105,0.967,P,nc51207671.mseed,16021.5419921875,16021.5419921875,9.11,,,,,2.39,30.774,40.5215,-123.0958333
NC.KHBB..HN,2008-09-04 03:54:37.590,3620.0,2008-09-04 03:55:13.715,0.968,P,nc51207671.mseed,5.944362640380859,5.944362640380859,18.6,-1,I,,,2.39,30.774,40.5215,-123.0958333
XQ.ME13.01.BH,2008-09-04 03:54:37.590,3710.0,2008-09-04 03:55:14.615,0.976,P,nc51207671.mseed,3274.096435546875,3274.096435546875,30.85,,,,,2.39,30.774,40.5215,-123.0958333
XQ.ME08.01.BH,2008-09-04 03:54:37.590,7489.0,2008-09-04 03:55:52.405,0.965,P,nc51207671.mseed,3117.307861328125,3117.307861328125,37.7,,,,,2.39,30.774,40.5215,-123.0958333
BK.WDC..HH,2008-09-04 03:54:37.590,3903.0,2008-09-04 03:55:16.545,0.976,P,nc51207671.mseed,846.2447509765625,846.2447509765625,47.43,-1,I,,,2.39,30.774,40.5215,-123.0958333
XQ.ME30.01.BH,2008-09-04 03:54:37.590,3962.0,2008-09-04 03:55:17.135,0.971,P,nc51207671.mseed,5103.42919921875,5103.42919921875,53.36,,,,,2.39,30.774,40.5215,-123.0958333
XQ.ME39.01.BH,2008-09-04 03:54:37.590,4019.0,2008-09-04 03:55:17.705,0.953,P,nc51207671.mseed,1600.3333740234375,1600.3333740234375,56.24,,,,,2.39,30.774,40.5215,-123.0958333
NC.KHMB..HN,2008-09-04 03:54:37.590,4155.0,2008-09-04 03:55:19.065,0.97,P,nc51207671.mseed,1.739909529685974,1.739909529685974,66.6,1,E,,,2.39,30.774,40.5215,-123.0958333
XQ.ME09.01.BH,2008-09-04 03:54:37.590,4212.0,2008-09-04 03:55:19.635,0.975,P,nc51207671.mseed,1840.5672607421875,1840.5672607421875,70.03,,,,,2.39,30.774,40.5215,-123.0958333
XQ.ME31.01.BH,2008-09-04 03:54:37.590,4309.0,2008-09-04 03:55:20.605,0.956,P,nc51207671.mseed,1507.6661376953125,1507.6661376953125,75.38,,,,,2.39,30.774,40.5215,-123.0958333
NC.GBB..EH,2008-09-04 03:54:37.590,4695.0,2008-09-04 03:55:24.465,0.96,P,nc51207671.mseed,175.8415985107422,175.8415985107422,102.38,,,,,2.39,30.774,40.5215,-123.0958333
XQ.ME30.01.BH,2008-09-05 21:21:52.940,3525.0,2008-09-05 21:22:28.115,0.989,P,nc51207731.mseed,40738.0703125,40738.0703125,17.41,,,,,2.51,23.127,40.6878333,-123.5351667
NC.KHMB..HN,2008-09-05 21:21:52.940,3635.0,2008-09-05 21:22:29.215,0.98,P,nc51207731.mseed,7.216682910919189,7.216682910919189,26.62,-1,I,,,2.51,23.127,40.6878333,-123.5351667
NC.KHBB..HN,2008-09-05 21:21:52.940,3621.0,2008-09-05 21:22:29.075,0.977,P,nc51207731.mseed,6.218414306640625,6.218414306640625,26.86,-1,I,,,2.51,23.127,40.6878333,-123.5351667
XQ.ME35.01.BH,2008-09-05 21:21:52.940,3780.0,2008-09-05 21:22:30.665,0.986,P,nc51207731.mseed,14748.80078125,14748.80078125,29.02,,,,,2.51,23.127,40.6878333,-123.5351667
XQ.ME33.01.BH,2008-09-05 21:21:52.940,3734.0,2008-09-05 21:22:30.205,0.957,P,nc51207731.mseed,12218.4150390625,12218.4150390625,32.06,,,,,2.51,23.127,40.6878333,-123.5351667
XQ.ME31.01.BH,2008-09-05 21:21:52.940,3758.0,2008-09-05 21:22:30.445,0.957,P,nc51207731.mseed,14042.375,14042.375,35.01,,,,,2.51,23.127,40.6878333,-123.5351667
XQ.ME27.01.BH,2008-09-05 21:21:52.940,3793.0,2008-09-05 21:22:30.795,0.97,P,nc51207731.mseed,7235.431640625,7235.431640625,41.43,,,,,2.51,23.127,40.6878333,-123.5351667
XQ.ME37.01.BH,2008-09-05 21:21:52.940,3890.0,2008-09-05 21:22:31.765,0.957,P,nc51207731.mseed,16881.23828125,16881.23828125,45.85,,,,,2.51,23.127,40.6878333,-123.5351667
XQ.ME13.01.BH,2008-09-05 21:21:52.940,3926.0,2008-09-05 21:22:32.125,0.959,P,nc51207731.mseed,3934.716064453125,3934.716064453125,52.82,,,,,2.51,23.127,40.6878333,-123.5351667
XQ.ME08.01.BH,2008-09-05 21:21:52.940,7798.0,2008-09-05 21:23:10.845,0.977,P,nc51207731.mseed,3762.3828125,3762.3828125,55.29,,,,,2.51,23.127,40.6878333,-123.5351667
NC.KMPB..HN,2008-09-05 21:21:52.940,4025.0,2008-09-05 21:22:33.115,0.978,P,nc51207731.mseed,2.198738813400269,2.198738813400269,57.99,1,I,,,2.51,23.127,40.6878333,-123.5351667
XQ.ME07.01.BH,2008-09-05 21:21:52.940,4059.0,2008-09-05 21:22:33.455,0.951,P,nc51207731.mseed,1980.33056640625,1980.33056640625,62.05,,,,,2.51,23.127,40.6878333,-123.5351667
XQ.ME09.01.BH,2008-09-05 21:21:52.940,4295.0,2008-09-05 21:22:35.815,0.956,P,nc51207731.mseed,2076.556884765625,2076.556884765625,81.28,,,,,2.51,23.127,40.6878333,-123.5351667
XQ.ME49.01.BH,2008-09-05 21:21:52.940,4467.0,2008-09-05 21:22:37.535,0.962,P,nc51207731.mseed,913.5663452148438,913.5663452148438,92.89,,,,,2.51,23.127,40.6878333,-123.5351667
XQ.ME42.01.BH,2008-09-08 11:36:22.710,3231.0,2008-09-08 11:36:54.945,0.967,P,nc51207829.mseed,86827.4453125,86827.4453125,11.94,-1,I,2008-09-08T11:36:55.0100,-1.0,2.63,4.618,39.8075,-123.203
XQ.ME43.01.BH,2008-09-08 11:36:22.710,3497.0,2008-09-08 11:36:57.605,0.961,P,nc51207829.mseed,9185.81640625,9185.81640625,26.45,-1,E,2008-09-08T11:36:57.6468,-1.0,2.63,4.618,39.8075,-123.203
XQ.ME44.01.BH,2008-09-08 11:36:22.710,3634.0,2008-09-08 11:36:58.975,0.957,P,nc51207829.mseed,21735.2890625,21735.2890625,34.97,-1,E,2008-09-08T11:36:59.0310,-1.0,2.63,4.618,39.8075,-123.203
BK.GASB..HH,2008-09-08 11:36:22.710,3835.0,2008-09-08 11:37:00.985,0.958,P,nc51207829.mseed,6807.9052734375,6807.9052734375,45.07,1,I,2008-09-08T11:37:01.0420,1.0,2.63,4.618,39.8075,-123.203
XQ.ME08.01.BH,2008-09-08 11:36:22.710,7835.0,2008-09-08 11:37:40.985,0.952,P,nc51207829.mseed,7766.4833984375,7766.4833984375,46.84,-1,E,2008-09-08T11:37:41.0600,-1.0,2.63,4.618,39.8075,-123.203
XQ.ME52.01.BH,2008-09-08 11:36:22.710,3966.0,2008-09-08 11:37:02.295,0.958,P,nc51207829.mseed,4228.4677734375,4228.4677734375,53.83,-1,I,2008-09-08T11:37:02.3110,-1.0,2.63,4.618,39.8075,-123.203
NC.GWR..EH,2008-09-08 11:36:22.710,4215.0,2008-09-08 11:37:04.785,0.966,P,nc51207829.mseed,969.25146484375,969.25146484375,67.34,,,2008-09-08T11:37:04.8467,-1.0,2.63,4.618,39.8075,-123.203
XQ.ME46.01.BH,2008-09-08 11:36:22.710,4259.0,2008-09-08 11:37:05.225,0.957,P,nc51207829.mseed,2052.42578125,2052.42578125,70.84,-1,I,2008-09-08T11:37:05.2706,-1.0,2.63,4.618,39.8075,-123.203
XQ.ME27.01.BH,2008-09-08 11:36:22.710,4257.0,2008-09-08 11:37:05.205,0.969,P,nc51207829.mseed,1779.8251953125,1779.8251953125,71.79,-1,I,2008-09-08T11:37:05.2406,-1.0,2.63,4.618,39.8075,-123.203
NC.GHL..EH,2008-09-08 11:36:22.710,4549.0,2008-09-08 11:37:08.125,0.955,P,nc51207829.mseed,1568.693359375,1568.693359375,86.6,,,2008-09-08T11:37:08.1926,-1.0,2.63,4.618,39.8075,-123.203
