station_id,begin_time,phase_index,phase_time,phase_score,phase_type,file_name,phase_amplitude,phase_amp,sta_dist_km,diting_polarity,diting_sharpness,pyrocko_phase_time,pyrocko_polarity,mag,depth,lat,long
BK.WDC..HH,2008-09-08 11:36:22.710,4748.0,2008-09-08 11:37:10.115,0.953,P,nc51207829.mseed,755.7188110351562,755.7188110351562,102.62,-1,E,2008-09-08T11:37:10.1818,-1.0,2.63,4.618,39.8075,-123.203
XQ.ME30.01.BH,2008-09-08 11:36:22.710,5016.0,2008-09-08 11:37:12.795,0.951,P,nc51207829.mseed,2160.583251953125,2160.583251953125,119.03,-1,I,2008-09-08T11:37:12.8153,-1.0,2.63,4.618,39.8075,-123.203
NC.KCPB..HN,2008-09-08 18:46:35.290,3667.0,2008-09-08 18:47:11.885,0.958,P,nc51207840.mseed,2.868044137954712,2.868044137954712,35.14,1,E,,,2.2,5.138,39.8085,-123.2041667
NC.GHL..EH,2008-09-08 18:46:35.290,4549.0,2008-09-08 18:47:20.705,0.957,P,nc51207840.mseed,321.99200439453125,321.99200439453125,86.72,,,,,2.2,5.138,39.8085,-123.2041667
NC.KCT..HN,2008-09-24 21:39:19.460,3775.0,2008-09-24 21:39:57.135,0.968,P,nc51208596.mseed,10.939924240112305,10.939924240112305,29.2,1,I,,,2.69,6.897,40.5151667,-124.678
XQ.ME34.01.BH,2008-09-24 21:39:19.460,3990.0,2008-09-24 21:39:59.285,0.971,P,nc51208596.mseed,19833.576171875,19833.576171875,46.84,1,I,2008-09-24T21:39:59.3389,1.0,2.69,6.897,40.5151667,-124.678
BK.JCC..HH,2008-09-24 21:39:19.460,4194.0,2008-09-24 21:40:01.325,0.977,P,nc51208596.mseed,2282.791259765625,2282.791259765625,64.29,1,I,2008-09-24T21:40:01.4000,1.0,2.69,6.897,40.5151667,-124.678
XQ.ME31.01.BH,2008-09-24 21:39:19.460,4239.0,2008-09-24 21:40:01.775,0.959,P,nc51208596.mseed,3557.851806640625,3557.851806640625,65.98,1,I,2008-09-24T21:40:01.8500,1.0,2.69,6.897,40.5151667,-124.678
XQ.ME32.01.BH,2008-09-24 21:39:19.460,4302.0,2008-09-24 21:40:02.405,0.97,P,nc51208596.mseed,3806.791748046875,3806.791748046875,69.88,1,I,2008-09-24T21:40:02.4524,1.0,2.69,6.897,40.5151667,-124.678
NC.KHMB..HN,2008-09-24 21:39:19.460,4577.0,2008-09-24 21:40:05.155,0.977,P,nc51208596.mseed,1.058182716369629,1.058182716369629,89.33,1,I,,,2.69,6.897,40.5151667,-124.678
NC.KHBB..HN,2008-09-24 21:39:19.460,5015.0,2008-09-24 21:40:09.535,0.98,P,nc51208596.mseed,0.9339234828948976,0.9339234828948976,124.5,-1,I,,,2.69,6.897,40.5151667,-124.678
XQ.ME29.01.BH,2008-09-24 21:39:19.460,5281.0,2008-09-24 21:40:12.195,0.972,P,nc51208596.mseed,8511.6689453125,8511.6689453125,147.17,1,I,2008-09-24T21:40:12.2585,1.0,2.69,6.897,40.5151667,-124.678
XQ.ME03.01.BH,2008-09-24 21:39:19.460,5271.0,2008-09-24 21:40:12.095,0.967,P,nc51208596.mseed,873.3411865234375,873.3411865234375,147.83,-1,I,2008-09-24T21:40:12.1800,-1.0,2.69,6.897,40.5151667,-124.678
NC.KRP..HN,2008-10-26 16:07:18.210,3422.0,2008-10-26 16:07:52.355,0.983,P,nc51210163.mseed,74.42884826660156,74.42884826660156,16.74,-1,I,,,3.9,15.66,41.1743333,-124.2215
NC.KRMB..HN,2008-10-26 16:07:18.210,3861.0,2008-10-26 16:07:56.745,0.956,P,nc51210163.mseed,15.30046558380127,15.30046558380127,46.77,-1,E,,,3.9,15.66,41.1743333,-124.2215
NC.KRP..HN,2008-10-27 13:08:41.090,3434.0,2008-10-27 13:09:15.355,0.974,P,nc51210202.mseed,11.994067192077637,11.994067192077637,16.21,-1,I,,,2.46,17.11,41.1898333,-124.2116667
XQ.ME09.01.BH,2008-10-27 13:08:41.090,4913.0,2008-10-27 13:09:30.145,0.96,P,nc51210202.mseed,702.5570068359375,702.5570068359375,125.27,,,,,2.46,17.11,41.1898333,-124.2116667
NC.KHBB..HN,2008-11-09 14:08:45.000,3533.0,2008-11-09 14:09:20.255,0.988,P,nc51210909.mseed,196.0050048828125,196.0050048828125,7.75,-1,I,,,2.79,28.488,40.6205,-123.2953333
XQ.ME27.01.BH,2008-11-09 14:08:45.000,3609.0,2008-11-09 14:09:21.015,0.962,P,nc51210909.mseed,77007.6640625,77007.6640625,22.08,1,I,,,2.79,28.488,40.6205,-123.2953333
PB.B935..EH,2008-11-09 14:08:45.000,3863.0,2008-11-09 14:09:23.555,0.976,P,nc51210909.mseed,16152.9580078125,16152.9580078125,28.32,1,I,,,2.79,28.488,40.6205,-123.2953333
XQ.ME30.01.BH,2008-11-09 14:08:45.000,3710.0,2008-11-09 14:09:22.025,0.974,P,nc51210909.mseed,72526.765625,72526.765625,33.61,-1,I,,,2.79,28.488,40.6205,-123.2953333
XQ.ME08.01.BH,2008-11-09 14:08:45.000,3869.0,2008-11-09 14:09:23.615,0.967,P,nc51210909.mseed,9079.8681640625,9079.8681640625,44.26,-1,E,,,2.79,28.488,40.6205,-123.2953333
XQ.ME39.01.BH,2008-11-09 14:08:45.000,4002.0,2008-11-09 14:09:24.945,0.971,P,nc51210909.mseed,11210.9609375,11210.9609375,54.3,-1,I,,,2.79,28.488,40.6205,-123.2953333
XQ.ME29.01.BH,2008-11-09 14:08:45.000,4039.0,2008-11-09 14:09:25.315,0.969,P,nc51210909.mseed,88378.578125,88378.578125,59.36,-1,E,,,2.79,28.488,40.6205,-123.2953333
BK.WDC..HH,2008-11-09 14:08:45.000,4094.0,2008-11-09 14:09:25.865,0.979,P,nc51210909.mseed,4876.603515625,4876.603515625,64.0,1,I,,,2.79,28.488,40.6205,-123.2953333
XQ.ME34.01.BH,2008-11-09 14:08:45.000,4198.0,2008-11-09 14:09:26.905,0.963,P,nc51210909.mseed,10498.857421875,10498.857421875,72.08,1,I,,,2.79,28.488,40.6205,-123.2953333
NC.KMPB..HN,2008-11-09 14:08:45.000,4206.0,2008-11-09 14:09:26.985,0.973,P,nc51210909.mseed,2.4388351440429688,2.4388351440429688,73.5,1,I,,,2.79,28.488,40.6205,-123.2953333
PB.B047..EH,2008-11-09 14:08:45.000,4331.0,2008-11-09 14:09:28.235,0.962,P,nc51210909.mseed,42.98833465576172,42.98833465576172,84.85,1,I,,,2.79,28.488,40.6205,-123.2953333
PB.B046..EH,2008-11-09 14:08:45.000,4386.0,2008-11-09 14:09:28.785,0.962,P,nc51210909.mseed,25.750600814819336,25.750600814819336,90.18,1,E,,,2.79,28.488,40.6205,-123.2953333
XQ.ME49.01.BH,2008-11-09 14:08:45.000,4445.0,2008-11-09 14:09:29.375,0.953,P,nc51210909.mseed,2988.516845703125,2988.516845703125,91.49,-1,I,,,2.79,28.488,40.6205,-123.2953333
XQ.ME42.01.BH,2008-11-09 14:08:45.000,4608.0,2008-11-09 14:09:31.005,0.951,P,nc51210909.mseed,2259.333740234375,2259.333740234375,100.62,-1,I,,,2.79,28.488,40.6205,-123.2953333
NC.KHBB..HN,2008-11-09 15:13:58.120,3528.0,2008-11-09 15:14:33.325,0.988,P,nc51210912.mseed,7.509996891021728,7.509996891021728,8.88,-1,I,,,2.23,28.128,40.6278333,-123.3158333
PB.B935..EH,2008-11-09 15:13:58.120,3855.0,2008-11-09 15:14:36.595,0.98,P,nc51210912.mseed,1632.9302978515625,1632.9302978515625,27.38,1,I,,,2.23,28.128,40.6278333,-123.3158333
XQ.ME30.01.BH,2008-11-09 15:13:58.120,3703.0,2008-11-09 15:14:35.075,0.968,P,nc51210912.mseed,5303.95166015625,5303.95166015625,31.84,,,,,2.23,28.128,40.6278333,-123.3158333
XQ.ME37.01.BH,2008-11-09 15:13:58.120,3935.0,2008-11-09 15:14:37.395,0.963,P,nc51210912.mseed,4111.5283203125,4111.5283203125,47.67,,,,,2.23,28.128,40.6278333,-123.3158333
XQ.ME29.01.BH,2008-11-09 15:13:58.120,4047.0,2008-11-09 15:14:38.515,0.962,P,nc51210912.mseed,12305.46875,12305.46875,58.97,-1,I,,,2.23,28.128,40.6278333,-123.3158333
BK.WDC..HH,2008-11-09 15:13:58.120,4121.0,2008-11-09 15:14:39.255,0.955,P,nc51210912.mseed,1042.554443359375,1042.554443359375,65.78,1,E,,,2.23,28.128,40.6278333,-123.3158333
XQ.ME09.01.BH,2008-11-09 15:13:58.120,4183.0,2008-11-09 15:14:39.875,0.951,P,nc51210912.mseed,2342.658935546875,2342.658935546875,71.15,,,,,2.23,28.128,40.6278333,-123.3158333
PB.B933..EH,2008-11-09 15:13:58.120,4338.0,2008-11-09 15:14:41.425,0.978,P,nc51210912.mseed,361.7796630859375,361.7796630859375,84.0,-1,I,,,2.23,28.128,40.6278333,-123.3158333
XQ.ME31.01.BH,2008-11-11 11:25:54.620,6411.0,2008-11-11 11:26:58.655,0.958,P,nc51211012.mseed,1865.037841796875,1865.037841796875,23.57,,,,,2.41,7.319,40.8361667,-124.1823333
XQ.ME31.01.BH,2008-11-11 11:25:54.620,3521.0,2008-11-11 11:26:29.755,0.954,P,nc51211012.mseed,6166.041015625,6166.041015625,23.57,,,,,2.41,7.319,40.8361667,-124.1823333
XQ.ME32.01.BH,2008-11-11 11:25:54.620,3802.0,2008-11-11 11:26:32.565,0.962,P,nc51211012.mseed,14024.7548828125,14024.7548828125,38.59,,,,,2.41,7.319,40.8361667,-124.1823333
NC.KMPB..HN,2008-11-11 11:25:54.620,3977.0,2008-11-11 11:26:34.315,0.985,P,nc51211012.mseed,6.7037272453308105,6.7037272453308105,46.82,1,I,,,2.41,7.319,40.8361667,-124.1823333
NC.KMPB..HN,2008-11-11 11:25:54.620,6864.0,2008-11-11 11:27:03.185,0.978,P,nc51211012.mseed,1.395352482795715,1.395352482795715,46.82,1,I,,,2.41,7.319,40.8361667,-124.1823333
XQ.ME30.01.BH,2008-11-11 11:25:54.620,3994.0,2008-11-11 11:26:34.485,0.974,P,nc51211012.mseed,2898.774658203125,2898.774658203125,52.07,,,,,2.41,7.319,40.8361667,-124.1823333
PB.B046..EH,2008-11-11 11:25:54.620,4119.0,2008-11-11 11:26:35.735,0.973,P,nc51211012.mseed,180.18673706054688,180.18673706054688,57.75,1,E,,,2.41,7.319,40.8361667,-124.1823333
XQ.ME36.01.BH,2008-11-11 11:25:54.620,4228.0,2008-11-11 11:26:36.825,0.975,P,nc51211012.mseed,9961.75,9961.75,65.31,,,,,2.41,7.319,40.8361667,-124.1823333
XQ.ME36.01.BH,2008-11-11 11:25:54.620,7131.0,2008-11-11 11:27:05.855,0.966,P,nc51211012.mseed,2495.48095703125,2495.48095703125,65.31,1,E,,,2.41,7.319,40.8361667,-124.1823333
NC.KRMB..HN,2008-11-11 11:25:54.620,4429.0,2008-11-11 11:26:38.835,0.955,P,nc51211012.mseed,1.3875316381454468,1.3875316381454468,79.67,1,I,,,2.41,7.319,40.8361667,-124.1823333
XQ.ME03.01.BH,2008-11-11 11:25:54.620,4662.0,2008-11-11 11:26:41.165,0.98,P,nc51211012.mseed,1669.555419921875,1669.555419921875,99.42,,,,,2.41,7.319,40.8361667,-124.1823333
XQ.ME08.01.BH,2008-11-11 11:25:54.620,4822.0,2008-11-11 11:26:42.765,0.966,P,nc51211012.mseed,1220.7716064453125,1220.7716064453125,100.88,,,,,2.41,7.319,40.8361667,-124.1823333
XQ.ME13.01.BH,2008-11-11 11:25:54.620,4854.0,2008-11-11 11:26:43.085,0.953,P,nc51211012.mseed,740.4369506835938,740.4369506835938,107.0,,,,,2.41,7.319,40.8361667,-124.1823333
PB.B935..EH,2008-11-16 12:37:53.850,3537.0,2008-11-16 12:38:29.145,0.98,P,nc51211334.mseed,531.1741333007812,531.1741333007812,16.73,1,I,,,2.02,23.562,40.3728333,-123.433
XQ.ME08.01.BH,2008-11-16 12:37:53.850,3565.0,2008-11-16 12:38:29.425,0.98,P,nc51211334.mseed,4574.47216796875,4574.47216796875,19.97,-1,I,,,2.02,23.562,40.3728333,-123.433
XQ.ME37.01.BH,2008-11-16 12:37:53.850,3582.0,2008-11-16 12:38:29.595,0.981,P,nc51211334.mseed,5384.4775390625,5384.4775390625,21.16,1,I,,,2.02,23.562,40.3728333,-123.433
XQ.ME39.01.BH,2008-11-16 12:37:53.850,3604.0,2008-11-16 12:38:29.815,0.985,P,nc51211334.mseed,5205.9599609375,5205.9599609375,24.67,1,I,,,2.02,23.562,40.3728333,-123.433
XQ.ME27.01.BH,2008-11-16 12:37:53.850,3599.0,2008-11-16 12:38:29.765,0.972,P,nc51211334.mseed,1254.40869140625,1254.40869140625,25.22,1,I,,,2.02,23.562,40.3728333,-123.433
XQ.ME35.01.BH,2008-11-16 12:37:53.850,3631.0,2008-11-16 12:38:30.085,0.984,P,nc51211334.mseed,12116.4189453125,12116.4189453125,29.4,1,I,,,2.02,23.562,40.3728333,-123.433
NC.KMR..HN,2008-11-16 12:37:53.850,3683.0,2008-11-16 12:38:30.605,0.981,P,nc51211334.mseed,2.401020050048828,2.401020050048828,30.14,1,I,,,2.02,23.562,40.3728333,-123.433
PB.B049..EH,2008-11-16 12:37:53.850,3733.0,2008-11-16 12:38:31.105,0.984,P,nc51211334.mseed,3849.998046875,3849.998046875,36.15,1,I,,,2.02,23.562,40.3728333,-123.433
NC.KHBB..HN,2008-11-16 12:37:53.850,3749.0,2008-11-16 12:38:31.265,0.981,P,nc51211334.mseed,0.9694368243217468,0.9694368243217468,36.65,1,I,,,2.02,23.562,40.3728333,-123.433
XQ.ME30.01.BH,2008-11-16 12:37:53.850,3950.0,2008-11-16 12:38:33.275,0.966,P,nc51211334.mseed,1170.97509765625,1170.97509765625,53.39,-1,I,,,2.02,23.562,40.3728333,-123.433
PB.B933..EH,2008-11-16 12:37:53.850,4006.0,2008-11-16 12:38:33.835,0.958,P,nc51211334.mseed,958.6705322265624,958.6705322265624,57.34,1,E,,,2.02,23.562,40.3728333,-123.433
NC.KMPB..HN,2008-11-16 12:37:53.850,4044.0,2008-11-16 12:38:34.215,0.98,P,nc51211334.mseed,0.7296466827392578,0.7296466827392578,58.6,-1,I,,,2.02,23.562,40.3728333,-123.433
XQ.ME13.01.BH,2008-11-16 12:37:53.850,4054.0,2008-11-16 12:38:34.315,0.955,P,nc51211334.mseed,1488.53564453125,1488.53564453125,61.55,1,I,,,2.02,23.562,40.3728333,-123.433
BK.WDC..HH,2008-11-16 12:37:53.850,4285.0,2008-11-16 12:38:36.625,0.965,P,nc51211334.mseed,555.706298828125,555.706298828125,79.05,1,I,,,2.02,23.562,40.3728333,-123.433
XQ.ME29.01.BH,2008-11-16 12:37:53.850,4431.0,2008-11-16 12:38:38.085,0.961,P,nc51211334.mseed,3710.88671875,3710.88671875,88.91,1,I,,,2.02,23.562,40.3728333,-123.433
NC.KCT..HN,2008-12-31 21:47:14.740,3654.0,2008-12-31 21:47:51.205,0.978,P,nc51214355.mseed,3.2268950939178467,3.2268950939178467,28.5,1,I,,,2.15,10.887,40.3301667,-124.6141667
NC.KMPB..HN,2008-12-31 21:47:14.740,3833.0,2008-12-31 21:47:52.995,0.962,P,nc51214355.mseed,1.4793177843093872,1.4793177843093872,43.0,-1,E,,,2.15,10.887,40.3301667,-124.6141667
XQ.ME34.01.BH,2008-12-31 21:47:14.740,3901.0,2008-12-31 21:47:53.675,0.967,P,nc51214355.mseed,6536.876953125,6536.876953125,44.7,,,,,2.15,10.887,40.3301667,-124.6141667
PB.B933..EH,2008-12-31 21:47:14.740,4109.0,2008-12-31 21:47:55.755,0.974,P,nc51214355.mseed,1374.686767578125,1374.686767578125,62.59,-1,I,,,2.15,10.887,40.3301667,-124.6141667
XQ.ME30.01.BH,2009-01-18 22:27:25.580,14448.0,2009-01-18 22:29:49.985,0.981,P,nc51215473.mseed,2195.069091796875,2195.069091796875,13.52,1,I,,,3.01,26.63,40.963,-123.5376667
XQ.ME30.01.BH,2009-01-18 22:27:25.580,3514.0,2009-01-18 22:28:00.645,0.978,P,nc51215473.mseed,77931.984375,77931.984375,13.52,-1,I,,,3.01,26.63,40.963,-123.5376667
NC.KHMB..HN,2009-01-18 22:27:25.580,3574.0,2009-01-18 22:28:01.245,0.96,P,nc51215473.mseed,35.683494567871094,35.683494567871094,19.12,1,I,,,3.01,26.63,40.963,-123.5376667
NC.KHBB..HN,2009-01-18 22:27:25.580,3843.0,2009-01-18 22:28:03.935,0.963,P,nc51215473.mseed,21.921161651611328,21.921161651611328,43.05,1,E,,,3.01,26.63,40.963,-123.5376667
XQ.ME31.01.BH,2009-01-18 22:27:25.580,3864.0,2009-01-18 22:28:04.145,0.959,P,nc51215473.mseed,25455.1328125,25455.1328125,43.68,-1,I,,,3.01,26.63,40.963,-123.5376667
BK.JCC..HH,2009-01-18 22:27:25.580,3834.0,2009-01-18 22:28:03.845,0.958,P,nc51215473.mseed,33236.265625,33236.265625,44.49,-1,E,,,3.01,26.63,40.963,-123.5376667
NC.KRP..HN,2009-01-18 22:27:25.580,3886.0,2009-01-18 22:28:04.365,0.976,P,nc51215473.mseed,12.210190773010254,12.210190773010254,46.19,1,I,,,3.01,26.63,40.963,-123.5376667
PB.B935..EH,2009-01-18 22:27:25.580,3991.0,2009-01-18 22:28:05.415,0.969,P,nc51215473.mseed,12007.087890625,12007.087890625,53.86,1,E,,,3.01,26.63,40.963,-123.5376667
XQ.ME13.01.BH,2009-01-18 22:27:25.580,4000.0,2009-01-18 22:28:05.505,0.97,P,nc51215473.mseed,28935.20703125,28935.20703125,56.72,-1,E,,,3.01,26.63,40.963,-123.5376667
XQ.ME27.01.BH,2009-01-18 22:27:25.580,4131.0,2009-01-18 22:28:06.815,0.966,P,nc51215473.mseed,23878.423828125,23878.423828125,65.22,,,,,3.01,26.63,40.963,-123.5376667
XQ.ME09.01.BH,2009-01-18 22:27:25.580,4158.0,2009-01-18 22:28:07.085,0.955,P,nc51215473.mseed,15808.1767578125,15808.1767578125,69.62,,,,,3.01,26.63,40.963,-123.5376667
PB.B049..EH,2009-01-18 22:27:25.580,4350.0,2009-01-18 22:28:09.005,0.962,P,nc51215473.mseed,1568.560302734375,1568.560302734375,84.03,1,I,,,3.01,26.63,40.963,-123.5376667
XQ.ME08.01.BH,2009-01-18 22:27:25.580,4387.0,2009-01-18 22:28:09.375,0.953,P,nc51215473.mseed,3288.100830078125,3288.100830078125,84.61,,,,,3.01,26.63,40.963,-123.5376667
PB.B046..EH,2009-01-18 22:27:25.580,4476.0,2009-01-18 22:28:10.265,0.962,P,nc51215473.mseed,54.03106689453125,54.03106689453125,95.16,-1,I,,,3.01,26.63,40.963,-123.5376667
XQ.ME36.01.BH,2009-01-18 22:27:25.580,4496.0,2009-01-18 22:28:10.465,0.965,P,nc51215473.mseed,3339.287109375,3339.287109375,95.44,,,,,3.01,26.63,40.963,-123.5376667
PB.B047..EH,2009-01-18 22:27:25.580,4486.0,2009-01-18 22:28:10.365,0.971,P,nc51215473.mseed,66.04759979248047,66.04759979248047,95.56,-1,E,,,3.01,26.63,40.963,-123.5376667
PB.B933..EH,2009-01-18 22:27:25.580,4643.0,2009-01-18 22:28:11.935,0.974,P,nc51215473.mseed,520.4791870117188,520.4791870117188,106.73,1,I,,,3.01,26.63,40.963,-123.5376667
XQ.ME30.01.BH,2009-01-22 10:21:11.940,3498.0,2009-01-22 10:21:46.845,0.985,P,nc51215717.mseed,8602.3759765625,8602.3759765625,12.83,,,,,2.1,24.705,40.9555,-123.5305
NC.KHMB..HN,2009-01-22 10:21:11.940,3569.0,2009-01-22 10:21:47.555,0.972,P,nc51215717.mseed,2.922527551651001,2.922527551651001,19.24,1,I,,,2.1,24.705,40.9555,-123.5305
XQ.ME31.01.BH,2009-01-22 10:21:11.940,3868.0,2009-01-22 10:21:50.545,0.951,P,nc51215717.mseed,1901.1292724609375,1901.1292724609375,43.66,,,,,2.1,24.705,40.9555,-123.5305
BK.JCC..HH,2009-01-22 10:21:11.940,3835.0,2009-01-22 10:21:50.215,0.965,P,nc51215717.mseed,2344.814453125,2344.814453125,44.77,-1,I,,,2.1,24.705,40.9555,-123.5305
XQ.ME27.01.BH,2009-01-22 10:21:11.940,4118.0,2009-01-22 10:21:53.045,0.975,P,nc51215717.mseed,1298.9600830078125,1298.9600830078125,64.19,,,,,2.1,24.705,40.9555,-123.5305
XQ.ME08.01.BH,2009-01-22 10:21:11.940,4375.0,2009-01-22 10:21:55.615,0.967,P,nc51215717.mseed,506.3548278808594,506.3548278808594,83.66,,,,,2.1,24.705,40.9555,-123.5305
PB.B933..EH,2009-01-22 10:21:11.940,4625.0,2009-01-22 10:21:58.115,0.978,P,nc51215717.mseed,45.60960006713867,45.60960006713867,106.16,1,I,,,2.1,24.705,40.9555,-123.5305
XQ.ME08.01.BH,2009-05-03 10:59:26.180,3665.0,2009-05-03 11:00:02.755,0.98,P,nc51220922.mseed,3810.82763671875,3810.82763671875,21.32,,,,,2.3,33.923,40.1375,-123.0801667
XQ.ME27.01.BH,2009-05-03 10:59:26.180,3757.0,2009-05-03 11:00:03.675,0.965,P,nc51220922.mseed,2596.8056640625,2596.8056640625,35.61,1,I,,,2.3,33.923,40.1375,-123.0801667
XQ.ME38.01.BH,2009-05-03 10:59:26.180,3793.0,2009-05-03 11:00:04.035,0.956,P,nc51220922.mseed,2029.9169921875,2029.9169921875,36.29,,,,,2.3,33.923,40.1375,-123.0801667
NC.GRO..EH,2009-05-03 10:59:26.180,3881.0,2009-05-03 11:00:04.915,0.988,P,nc51220922.mseed,547.5943603515625,547.5943603515625,42.65,1,I,,,2.3,33.923,40.1375,-123.0801667
XQ.ME39.01.BH,2009-05-03 10:59:26.180,3865.0,2009-05-03 11:00:04.755,0.986,P,nc51220922.mseed,2746.37060546875,2746.37060546875,44.16,,,,,2.3,33.923,40.1375,-123.0801667
XQ.ME42.01.BH,2009-05-03 10:59:26.180,3958.0,2009-05-03 11:00:05.685,0.957,P,nc51220922.mseed,1172.495849609375,1172.495849609375,49.78,,,,,2.3,33.923,40.1375,-123.0801667
XQ.ME37.01.BH,2009-05-03 10:59:26.180,3950.0,2009-05-03 11:00:05.605,0.957,P,nc51220922.mseed,1283.3441162109375,1283.3441162109375,51.52,1,I,,,2.3,33.923,40.1375,-123.0801667
PB.B935..EH,2009-05-03 10:59:26.180,4019.0,2009-05-03 11:00:06.295,0.964,P,nc51220922.mseed,293.171875,293.171875,56.5,1,I,,,2.3,33.923,40.1375,-123.0801667
NC.KHBB..HN,2009-05-03 10:59:26.180,4042.0,2009-05-03 11:00:06.525,0.952,P,nc51220922.mseed,1.0029693841934204,1.0029693841934204,59.2,-1,E,,,2.3,33.923,40.1375,-123.0801667
PB.B049..EH,2009-05-03 10:59:26.180,4064.0,2009-05-03 11:00:06.745,0.982,P,nc51220922.mseed,701.936279296875,701.936279296875,63.95,-1,I,,,2.3,33.923,40.1375,-123.0801667
XQ.ME35.01.BH,2009-05-03 10:59:26.180,4070.0,2009-05-03 11:00:06.805,0.981,P,nc51220922.mseed,1124.8699951171875,1124.8699951171875,68.52,,,,,2.3,33.923,40.1375,-123.0801667
PB.B933..EH,2009-05-03 10:59:26.180,4197.0,2009-05-03 11:00:08.075,0.964,P,nc51220922.mseed,268.34906005859375,268.34906005859375,76.28,1,I,,,2.3,33.923,40.1375,-123.0801667
PB.B045..EH,2009-05-03 10:59:26.180,4313.0,2009-05-03 11:00:09.235,0.984,P,nc51220922.mseed,85.55726623535156,85.55726623535156,84.68,1,I,,,2.3,33.923,40.1375,-123.0801667
NC.OGO..EH,2009-05-03 10:59:26.180,4898.0,2009-05-03 11:00:15.085,0.97,P,nc51220922.mseed,144.09800720214844,144.09800720214844,136.47,,,,,2.3,33.923,40.1375,-123.0801667
NC.KCT..HN,2009-05-05 01:11:27.490,3411.0,2009-05-05 01:12:01.525,0.967,P,nc51221033.mseed,1.81666898727417,1.81666898727417,17.2,-1,I,,,2.08,6.43,40.548,-124.1581667
PB.B046..EH,2009-05-05 01:11:27.490,3617.0,2009-05-05 01:12:03.585,0.98,P,nc51221033.mseed,3295.06494140625,3295.06494140625,27.29,-1,I,,,2.08,6.43,40.548,-124.1581667
BK.JCC..HH,2009-05-05 01:11:27.490,3662.0,2009-05-05 01:12:04.035,0.975,P,nc51221033.mseed,5937.80419921875,5937.80419921875,31.84,1,I,,,2.08,6.43,40.548,-124.1581667
PB.B047..EH,2009-05-05 01:11:27.490,3777.0,2009-05-05 01:12:05.185,0.952,P,nc51221033.mseed,716.5317993164062,716.5317993164062,33.11,-1,I,,,2.08,6.43,40.548,-124.1581667
PB.B935..EH,2009-05-05 01:11:27.490,4166.0,2009-05-05 01:12:09.075,0.951,P,nc51221033.mseed,79.62960052490234,79.62960052490234,50.17,1,I,,,2.08,6.43,40.548,-124.1581667
