station_id,begin_time,phase_index,phase_time,phase_score,phase_type,file_name,phase_amplitude,phase_amp,sta_dist_km,diting_polarity,diting_sharpness,pyrocko_phase_time,pyrocko_polarity,mag,depth,lat,long
XQ.ME36.01.BH,2008-06-02 03:22:44.650,3507.0,2008-06-02 03:23:19.645,0.956,P,nc71122560.mseed,6515.080078125,6515.080078125,24.4,-1,I,,,2.01,8.067,40.2918333,-124.445
XQ.ME34.01.BH,2008-06-02 03:22:44.650,3690.0,2008-06-02 03:23:21.475,0.976,P,nc71122560.mseed,3253.876708984375,3253.876708984375,34.35,1,I,,,2.01,8.067,40.2918333,-124.445
XQ.ME32.01.BH,2008-06-02 03:22:44.650,4154.0,2008-06-02 03:23:26.115,0.96,P,nc71122560.mseed,1269.888916015625,1269.888916015625,59.78,1,I,,,2.01,8.067,40.2918333,-124.445
XQ.ME07.01.BH,2008-06-18 14:59:03.690,4638.0,2008-06-18 14:59:49.995,0.978,P,nc71126035.mseed,404.3009643554687,404.3009643554687,89.21,,,,,2.16,0.406,40.5791667,-124.6318333
XQ.ME30.01.BH,2008-06-18 14:59:03.690,4711.0,2008-06-18 14:59:50.725,0.953,P,nc71126035.mseed,435.0372924804687,435.0372924804687,94.79,,,,,2.16,0.406,40.5791667,-124.6318333
XQ.ME56.01.BH,2008-06-26 21:55:23.520,5399.0,2008-06-26 21:56:17.435,0.958,P,nc71128770.mseed,1078.5538330078125,1078.5538330078125,147.3,,,,,2.56,3.335,40.489,-124.4145
BK.KNEE.00.HN,2022-12-20 15:32:31.090,3418.0,2022-12-20 15:33:05.195,0.98,P,nc71129529.mseed,7.517665863037109,7.517665863037109,12.21,-1,I,,,2.91,18.27,40.6371667,-124.0028333
CE.89255.10.HN,2022-12-20 15:32:31.090,3443.0,2022-12-20 15:33:05.445,0.976,P,nc71129529.mseed,54.947418212890625,54.947418212890625,13.13,,,,,2.91,18.27,40.6371667,-124.0028333
BK.BJES.00.HN,2022-12-20 15:32:31.090,3444.0,2022-12-20 15:33:05.455,0.98,P,nc71129529.mseed,10.838343620300291,10.838343620300291,14.7,,,,,2.91,18.27,40.6371667,-124.0028333
CE.89462.10.HN,2022-12-20 15:32:31.090,3495.0,2022-12-20 15:33:05.965,0.975,P,nc71129529.mseed,23.361846923828125,23.361846923828125,17.0,1,I,,,2.91,18.27,40.6371667,-124.0028333
NP.1582.10.HN,2022-12-20 15:32:31.090,3459.0,2022-12-20 15:33:05.605,0.985,P,nc71129529.mseed,87.880126953125,87.880126953125,17.33,,,,,2.91,18.27,40.6371667,-124.0028333
NP.1582.10.HN,2022-12-20 15:32:31.090,6100.0,2022-12-20 15:33:32.015,0.978,P,nc71129529.mseed,44.21818923950195,44.21818923950195,17.33,,,,,2.91,18.27,40.6371667,-124.0028333
NP.1586.10.HN,2022-12-20 15:32:31.090,3504.0,2022-12-20 15:33:06.055,0.99,P,nc71129529.mseed,74.49391174316406,74.49391174316406,18.45,,,,,2.91,18.27,40.6371667,-124.0028333
NP.1586.10.HN,2022-12-20 15:32:31.090,6032.0,2022-12-20 15:33:31.335,0.983,P,nc71129529.mseed,84.5426254272461,84.5426254272461,18.45,,,,,2.91,18.27,40.6371667,-124.0028333
CE.89781.10.HN,2022-12-20 15:32:31.090,3481.0,2022-12-20 15:33:05.825,0.98,P,nc71129529.mseed,92.0776596069336,92.0776596069336,20.12,-1,I,,,2.91,18.27,40.6371667,-124.0028333
NP.1581.10.HN,2022-12-20 15:32:31.090,3504.0,2022-12-20 15:33:06.055,0.986,P,nc71129529.mseed,38.536842346191406,38.536842346191406,20.44,,,,,2.91,18.27,40.6371667,-124.0028333
NP.1023.10.HN,2022-12-20 15:32:31.090,3585.0,2022-12-20 15:33:06.865,0.984,P,nc71129529.mseed,29.329160690307617,29.329160690307617,23.1,,,,,2.91,18.27,40.6371667,-124.0028333
NC.KMPB..HN,2022-12-20 15:32:31.090,3600.0,2022-12-20 15:33:07.015,0.985,P,nc71129529.mseed,8.447088241577148,8.447088241577148,26.39,-1,I,,,2.91,18.27,40.6371667,-124.0028333
BK.DMOR.00.HN,2022-12-20 15:32:31.090,3455.0,2022-12-20 15:33:05.565,0.983,P,nc71129529.mseed,5.829709529876709,5.829709529876709,26.58,,,,,2.91,18.27,40.6371667,-124.0028333
NC.KCR.03.HN,2022-12-20 15:32:31.090,3622.0,2022-12-20 15:33:07.235,0.984,P,nc71129529.mseed,6.29100227355957,6.29100227355957,28.03,,,,,2.91,18.27,40.6371667,-124.0028333
NP.1584B.10.HN,2022-12-20 15:32:31.090,3637.0,2022-12-20 15:33:07.385,0.977,P,nc71129529.mseed,9.013209342956545,9.013209342956545,28.95,,,,,2.91,18.27,40.6371667,-124.0028333
NP.1584B.10.HN,2022-12-20 15:32:31.090,5922.0,2022-12-20 15:33:30.235,0.971,P,nc71129529.mseed,9.50141429901123,9.50141429901123,28.95,,,,,2.91,18.27,40.6371667,-124.0028333
NC.KCT..HN,2022-12-20 15:32:31.090,3703.0,2022-12-20 15:33:08.045,0.96,P,nc71129529.mseed,2.375455141067505,2.375455141067505,33.55,1,I,,,2.91,18.27,40.6371667,-124.0028333
BK.RBOW.00.HN,2022-12-20 15:32:31.090,3714.0,2022-12-20 15:33:08.155,0.987,P,nc71129529.mseed,7.790083885192871,7.790083885192871,34.83,,,,,2.91,18.27,40.6371667,-124.0028333
NC.KHMB..HN,2022-12-20 15:32:31.090,3727.0,2022-12-20 15:33:08.285,0.977,P,nc71129529.mseed,11.580331802368164,11.580331802368164,34.88,-1,I,,,2.91,18.27,40.6371667,-124.0028333
PB.B935..EH,2022-12-20 15:32:31.090,3807.0,2022-12-20 15:33:09.085,0.981,P,nc71129529.mseed,6353.84326171875,6353.84326171875,40.42,1,I,,,2.91,18.27,40.6371667,-124.0028333
PB.B046..EH,2022-12-20 15:32:31.090,3826.0,2022-12-20 15:33:09.275,0.983,P,nc71129529.mseed,8914.6669921875,8914.6669921875,42.36,-1,I,,,2.91,18.27,40.6371667,-124.0028333
PB.B046..EH,2022-12-20 15:32:31.090,6158.0,2022-12-20 15:33:32.595,0.981,P,nc71129529.mseed,59704.66796875,59704.66796875,42.36,-1,I,,,2.91,18.27,40.6371667,-124.0028333
PB.B932..EH,2022-12-20 15:32:31.090,3838.0,2022-12-20 15:33:09.395,0.986,P,nc71129529.mseed,9505.48828125,9505.48828125,44.28,-1,I,,,2.91,18.27,40.6371667,-124.0028333
PB.B932..EH,2022-12-20 15:32:31.090,6226.0,2022-12-20 15:33:33.275,0.981,P,nc71129529.mseed,23429.51171875,23429.51171875,44.28,-1,I,,,2.91,18.27,40.6371667,-124.0028333
NC.KBU.01.HN,2022-12-20 15:32:31.090,3895.0,2022-12-20 15:33:09.965,0.984,P,nc71129529.mseed,6.630959987640381,6.630959987640381,45.3,-1,I,,,2.91,18.27,40.6371667,-124.0028333
NC.KPR.01.HN,2022-12-20 15:32:31.090,3891.0,2022-12-20 15:33:09.925,0.985,P,nc71129529.mseed,5.314585208892822,5.314585208892822,46.6,,,,,2.91,18.27,40.6371667,-124.0028333
PB.B049..EH,2022-12-20 15:32:31.090,3900.0,2022-12-20 15:33:10.015,0.989,P,nc71129529.mseed,12972.873046875,12972.873046875,47.02,1,I,,,2.91,18.27,40.6371667,-124.0028333
PB.B049..EH,2022-12-20 15:32:31.090,6590.0,2022-12-20 15:33:36.915,0.965,P,nc71129529.mseed,6439.12646484375,6439.12646484375,47.02,1,I,,,2.91,18.27,40.6371667,-124.0028333
NC.KCO..HN,2022-12-20 15:32:31.090,6270.0,2022-12-20 15:33:33.715,0.986,P,nc71129529.mseed,15.763426780700684,15.763426780700684,47.78,-1,I,,,2.91,18.27,40.6371667,-124.0028333
NC.KCO..HN,2022-12-20 15:32:31.090,3907.0,2022-12-20 15:33:10.085,0.976,P,nc71129529.mseed,4.829799652099609,4.829799652099609,47.78,-1,I,,,2.91,18.27,40.6371667,-124.0028333
NC.KTD.01.HN,2022-12-20 15:32:31.090,3860.0,2022-12-20 15:33:09.615,0.981,P,nc71129529.mseed,6.360167026519775,6.360167026519775,47.92,,,,,2.91,18.27,40.6371667,-124.0028333
BK.PETL.00.HN,2022-12-20 15:32:31.090,6210.0,2022-12-20 15:33:33.115,0.98,P,nc71129529.mseed,26.14469337463379,26.14469337463379,48.27,,,,,2.91,18.27,40.6371667,-124.0028333
NC.KMR..HN,2022-12-20 15:32:31.090,4028.0,2022-12-20 15:33:11.295,0.979,P,nc71129529.mseed,3.978435516357422,3.978435516357422,54.37,-1,I,,,2.91,18.27,40.6371667,-124.0028333
BK.BRIC.00.HN,2022-12-20 15:32:31.090,4174.0,2022-12-20 15:33:12.755,0.981,P,nc71129529.mseed,2.706782341003418,2.706782341003418,58.99,,,,,2.91,18.27,40.6371667,-124.0028333
BK.PRDS.00.HN,2022-12-20 15:32:31.090,4081.0,2022-12-20 15:33:11.825,0.97,P,nc71129529.mseed,5.201529502868652,5.201529502868652,59.13,-1,I,,,2.91,18.27,40.6371667,-124.0028333
BK.PRDS.00.HN,2022-12-20 15:32:31.090,6571.0,2022-12-20 15:33:36.725,0.956,P,nc71129529.mseed,14.923307418823242,14.923307418823242,59.13,-1,E,,,2.91,18.27,40.6371667,-124.0028333
NP.1591.10.HN,2022-12-20 15:32:31.090,4146.0,2022-12-20 15:33:12.475,0.958,P,nc71129529.mseed,7.827588081359863,7.827588081359863,61.75,,,,,2.91,18.27,40.6371667,-124.0028333
NC.KRMB..HN,2022-12-20 15:32:31.090,4539.0,2022-12-20 15:33:16.405,0.959,P,nc71129529.mseed,0.3004666566848755,0.3004666566848755,98.69,-1,I,,,2.91,18.27,40.6371667,-124.0028333
BK.MILL.00.HN,2022-12-20 15:32:31.090,4770.0,2022-12-20 15:33:18.715,0.964,P,nc71129529.mseed,0.3340886831283569,0.3340886831283569,118.67,-1,I,,,2.91,18.27,40.6371667,-124.0028333
XQ.ME31.01.BH,2008-07-01 09:15:27.850,4233.0,2008-07-01 09:16:10.105,0.952,P,nc71129735.mseed,1260.8790283203125,1260.8790283203125,60.85,-1,E,,,2.56,3.509,40.3448333,-124.468
BK.JCC..HH,2008-07-01 09:15:27.850,4230.0,2008-07-01 09:16:10.075,0.966,P,nc71129735.mseed,834.2809448242188,834.2809448242188,64.28,-1,E,,,2.56,3.509,40.3448333,-124.468
XQ.ME29.01.BH,2008-07-17 14:11:19.250,3691.0,2008-07-17 14:11:56.085,0.981,P,nc71133260.mseed,10460.369140625,10460.369140625,30.43,1,I,,,2.18,13.758,41.2213333,-123.488
XQ.ME07.01.BH,2008-07-17 14:11:19.250,3819.0,2008-07-17 14:11:57.365,0.963,P,nc71133260.mseed,2574.3642578125,2574.3642578125,36.06,1,I,,,2.18,13.758,41.2213333,-123.488
XQ.ME30.01.BH,2008-07-17 14:11:19.250,3803.0,2008-07-17 14:11:57.205,0.988,P,nc71133260.mseed,2159.411376953125,2159.411376953125,42.51,1,I,,,2.18,13.758,41.2213333,-123.488
NC.KRMB..HN,2008-07-17 14:11:19.250,4000.0,2008-07-17 14:11:59.175,0.975,P,nc71133260.mseed,0.8909390568733215,0.8909390568733215,48.55,1,I,,,2.18,13.758,41.2213333,-123.488
XQ.ME03.01.BH,2008-07-17 14:11:19.250,4177.0,2008-07-17 14:12:00.945,0.957,P,nc71133260.mseed,1099.4373779296875,1099.4373779296875,62.67,1,I,,,2.18,13.758,41.2213333,-123.488
XQ.ME27.01.BH,2008-07-17 14:11:19.250,4443.0,2008-07-17 14:12:03.605,0.955,P,nc71133260.mseed,516.5657958984375,516.5657958984375,89.83,-1,I,,,2.18,13.758,41.2213333,-123.488
XQ.ME36.01.BH,2008-08-01 02:23:54.830,3561.0,2008-08-01 02:24:30.365,0.971,P,nc71137085.mseed,2948.934814453125,2948.934814453125,36.23,,,,,2.26,3.136,40.568,-124.2481667
XQ.ME27.01.BH,2008-08-05 02:50:52.840,4218.0,2008-08-05 02:51:34.945,0.952,P,nc71138195.mseed,374.2669067382813,374.2669067382813,63.33,,,,,2.14,42.337,41.0216667,-123.0985
XQ.ME34.01.BH,2008-09-25 19:30:47.290,3538.0,2008-09-25 19:31:22.595,0.983,P,nc71155436.mseed,10081.5234375,10081.5234375,20.39,-1,I,,,2.12,8.882,40.6316667,-124.2683333
BK.JCC..HH,2008-09-25 19:30:47.290,3730.0,2008-09-25 19:31:24.515,0.974,P,nc71155436.mseed,915.5402221679688,915.5402221679688,28.86,-1,I,,,2.12,8.882,40.6316667,-124.2683333
NC.KMPB..HN,2008-10-20 11:07:50.500,3995.0,2008-10-20 11:08:30.375,0.967,P,nc71163066.mseed,1.024969220161438,1.024969220161438,43.0,1,E,,,2.51,3.292,40.5403333,-124.6015
BK.JCC..HH,2008-10-20 11:07:50.500,4162.0,2008-10-20 11:08:32.045,0.978,P,nc71163066.mseed,1228.6168212890625,1228.6168212890625,57.32,1,I,,,2.51,3.292,40.5403333,-124.6015
NC.KHMB..HN,2008-10-20 11:07:50.500,4546.0,2008-10-20 11:08:35.885,0.971,P,nc71163066.mseed,0.5280178785324097,0.5280178785324097,82.28,1,I,,,2.51,3.292,40.5403333,-124.6015
BK.JCC..HH,2008-10-28 07:46:41.283,4530.0,2008-10-28 07:47:26.508,0.958,P,nc71166021.mseed,441.2335815429687,441.2335815429687,85.27,1,I,,,2.25,4.377,41.101,-124.9708333
XQ.ME30.01.BH,2008-10-28 07:46:41.283,4999.0,2008-10-28 07:47:31.198,0.962,P,nc71166021.mseed,394.6230163574219,394.6230163574219,121.75,1,I,,,2.25,4.377,41.101,-124.9708333
PB.B046..EH,2008-11-15 15:27:33.770,3318.0,2008-11-15 15:28:06.875,0.982,P,nc71169161.mseed,385.9807434082031,385.9807434082031,9.96,1,I,,,2.0,14.447,40.2961667,-124.3965
PB.B047..EH,2008-11-15 15:27:33.770,3446.0,2008-11-15 15:28:08.155,0.979,P,nc71169161.mseed,264.3313903808594,264.3313903808594,19.95,1,I,,,2.0,14.447,40.2961667,-124.3965
XQ.ME36.01.BH,2008-11-15 15:27:33.770,3366.0,2008-11-15 15:28:07.355,0.969,P,nc71169161.mseed,16551.634765625,16551.634765625,20.5,,,,,2.0,14.447,40.2961667,-124.3965
NC.KMPB..HN,2008-11-15 15:27:33.770,3563.0,2008-11-15 15:28:09.325,0.988,P,nc71169161.mseed,2.360456943511963,2.360456943511963,27.01,1,I,,,2.0,14.447,40.2961667,-124.3965
XQ.ME34.01.BH,2008-11-15 15:27:33.770,3654.0,2008-11-15 15:28:10.235,0.982,P,nc71169161.mseed,5313.2998046875,5313.2998046875,30.89,,,,,2.0,14.447,40.2961667,-124.3965
PB.B933..EH,2008-11-15 15:27:33.770,3814.0,2008-11-15 15:28:11.835,0.986,P,nc71169161.mseed,1784.2958984375,1784.2958984375,44.87,-1,I,,,2.0,14.447,40.2961667,-124.3965
XQ.ME32.01.BH,2008-11-15 15:27:33.770,4077.0,2008-11-15 15:28:14.465,0.952,P,nc71169161.mseed,2084.318359375,2084.318359375,56.12,,,,,2.0,14.447,40.2961667,-124.3965
XQ.ME35.01.BH,2008-11-15 15:27:33.770,4038.0,2008-11-15 15:28:14.075,0.973,P,nc71169161.mseed,1846.773681640625,1846.773681640625,58.84,,,,,2.0,14.447,40.2961667,-124.3965
XQ.ME31.01.BH,2008-11-15 15:27:33.770,4118.0,2008-11-15 15:28:14.875,0.957,P,nc71169161.mseed,1243.702392578125,1243.702392578125,60.72,,,,,2.0,14.447,40.2961667,-124.3965
XQ.ME30.01.BH,2008-11-15 15:27:33.770,4522.0,2008-11-15 15:28:18.915,0.966,P,nc71169161.mseed,590.8078002929688,590.8078002929688,92.98,,,,,2.0,14.447,40.2961667,-124.3965
NC.KSXB..HN,2008-12-30 13:45:50.775,4824.0,2008-12-30 13:46:38.940,0.978,P,nc71180461.mseed,1.0569530725479126,1.0569530725479126,107.92,1,I,,,2.84,1.506,41.2501667,-124.9143333
XQ.ME30.01.BH,2008-12-30 13:45:50.775,4983.0,2008-12-30 13:46:40.530,0.953,P,nc71180461.mseed,2171.716064453125,2171.716064453125,122.12,1,E,2008-12-30T13:46:40.6010,1.0,2.84,1.506,41.2501667,-124.9143333
XQ.ME34.01.BH,2009-01-30 00:50:40.520,3999.0,2009-01-30 00:51:20.435,0.956,P,nc71188825.mseed,2862.941162109375,2862.941162109375,43.98,,,,,2.16,3.966,40.6938333,-124.5668333
BK.JCC..HH,2009-01-30 00:50:40.520,4019.0,2009-01-30 00:51:20.635,0.96,P,nc71188825.mseed,1489.9847412109375,1489.9847412109375,47.4,1,I,,,2.16,3.966,40.6938333,-124.5668333
PB.B046..EH,2009-01-30 00:50:40.520,4019.0,2009-01-30 00:51:20.635,0.967,P,nc71188825.mseed,1043.1824951171875,1043.1824951171875,47.73,1,E,,,2.16,3.966,40.6938333,-124.5668333
XQ.ME31.01.BH,2009-01-30 00:50:40.520,4111.0,2009-01-30 00:51:21.555,0.952,P,nc71188825.mseed,1084.995849609375,1084.995849609375,52.47,,,,,2.16,3.966,40.6938333,-124.5668333
XQ.ME35.01.BH,2009-01-30 00:50:40.520,4442.0,2009-01-30 00:51:24.865,0.961,P,nc71188825.mseed,1009.1395263671876,1009.1395263671876,73.17,,,,,2.16,3.966,40.6938333,-124.5668333
PB.B049..EH,2009-01-30 00:50:40.520,4476.0,2009-01-30 00:51:25.205,0.965,P,nc71188825.mseed,205.89793395996097,205.89793395996097,81.13,1,E,,,2.16,3.966,40.6938333,-124.5668333
XQ.ME30.01.BH,2009-01-30 00:50:40.520,4537.0,2009-01-30 00:51:25.815,0.97,P,nc71188825.mseed,482.4508972167969,482.4508972167969,86.19,,,,,2.16,3.966,40.6938333,-124.5668333
PB.B933..EH,2009-01-30 00:50:40.520,4538.0,2009-01-30 00:51:25.825,0.972,P,nc71188825.mseed,267.2575378417969,267.2575378417969,86.78,-1,E,,,2.16,3.966,40.6938333,-124.5668333
NC.KHBB..HN,2009-01-30 00:50:40.520,4938.0,2009-01-30 00:51:29.825,0.956,P,nc71188825.mseed,0.3935802280902862,0.3935802280902862,113.96,-1,E,,,2.16,3.966,40.6938333,-124.5668333
XQ.ME03.01.BH,2009-01-30 00:50:40.520,4990.0,2009-01-30 00:51:30.345,0.957,P,nc71188825.mseed,811.9235229492188,811.9235229492188,125.88,,,,,2.16,3.966,40.6938333,-124.5668333
XQ.ME29.01.BH,2009-01-30 00:50:40.520,5095.0,2009-01-30 00:51:31.395,0.957,P,nc71188825.mseed,637.063720703125,637.063720703125,130.03,,,,,2.16,3.966,40.6938333,-124.5668333
XQ.ME34.01.BH,2009-03-18 06:14:36.970,3606.0,2009-03-18 06:15:12.955,0.963,P,nc71197890.mseed,29144.203125,29144.203125,26.56,,,,,2.5,8.136,40.6436667,-124.3593333
PB.B046..EH,2009-03-18 06:14:36.970,3554.0,2009-03-18 06:15:12.435,0.984,P,nc71197890.mseed,9646.6884765625,9646.6884765625,36.28,-1,I,,,2.5,8.136,40.6436667,-124.3593333
XQ.ME32.01.BH,2009-03-18 06:14:36.970,3914.0,2009-03-18 06:15:16.035,0.965,P,nc71197890.mseed,8557.0244140625,8557.0244140625,42.74,,,,,2.5,8.136,40.6436667,-124.3593333
PB.B047..EH,2009-03-18 06:14:36.970,3721.0,2009-03-18 06:15:14.105,0.968,P,nc71197890.mseed,10853.5107421875,10853.5107421875,46.58,1,E,,,2.5,8.136,40.6436667,-124.3593333
XQ.ME33.01.BH,2009-03-18 06:14:36.970,3990.0,2009-03-18 06:15:16.795,0.955,P,nc71197890.mseed,3194.0,3194.0,50.46,1,I,,,2.5,8.136,40.6436667,-124.3593333
XQ.ME35.01.BH,2009-03-18 06:14:36.970,4059.0,2009-03-18 06:15:17.485,0.962,P,nc71197890.mseed,7034.80810546875,7034.80810546875,54.76,,,,,2.5,8.136,40.6436667,-124.3593333
PB.B049..EH,2009-03-18 06:14:36.970,4069.0,2009-03-18 06:15:17.585,0.962,P,nc71197890.mseed,1176.865234375,1176.865234375,64.27,1,E,,,2.5,8.136,40.6436667,-124.3593333
PB.B935..EH,2009-03-18 06:14:36.970,4241.0,2009-03-18 06:15:19.305,0.973,P,nc71197890.mseed,492.9541320800781,492.9541320800781,69.05,1,I,,,2.5,8.136,40.6436667,-124.3593333
PB.B933..EH,2009-03-18 06:14:36.970,4086.0,2009-03-18 06:15:17.755,0.975,P,nc71197890.mseed,1417.52392578125,1417.52392578125,72.8,1,I,,,2.5,8.136,40.6436667,-124.3593333
NC.KHBB..HN,2009-03-18 06:14:36.970,4622.0,2009-03-18 06:15:23.115,0.981,P,nc71197890.mseed,0.7511036396026611,0.7511036396026611,96.41,1,I,,,2.5,8.136,40.6436667,-124.3593333
XQ.ME34.01.BH,2009-03-21 02:00:05.290,3625.0,2009-03-21 02:00:41.465,0.967,P,nc71199035.mseed,4204.4697265625,4204.4697265625,24.6,,,,,2.01,4.762,40.6613333,-124.2993333
BK.JCC..HH,2009-03-21 02:00:05.290,3766.0,2009-03-21 02:00:42.875,0.977,P,nc71199035.mseed,1436.9246826171875,1436.9246826171875,28.63,-1,I,,,2.01,4.762,40.6613333,-124.2993333
XQ.ME31.01.BH,2009-03-21 02:00:05.290,3814.0,2009-03-21 02:00:43.355,0.973,P,nc71199035.mseed,1271.958984375,1271.958984375,30.53,,,,,2.01,4.762,40.6613333,-124.2993333
NC.KMPB..HN,2009-03-21 02:00:05.290,3685.0,2009-03-21 02:00:42.065,0.96,P,nc71199035.mseed,1.4695979356765747,1.4695979356765747,31.05,-1,E,,,2.01,4.762,40.6613333,-124.2993333
PB.B046..EH,2009-03-21 02:00:05.290,3663.0,2009-03-21 02:00:41.845,0.987,P,nc71199035.mseed,2434.6591796875,2434.6591796875,37.71,-1,I,,,2.01,4.762,40.6613333,-124.2993333
XQ.ME32.01.BH,2009-03-21 02:00:05.290,3899.0,2009-03-21 02:00:44.205,0.969,P,nc71199035.mseed,1769.449462890625,1769.449462890625,38.07,1,I,,,2.01,4.762,40.6613333,-124.2993333
XQ.ME33.01.BH,2009-03-21 02:00:05.290,3994.0,2009-03-21 02:00:45.155,0.965,P,nc71199035.mseed,1057.50390625,1057.50390625,46.54,,,,,2.01,4.762,40.6613333,-124.2993333
PB.B047..EH,2009-03-21 02:00:05.290,3806.0,2009-03-21 02:00:43.275,0.974,P,nc71199035.mseed,991.2723388671876,991.2723388671876,46.99,-1,I,,,2.01,4.762,40.6613333,-124.2993333
PB.B049..EH,2009-03-21 02:00:05.290,4102.0,2009-03-21 02:00:46.235,0.975,P,nc71199035.mseed,138.74966430664062,138.74966430664062,62.21,-1,E,,,2.01,4.762,40.6613333,-124.2993333
PB.B935..EH,2009-03-21 02:00:05.290,4231.0,2009-03-21 02:00:47.525,0.972,P,nc71199035.mseed,125.53993225097656,125.53993225097656,64.75,1,E,,,2.01,4.762,40.6613333,-124.2993333
PB.B933..EH,2009-03-21 02:00:05.290,4166.0,2009-03-21 02:00:46.875,0.951,P,nc71199035.mseed,128.6042022705078,128.6042022705078,72.43,1,E,,,2.01,4.762,40.6613333,-124.2993333
PB.B046..EH,2009-04-04 00:31:01.610,3329.0,2009-04-04 00:31:34.825,0.984,P,nc71203430.mseed,2636.32861328125,2636.32861328125,13.55,1,I,,,2.0,9.587,40.3151667,-124.4435
NC.KCT..HN,2009-04-04 00:31:01.610,3467.0,2009-04-04 00:31:36.205,0.98,P,nc71203430.mseed,2.7449636459350586,2.7449636459350586,19.96,1,E,,,2.0,9.587,40.3151667,-124.4435
PB.B047..EH,2009-04-04 00:31:01.610,3505.0,2009-04-04 00:31:36.585,0.984,P,nc71203430.mseed,4251.8671875,4251.8671875,24.37,1,I,,,2.0,9.587,40.3151667,-124.4435
XQ.ME36.01.BH,2009-04-04 00:31:01.610,3526.0,2009-04-04 00:31:36.795,0.977,P,nc71203430.mseed,7825.54345703125,7825.54345703125,24.92,1,I,,,2.0,9.587,40.3151667,-124.4435
NC.KMPB..HN,2009-04-04 00:31:01.610,3609.0,2009-04-04 00:31:37.625,0.984,P,nc71203430.mseed,2.0889089107513428,2.0889089107513428,29.66,1,I,,,2.0,9.587,40.3151667,-124.4435
PB.B045..EH,2009-04-04 00:31:01.610,3783.0,2009-04-04 00:31:39.365,0.988,P,nc71203430.mseed,669.9178466796875,669.9178466796875,40.26,1,I,,,2.0,9.587,40.3151667,-124.4435
PB.B933..EH,2009-04-04 00:31:01.610,3875.0,2009-04-04 00:31:40.285,0.981,P,nc71203430.mseed,890.9048461914062,890.9048461914062,49.35,-1,E,,,2.0,9.587,40.3151667,-124.4435
XQ.ME32.01.BH,2009-04-04 00:31:01.610,4110.0,2009-04-04 00:31:42.635,0.954,P,nc71203430.mseed,1357.8631591796875,1357.8631591796875,58.26,1,I,,,2.0,9.587,40.3151667,-124.4435
