station_id,begin_time,phase_index,phase_time,phase_score,phase_type,file_name,phase_amplitude,phase_amp,sta_dist_km,diting_polarity,diting_sharpness,pyrocko_phase_time,pyrocko_polarity,mag,depth,lat,long
BK.GASB..HH,2008-07-29 02:07:42.840,4729.0,2008-07-29 02:08:30.055,0.957,P,nc40221295.mseed,268.61041259765625,268.61041259765625,111.37,1,I,,,2.09,18.837,40.1401667,-123.8555
XQ.ME34.01.BH,2008-08-10 01:58:29.920,4214.0,2008-08-10 01:59:11.985,0.978,P,nc40221758.mseed,3430.26904296875,3430.26904296875,58.01,,,,,2.13,2.937,40.5868333,-124.798
BK.JCC..HH,2008-08-10 01:58:29.920,4321.0,2008-08-10 01:59:13.055,0.955,P,nc40221758.mseed,722.2364501953125,722.2364501953125,69.81,1,I,,,2.13,2.937,40.5868333,-124.798
XQ.ME31.01.BH,2008-08-10 01:58:29.920,4402.0,2008-08-10 01:59:13.865,0.981,P,nc40221758.mseed,766.9865112304688,766.9865112304688,73.52,,,,,2.13,2.937,40.5868333,-124.798
XQ.ME32.01.BH,2008-08-10 01:58:29.920,4506.0,2008-08-10 01:59:14.905,0.97,P,nc40221758.mseed,2539.095458984375,2539.095458984375,79.49,,,,,2.13,2.937,40.5868333,-124.798
NC.KHMB..HN,2008-08-10 01:58:29.920,4718.0,2008-08-10 01:59:17.025,0.96,P,nc40221758.mseed,0.4464230239391327,0.4464230239391327,95.51,1,I,,,2.13,2.937,40.5868333,-124.798
XQ.ME07.01.BH,2008-08-10 01:58:29.920,4734.0,2008-08-10 01:59:17.185,0.982,P,nc40221758.mseed,583.3845825195312,583.3845825195312,98.7,,,,,2.13,2.937,40.5868333,-124.798
XQ.ME30.01.BH,2008-08-10 01:58:29.920,4839.0,2008-08-10 01:59:18.235,0.959,P,nc40221758.mseed,2601.6025390625,2601.6025390625,108.0,,,,,2.13,2.937,40.5868333,-124.798
NC.KHMB..HN,2008-11-18 07:51:38.870,3447.0,2008-11-18 07:52:13.265,0.985,P,nc40226338.mseed,19.17917251586914,19.17917251586914,7.86,-1,I,,,2.43,21.175,40.931,-123.7891667
XQ.ME30.01.BH,2008-11-18 07:51:38.870,3529.0,2008-11-18 07:52:14.085,0.979,P,nc40226338.mseed,17850.388671875,17850.388671875,21.27,,,,,2.43,21.175,40.931,-123.7891667
BK.JCC..HH,2008-11-18 07:51:38.870,3554.0,2008-11-18 07:52:14.335,0.986,P,nc40226338.mseed,8390.9755859375,8390.9755859375,23.87,1,I,,,2.43,21.175,40.931,-123.7891667
PB.B935..EH,2008-11-18 07:51:38.870,4006.0,2008-11-18 07:52:18.855,0.971,P,nc40226338.mseed,973.1513061523438,973.1513061523438,53.44,-1,I,,,2.43,21.175,40.931,-123.7891667
NC.KHBB..HN,2008-11-18 07:51:38.870,4003.0,2008-11-18 07:52:18.825,0.973,P,nc40226338.mseed,1.480562448501587,1.480562448501587,56.71,1,E,,,2.43,21.175,40.931,-123.7891667
XQ.ME29.01.BH,2008-11-18 07:51:38.870,4016.0,2008-11-18 07:52:18.955,0.981,P,nc40226338.mseed,19733.18359375,19733.18359375,59.34,,,,,2.43,21.175,40.931,-123.7891667
NC.KMPB..HN,2008-11-18 07:51:38.870,4113.0,2008-11-18 07:52:19.925,0.978,P,nc40226338.mseed,1.6450655460357666,1.6450655460357666,63.57,1,I,,,2.43,21.175,40.931,-123.7891667
PB.B049..EH,2008-11-18 07:51:38.870,4278.0,2008-11-18 07:52:21.575,0.966,P,nc40226338.mseed,276.4831848144531,276.4831848144531,77.05,1,I,,,2.43,21.175,40.931,-123.7891667
PB.B046..EH,2008-11-18 07:51:38.870,4297.0,2008-11-18 07:52:21.765,0.957,P,nc40226338.mseed,22.13326644897461,22.13326644897461,79.55,1,E,,,2.43,21.175,40.931,-123.7891667
PB.B933..EH,2008-11-18 07:51:38.870,4550.0,2008-11-18 07:52:24.295,0.978,P,nc40226338.mseed,192.15440368652344,192.15440368652344,97.91,1,I,,,2.43,21.175,40.931,-123.7891667
NC.KMR..HN,2008-12-04 09:43:38.760,3502.0,2008-12-04 09:44:13.705,0.962,P,nc40227240.mseed,20.716474533081055,20.716474533081055,19.22,-1,I,,,2.58,-1.184,40.0375,-123.639
PB.B049..EH,2008-12-04 09:43:38.760,3598.0,2008-12-04 09:44:14.665,0.986,P,nc40227240.mseed,4995.8056640625,4995.8056640625,27.02,-1,I,,,2.58,-1.184,40.0375,-123.639
PB.B933..EH,2008-12-04 09:43:38.760,3637.0,2008-12-04 09:44:15.055,0.988,P,nc40227240.mseed,9801.72265625,9801.72265625,28.27,1,I,,,2.58,-1.184,40.0375,-123.639
NC.KCPB..HN,2008-12-04 09:43:38.760,3839.0,2008-12-04 09:44:17.075,0.958,P,nc40227240.mseed,2.6735072135925293,2.6735072135925293,39.29,-1,E,,,2.58,-1.184,40.0375,-123.639
PB.B935..EH,2008-12-04 09:43:38.760,4031.0,2008-12-04 09:44:18.995,0.957,P,nc40227240.mseed,1249.8919677734375,1249.8919677734375,49.31,-1,E,,,2.58,-1.184,40.0375,-123.639
PB.B047..EH,2008-12-04 09:43:38.760,4097.0,2008-12-04 09:44:19.655,0.967,P,nc40227240.mseed,341.31488037109375,341.31488037109375,51.02,-1,E,,,2.58,-1.184,40.0375,-123.639
NC.GWR..EH,2008-12-04 09:43:38.760,4754.0,2008-12-04 09:44:26.225,0.954,P,nc40227240.mseed,248.9002685546875,248.9002685546875,96.8,,,,,2.58,-1.184,40.0375,-123.639
NC.GHO..EH,2008-12-04 09:43:38.760,4911.0,2008-12-04 09:44:27.795,0.982,P,nc40227240.mseed,385.4299926757813,385.4299926757813,110.57,,,,,2.58,-1.184,40.0375,-123.639
NC.KHBB..HN,2009-02-04 05:08:23.650,3598.0,2009-02-04 05:08:59.555,0.984,P,nc40231307.mseed,3.4280526638031006,3.4280526638031006,14.12,1,I,,,2.03,32.434,40.6945,-123.059
XQ.ME13.01.BH,2009-02-04 05:08:23.650,3602.0,2009-02-04 05:08:59.595,0.974,P,nc40231307.mseed,11257.9248046875,11257.9248046875,14.19,-1,I,,,2.03,32.434,40.6945,-123.059
BK.WDC..HH,2009-02-04 05:08:23.650,3887.0,2009-02-04 05:09:02.445,0.971,P,nc40231307.mseed,251.810302734375,251.810302734375,45.62,-1,I,,,2.03,32.434,40.6945,-123.059
XQ.ME30.01.BH,2009-02-04 05:08:23.650,3869.0,2009-02-04 05:09:02.265,0.973,P,nc40231307.mseed,1448.1123046875,1448.1123046875,45.79,-1,I,,,2.03,32.434,40.6945,-123.059
PB.B935..EH,2009-02-04 05:08:23.650,3958.0,2009-02-04 05:09:03.155,0.981,P,nc40231307.mseed,157.10293579101562,157.10293579101562,49.69,-1,I,,,2.03,32.434,40.6945,-123.059
XQ.ME09.01.BH,2009-02-04 05:08:23.650,3951.0,2009-02-04 05:09:03.085,0.956,P,nc40231307.mseed,705.7398681640625,705.7398681640625,51.75,1,I,,,2.03,32.434,40.6945,-123.059
XQ.ME28.01.BH,2009-02-04 05:08:23.650,4188.0,2009-02-04 05:09:05.455,0.953,P,nc40231307.mseed,1410.5362548828125,1410.5362548828125,64.41,-1,E,,,2.03,32.434,40.6945,-123.059
XQ.ME39.01.BH,2009-02-04 05:08:23.650,4223.0,2009-02-04 05:09:05.805,0.967,P,nc40231307.mseed,911.7890625,911.7890625,72.27,1,I,,,2.03,32.434,40.6945,-123.059
PB.B049..EH,2009-02-04 05:08:23.650,4306.0,2009-02-04 05:09:06.635,0.979,P,nc40231307.mseed,72.46913146972656,72.46913146972656,82.08,1,I,,,2.03,32.434,40.6945,-123.059
NC.KHBB..HN,2009-02-12 20:52:25.750,3617.0,2009-02-12 20:53:01.845,0.986,P,nc40231748.mseed,6.425522804260254,6.425522804260254,21.4,-1,I,,,2.54,29.287,40.8453333,-123.2885
XQ.ME30.01.BH,2009-02-12 20:52:25.750,3618.0,2009-02-12 20:53:01.855,0.98,P,nc40231748.mseed,11871.189453125,11871.189453125,23.32,-1,I,,,2.54,29.287,40.8453333,-123.2885
XQ.ME13.01.BH,2009-02-12 20:52:25.750,3715.0,2009-02-12 20:53:02.825,0.972,P,nc40231748.mseed,9338.2880859375,9338.2880859375,32.54,1,I,,,2.54,29.287,40.8453333,-123.2885
NC.KHMB..HN,2009-02-12 20:52:25.750,3802.0,2009-02-12 20:53:03.695,0.967,P,nc40231748.mseed,4.0873003005981445,4.0873003005981445,37.58,1,E,,,2.54,29.287,40.8453333,-123.2885
PB.B935..EH,2009-02-12 20:52:25.750,3906.0,2009-02-12 20:53:04.735,0.97,P,nc40231748.mseed,1566.4063720703125,1566.4063720703125,47.3,1,I,,,2.54,29.287,40.8453333,-123.2885
XQ.ME04.01.BH,2009-02-12 20:52:25.750,4079.0,2009-02-12 20:53:06.465,0.966,P,nc40231748.mseed,1990.2694091796875,1990.2694091796875,59.69,-1,E,,,2.54,29.287,40.8453333,-123.2885
PB.B049..EH,2009-02-12 20:52:25.750,4296.0,2009-02-12 20:53:08.635,0.984,P,nc40231748.mseed,323.01800537109375,323.01800537109375,81.12,1,I,,,2.54,29.287,40.8453333,-123.2885
NC.KMPB..HN,2009-02-12 20:52:25.750,4362.0,2009-02-12 20:53:09.295,0.963,P,nc40231748.mseed,0.7690489292144775,0.7690489292144775,84.96,1,I,,,2.54,29.287,40.8453333,-123.2885
PB.B047..EH,2009-02-12 20:52:25.750,4523.0,2009-02-12 20:53:10.905,0.964,P,nc40231748.mseed,168.7653350830078,168.7653350830078,99.72,1,E,,,2.54,29.287,40.8453333,-123.2885
PB.B046..EH,2009-02-12 20:52:25.750,4563.0,2009-02-12 20:53:11.305,0.98,P,nc40231748.mseed,699.6243286132812,699.6243286132812,102.4,1,I,,,2.54,29.287,40.8453333,-123.2885
PB.B049..EH,2009-02-17 01:51:32.120,3429.0,2009-02-17 01:52:06.335,0.98,P,nc40231888.mseed,1448.3651123046875,1448.3651123046875,11.48,1,I,,,2.04,17.879,40.1351667,-123.839
NC.KMR..HN,2009-02-17 01:51:32.120,3508.0,2009-02-17 01:52:07.125,0.962,P,nc40231888.mseed,1.3309671878814695,1.3309671878814695,13.37,1,E,,,2.04,17.879,40.1351667,-123.839
PB.B933..EH,2009-02-17 01:51:32.120,3469.0,2009-02-17 01:52:06.735,0.984,P,nc40231888.mseed,25388.923828125,25388.923828125,13.88,1,I,,,2.04,17.879,40.1351667,-123.839
XQ.ME39.01.BH,2009-02-17 01:51:32.120,3562.0,2009-02-17 01:52:07.665,0.965,P,nc40231888.mseed,4619.89111328125,4619.89111328125,21.66,,,,,2.04,17.879,40.1351667,-123.839
XQ.ME36.01.BH,2009-02-17 01:51:32.120,3669.0,2009-02-17 01:52:08.735,0.961,P,nc40231888.mseed,20363.755859375,20363.755859375,30.37,,,,,2.04,17.879,40.1351667,-123.839
PB.B047..EH,2009-02-17 01:51:32.120,3663.0,2009-02-17 01:52:08.675,0.984,P,nc40231888.mseed,5157.52783203125,5157.52783203125,30.92,1,I,,,2.04,17.879,40.1351667,-123.839
XQ.ME49.01.BH,2009-02-17 01:51:32.120,3690.0,2009-02-17 01:52:08.945,0.982,P,nc40231888.mseed,6322.4091796875,6322.4091796875,31.87,-1,I,,,2.04,17.879,40.1351667,-123.839
XQ.ME35.01.BH,2009-02-17 01:51:32.120,3639.0,2009-02-17 01:52:08.435,0.985,P,nc40231888.mseed,14452.5576171875,14452.5576171875,39.39,,,,,2.04,17.879,40.1351667,-123.839
NC.KMPB..HN,2009-02-17 01:51:32.120,3790.0,2009-02-17 01:52:09.945,0.975,P,nc40231888.mseed,3.300443649291992,3.300443649291992,39.43,-1,I,,,2.04,17.879,40.1351667,-123.839
PB.B046..EH,2009-02-17 01:51:32.120,3806.0,2009-02-17 01:52:10.105,0.982,P,nc40231888.mseed,1673.4132080078125,1673.4132080078125,43.2,1,I,,,2.04,17.879,40.1351667,-123.839
PB.B935..EH,2009-02-17 01:51:32.120,3877.0,2009-02-17 01:52:10.815,0.975,P,nc40231888.mseed,1035.9049072265625,1035.9049072265625,44.34,1,I,,,2.04,17.879,40.1351667,-123.839
XQ.ME34.01.BH,2009-02-17 01:51:32.120,3903.0,2009-02-17 01:52:11.075,0.971,P,nc40231888.mseed,4599.07861328125,4599.07861328125,45.73,,,,,2.04,17.879,40.1351667,-123.839
XQ.ME08.01.BH,2009-02-17 01:51:32.120,3927.0,2009-02-17 01:52:11.315,0.958,P,nc40231888.mseed,2634.78564453125,2634.78564453125,46.49,,,,,2.04,17.879,40.1351667,-123.839
XQ.ME32.01.BH,2009-02-17 01:51:32.120,3965.0,2009-02-17 01:52:11.695,0.958,P,nc40231888.mseed,4223.59912109375,4223.59912109375,50.61,-1,I,,,2.04,17.879,40.1351667,-123.839
NC.KCPB..HN,2009-02-17 01:51:32.120,4017.0,2009-02-17 01:52:12.215,0.965,P,nc40231888.mseed,1.3736841678619385,1.3736841678619385,54.45,-1,I,,,2.04,17.879,40.1351667,-123.839
NC.KCT..HN,2009-02-17 01:51:32.120,4096.0,2009-02-17 01:52:13.005,0.96,P,nc40231888.mseed,1.502414584159851,1.502414584159851,56.78,-1,I,,,2.04,17.879,40.1351667,-123.839
XQ.ME27.01.BH,2009-02-17 01:51:32.120,4195.0,2009-02-17 01:52:13.995,0.961,P,nc40231888.mseed,1778.7315673828125,1778.7315673828125,68.03,,,,,2.04,17.879,40.1351667,-123.839
NC.GHO..EH,2009-02-17 01:51:32.120,4802.0,2009-02-17 01:52:20.065,0.964,P,nc40231888.mseed,282.1413879394531,282.1413879394531,123.77,,,,,2.04,17.879,40.1351667,-123.839
PB.B049..EH,2009-02-27 22:27:28.260,3435.0,2009-02-27 22:28:02.535,0.988,P,nc40232406.mseed,8185.9326171875,8185.9326171875,8.83,1,I,,,2.31,22.187,40.161,-123.848
NC.KMR..HN,2009-02-27 22:27:28.260,3491.0,2009-02-27 22:28:03.095,0.983,P,nc40232406.mseed,14.481043815612791,14.481043815612791,12.72,-1,I,,,2.31,22.187,40.161,-123.848
PB.B933..EH,2009-02-27 22:27:28.260,3487.0,2009-02-27 22:28:03.055,0.986,P,nc40232406.mseed,16186.26953125,16186.26953125,15.24,1,I,,,2.31,22.187,40.161,-123.848
XQ.ME37.01.BH,2009-02-27 22:27:28.260,3563.0,2009-02-27 22:28:03.815,0.977,P,nc40232406.mseed,3443.385498046875,3443.385498046875,21.5,-1,I,,,2.31,22.187,40.161,-123.848
XQ.ME36.01.BH,2009-02-27 22:27:28.260,3655.0,2009-02-27 22:28:04.735,0.965,P,nc40232406.mseed,19655.74609375,19655.74609375,28.58,1,I,,,2.31,22.187,40.161,-123.848
PB.B047..EH,2009-02-27 22:27:28.260,3651.0,2009-02-27 22:28:04.695,0.985,P,nc40232406.mseed,5709.19970703125,5709.19970703125,29.13,1,I,,,2.31,22.187,40.161,-123.848
XQ.ME38.01.BH,2009-02-27 22:27:28.260,3679.0,2009-02-27 22:28:04.975,0.967,P,nc40232406.mseed,9393.373046875,9393.373046875,30.13,-1,I,,,2.31,22.187,40.161,-123.848
XQ.ME49.01.BH,2009-02-27 22:27:28.260,3714.0,2009-02-27 22:28:05.325,0.985,P,nc40232406.mseed,5863.98681640625,5863.98681640625,34.83,-1,I,,,2.31,22.187,40.161,-123.848
XQ.ME33.01.BH,2009-02-27 22:27:28.260,3763.0,2009-02-27 22:28:05.815,0.967,P,nc40232406.mseed,3129.44140625,3129.44140625,35.97,1,I,,,2.31,22.187,40.161,-123.848
XQ.ME35.01.BH,2009-02-27 22:27:28.260,3614.0,2009-02-27 22:28:04.325,0.977,P,nc40232406.mseed,5199.79443359375,5199.79443359375,36.75,1,I,,,2.31,22.187,40.161,-123.848
PB.B046..EH,2009-02-27 22:27:28.260,3789.0,2009-02-27 22:28:06.075,0.985,P,nc40232406.mseed,1627.0596923828125,1627.0596923828125,41.2,1,I,,,2.31,22.187,40.161,-123.848
PB.B935..EH,2009-02-27 22:27:28.260,3851.0,2009-02-27 22:28:06.695,0.959,P,nc40232406.mseed,495.2711181640625,495.2711181640625,42.31,1,I,,,2.31,22.187,40.161,-123.848
XQ.ME08.01.BH,2009-02-27 22:27:28.260,3921.0,2009-02-27 22:28:07.395,0.97,P,nc40232406.mseed,1709.476318359375,1709.476318359375,46.73,1,I,,,2.31,22.187,40.161,-123.848
NC.KCPB..HN,2009-02-27 22:27:28.260,4027.0,2009-02-27 22:28:08.455,0.966,P,nc40232406.mseed,0.7636035084724426,0.7636035084724426,57.39,1,I,,,2.31,22.187,40.161,-123.848
XQ.ME31.01.BH,2009-02-27 22:27:28.260,4114.0,2009-02-27 22:28:09.325,0.966,P,nc40232406.mseed,1006.7571411132812,1006.7571411132812,62.86,-1,I,,,2.31,22.187,40.161,-123.848
XQ.ME27.01.BH,2009-02-27 22:27:28.260,4169.0,2009-02-27 22:28:09.875,0.964,P,nc40232406.mseed,1233.6478271484375,1233.6478271484375,67.25,1,I,,,2.31,22.187,40.161,-123.848
BK.JCC..HH,2009-02-27 22:27:28.260,4217.0,2009-02-27 22:28:10.355,0.964,P,nc40232406.mseed,1040.937255859375,1040.937255859375,74.5,-1,I,,,2.31,22.187,40.161,-123.848
NC.GHO..EH,2009-02-27 22:27:28.260,4810.0,2009-02-27 22:28:16.285,0.979,P,nc40232406.mseed,146.82666015625,146.82666015625,126.74,1,I,,,2.31,22.187,40.161,-123.848
XQ.ME33.01.BH,2009-03-03 13:31:49.850,3419.0,2009-03-03 13:32:23.965,0.958,P,nc40232592.mseed,9260.1123046875,9260.1123046875,8.48,1,E,,,2.62,20.04,40.5143333,-123.8931667
XQ.ME32.01.BH,2009-03-03 13:31:49.850,3419.0,2009-03-03 13:32:23.965,0.967,P,nc40232592.mseed,21134.919921875,21134.919921875,8.96,-1,I,,,2.62,20.04,40.5143333,-123.8931667
XQ.ME34.01.BH,2009-03-03 13:31:49.850,3521.0,2009-03-03 13:32:24.985,0.975,P,nc40232592.mseed,46567.7109375,46567.7109375,20.12,1,I,,,2.62,20.04,40.5143333,-123.8931667
NC.KMPB..HN,2009-03-03 13:31:49.850,3539.0,2009-03-03 13:32:25.165,0.981,P,nc40232592.mseed,8.57571029663086,8.57571029663086,22.11,1,I,,,2.62,20.04,40.5143333,-123.8931667
XQ.ME31.01.BH,2009-03-03 13:31:49.850,3547.0,2009-03-03 13:32:25.245,0.966,P,nc40232592.mseed,15310.96875,15310.96875,23.51,-1,I,,,2.62,20.04,40.5143333,-123.8931667
PB.B935..EH,2009-03-03 13:31:49.850,3618.0,2009-03-03 13:32:25.955,0.973,P,nc40232592.mseed,1225.252197265625,1225.252197265625,27.41,1,I,,,2.62,20.04,40.5143333,-123.8931667
PB.B049..EH,2009-03-03 13:31:49.850,3666.0,2009-03-03 13:32:26.435,0.985,P,nc40232592.mseed,5945.9130859375,5945.9130859375,31.37,-1,I,,,2.62,20.04,40.5143333,-123.8931667
BK.JCC..HH,2009-03-03 13:31:49.850,3688.0,2009-03-03 13:32:26.655,0.978,P,nc40232592.mseed,4670.78076171875,4670.78076171875,35.58,-1,I,,,2.62,20.04,40.5143333,-123.8931667
XQ.ME36.01.BH,2009-03-03 13:31:49.850,3759.0,2009-03-03 13:32:27.365,0.971,P,nc40232592.mseed,22031.111328125,22031.111328125,37.44,1,I,,,2.62,20.04,40.5143333,-123.8931667
PB.B047..EH,2009-03-03 13:31:49.850,3751.0,2009-03-03 13:32:27.285,0.979,P,nc40232592.mseed,14419.0654296875,14419.0654296875,37.6,1,I,,,2.62,20.04,40.5143333,-123.8931667
NC.KMR..HN,2009-03-03 13:31:49.850,3784.0,2009-03-03 13:32:27.615,0.958,P,nc40232592.mseed,3.319502592086792,3.319502592086792,38.04,-1,I,,,2.62,20.04,40.5143333,-123.8931667
PB.B046..EH,2009-03-03 13:31:49.850,3770.0,2009-03-03 13:32:27.475,0.985,P,nc40232592.mseed,7285.47119140625,7285.47119140625,39.47,1,I,,,2.62,20.04,40.5143333,-123.8931667
NC.KHMB..HN,2009-03-03 13:31:49.850,3834.0,2009-03-03 13:32:28.115,0.976,P,nc40232592.mseed,6.165794372558594,6.165794372558594,42.26,-1,I,,,2.62,20.04,40.5143333,-123.8931667
XQ.ME39.01.BH,2009-03-03 13:31:49.850,3867.0,2009-03-03 13:32:28.445,0.976,P,nc40232592.mseed,10208.44140625,10208.44140625,44.23,-1,I,,,2.62,20.04,40.5143333,-123.8931667
XQ.ME30.01.BH,2009-03-03 13:31:49.850,3839.0,2009-03-03 13:32:28.165,0.963,P,nc40232592.mseed,3327.80078125,3327.80078125,45.85,1,I,,,2.62,20.04,40.5143333,-123.8931667
PB.B933..EH,2009-03-03 13:31:49.850,3955.0,2009-03-03 13:32:29.325,0.987,P,nc40232592.mseed,5636.376953125,5636.376953125,50.86,-1,I,,,2.62,20.04,40.5143333,-123.8931667
XQ.ME38.01.BH,2009-03-03 13:31:49.850,4036.0,2009-03-03 13:32:30.135,0.972,P,nc40232592.mseed,7098.48388671875,7098.48388671875,56.62,-1,I,,,2.62,20.04,40.5143333,-123.8931667
NC.KHBB..HN,2009-03-03 13:31:49.850,4069.0,2009-03-03 13:32:30.465,0.958,P,nc40232592.mseed,2.4427945613861084,2.4427945613861084,59.26,1,I,,,2.62,20.04,40.5143333,-123.8931667
XQ.ME27.01.BH,2009-03-03 13:31:49.850,4126.0,2009-03-03 13:32:31.035,0.969,P,nc40232592.mseed,4145.3759765625,4145.3759765625,62.96,1,I,,,2.62,20.04,40.5143333,-123.8931667
XQ.ME08.01.BH,2009-03-06 13:38:43.850,3743.0,2009-03-06 13:39:21.205,0.973,P,nc40232766.mseed,4120.8125,4120.8125,22.1,-1,I,,,2.45,40.545,40.1426667,-123.067
XQ.ME27.01.BH,2009-03-06 13:38:43.850,3836.0,2009-03-06 13:39:22.135,0.97,P,nc40232766.mseed,2610.73876953125,2610.73876953125,35.26,-1,E,,,2.45,40.545,40.1426667,-123.067
XQ.ME38.01.BH,2009-03-06 13:38:43.850,3866.0,2009-03-06 13:39:22.435,0.959,P,nc40232766.mseed,2080.5458984375,2080.5458984375,37.47,1,E,,,2.45,40.545,40.1426667,-123.067
NC.GRO..EH,2009-03-06 13:38:43.850,3961.0,2009-03-06 13:39:23.385,0.986,P,nc40232766.mseed,599.783203125,599.783203125,42.07,,,,,2.45,40.545,40.1426667,-123.067
XQ.ME39.01.BH,2009-03-06 13:38:43.850,3938.0,2009-03-06 13:39:23.155,0.982,P,nc40232766.mseed,5976.62744140625,5976.62744140625,45.2,1,I,,,2.45,40.545,40.1426667,-123.067
XQ.ME12.01.BH,2009-03-06 13:38:43.850,4080.0,2009-03-06 13:39:24.575,0.956,P,nc40232766.mseed,7680.4677734375,7680.4677734375,48.69,1,I,,,2.45,40.545,40.1426667,-123.067
XQ.ME57.01.BH,2009-03-06 13:38:43.850,4038.0,2009-03-06 13:39:24.155,0.953,P,nc40232766.mseed,1786.6688232421875,1786.6688232421875,49.74,1,E,,,2.45,40.545,40.1426667,-123.067
XQ.ME42.01.BH,2009-03-06 13:38:43.850,4027.0,2009-03-06 13:39:24.045,0.97,P,nc40232766.mseed,3138.39404296875,3138.39404296875,50.7,-1,I,,,2.45,40.545,40.1426667,-123.067
XQ.ME37.01.BH,2009-03-06 13:38:43.850,4022.0,2009-03-06 13:39:23.995,0.967,P,nc40232766.mseed,1669.1007080078125,1669.1007080078125,52.41,1,I,,,2.45,40.545,40.1426667,-123.067
NC.KMR..HN,2009-03-06 13:38:43.850,4059.0,2009-03-06 13:39:24.365,0.978,P,nc40232766.mseed,2.0959341526031494,2.0959341526031494,55.05,1,I,,,2.45,40.545,40.1426667,-123.067
PB.B935..EH,2009-03-06 13:38:43.850,4094.0,2009-03-06 13:39:24.715,0.956,P,nc40232766.mseed,425.0349426269531,425.0349426269531,56.95,1,I,,,2.45,40.545,40.1426667,-123.067
NC.KHBB..HN,2009-03-06 13:38:43.850,4111.0,2009-03-06 13:39:24.885,0.977,P,nc40232766.mseed,1.4177727699279783,1.4177727699279783,58.88,1,E,,,2.45,40.545,40.1426667,-123.067
BK.GASB..HH,2009-03-06 13:38:43.850,4201.0,2009-03-06 13:39:25.785,0.957,P,nc40232766.mseed,1331.22216796875,1331.22216796875,61.94,-1,I,,,2.45,40.545,40.1426667,-123.067
XQ.ME43.01.BH,2009-03-06 13:38:43.850,4175.0,2009-03-06 13:39:25.525,0.959,P,nc40232766.mseed,1008.9497680664062,1008.9497680664062,64.22,-1,E,,,2.45,40.545,40.1426667,-123.067
PB.B049..EH,2009-03-06 13:38:43.850,4137.0,2009-03-06 13:39:25.145,0.985,P,nc40232766.mseed,1174.47021484375,1174.47021484375,64.96,1,I,,,2.45,40.545,40.1426667,-123.067
XQ.ME50.01.BH,2009-03-06 13:38:43.850,4193.0,2009-03-06 13:39:25.705,0.954,P,nc40232766.mseed,1265.3916015625,1265.3916015625,67.53,-1,I,,,2.45,40.545,40.1426667,-123.067
