event_id,etime,elat,elon,edep,emag,station_id,phase_type,phase_polarity,phase_time
nc51199341,2008-03-30 02:28:12.960,40.533166666666666,-123.54083333333334,25.92,2.25,NC.LMP..SHZ,P,-1.0,2008-03-30 02:28:37.460
nc51199341,2008-03-30 02:28:12.960,40.533166666666666,-123.54083333333334,25.92,2.25,NC.LSF..SHZ,P,-1.0,2008-03-30 02:28:27.120
nc51199341,2008-03-30 02:28:12.960,40.533166666666666,-123.54083333333334,25.92,2.25,NC.LSH..SHZ,P,-1.0,2008-03-30 02:28:32.840
nc51199341,2008-03-30 02:28:12.960,40.533166666666666,-123.54083333333334,25.92,2.25,NC.LVR..SHZ,P,1.0,2008-03-30 02:28:27.860
nc71107596,2008-04-02 13:31:29.870,40.514,-124.18383333333334,16.25,1.77,BK.JCC..HHZ,P,-1.0,2008-04-02 13:31:37.050
nc71107596,2008-04-02 13:31:29.870,40.514,-124.18383333333334,16.25,1.77,NC.KCR..SHZ,P,1.0,2008-04-02 13:31:36.750
nc71107596,2008-04-02 13:31:29.870,40.514,-124.18383333333334,16.25,1.77,NC.KCS..SHZ,P,1.0,2008-04-02 13:31:40.650
nc71107596,2008-04-02 13:31:29.870,40.514,-124.18383333333334,16.25,1.77,NC.KCT..HHZ,P,1.0,2008-04-02 13:31:34.300
nc71107596,2008-04-02 13:31:29.870,40.514,-124.18383333333334,16.25,1.77,NC.KHMB..HHZ,P,1.0,2008-04-02 13:31:40.260
nc71107596,2008-04-02 13:31:29.870,40.514,-124.18383333333334,16.25,1.77,NC.KJJ..SHZ,P,-1.0,2008-04-02 13:31:36.260
nc71107596,2008-04-02 13:31:29.870,40.514,-124.18383333333334,16.25,1.77,NC.KKP..SHZ,P,-1.0,2008-04-02 13:31:42.780
nc71107596,2008-04-02 13:31:29.870,40.514,-124.18383333333334,16.25,1.77,NC.KPP..SHZ,P,,2008-04-02 13:31:42.620
nc71107596,2008-04-02 13:31:29.870,40.514,-124.18383333333334,16.25,1.77,NC.KSM..SHZ,P,-1.0,2008-04-02 13:31:37.000
nc71107596,2008-04-02 13:31:29.870,40.514,-124.18383333333334,16.25,1.77,NC.LBK..SHZ,P,-1.0,2008-04-02 13:31:51.700
nc71107596,2008-04-02 13:31:29.870,40.514,-124.18383333333334,16.25,1.77,NC.LGP..SHZ,P,1.0,2008-04-02 13:31:48.860
nc71107796,2008-04-03 12:23:15.730,40.494,-123.88416666666667,19.94,1.7,BK.JCC..HHZ,P,-1.0,2008-04-03 12:23:23.230
nc71107796,2008-04-03 12:23:15.730,40.494,-123.88416666666667,19.94,1.7,NC.KCR..SHZ,P,1.0,2008-04-03 12:23:20.040
nc71107796,2008-04-03 12:23:15.730,40.494,-123.88416666666667,19.94,1.7,NC.KCS..SHZ,P,1.0,2008-04-03 12:23:22.880
nc71107796,2008-04-03 12:23:15.730,40.494,-123.88416666666667,19.94,1.7,NC.KCT..HHZ,P,1.0,2008-04-03 12:23:23.690
nc71107796,2008-04-03 12:23:15.730,40.494,-123.88416666666667,19.94,1.7,NC.KHBB..HHZ,P,1.0,2008-04-03 12:23:26.390
nc71107796,2008-04-03 12:23:15.730,40.494,-123.88416666666667,19.94,1.7,NC.KHMB..HHZ,P,-1.0,2008-04-03 12:23:24.570
nc71107796,2008-04-03 12:23:15.730,40.494,-123.88416666666667,19.94,1.7,NC.KJJ..SHZ,P,-1.0,2008-04-03 12:23:24.440
nc71107796,2008-04-03 12:23:15.730,40.494,-123.88416666666667,19.94,1.7,NC.KKP..SHZ,P,1.0,2008-04-03 12:23:25.690
nc71107796,2008-04-03 12:23:15.730,40.494,-123.88416666666667,19.94,1.7,NC.KMR..HHZ,P,-1.0,2008-04-03 12:23:23.120
nc71107796,2008-04-03 12:23:15.730,40.494,-123.88416666666667,19.94,1.7,NC.KOM..SHZ,P,1.0,2008-04-03 12:23:30.910
nc71107796,2008-04-03 12:23:15.730,40.494,-123.88416666666667,19.94,1.7,NC.KPP..SHZ,P,1.0,2008-04-03 12:23:25.110
nc71107796,2008-04-03 12:23:15.730,40.494,-123.88416666666667,19.94,1.7,NC.KRP..HHZ,P,-1.0,2008-04-03 12:23:28.070
nc71107796,2008-04-03 12:23:15.730,40.494,-123.88416666666667,19.94,1.7,NC.KSM..SHZ,P,-1.0,2008-04-03 12:23:23.980
nc71107796,2008-04-03 12:23:15.730,40.494,-123.88416666666667,19.94,1.7,NC.LBP..SHZ,P,-1.0,2008-04-03 12:23:30.400
nc71107796,2008-04-03 12:23:15.730,40.494,-123.88416666666667,19.94,1.7,NC.LGP..SHZ,P,,2008-04-03 12:23:31.880
nc40214567,2008-04-04 17:11:26.150,40.674166666666665,-123.92416666666666,19.56,2.31,BK.JCC..HHZ,P,-1.0,2008-04-04 17:11:30.990
nc40214567,2008-04-04 17:11:26.150,40.674166666666665,-123.92416666666666,19.56,2.31,NC.KCR..SHZ,P,1.0,2008-04-04 17:11:32.660
nc40214567,2008-04-04 17:11:26.150,40.674166666666665,-123.92416666666666,19.56,2.31,NC.KCS..SHZ,P,1.0,2008-04-04 17:11:34.140
nc40214567,2008-04-04 17:11:26.150,40.674166666666665,-123.92416666666666,19.56,2.31,NC.KCT..HHZ,P,1.0,2008-04-04 17:11:34.520
nc40214567,2008-04-04 17:11:26.150,40.674166666666665,-123.92416666666666,19.56,2.31,NC.KFP..SHZ,P,-1.0,2008-04-04 17:11:44.680
nc40214567,2008-04-04 17:11:26.150,40.674166666666665,-123.92416666666666,19.56,2.31,NC.KHBB..HHZ,P,1.0,2008-04-04 17:11:36.680
nc40214567,2008-04-04 17:11:26.150,40.674166666666665,-123.92416666666666,19.56,2.31,NC.KHMB..HHZ,P,-1.0,2008-04-04 17:11:32.510
nc40214567,2008-04-04 17:11:26.150,40.674166666666665,-123.92416666666666,19.56,2.31,NC.KIP..SHZ,P,-1.0,2008-04-04 17:11:42.800
nc40214567,2008-04-04 17:11:26.150,40.674166666666665,-123.92416666666666,19.56,2.31,NC.KJJ..SHZ,P,1.0,2008-04-04 17:11:36.420
nc40214567,2008-04-04 17:11:26.150,40.674166666666665,-123.92416666666666,19.56,2.31,NC.KKP..SHZ,P,-1.0,2008-04-04 17:11:38.390
nc40214567,2008-04-04 17:11:26.150,40.674166666666665,-123.92416666666666,19.56,2.31,NC.KMR..HHZ,P,-1.0,2008-04-04 17:11:36.390
nc40214567,2008-04-04 17:11:26.150,40.674166666666665,-123.92416666666666,19.56,2.31,NC.KOM..SHZ,P,1.0,2008-04-04 17:11:38.980
nc40214567,2008-04-04 17:11:26.150,40.674166666666665,-123.92416666666666,19.56,2.31,NC.KPP..SHZ,P,,2008-04-04 17:11:37.300
nc40214567,2008-04-04 17:11:26.150,40.674166666666665,-123.92416666666666,19.56,2.31,NC.KRMB..HHZ,P,1.0,2008-04-04 17:11:40.880
nc40214567,2008-04-04 17:11:26.150,40.674166666666665,-123.92416666666666,19.56,2.31,NC.KRP..HHZ,P,1.0,2008-04-04 17:11:35.790
nc40214567,2008-04-04 17:11:26.150,40.674166666666665,-123.92416666666666,19.56,2.31,NC.KSM..SHZ,P,-1.0,2008-04-04 17:11:36.520
nc40214567,2008-04-04 17:11:26.150,40.674166666666665,-123.92416666666666,19.56,2.31,NC.LBK..SHZ,P,1.0,2008-04-04 17:11:43.890
nc40214567,2008-04-04 17:11:26.150,40.674166666666665,-123.92416666666666,19.56,2.31,NC.LGP..SHZ,P,1.0,2008-04-04 17:11:41.360
nc40214567,2008-04-04 17:11:26.150,40.674166666666665,-123.92416666666666,19.56,2.31,NC.LSF..SHZ,P,1.0,2008-04-04 17:11:44.740
nc40214567,2008-04-04 17:11:26.150,40.674166666666665,-123.92416666666666,19.56,2.31,NC.LSR..SHZ,P,-1.0,2008-04-04 17:11:48.750
nc71108355,2008-04-05 04:26:16.880,40.48016666666667,-123.6485,24.32,1.55,BK.JCC..HHZ,P,-1.0,2008-04-05 04:26:25.360
nc71108355,2008-04-05 04:26:16.880,40.48016666666667,-123.6485,24.32,1.55,NC.KCR..SHZ,P,1.0,2008-04-05 04:26:22.110
nc71108355,2008-04-05 04:26:16.880,40.48016666666667,-123.6485,24.32,1.55,NC.KCS..SHZ,P,-1.0,2008-04-05 04:26:22.170
nc71108355,2008-04-05 04:26:16.880,40.48016666666667,-123.6485,24.32,1.55,NC.KHBB..HHZ,P,1.0,2008-04-05 04:26:25.020
nc71108355,2008-04-05 04:26:16.880,40.48016666666667,-123.6485,24.32,1.55,NC.KHMB..HHZ,P,-1.0,2008-04-05 04:26:25.380
nc71108355,2008-04-05 04:26:16.880,40.48016666666667,-123.6485,24.32,1.55,NC.KJJ..SHZ,P,-1.0,2008-04-05 04:26:27.180
nc71108355,2008-04-05 04:26:16.880,40.48016666666667,-123.6485,24.32,1.55,NC.KKP..SHZ,P,-1.0,2008-04-05 04:26:25.310
nc71108355,2008-04-05 04:26:16.880,40.48016666666667,-123.6485,24.32,1.55,NC.KMR..HHZ,P,1.0,2008-04-05 04:26:24.000
nc71108355,2008-04-05 04:26:16.880,40.48016666666667,-123.6485,24.32,1.55,NC.KOM..SHZ,P,,2008-04-05 04:26:31.120
nc71108355,2008-04-05 04:26:16.880,40.48016666666667,-123.6485,24.32,1.55,NC.KPP..SHZ,P,-1.0,2008-04-05 04:26:23.890
nc71108355,2008-04-05 04:26:16.880,40.48016666666667,-123.6485,24.32,1.55,NC.KSM..SHZ,P,1.0,2008-04-05 04:26:26.590
nc71108355,2008-04-05 04:26:16.880,40.48016666666667,-123.6485,24.32,1.55,NC.LBK..SHZ,P,-1.0,2008-04-05 04:26:33.530
nc71108355,2008-04-05 04:26:16.880,40.48016666666667,-123.6485,24.32,1.55,NC.LGP..SHZ,P,1.0,2008-04-05 04:26:30.650
nc71108755,2008-04-07 21:03:31.130,40.76766666666666,-123.12916666666666,38.35,2.11,BK.WDC..HHZ,P,1.0,2008-04-07 21:03:41.300
nc71108755,2008-04-07 21:03:31.130,40.76766666666666,-123.12916666666666,38.35,2.11,NC.KCR..SHZ,P,-1.0,2008-04-07 21:03:43.390
nc71108755,2008-04-07 21:03:31.130,40.76766666666666,-123.12916666666666,38.35,2.11,NC.KCS..SHZ,P,1.0,2008-04-07 21:03:40.250
nc71108755,2008-04-07 21:03:31.130,40.76766666666666,-123.12916666666666,38.35,2.11,NC.KHBB..HHZ,P,-1.0,2008-04-07 21:03:37.670
nc71108755,2008-04-07 21:03:31.130,40.76766666666666,-123.12916666666666,38.35,2.11,NC.KKP..SHZ,P,-1.0,2008-04-07 21:03:44.470
nc71108755,2008-04-07 21:03:31.130,40.76766666666666,-123.12916666666666,38.35,2.11,NC.KOM..SHZ,P,1.0,2008-04-07 21:03:42.460
nc71108755,2008-04-07 21:03:31.130,40.76766666666666,-123.12916666666666,38.35,2.11,NC.KPP..SHZ,P,-1.0,2008-04-07 21:03:41.350
nc71108755,2008-04-07 21:03:31.130,40.76766666666666,-123.12916666666666,38.35,2.11,NC.LBK..SHZ,P,-1.0,2008-04-07 21:03:41.220
nc71108755,2008-04-07 21:03:31.130,40.76766666666666,-123.12916666666666,38.35,2.11,NC.LBP..SHZ,P,1.0,2008-04-07 21:03:41.550
nc71108755,2008-04-07 21:03:31.130,40.76766666666666,-123.12916666666666,38.35,2.11,NC.LGP..SHZ,P,-1.0,2008-04-07 21:03:38.760
nc71108755,2008-04-07 21:03:31.130,40.76766666666666,-123.12916666666666,38.35,2.11,NC.LPG..SHZ,P,1.0,2008-04-07 21:03:44.820
nc71108755,2008-04-07 21:03:31.130,40.76766666666666,-123.12916666666666,38.35,2.11,NC.LSF..SHZ,P,1.0,2008-04-07 21:03:41.420
nc71108755,2008-04-07 21:03:31.130,40.76766666666666,-123.12916666666666,38.35,2.11,NC.LSH..SHZ,P,1.0,2008-04-07 21:03:46.230
nc71108755,2008-04-07 21:03:31.130,40.76766666666666,-123.12916666666666,38.35,2.11,NC.LSR..SHZ,P,-1.0,2008-04-07 21:03:45.210
nc40215417,2008-04-16 16:47:24.950,40.23616666666667,-124.119,12.44,2.51,BK.JCC..HHZ,P,-1.0,2008-04-16 16:47:36.660
nc40215417,2008-04-16 16:47:24.950,40.23616666666667,-124.119,12.44,2.51,NC.GTC..SHZ,P,1.0,2008-04-16 16:47:41.260
nc40215417,2008-04-16 16:47:24.950,40.23616666666667,-124.119,12.44,2.51,NC.KBN..SHZ,P,,2008-04-16 16:47:39.970
nc40215417,2008-04-16 16:47:24.950,40.23616666666667,-124.119,12.44,2.51,NC.KCPB..HHZ,P,1.0,2008-04-16 16:47:38.730
nc40215417,2008-04-16 16:47:24.950,40.23616666666667,-124.119,12.44,2.51,NC.KCR..SHZ,P,-1.0,2008-04-16 16:47:31.760
nc40215417,2008-04-16 16:47:24.950,40.23616666666667,-124.119,12.44,2.51,NC.KCS..SHZ,P,1.0,2008-04-16 16:47:36.910
nc40215417,2008-04-16 16:47:24.950,40.23616666666667,-124.119,12.44,2.51,NC.KCT..HHZ,P,-1.0,2008-04-16 16:47:31.850
nc40215417,2008-04-16 16:47:24.950,40.23616666666667,-124.119,12.44,2.51,NC.KFP..SHZ,P,,2008-04-16 16:47:39.350
nc40215417,2008-04-16 16:47:24.950,40.23616666666667,-124.119,12.44,2.51,NC.KHBB..HHZ,P,1.0,2008-04-16 16:47:40.180
nc40215417,2008-04-16 16:47:24.950,40.23616666666667,-124.119,12.44,2.51,NC.KHMB..HHZ,P,-1.0,2008-04-16 16:47:38.730
nc40215417,2008-04-16 16:47:24.950,40.23616666666667,-124.119,12.44,2.51,NC.KIP..SHZ,P,1.0,2008-04-16 16:47:37.810
nc40215417,2008-04-16 16:47:24.950,40.23616666666667,-124.119,12.44,2.51,NC.KJJ..SHZ,P,1.0,2008-04-16 16:47:28.820
nc40215417,2008-04-16 16:47:24.950,40.23616666666667,-124.119,12.44,2.51,NC.KKP..SHZ,P,1.0,2008-04-16 16:47:36.110
nc40215417,2008-04-16 16:47:24.950,40.23616666666667,-124.119,12.44,2.51,NC.KMR..HHZ,P,-1.0,2008-04-16 16:47:32.110
nc40215417,2008-04-16 16:47:24.950,40.23616666666667,-124.119,12.44,2.51,NC.KOM..SHZ,P,1.0,2008-04-16 16:47:45.080
nc40215417,2008-04-16 16:47:24.950,40.23616666666667,-124.119,12.44,2.51,NC.KPP..SHZ,P,1.0,2008-04-16 16:47:37.570
nc40215417,2008-04-16 16:47:24.950,40.23616666666667,-124.119,12.44,2.51,NC.KSM..SHZ,P,1.0,2008-04-16 16:47:27.870
nc40215417,2008-04-16 16:47:24.950,40.23616666666667,-124.119,12.44,2.51,NC.LBC..SHZ,P,-1.0,2008-04-16 16:48:00.380
nc40215417,2008-04-16 16:47:24.950,40.23616666666667,-124.119,12.44,2.51,NC.LBP..SHZ,P,1.0,2008-04-16 16:47:42.340
nc40215417,2008-04-16 16:47:24.950,40.23616666666667,-124.119,12.44,2.51,NC.LGP..SHZ,P,-1.0,2008-04-16 16:47:45.680
nc40215417,2008-04-16 16:47:24.950,40.23616666666667,-124.119,12.44,2.51,NC.LMP..SHZ,P,-1.0,2008-04-16 16:47:57.900
nc40215417,2008-04-16 16:47:24.950,40.23616666666667,-124.119,12.44,2.51,NC.LPG..SHZ,P,,2008-04-16 16:47:44.780
nc40215417,2008-04-16 16:47:24.950,40.23616666666667,-124.119,12.44,2.51,NC.LRB..SHZ,P,-1.0,2008-04-16 16:47:47.200
nc40215417,2008-04-16 16:47:24.950,40.23616666666667,-124.119,12.44,2.51,NC.LSH..SHZ,P,1.0,2008-04-16 16:47:52.900
nc40215417,2008-04-16 16:47:24.950,40.23616666666667,-124.119,12.44,2.51,NC.LVR..SHZ,P,1.0,2008-04-16 16:47:45.320
nc40215622,2008-04-20 13:53:58.660,40.5145,-123.48683333333334,8.57,2.18,BK.JCC..HHZ,P,,2008-04-20 13:54:09.440
nc40215622,2008-04-20 13:53:58.660,40.5145,-123.48683333333334,8.57,2.18,BK.WDC..HHZ,P,-1.0,2008-04-20 13:54:12.820
nc40215622,2008-04-20 13:53:58.660,40.5145,-123.48683333333334,8.57,2.18,NC.GRO..EHZ,P,1.0,2008-04-20 13:54:15.960
nc40215622,2008-04-20 13:53:58.660,40.5145,-123.48683333333334,8.57,2.18,NC.GTC..SHZ,P,1.0,2008-04-20 13:54:19.220
nc40215622,2008-04-20 13:53:58.660,40.5145,-123.48683333333334,8.57,2.18,NC.KCPB..HHZ,P,-1.0,2008-04-20 13:54:15.580
nc40215622,2008-04-20 13:53:58.660,40.5145,-123.48683333333334,8.57,2.18,NC.KCR..SHZ,P,-1.0,2008-04-20 13:54:04.440
nc40215622,2008-04-20 13:53:58.660,40.5145,-123.48683333333334,8.57,2.18,NC.KCS..SHZ,P,1.0,2008-04-20 13:54:01.260
nc40215622,2008-04-20 13:53:58.660,40.5145,-123.48683333333334,8.57,2.18,NC.KCT..HHZ,P,1.0,2008-04-20 13:54:12.240
nc40215622,2008-04-20 13:53:58.660,40.5145,-123.48683333333334,8.57,2.18,NC.KFP..SHZ,P,1.0,2008-04-20 13:54:15.870
nc40215622,2008-04-20 13:53:58.660,40.5145,-123.48683333333334,8.57,2.18,NC.KHBB..HHZ,P,-1.0,2008-04-20 13:54:04.770
nc40215622,2008-04-20 13:53:58.660,40.5145,-123.48683333333334,8.57,2.18,NC.KHMB..HHZ,P,1.0,2008-04-20 13:54:06.970
nc40215622,2008-04-20 13:53:58.660,40.5145,-123.48683333333334,8.57,2.18,NC.KIP..SHZ,P,-1.0,2008-04-20 13:54:13.340
nc40215622,2008-04-20 13:53:58.660,40.5145,-123.48683333333334,8.57,2.18,NC.KJJ..SHZ,P,-1.0,2008-04-20 13:54:12.480
nc40215622,2008-04-20 13:53:58.660,40.5145,-123.48683333333334,8.57,2.18,NC.KKP..SHZ,P,-1.0,2008-04-20 13:54:07.060
nc40215622,2008-04-20 13:53:58.660,40.5145,-123.48683333333334,8.57,2.18,NC.KMR..HHZ,P,-1.0,2008-04-20 13:54:06.350
nc40215622,2008-04-20 13:53:58.660,40.5145,-123.48683333333334,8.57,2.18,NC.KOM..SHZ,P,-1.0,2008-04-20 13:54:13.120
nc40215622,2008-04-20 13:53:58.660,40.5145,-123.48683333333334,8.57,2.18,NC.KPP..SHZ,P,1.0,2008-04-20 13:54:03.760
nc40215622,2008-04-20 13:53:58.660,40.5145,-123.48683333333334,8.57,2.18,NC.KSM..SHZ,P,-1.0,2008-04-20 13:54:11.440
nc40215622,2008-04-20 13:53:58.660,40.5145,-123.48683333333334,8.57,2.18,NC.LBF..SHZ,P,1.0,2008-04-20 13:54:26.390
nc40215622,2008-04-20 13:53:58.660,40.5145,-123.48683333333334,8.57,2.18,NC.LBK..SHZ,P,1.0,2008-04-20 13:54:14.960
nc40215622,2008-04-20 13:53:58.660,40.5145,-123.48683333333334,8.57,2.18,NC.LBP..SHZ,P,-1.0,2008-04-20 13:54:09.130
nc40215622,2008-04-20 13:53:58.660,40.5145,-123.48683333333334,8.57,2.18,NC.LGB..SHZ,P,1.0,2008-04-20 13:54:22.710
nc40215622,2008-04-20 13:53:58.660,40.5145,-123.48683333333334,8.57,2.18,NC.LGP..SHZ,P,-1.0,2008-04-20 13:54:11.440
nc40215622,2008-04-20 13:53:58.660,40.5145,-123.48683333333334,8.57,2.18,NC.LPG..SHZ,P,1.0,2008-04-20 13:54:13.160
nc40215622,2008-04-20 13:53:58.660,40.5145,-123.48683333333334,8.57,2.18,NC.LRR..SHZ,P,1.0,2008-04-20 13:54:25.340
nc40215622,2008-04-20 13:53:58.660,40.5145,-123.48683333333334,8.57,2.18,NC.LSF..SHZ,P,-1.0,2008-04-20 13:54:13.540
nc40215622,2008-04-20 13:53:58.660,40.5145,-123.48683333333334,8.57,2.18,NC.LSH..SHZ,P,-1.0,2008-04-20 13:54:20.140
nc40215622,2008-04-20 13:53:58.660,40.5145,-123.48683333333334,8.57,2.18,NC.LVR..SHZ,P,-1.0,2008-04-20 13:54:14.440
nc40215622,2008-04-20 13:53:58.660,40.5145,-123.48683333333334,8.57,2.18,NC.LWH..SHZ,P,,2008-04-20 13:54:21.210
nc40215740,2008-04-21 23:20:22.050,40.528166666666664,-124.59266666666667,9.72,2.38,BK.JCC..HHZ,P,-1.0,2008-04-21 23:20:32.950
nc40215740,2008-04-21 23:20:22.050,40.528166666666664,-124.59266666666667,9.72,2.38,NC.GTC..SHZ,P,-1.0,2008-04-21 23:20:44.460
nc40215740,2008-04-21 23:20:22.050,40.528166666666664,-124.59266666666667,9.72,2.38,NC.KBN..SHZ,P,1.0,2008-04-21 23:20:43.850
nc40215740,2008-04-21 23:20:22.050,40.528166666666664,-124.59266666666667,9.72,2.38,NC.KBS..SHZ,P,1.0,2008-04-21 23:20:39.560
nc40215740,2008-04-21 23:20:22.050,40.528166666666664,-124.59266666666667,9.72,2.38,NC.KCPB..HHZ,P,1.0,2008-04-21 23:20:41.440
nc40215740,2008-04-21 23:20:22.050,40.528166666666664,-124.59266666666667,9.72,2.38,NC.KCR..SHZ,P,1.0,2008-04-21 23:20:34.630
nc40215740,2008-04-21 23:20:22.050,40.528166666666664,-124.59266666666667,9.72,2.38,NC.KCS..SHZ,P,1.0,2008-04-21 23:20:38.070
nc40215740,2008-04-21 23:20:22.050,40.528166666666664,-124.59266666666667,9.72,2.38,NC.KCT..HHZ,P,1.0,2008-04-21 23:20:29.060
nc40215740,2008-04-21 23:20:22.050,40.528166666666664,-124.59266666666667,9.72,2.38,NC.KFP..SHZ,P,1.0,2008-04-21 23:20:43.100
nc40215740,2008-04-21 23:20:22.050,40.528166666666664,-124.59266666666667,9.72,2.38,NC.KHBB..HHZ,P,1.0,2008-04-21 23:20:41.070
nc40215740,2008-04-21 23:20:22.050,40.528166666666664,-124.59266666666667,9.72,2.38,NC.KHMB..HHZ,P,-1.0,2008-04-21 23:20:36.910
nc40215740,2008-04-21 23:20:22.050,40.528166666666664,-124.59266666666667,9.72,2.38,NC.KIP..SHZ,P,-1.0,2008-04-21 23:20:41.720
nc40215740,2008-04-21 23:20:22.050,40.528166666666664,-124.59266666666667,9.72,2.38,NC.KJJ..SHZ,P,1.0,2008-04-21 23:20:30.000
nc40215740,2008-04-21 23:20:22.050,40.528166666666664,-124.59266666666667,9.72,2.38,NC.KKP..SHZ,P,1.0,2008-04-21 23:20:39.860
nc40215740,2008-04-21 23:20:22.050,40.528166666666664,-124.59266666666667,9.72,2.38,NC.KMR..HHZ,P,-1.0,2008-04-21 23:20:37.170
nc40215740,2008-04-21 23:20:22.050,40.528166666666664,-124.59266666666667,9.72,2.38,NC.KOM..SHZ,P,-1.0,2008-04-21 23:20:42.230
nc40215740,2008-04-21 23:20:22.050,40.528166666666664,-124.59266666666667,9.72,2.38,NC.KPP..SHZ,P,1.0,2008-04-21 23:20:39.900
nc40215740,2008-04-21 23:20:22.050,40.528166666666664,-124.59266666666667,9.72,2.38,NC.KRK..SHZ,P,1.0,2008-04-21 23:20:45.960
nc40215740,2008-04-21 23:20:22.050,40.528166666666664,-124.59266666666667,9.72,2.38,NC.KRMB..HHZ,P,-1.0,2008-04-21 23:20:41.460
nc40215740,2008-04-21 23:20:22.050,40.528166666666664,-124.59266666666667,9.72,2.38,NC.KRP..HHZ,P,-1.0,2008-04-21 23:20:36.590
nc40215740,2008-04-21 23:20:22.050,40.528166666666664,-124.59266666666667,9.72,2.38,NC.KSM..SHZ,P,1.0,2008-04-21 23:20:31.780
nc40215740,2008-04-21 23:20:22.050,40.528166666666664,-124.59266666666667,9.72,2.38,NC.KSXB..HHZ,P,-1.0,2008-04-21 23:20:45.260
nc40215740,2008-04-21 23:20:22.050,40.528166666666664,-124.59266666666667,9.72,2.38,NC.LBK..SHZ,P,1.0,2008-04-21 23:20:48.490
nc40215740,2008-04-21 23:20:22.050,40.528166666666664,-124.59266666666667,9.72,2.38,NC.LBP..SHZ,P,1.0,2008-04-21 23:20:44.800
nc40215740,2008-04-21 23:20:22.050,40.528166666666664,-124.59266666666667,9.72,2.38,NC.LGP..SHZ,P,1.0,2008-04-21 23:20:45.990
nc40215740,2008-04-21 23:20:22.050,40.528166666666664,-124.59266666666667,9.72,2.38,NC.LSH..SHZ,P,-1.0,2008-04-21 23:20:54.550
nc40215740,2008-04-21 23:20:22.050,40.528166666666664,-124.59266666666667,9.72,2.38,NC.LSR..SHZ,P,1.0,2008-04-21 23:20:53.290
nc40215740,2008-04-21 23:20:22.050,40.528166666666664,-124.59266666666667,9.72,2.38,NC.LTC..SHZ,P,-1.0,2008-04-21 23:20:54.090
nc40215740,2008-04-21 23:20:22.050,40.528166666666664,-124.59266666666667,9.72,2.38,NC.LVR..SHZ,P,-1.0,2008-04-21 23:20:48.490
nc40215740,2008-04-21 23:20:22.050,40.528166666666664,-124.59266666666667,9.72,2.38,NC.LWH..SHZ,P,-1.0,2008-04-21 23:20:54.890
nc71111635,2008-04-21 23:55:14.490,40.781166666666664,-124.192,11.89,1.83,NC.KCR..SHZ,P,-1.0,2008-04-21 23:55:24.710
nc71111635,2008-04-21 23:55:14.490,40.781166666666664,-124.192,11.89,1.83,NC.KCS..SHZ,P,1.0,2008-04-21 23:55:26.610
nc71111635,2008-04-21 23:55:14.490,40.781166666666664,-124.192,11.89,1.83,NC.KHBB..HHZ,P,1.0,2008-04-21 23:55:28.800
nc71111635,2008-04-21 23:55:14.490,40.781166666666664,-124.192,11.89,1.83,NC.KJJ..SHZ,P,-1.0,2008-04-21 23:55:25.630
