event_id,etime,elat,elon,edep,emag,station_id,phase_type,phase_polarity,phase_time
nc40216664,2008-04-30 03:03:06.900,40.83583333333333,-123.49683333333331,27.75,5.4,NC.GPM..EH,P,1,2008-04-30T03:03:37.8700
nc40216664,2008-04-30 03:03:06.900,40.83583333333333,-123.49683333333331,27.75,5.4,NC.OST..EH,P,1,2008-04-30T03:03:37.8700
nc40216664,2008-04-30 03:03:06.900,40.83583333333333,-123.49683333333331,27.75,5.4,UW.HOG..EH,P,-1,2008-04-30T03:03:37.9200
nc40216664,2008-04-30 03:03:06.900,40.83583333333333,-123.49683333333331,27.75,5.4,NC.ORA..EH,P,1,2008-04-30T03:03:38.7300
nc40216664,2008-04-30 03:03:06.900,40.83583333333333,-123.49683333333331,27.75,5.4,NC.GCVB..EH,P,1,2008-04-30T03:03:38.7700
nc40216664,2008-04-30 03:03:06.900,40.83583333333333,-123.49683333333331,27.75,5.4,NC.GDXB..HH,P,-1,2008-04-30T03:03:38.9200
nc40216664,2008-04-30 03:03:06.900,40.83583333333333,-123.49683333333331,27.75,5.4,NC.OHC..EH,P,1,2008-04-30T03:03:39.0800
nc40216664,2008-04-30 03:03:06.900,40.83583333333333,-123.49683333333331,27.75,5.4,WR.KPK..EH,P,-1,2008-04-30T03:03:39.2000
nc40216664,2008-04-30 03:03:06.900,40.83583333333333,-123.49683333333331,27.75,5.4,BK.MNRC..HH,P,1,2008-04-30T03:03:39.5000
nc40216664,2008-04-30 03:03:06.900,40.83583333333333,-123.49683333333331,27.75,5.4,BG.SB4..DP,P,None,2008-04-30T03:03:39.6200
nc40216664,2008-04-30 03:03:06.900,40.83583333333333,-123.49683333333331,27.75,5.4,NC.GSS..EH,P,1,2008-04-30T03:03:39.7100
nc40216664,2008-04-30 03:03:06.900,40.83583333333333,-123.49683333333331,27.75,5.4,NC.GBG..EH,P,None,2008-04-30T03:03:39.8600
nc40216664,2008-04-30 03:03:06.900,40.83583333333333,-123.49683333333331,27.75,5.4,NC.NMT..EH,P,1,2008-04-30T03:03:40.0700
nc40216664,2008-04-30 03:03:06.900,40.83583333333333,-123.49683333333331,27.75,5.4,NC.KEB..HH,P,1,2008-04-30T03:03:40.1200
nc40216664,2008-04-30 03:03:06.900,40.83583333333333,-123.49683333333331,27.75,5.4,NC.GGPB..EH,P,None,2008-04-30T03:03:40.2300
nc40216664,2008-04-30 03:03:06.900,40.83583333333333,-123.49683333333331,27.75,5.4,WR.HUF..EH,P,1,2008-04-30T03:03:40.8500
nc40216664,2008-04-30 03:03:06.900,40.83583333333333,-123.49683333333331,27.75,5.4,UW.BBO..EH,P,1,2008-04-30T03:03:41.0600
nc40216664,2008-04-30 03:03:06.900,40.83583333333333,-123.49683333333331,27.75,5.4,NC.NMC..EH,P,-1,2008-04-30T03:03:41.2900
nc40216664,2008-04-30 03:03:06.900,40.83583333333333,-123.49683333333331,27.75,5.4,NC.NHS..EH,P,None,2008-04-30T03:03:41.3100
nc40216664,2008-04-30 03:03:06.900,40.83583333333333,-123.49683333333331,27.75,5.4,NC.NPV..EH,P,1,2008-04-30T03:03:41.8600
nc40216664,2008-04-30 03:03:06.900,40.83583333333333,-123.49683333333331,27.75,5.4,NC.NFR..EH,P,1,2008-04-30T03:03:41.9900
nc40216664,2008-04-30 03:03:06.900,40.83583333333333,-123.49683333333331,27.75,5.4,NC.NCP..EH,P,1,2008-04-30T03:03:42.4300
nc40216664,2008-04-30 03:03:06.900,40.83583333333333,-123.49683333333331,27.75,5.4,NC.NMW..EH,P,1,2008-04-30T03:03:42.5100
nc40216664,2008-04-30 03:03:06.900,40.83583333333333,-123.49683333333331,27.75,5.4,UO.DBO..BH,P,-1,2008-04-30T03:03:42.6900
nc40216664,2008-04-30 03:03:06.900,40.83583333333333,-123.49683333333331,27.75,5.4,NC.NSH..EH,P,1,2008-04-30T03:03:43.1600
nc40216664,2008-04-30 03:03:06.900,40.83583333333333,-123.49683333333331,27.75,5.4,NC.NBP..EH,P,1,2008-04-30T03:03:43.1900
nc40216664,2008-04-30 03:03:06.900,40.83583333333333,-123.49683333333331,27.75,5.4,NC.NDH..EH,P,1,2008-04-30T03:03:43.1900
nc40216664,2008-04-30 03:03:06.900,40.83583333333333,-123.49683333333331,27.75,5.4,NC.NFV..EH,P,1,2008-04-30T03:03:43.2200
nc40216664,2008-04-30 03:03:06.900,40.83583333333333,-123.49683333333331,27.75,5.4,NN.GZY..SH,P,1,2008-04-30T03:03:43.3200
nc40216664,2008-04-30 03:03:06.900,40.83583333333333,-123.49683333333331,27.75,5.4,NC.NIMB..EH,P,1,2008-04-30T03:03:43.5800
nc40216664,2008-04-30 03:03:06.900,40.83583333333333,-123.49683333333331,27.75,5.4,WR.SFM..EH,P,1,2008-04-30T03:03:44.1300
nc40216664,2008-04-30 03:03:06.900,40.83583333333333,-123.49683333333331,27.75,5.4,NN.EUR..SH,P,1,2008-04-30T03:03:44.3600
nc40216664,2008-04-30 03:03:06.900,40.83583333333333,-123.49683333333331,27.75,5.4,NC.NTYB..EH,P,None,2008-04-30T03:03:44.9900
nc40216664,2008-04-30 03:03:06.900,40.83583333333333,-123.49683333333331,27.75,5.4,NN.SMI..SH,P,-1,2008-04-30T03:03:45.1700
nc40216664,2008-04-30 03:03:06.900,40.83583333333333,-123.49683333333331,27.75,5.4,NC.NEH..EH,P,1,2008-04-30T03:03:45.4300
nc40216664,2008-04-30 03:03:06.900,40.83583333333333,-123.49683333333331,27.75,5.4,NN.BMR..SH,P,1,2008-04-30T03:03:45.7400
nc40216664,2008-04-30 03:03:06.900,40.83583333333333,-123.49683333333331,27.75,5.4,BK.MOD..HH,P,-1,2008-04-30T03:03:46.5500
nc40216664,2008-04-30 03:03:06.900,40.83583333333333,-123.49683333333331,27.75,5.4,NN.BEK..BH,P,1,2008-04-30T03:03:46.5500
nc40216664,2008-04-30 03:03:06.900,40.83583333333333,-123.49683333333331,27.75,5.4,WR.BKW..EH,P,None,2008-04-30T03:03:46.6800
nc40216664,2008-04-30 03:03:06.900,40.83583333333333,-123.49683333333331,27.75,5.4,NC.NTR..EH,P,None,2008-04-30T03:03:46.7100
nc40216664,2008-04-30 03:03:06.900,40.83583333333333,-123.49683333333331,27.75,5.4,NC.NVA..EH,P,1,2008-04-30T03:03:46.7600
nc40216664,2008-04-30 03:03:06.900,40.83583333333333,-123.49683333333331,27.75,5.4,NC.NAD..EH,P,1,2008-04-30T03:03:47.0700
nc40216664,2008-04-30 03:03:06.900,40.83583333333333,-123.49683333333331,27.75,5.4,NC.NHV..EH,P,None,2008-04-30T03:03:47.5900
nc40216664,2008-04-30 03:03:06.900,40.83583333333333,-123.49683333333331,27.75,5.4,NN.SAT..SH,P,1,2008-04-30T03:03:47.8300
nc40216665,2008-04-30 03:08:05.220,40.84016666666667,-123.47683333333332,24.81,2.24,XQ.ME30.01.BH,P,-1,2008-04-30T03:08:09.8900
nc40216665,2008-04-30 03:08:05.220,40.84016666666667,-123.47683333333332,24.81,2.24,NC.KHMB..HH,P,-1,2008-04-30T03:08:11.0600
nc40216665,2008-04-30 03:08:05.220,40.84016666666667,-123.47683333333332,24.81,2.24,NC.KHBB..HH,P,1,2008-04-30T03:08:11.9700
nc40216665,2008-04-30 03:08:05.220,40.84016666666667,-123.47683333333332,24.81,2.24,NC.KCS..SH,P,1,2008-04-30T03:08:12.6700
nc40216665,2008-04-30 03:08:05.220,40.84016666666667,-123.47683333333332,24.81,2.24,XQ.ME29.01.BH,P,-1,2008-04-30T03:08:13.4400
nc40216665,2008-04-30 03:08:05.220,40.84016666666667,-123.47683333333332,24.81,2.24,BK.JCC..HH,P,1,2008-04-30T03:08:13.7400
nc40216665,2008-04-30 03:08:05.220,40.84016666666667,-123.47683333333332,24.81,2.24,NC.KOM..SH,P,-1,2008-04-30T03:08:14.1300
nc40216665,2008-04-30 03:08:05.220,40.84016666666667,-123.47683333333332,24.81,2.24,XQ.ME13.01.BH,P,1,2008-04-30T03:08:14.2400
nc40216665,2008-04-30 03:08:05.220,40.84016666666667,-123.47683333333332,24.81,2.24,XQ.ME27.01.BH,P,1,2008-04-30T03:08:14.6100
nc40216665,2008-04-30 03:08:05.220,40.84016666666667,-123.47683333333332,24.81,2.24,NC.KCR..SH,P,-1,2008-04-30T03:08:15.0700
nc40216665,2008-04-30 03:08:05.220,40.84016666666667,-123.47683333333332,24.81,2.24,NC.LGP..SH,P,1,2008-04-30T03:08:15.0900
nc40216665,2008-04-30 03:08:05.220,40.84016666666667,-123.47683333333332,24.81,2.24,NC.KRP..HH,P,1,2008-04-30T03:08:15.2500
nc40216665,2008-04-30 03:08:05.220,40.84016666666667,-123.47683333333332,24.81,2.24,XQ.ME04.01.BH,P,1,2008-04-30T03:08:15.2500
nc40216665,2008-04-30 03:08:05.220,40.84016666666667,-123.47683333333332,24.81,2.24,NC.KPP..SH,P,-1,2008-04-30T03:08:15.5500
nc40216665,2008-04-30 03:08:05.220,40.84016666666667,-123.47683333333332,24.81,2.24,XQ.ME09.01.BH,P,-1,2008-04-30T03:08:16.9500
nc40216665,2008-04-30 03:08:05.220,40.84016666666667,-123.47683333333332,24.81,2.24,NC.LBK..SH,P,1,2008-04-30T03:08:17.5700
nc40216665,2008-04-30 03:08:05.220,40.84016666666667,-123.47683333333332,24.81,2.24,NC.KRMB..HH,P,1,2008-04-30T03:08:18.6700
nc40216665,2008-04-30 03:08:05.220,40.84016666666667,-123.47683333333332,24.81,2.24,BK.WDC..HH,P,1,2008-04-30T03:08:19.2400
nc40216665,2008-04-30 03:08:05.220,40.84016666666667,-123.47683333333332,24.81,2.24,NC.LSF..SH,P,-1,2008-04-30T03:08:19.3900
nc40216665,2008-04-30 03:08:05.220,40.84016666666667,-123.47683333333332,24.81,2.24,NC.LSH..SH,P,1,2008-04-30T03:08:24.7300
nc40216665,2008-04-30 03:08:05.220,40.84016666666667,-123.47683333333332,24.81,2.24,XQ.ME30.01.BH,P,-1,2008-04-30T03:09:35.1600
nc40216665,2008-04-30 03:08:05.220,40.84016666666667,-123.47683333333332,24.81,2.24,XQ.ME29.01.BH,P,-1,2008-04-30T03:09:38.6800
nc40216665,2008-04-30 03:08:05.220,40.84016666666667,-123.47683333333332,24.81,2.24,XQ.ME30.01.BH,P,-1,2008-04-30T03:10:03.4000
nc40216667,2008-04-30 03:54:38.410,40.839,-123.5005,26.83,2.34,XQ.ME30.01.BH,P,-1,2008-04-30T03:54:43.1600
nc40216667,2008-04-30 03:54:38.410,40.839,-123.5005,26.83,2.34,NC.KHMB..HH,P,-1,2008-04-30T03:54:44.2700
nc40216667,2008-04-30 03:54:38.410,40.839,-123.5005,26.83,2.34,NC.KHBB..HH,P,-1,2008-04-30T03:54:45.3700
nc40216667,2008-04-30 03:54:38.410,40.839,-123.5005,26.83,2.34,NC.KCS..SH,P,1,2008-04-30T03:54:45.9300
nc40216667,2008-04-30 03:54:38.410,40.839,-123.5005,26.83,2.34,XQ.ME31.01.BH,P,1,2008-04-30T03:54:46.5700
nc40216667,2008-04-30 03:54:38.410,40.839,-123.5005,26.83,2.34,BK.JCC..HH,P,1,2008-04-30T03:54:46.7400
nc40216667,2008-04-30 03:54:38.410,40.839,-123.5005,26.83,2.34,XQ.ME29.01.BH,P,1,2008-04-30T03:54:46.8200
nc40216667,2008-04-30 03:54:38.410,40.839,-123.5005,26.83,2.34,XQ.ME32.01.BH,P,1,2008-04-30T03:54:46.8300
nc40216667,2008-04-30 03:54:38.410,40.839,-123.5005,26.83,2.34,NC.KOM..SH,P,-1,2008-04-30T03:54:47.4300
nc40216667,2008-04-30 03:54:38.410,40.839,-123.5005,26.83,2.34,XQ.ME33.01.BH,P,1,2008-04-30T03:54:47.6000
nc40216667,2008-04-30 03:54:38.410,40.839,-123.5005,26.83,2.34,XQ.ME13.01.BH,P,1,2008-04-30T03:54:47.6400
nc40216667,2008-04-30 03:54:38.410,40.839,-123.5005,26.83,2.34,XQ.ME07.01.BH,P,1,2008-04-30T03:54:47.6800
nc40216667,2008-04-30 03:54:38.410,40.839,-123.5005,26.83,2.34,XQ.ME27.01.BH,P,-1,2008-04-30T03:54:47.9900
nc40216667,2008-04-30 03:54:38.410,40.839,-123.5005,26.83,2.34,NC.KCR..SH,P,1,2008-04-30T03:54:48.1900
nc40216667,2008-04-30 03:54:38.410,40.839,-123.5005,26.83,2.34,XQ.ME04.01.BH,P,1,2008-04-30T03:54:48.5200
nc40216667,2008-04-30 03:54:38.410,40.839,-123.5005,26.83,2.34,NC.LGP..SH,P,1,2008-04-30T03:54:48.5300
nc40216667,2008-04-30 03:54:38.410,40.839,-123.5005,26.83,2.34,NC.KRP..HH,P,-1,2008-04-30T03:54:48.7600
nc40216667,2008-04-30 03:54:38.410,40.839,-123.5005,26.83,2.34,NC.KPP..SH,P,1,2008-04-30T03:54:48.8100
nc40216667,2008-04-30 03:54:38.410,40.839,-123.5005,26.83,2.34,NC.KMPB..HH,P,-1,2008-04-30T03:54:50.2000
nc40216667,2008-04-30 03:54:38.410,40.839,-123.5005,26.83,2.34,XQ.ME09.01.BH,P,1,2008-04-30T03:54:50.2500
nc40216667,2008-04-30 03:54:38.410,40.839,-123.5005,26.83,2.34,NC.KMR..HH,P,1,2008-04-30T03:54:50.7200
nc40216667,2008-04-30 03:54:38.410,40.839,-123.5005,26.83,2.34,NC.LBK..SH,P,1,2008-04-30T03:54:50.9900
nc40216667,2008-04-30 03:54:38.410,40.839,-123.5005,26.83,2.34,NC.KCT..HH,P,None,2008-04-30T03:54:51.5100
nc40216667,2008-04-30 03:54:38.410,40.839,-123.5005,26.83,2.34,NC.KKP..SH,P,1,2008-04-30T03:54:51.6100
nc40216667,2008-04-30 03:54:38.410,40.839,-123.5005,26.83,2.34,NC.LSF..SH,P,-1,2008-04-30T03:54:52.7900
nc40216667,2008-04-30 03:54:38.410,40.839,-123.5005,26.83,2.34,XQ.ME10.01.BH,P,1,2008-04-30T03:54:52.8000
nc40216667,2008-04-30 03:54:38.410,40.839,-123.5005,26.83,2.34,BK.WDC..HH,P,-1,2008-04-30T03:54:52.8300
nc40216667,2008-04-30 03:54:38.410,40.839,-123.5005,26.83,2.34,NC.KSM..SH,P,-1,2008-04-30T03:54:52.9500
nc40216667,2008-04-30 03:54:38.410,40.839,-123.5005,26.83,2.34,NC.KJJ..SH,P,1,2008-04-30T03:54:53.0300
nc40216667,2008-04-30 03:54:38.410,40.839,-123.5005,26.83,2.34,NC.KBN..SH,P,1,2008-04-30T03:54:55.6000
nc40216667,2008-04-30 03:54:38.410,40.839,-123.5005,26.83,2.34,NC.LSR..SH,P,1,2008-04-30T03:54:55.6300
nc40216667,2008-04-30 03:54:38.410,40.839,-123.5005,26.83,2.34,NC.LAM..SH,P,-1,2008-04-30T03:54:56.2600
nc40216667,2008-04-30 03:54:38.410,40.839,-123.5005,26.83,2.34,NC.LSH..SH,P,-1,2008-04-30T03:54:57.5600
nc40216667,2008-04-30 03:54:38.410,40.839,-123.5005,26.83,2.34,NC.LBO..SH,P,1,2008-04-30T03:54:58.8900
nc40216667,2008-04-30 03:54:38.410,40.839,-123.5005,26.83,2.34,NC.LWH..SH,P,1,2008-04-30T03:54:59.2800
nc40216667,2008-04-30 03:54:38.410,40.839,-123.5005,26.83,2.34,NC.LBF..SH,P,1,2008-04-30T03:55:01.9400
nc40216669,2008-04-30 05:08:14.140,40.83833333333333,-123.4975,24.94,1.94,XQ.ME30.01.BH,P,1,2008-04-30T05:08:18.7500
nc40216669,2008-04-30 05:08:14.140,40.83833333333333,-123.4975,24.94,1.94,NC.KHMB..HH,P,1,2008-04-30T05:08:19.8500
nc40216669,2008-04-30 05:08:14.140,40.83833333333333,-123.4975,24.94,1.94,NC.KHBB..HH,P,1,2008-04-30T05:08:21.0000
nc40216669,2008-04-30 05:08:14.140,40.83833333333333,-123.4975,24.94,1.94,NC.KCS..SH,P,-1,2008-04-30T05:08:21.5500
nc40216669,2008-04-30 05:08:14.140,40.83833333333333,-123.4975,24.94,1.94,XQ.ME31.01.BH,P,1,2008-04-30T05:08:22.2900
nc40216669,2008-04-30 05:08:14.140,40.83833333333333,-123.4975,24.94,1.94,XQ.ME29.01.BH,P,-1,2008-04-30T05:08:22.4900
nc40216669,2008-04-30 05:08:14.140,40.83833333333333,-123.4975,24.94,1.94,BK.JCC..HH,P,1,2008-04-30T05:08:22.5500
nc40216669,2008-04-30 05:08:14.140,40.83833333333333,-123.4975,24.94,1.94,NC.KOM..SH,P,-1,2008-04-30T05:08:23.0900
nc40216669,2008-04-30 05:08:14.140,40.83833333333333,-123.4975,24.94,1.94,XQ.ME13.01.BH,P,1,2008-04-30T05:08:23.2900
nc40216669,2008-04-30 05:08:14.140,40.83833333333333,-123.4975,24.94,1.94,XQ.ME33.01.BH,P,1,2008-04-30T05:08:23.4500
nc40216669,2008-04-30 05:08:14.140,40.83833333333333,-123.4975,24.94,1.94,NC.KCR..SH,P,1,2008-04-30T05:08:24.0500
nc40216669,2008-04-30 05:08:14.140,40.83833333333333,-123.4975,24.94,1.94,NC.KRP..HH,P,None,2008-04-30T05:08:24.1200
nc40216669,2008-04-30 05:08:14.140,40.83833333333333,-123.4975,24.94,1.94,XQ.ME04.01.BH,P,-1,2008-04-30T05:08:24.1600
nc40216669,2008-04-30 05:08:14.140,40.83833333333333,-123.4975,24.94,1.94,NC.LGP..SH,P,1,2008-04-30T05:08:24.2300
nc40216669,2008-04-30 05:08:14.140,40.83833333333333,-123.4975,24.94,1.94,NC.KPP..SH,P,-1,2008-04-30T05:08:24.4900
nc40216669,2008-04-30 05:08:14.140,40.83833333333333,-123.4975,24.94,1.94,XQ.ME09.01.BH,P,1,2008-04-30T05:08:26.0000
nc40216669,2008-04-30 05:08:14.140,40.83833333333333,-123.4975,24.94,1.94,XQ.ME08.01.BH,P,-1,2008-04-30T05:08:26.1700
nc40216669,2008-04-30 05:08:14.140,40.83833333333333,-123.4975,24.94,1.94,NC.LBK..SH,P,1,2008-04-30T05:08:26.6700
nc40216669,2008-04-30 05:08:14.140,40.83833333333333,-123.4975,24.94,1.94,NC.LGB..SH,P,-1,2008-04-30T05:08:34.1700
nc40216669,2008-04-30 05:08:14.140,40.83833333333333,-123.4975,24.94,1.94,NC.LWH..SH,P,1,2008-04-30T05:08:34.9900
nc40216722,2008-05-01 00:21:53.020,40.842166666666664,-123.48783333333331,25.65,1.99,XQ.ME30.01.BH,P,-1,2008-05-01T00:21:57.7600
nc40216722,2008-05-01 00:21:53.020,40.842166666666664,-123.48783333333331,25.65,1.99,NC.KHMB..HH,P,-1,2008-05-01T00:21:58.9500
nc40216722,2008-05-01 00:21:53.020,40.842166666666664,-123.48783333333331,25.65,1.99,NC.KHBB..HH,P,1,2008-05-01T00:21:59.8500
nc40216722,2008-05-01 00:21:53.020,40.842166666666664,-123.48783333333331,25.65,1.99,NC.KCS..SH,P,1,2008-05-01T00:22:00.5600
nc40216722,2008-05-01 00:21:53.020,40.842166666666664,-123.48783333333331,25.65,1.99,XQ.ME31.01.BH,P,1,2008-05-01T00:22:01.3600
nc40216722,2008-05-01 00:21:53.020,40.842166666666664,-123.48783333333331,25.65,1.99,BK.JCC..HH,P,1,2008-05-01T00:22:01.6100
nc40216722,2008-05-01 00:21:53.020,40.842166666666664,-123.48783333333331,25.65,1.99,NC.KOM..SH,P,-1,2008-05-01T00:22:02.0000
nc40216722,2008-05-01 00:21:53.020,40.842166666666664,-123.48783333333331,25.65,1.99,XQ.ME33.01.BH,P,-1,2008-05-01T00:22:02.4500
nc40216722,2008-05-01 00:21:53.020,40.842166666666664,-123.48783333333331,25.65,1.99,XQ.ME27.01.BH,P,1,2008-05-01T00:22:02.4500
nc40216722,2008-05-01 00:21:53.020,40.842166666666664,-123.48783333333331,25.65,1.99,XQ.ME07.01.BH,P,-1,2008-05-01T00:22:02.5200
nc40216722,2008-05-01 00:21:53.020,40.842166666666664,-123.48783333333331,25.65,1.99,NC.KCR..SH,P,-1,2008-05-01T00:22:02.9500
nc40216722,2008-05-01 00:21:53.020,40.842166666666664,-123.48783333333331,25.65,1.99,NC.LGP..SH,P,1,2008-05-01T00:22:02.9900
nc40216722,2008-05-01 00:21:53.020,40.842166666666664,-123.48783333333331,25.65,1.99,NC.KRP..HH,P,1,2008-05-01T00:22:03.2400
nc40216722,2008-05-01 00:21:53.020,40.842166666666664,-123.48783333333331,25.65,1.99,NC.KPP..SH,P,-1,2008-05-01T00:22:03.3800
nc40216722,2008-05-01 00:21:53.020,40.842166666666664,-123.48783333333331,25.65,1.99,XQ.ME09.01.BH,P,1,2008-05-01T00:22:04.7100
nc40216722,2008-05-01 00:21:53.020,40.842166666666664,-123.48783333333331,25.65,1.99,NC.LBK..SH,P,-1,2008-05-01T00:22:05.4100
nc40216722,2008-05-01 00:21:53.020,40.842166666666664,-123.48783333333331,25.65,1.99,NC.KKP..SH,P,1,2008-05-01T00:22:06.2600
nc40216722,2008-05-01 00:21:53.020,40.842166666666664,-123.48783333333331,25.65,1.99,NC.LSF..SH,P,1,2008-05-01T00:22:07.1200
nc40216722,2008-05-01 00:21:53.020,40.842166666666664,-123.48783333333331,25.65,1.99,BK.WDC..HH,P,-1,2008-05-01T00:22:07.3000
nc40216722,2008-05-01 00:21:53.020,40.842166666666664,-123.48783333333331,25.65,1.99,NC.LSR..SH,P,None,2008-05-01T00:22:10.3800
nc40216722,2008-05-01 00:21:53.020,40.842166666666664,-123.48783333333331,25.65,1.99,NC.LSH..SH,P,None,2008-05-01T00:22:12.0100
nc40216722,2008-05-01 00:21:53.020,40.842166666666664,-123.48783333333331,25.65,1.99,NC.LGB..SH,P,-1,2008-05-01T00:22:12.8900
nc40216722,2008-05-01 00:21:53.020,40.842166666666664,-123.48783333333331,25.65,1.99,NC.LWH..SH,P,-1,2008-05-01T00:22:14.3300
nc40218174,2008-05-25 19:25:45.070,40.43633333333333,-123.837,5.22,1.81,NC.KCR..SH,P,1,2008-05-25T19:25:46.6600
nc40218174,2008-05-25 19:25:45.070,40.43633333333333,-123.837,5.22,1.81,XQ.ME33.01.BH,P,1,2008-05-25T19:25:46.8200
nc40218174,2008-05-25 19:25:45.070,40.43633333333333,-123.837,5.22,1.81,XQ.ME35.01.BH,P,1,2008-05-25T19:25:47.4900
nc40218174,2008-05-25 19:25:45.070,40.43633333333333,-123.837,5.22,1.81,XQ.ME32.01.BH,P,-1,2008-05-25T19:25:48.6200
nc40218174,2008-05-25 19:25:45.070,40.43633333333333,-123.837,5.22,1.81,NC.KMPB..HH,P,-1,2008-05-25T19:25:49.9500
nc40218174,2008-05-25 19:25:45.070,40.43633333333333,-123.837,5.22,1.81,NC.KMR..HH,P,-1,2008-05-25T19:25:51.1200
nc40218174,2008-05-25 19:25:45.070,40.43633333333333,-123.837,5.22,1.81,NC.KCS..SH,P,-1,2008-05-25T19:25:51.4200
nc40218174,2008-05-25 19:25:45.070,40.43633333333333,-123.837,5.22,1.81,XQ.ME36.01.BH,P,-1,2008-05-25T19:25:52.1600
nc40218174,2008-05-25 19:25:45.070,40.43633333333333,-123.837,5.22,1.81,NC.KSM..SH,P,-1,2008-05-25T19:25:53.3300
nc40218174,2008-05-25 19:25:45.070,40.43633333333333,-123.837,5.22,1.81,BK.JCC..HH,P,-1,2008-05-25T19:25:53.3600
nc40218174,2008-05-25 19:25:45.070,40.43633333333333,-123.837,5.22,1.81,NC.KPP..SH,P,-1,2008-05-25T19:25:53.8300
nc40218174,2008-05-25 19:25:45.070,40.43633333333333,-123.837,5.22,1.81,NC.KJJ..SH,P,-1,2008-05-25T19:25:54.2500
nc40218174,2008-05-25 19:25:45.070,40.43633333333333,-123.837,5.22,1.81,XQ.ME30.01.BH,P,-1,2008-05-25T19:25:54.4500
nc40218174,2008-05-25 19:25:45.070,40.43633333333333,-123.837,5.22,1.81,NC.KHMB..HH,P,-1,2008-05-25T19:25:54.6200
nc40218174,2008-05-25 19:25:45.070,40.43633333333333,-123.837,5.22,1.81,NC.KHBB..HH,P,None,2008-05-25T19:25:55.8400
nc40218174,2008-05-25 19:25:45.070,40.43633333333333,-123.837,5.22,1.81,NC.KRP..HH,P,-1,2008-05-25T19:25:59.8700
nc40218174,2008-05-25 19:25:45.070,40.43633333333333,-123.837,5.22,1.81,XQ.ME07.01.BH,P,1,2008-05-25T19:26:00.1500
nc40218174,2008-05-25 19:25:45.070,40.43633333333333,-123.837,5.22,1.81,NC.KCPB..HH,P,-1,2008-05-25T19:26:01.4800
nc40218174,2008-05-25 19:25:45.070,40.43633333333333,-123.837,5.22,1.81,NC.KOM..SH,P,1,2008-05-25T19:26:02.2500
nc40218174,2008-05-25 19:25:45.070,40.43633333333333,-123.837,5.22,1.81,NC.LGP..SH,P,-1,2008-05-25T19:26:02.5200
nc40218174,2008-05-25 19:25:45.070,40.43633333333333,-123.837,5.22,1.81,NC.KFP..SH,P,1,2008-05-25T19:26:02.5800
nc40218174,2008-05-25 19:25:45.070,40.43633333333333,-123.837,5.22,1.81,XQ.ME33.01.BH,P,1,2008-05-25T19:26:27.2200
