event_id,etime,elat,elon,edep,emag,station_id,phase_type,phase_polarity,phase_time
nc40220957,2008-07-21 01:16:44.010,39.81216666666667,-123.17683333333332,8.56,2.42,XQ.ME29.01.BH,P,-1,2008-07-21T01:17:08.5000
nc40220957,2008-07-21 01:16:44.010,39.81216666666667,-123.17683333333332,8.56,2.42,NC.NFR.02.EH,P,1,2008-07-21T01:17:10.1300
nc40220957,2008-07-21 01:16:44.010,39.81216666666667,-123.17683333333332,8.56,2.42,XQ.ME42.01.BH,P,1,2008-07-21T01:17:50.9900
nc40220957,2008-07-21 01:16:44.010,39.81216666666667,-123.17683333333332,8.56,2.42,XQ.ME43.01.BH,P,-1,2008-07-21T01:17:53.2300
nc40220957,2008-07-21 01:16:44.010,39.81216666666667,-123.17683333333332,8.56,2.42,XQ.ME56.01.BH,P,1,2008-07-21T01:17:53.5100
nc40220957,2008-07-21 01:16:44.010,39.81216666666667,-123.17683333333332,8.56,2.42,XQ.ME44.01.BH,P,-1,2008-07-21T01:17:54.5500
nc40220957,2008-07-21 01:16:44.010,39.81216666666667,-123.17683333333332,8.56,2.42,XQ.ME38.01.BH,P,-1,2008-07-21T01:17:55.9300
nc40220957,2008-07-21 01:16:44.010,39.81216666666667,-123.17683333333332,8.56,2.42,XQ.ME12.01.BH,P,-1,2008-07-21T01:18:00.8900
nc40220957,2008-07-21 01:16:44.010,39.81216666666667,-123.17683333333332,8.56,2.42,XQ.ME08.01.BH,P,-1,2008-07-21T01:18:04.2900
nc40220958,2008-07-21 01:17:48.090,39.81483333333333,-123.17716666666666,6.77,1.86,NC.KBN..SH,P,-1,2008-07-21T01:17:50.6300
nc40220958,2008-07-21 01:17:48.090,39.81483333333333,-123.17716666666666,6.77,1.86,XQ.ME42.01.BH,P,1,2008-07-21T01:17:50.9900
nc40220958,2008-07-21 01:17:48.090,39.81483333333333,-123.17716666666666,6.77,1.86,NC.KIP..SH,P,1,2008-07-21T01:17:52.8600
nc40220958,2008-07-21 01:17:48.090,39.81483333333333,-123.17716666666666,6.77,1.86,XQ.ME43.01.BH,P,-1,2008-07-21T01:17:53.2300
nc40220958,2008-07-21 01:17:48.090,39.81483333333333,-123.17716666666666,6.77,1.86,NC.KFP..SH,P,1,2008-07-21T01:17:53.4100
nc40220958,2008-07-21 01:17:48.090,39.81483333333333,-123.17716666666666,6.77,1.86,NC.KRK..SH,P,-1,2008-07-21T01:17:53.4400
nc40220958,2008-07-21 01:17:48.090,39.81483333333333,-123.17716666666666,6.77,1.86,XQ.ME56.01.BH,P,1,2008-07-21T01:17:53.5100
nc40220958,2008-07-21 01:17:48.090,39.81483333333333,-123.17716666666666,6.77,1.86,XQ.ME44.01.BH,P,-1,2008-07-21T01:17:54.5600
nc40220958,2008-07-21 01:17:48.090,39.81483333333333,-123.17716666666666,6.77,1.86,NC.KBS..SH,P,1,2008-07-21T01:17:54.9300
nc40220958,2008-07-21 01:17:48.090,39.81483333333333,-123.17716666666666,6.77,1.86,NC.KCPB..HH,P,1,2008-07-21T01:17:55.1500
nc40220958,2008-07-21 01:17:48.090,39.81483333333333,-123.17716666666666,6.77,1.86,NC.GHM..EH,P,-1,2008-07-21T01:17:55.7500
nc40220958,2008-07-21 01:17:48.090,39.81483333333333,-123.17716666666666,6.77,1.86,XQ.ME38.01.BH,P,-1,2008-07-21T01:17:55.9500
nc40220958,2008-07-21 01:17:48.090,39.81483333333333,-123.17716666666666,6.77,1.86,BK.GASB..HH,P,1,2008-07-21T01:17:56.0600
nc40220958,2008-07-21 01:17:48.090,39.81483333333333,-123.17716666666666,6.77,1.86,NC.LVR..SH,P,1,2008-07-21T01:17:57.1300
nc40220958,2008-07-21 01:17:48.090,39.81483333333333,-123.17716666666666,6.77,1.86,NC.LPG..SH,P,1,2008-07-21T01:17:58.3400
nc40220958,2008-07-21 01:17:48.090,39.81483333333333,-123.17716666666666,6.77,1.86,NC.GTC..SH,P,-1,2008-07-21T01:17:58.3700
nc40220958,2008-07-21 01:17:48.090,39.81483333333333,-123.17716666666666,6.77,1.86,NC.LBP..SH,P,-1,2008-07-21T01:17:59.1800
nc40220958,2008-07-21 01:17:48.090,39.81483333333333,-123.17716666666666,6.77,1.86,NC.KPP..SH,P,-1,2008-07-21T01:17:59.2400
nc40220958,2008-07-21 01:17:48.090,39.81483333333333,-123.17716666666666,6.77,1.86,NC.LRB..SH,P,1,2008-07-21T01:18:00.2300
nc40220958,2008-07-21 01:17:48.090,39.81483333333333,-123.17716666666666,6.77,1.86,XQ.ME12.01.BH,P,-1,2008-07-21T01:18:00.9100
nc40220958,2008-07-21 01:17:48.090,39.81483333333333,-123.17716666666666,6.77,1.86,NC.GTS..EH,P,1,2008-07-21T01:18:01.3200
nc40220958,2008-07-21 01:17:48.090,39.81483333333333,-123.17716666666666,6.77,1.86,NC.GBB..EH,P,-1,2008-07-21T01:18:01.8500
nc40220958,2008-07-21 01:17:48.090,39.81483333333333,-123.17716666666666,6.77,1.86,NC.KCS..SH,P,-1,2008-07-21T01:18:03.3000
nc40220958,2008-07-21 01:17:48.090,39.81483333333333,-123.17716666666666,6.77,1.86,NC.GHL..EH,P,-1,2008-07-21T01:18:03.5500
nc40220958,2008-07-21 01:17:48.090,39.81483333333333,-123.17716666666666,6.77,1.86,XQ.ME08.01.BH,P,-1,2008-07-21T01:18:04.2900
nc40221060,2008-07-23 14:59:35.170,40.931666666666665,-123.2565,33.47,2.1,XQ.ME29.01.BH,P,-1,2008-07-23T14:59:41.8900
nc40221060,2008-07-23 14:59:35.170,40.931666666666665,-123.2565,33.47,2.1,XQ.ME30.01.BH,P,1,2008-07-23T14:59:41.9600
nc40221060,2008-07-23 14:59:35.170,40.931666666666665,-123.2565,33.47,2.1,NC.KHBB..HH,P,1,2008-07-23T14:59:42.5600
nc40221060,2008-07-23 14:59:35.170,40.931666666666665,-123.2565,33.47,2.1,XQ.ME13.01.BH,P,1,2008-07-23T14:59:42.9100
nc40221060,2008-07-23 14:59:35.170,40.931666666666665,-123.2565,33.47,2.1,NC.LGP..SH,P,1,2008-07-23T14:59:43.0300
nc40221060,2008-07-23 14:59:35.170,40.931666666666665,-123.2565,33.47,2.1,NC.KHMB..HH,P,1,2008-07-23T14:59:43.6300
nc40221060,2008-07-23 14:59:35.170,40.931666666666665,-123.2565,33.47,2.1,NC.KOM..SH,P,-1,2008-07-23T14:59:43.8500
nc40221060,2008-07-23 14:59:35.170,40.931666666666665,-123.2565,33.47,2.1,XQ.ME09.01.BH,P,1,2008-07-23T14:59:44.4800
nc40221060,2008-07-23 14:59:35.170,40.931666666666665,-123.2565,33.47,2.1,NC.KCS..SH,P,-1,2008-07-23T14:59:44.9700
nc40221060,2008-07-23 14:59:35.170,40.931666666666665,-123.2565,33.47,2.1,XQ.ME04.01.BH,P,-1,2008-07-23T14:59:45.0900
nc40221060,2008-07-23 14:59:35.170,40.931666666666665,-123.2565,33.47,2.1,NC.LBK..SH,P,1,2008-07-23T14:59:45.1700
nc40221060,2008-07-23 14:59:35.170,40.931666666666665,-123.2565,33.47,2.1,XQ.ME27.01.BH,P,1,2008-07-23T14:59:45.3500
nc40221060,2008-07-23 14:59:35.170,40.931666666666665,-123.2565,33.47,2.1,XQ.ME31.01.BH,P,-1,2008-07-23T14:59:46.4300
nc40221060,2008-07-23 14:59:35.170,40.931666666666665,-123.2565,33.47,2.1,NC.KPP..SH,P,-1,2008-07-23T14:59:47.1300
nc40221060,2008-07-23 14:59:35.170,40.931666666666665,-123.2565,33.47,2.1,BK.WDC..HH,P,1,2008-07-23T14:59:47.7200
nc40221060,2008-07-23 14:59:35.170,40.931666666666665,-123.2565,33.47,2.1,NC.LSH..SH,P,-1,2008-07-23T14:59:52.2700
nc40221060,2008-07-23 14:59:35.170,40.931666666666665,-123.2565,33.47,2.1,NC.KTR..SH,P,-1,2008-07-23T14:59:53.0700
nc40221128,2008-07-25 01:10:34.410,40.51383333333333,-123.9635,19.04,2.17,XQ.ME32.01.BH,P,-1,2008-07-25T01:10:38.9200
nc40221128,2008-07-25 01:10:34.410,40.51383333333333,-123.9635,19.04,2.17,XQ.ME33.01.BH,P,1,2008-07-25T01:10:38.9600
nc40221128,2008-07-25 01:10:34.410,40.51383333333333,-123.9635,19.04,2.17,NC.KCR..SH,P,-1,2008-07-25T01:10:39.1100
nc40221128,2008-07-25 01:10:34.410,40.51383333333333,-123.9635,19.04,2.17,NC.KMPB..HH,P,1,2008-07-25T01:10:39.1900
nc40221128,2008-07-25 01:10:34.410,40.51383333333333,-123.9635,19.04,2.17,XQ.ME35.01.BH,P,1,2008-07-25T01:10:39.7500
nc40221128,2008-07-25 01:10:34.410,40.51383333333333,-123.9635,19.04,2.17,XQ.ME31.01.BH,P,-1,2008-07-25T01:10:40.0000
nc40221128,2008-07-25 01:10:34.410,40.51383333333333,-123.9635,19.04,2.17,BK.JCC..HH,P,-1,2008-07-25T01:10:41.2700
nc40221128,2008-07-25 01:10:34.410,40.51383333333333,-123.9635,19.04,2.17,NC.KCT..HH,P,1,2008-07-25T01:10:41.3500
nc40221128,2008-07-25 01:10:34.410,40.51383333333333,-123.9635,19.04,2.17,XQ.ME36.01.BH,P,1,2008-07-25T01:10:41.4400
nc40221128,2008-07-25 01:10:34.410,40.51383333333333,-123.9635,19.04,2.17,NC.KCS..SH,P,1,2008-07-25T01:10:42.4100
nc40221128,2008-07-25 01:10:34.410,40.51383333333333,-123.9635,19.04,2.17,NC.KSM..SH,P,1,2008-07-25T01:10:42.4100
nc40221128,2008-07-25 01:10:34.410,40.51383333333333,-123.9635,19.04,2.17,NC.KJJ..SH,P,1,2008-07-25T01:10:42.4700
nc40221128,2008-07-25 01:10:34.410,40.51383333333333,-123.9635,19.04,2.17,NC.KMR..HH,P,-1,2008-07-25T01:10:42.5400
nc40221128,2008-07-25 01:10:34.410,40.51383333333333,-123.9635,19.04,2.17,NC.KHMB..HH,P,1,2008-07-25T01:10:43.2500
nc40221128,2008-07-25 01:10:34.410,40.51383333333333,-123.9635,19.04,2.17,XQ.ME39.01.BH,P,-1,2008-07-25T01:10:43.4700
nc40221128,2008-07-25 01:10:34.410,40.51383333333333,-123.9635,19.04,2.17,XQ.ME30.01.BH,P,1,2008-07-25T01:10:43.5100
nc40221128,2008-07-25 01:10:34.410,40.51383333333333,-123.9635,19.04,2.17,NC.KPP..SH,P,1,2008-07-25T01:10:44.8300
nc40221128,2008-07-25 01:10:34.410,40.51383333333333,-123.9635,19.04,2.17,XQ.ME38.01.BH,P,-1,2008-07-25T01:10:45.1500
nc40221128,2008-07-25 01:10:34.410,40.51383333333333,-123.9635,19.04,2.17,NC.KKP..SH,P,-1,2008-07-25T01:10:45.2900
nc40221128,2008-07-25 01:10:34.410,40.51383333333333,-123.9635,19.04,2.17,NC.KHBB..HH,P,1,2008-07-25T01:10:45.9700
nc40221128,2008-07-25 01:10:34.410,40.51383333333333,-123.9635,19.04,2.17,XQ.ME27.01.BH,P,1,2008-07-25T01:10:46.5200
nc40221128,2008-07-25 01:10:34.410,40.51383333333333,-123.9635,19.04,2.17,NC.KRP..HH,P,1,2008-07-25T01:10:46.7700
nc40221128,2008-07-25 01:10:34.410,40.51383333333333,-123.9635,19.04,2.17,XQ.ME49.01.BH,P,-1,2008-07-25T01:10:47.0900
nc40221128,2008-07-25 01:10:34.410,40.51383333333333,-123.9635,19.04,2.17,NC.KIP..SH,P,1,2008-07-25T01:10:49.0600
nc40221128,2008-07-25 01:10:34.410,40.51383333333333,-123.9635,19.04,2.17,NC.KOM..SH,P,1,2008-07-25T01:10:49.6500
nc40221128,2008-07-25 01:10:34.410,40.51383333333333,-123.9635,19.04,2.17,NC.KCPB..HH,P,1,2008-07-25T01:10:50.1100
nc40221128,2008-07-25 01:10:34.410,40.51383333333333,-123.9635,19.04,2.17,NC.LBP..SH,P,-1,2008-07-25T01:10:50.2500
nc40221128,2008-07-25 01:10:34.410,40.51383333333333,-123.9635,19.04,2.17,NC.KBN..SH,P,1,2008-07-25T01:10:50.4000
nc40221128,2008-07-25 01:10:34.410,40.51383333333333,-123.9635,19.04,2.17,NC.KFP..SH,P,-1,2008-07-25T01:10:51.1200
nc40221128,2008-07-25 01:10:34.410,40.51383333333333,-123.9635,19.04,2.17,NC.LGP..SH,P,-1,2008-07-25T01:10:51.2100
nc40221128,2008-07-25 01:10:34.410,40.51383333333333,-123.9635,19.04,2.17,NC.LBK..SH,P,1,2008-07-25T01:10:53.9900
nc40221128,2008-07-25 01:10:34.410,40.51383333333333,-123.9635,19.04,2.17,NC.LSH..SH,P,1,2008-07-25T01:10:59.6900
nc40221138,2008-07-25 08:31:50.190,40.4995,-123.96483333333332,19.32,2.96,XQ.ME34.01.BH,P,1,2008-07-25T08:31:54.5800
nc40221138,2008-07-25 08:31:50.190,40.4995,-123.96483333333332,19.32,2.96,XQ.ME33.01.BH,P,1,2008-07-25T08:31:54.7200
nc40221138,2008-07-25 08:31:50.190,40.4995,-123.96483333333332,19.32,2.96,NC.KMPB..HH,P,1,2008-07-25T08:31:54.7700
nc40221138,2008-07-25 08:31:50.190,40.4995,-123.96483333333332,19.32,2.96,NC.KCR..SH,P,-1,2008-07-25T08:31:54.8000
nc40221138,2008-07-25 08:31:50.190,40.4995,-123.96483333333332,19.32,2.96,XQ.ME35.01.BH,P,1,2008-07-25T08:31:55.4800
nc40221138,2008-07-25 08:31:50.190,40.4995,-123.96483333333332,19.32,2.96,XQ.ME31.01.BH,P,-1,2008-07-25T08:31:55.7800
nc40221138,2008-07-25 08:31:50.190,40.4995,-123.96483333333332,19.32,2.96,NC.KCT..HH,P,1,2008-07-25T08:31:56.9500
nc40221138,2008-07-25 08:31:50.190,40.4995,-123.96483333333332,19.32,2.96,BK.JCC..HH,P,-1,2008-07-25T08:31:57.0400
nc40221138,2008-07-25 08:31:50.190,40.4995,-123.96483333333332,19.32,2.96,XQ.ME36.01.BH,P,-1,2008-07-25T08:31:57.0600
nc40221138,2008-07-25 08:31:50.190,40.4995,-123.96483333333332,19.32,2.96,XQ.ME37.01.BH,P,1,2008-07-25T08:31:57.5000
nc40221138,2008-07-25 08:31:50.190,40.4995,-123.96483333333332,19.32,2.96,NC.KSM..SH,P,-1,2008-07-25T08:31:57.9900
nc40221138,2008-07-25 08:31:50.190,40.4995,-123.96483333333332,19.32,2.96,NC.KJJ..SH,P,1,2008-07-25T08:31:58.0500
nc40221138,2008-07-25 08:31:50.190,40.4995,-123.96483333333332,19.32,2.96,NC.KMR..HH,P,-1,2008-07-25T08:31:58.2100
nc40221138,2008-07-25 08:31:50.190,40.4995,-123.96483333333332,19.32,2.96,NC.KCS..SH,P,1,2008-07-25T08:31:58.2300
nc40221138,2008-07-25 08:31:50.190,40.4995,-123.96483333333332,19.32,2.96,NC.KHMB..HH,P,-1,2008-07-25T08:31:59.1000
nc40221138,2008-07-25 08:31:50.190,40.4995,-123.96483333333332,19.32,2.96,XQ.ME39.01.BH,P,-1,2008-07-25T08:31:59.1900
nc40221138,2008-07-25 08:31:50.190,40.4995,-123.96483333333332,19.32,2.96,XQ.ME30.01.BH,P,1,2008-07-25T08:31:59.3700
nc40221138,2008-07-25 08:31:50.190,40.4995,-123.96483333333332,19.32,2.96,NC.KPP..SH,P,1,2008-07-25T08:32:00.6100
nc40221138,2008-07-25 08:31:50.190,40.4995,-123.96483333333332,19.32,2.96,XQ.ME38.01.BH,P,-1,2008-07-25T08:32:00.8900
nc40221138,2008-07-25 08:31:50.190,40.4995,-123.96483333333332,19.32,2.96,NC.KKP..SH,P,-1,2008-07-25T08:32:01.0100
nc40221138,2008-07-25 08:31:50.190,40.4995,-123.96483333333332,19.32,2.96,NC.KHBB..HH,P,1,2008-07-25T08:32:01.6700
nc40221138,2008-07-25 08:31:50.190,40.4995,-123.96483333333332,19.32,2.96,XQ.ME27.01.BH,P,1,2008-07-25T08:32:02.0900
nc40221138,2008-07-25 08:31:50.190,40.4995,-123.96483333333332,19.32,2.96,NC.KRP..HH,P,-1,2008-07-25T08:32:02.1900
nc40221138,2008-07-25 08:31:50.190,40.4995,-123.96483333333332,19.32,2.96,XQ.ME07.01.BH,P,-1,2008-07-25T08:32:02.4500
nc40221138,2008-07-25 08:31:50.190,40.4995,-123.96483333333332,19.32,2.96,XQ.ME49.01.BH,P,-1,2008-07-25T08:32:02.7000
nc40221138,2008-07-25 08:31:50.190,40.4995,-123.96483333333332,19.32,2.96,NC.KIP..SH,P,-1,2008-07-25T08:32:04.6400
nc40221138,2008-07-25 08:31:50.190,40.4995,-123.96483333333332,19.32,2.96,XQ.ME13.01.BH,P,1,2008-07-25T08:32:05.0600
nc40221138,2008-07-25 08:31:50.190,40.4995,-123.96483333333332,19.32,2.96,NC.LBP..SH,P,1,2008-07-25T08:32:05.3200
nc40221138,2008-07-25 08:31:50.190,40.4995,-123.96483333333332,19.32,2.96,NC.KOM..SH,P,1,2008-07-25T08:32:05.4900
nc40221138,2008-07-25 08:31:50.190,40.4995,-123.96483333333332,19.32,2.96,NC.KCPB..HH,P,-1,2008-07-25T08:32:05.5000
nc40221138,2008-07-25 08:31:50.190,40.4995,-123.96483333333332,19.32,2.96,XQ.ME29.01.BH,P,1,2008-07-25T08:32:05.7400
nc40221138,2008-07-25 08:31:50.190,40.4995,-123.96483333333332,19.32,2.96,NC.KBN..SH,P,-1,2008-07-25T08:32:05.9600
nc40221138,2008-07-25 08:31:50.190,40.4995,-123.96483333333332,19.32,2.96,XQ.ME04.01.BH,P,-1,2008-07-25T08:32:06.0100
nc40221138,2008-07-25 08:31:50.190,40.4995,-123.96483333333332,19.32,2.96,NC.KFP..SH,P,-1,2008-07-25T08:32:06.8000
nc40221138,2008-07-25 08:31:50.190,40.4995,-123.96483333333332,19.32,2.96,NC.LGP..SH,P,1,2008-07-25T08:32:06.9000
nc40221138,2008-07-25 08:31:50.190,40.4995,-123.96483333333332,19.32,2.96,XQ.ME50.01.BH,P,-1,2008-07-25T08:32:06.9200
nc40221138,2008-07-25 08:31:50.190,40.4995,-123.96483333333332,19.32,2.96,NC.KRMB..HH,P,-1,2008-07-25T08:32:07.3700
nc40221138,2008-07-25 08:31:50.190,40.4995,-123.96483333333332,19.32,2.96,BK.WDC..HH,P,1,2008-07-25T08:32:08.5500
nc40221138,2008-07-25 08:31:50.190,40.4995,-123.96483333333332,19.32,2.96,NC.GTC..SH,P,-1,2008-07-25T08:32:08.8800
nc40221138,2008-07-25 08:31:50.190,40.4995,-123.96483333333332,19.32,2.96,XQ.ME09.01.BH,P,1,2008-07-25T08:32:08.9700
nc40221138,2008-07-25 08:31:50.190,40.4995,-123.96483333333332,19.32,2.96,NC.LVR..SH,P,1,2008-07-25T08:32:09.0500
nc40221138,2008-07-25 08:31:50.190,40.4995,-123.96483333333332,19.32,2.96,XQ.ME43.01.BH,P,-1,2008-07-25T08:32:09.1200
nc40221138,2008-07-25 08:31:50.190,40.4995,-123.96483333333332,19.32,2.96,NC.KRK..SH,P,-1,2008-07-25T08:32:09.2400
nc40221138,2008-07-25 08:31:50.190,40.4995,-123.96483333333332,19.32,2.96,NC.LBK..SH,P,1,2008-07-25T08:32:09.6000
nc40221138,2008-07-25 08:31:50.190,40.4995,-123.96483333333332,19.32,2.96,XQ.ME44.01.BH,P,-1,2008-07-25T08:32:09.6800
nc40221138,2008-07-25 08:31:50.190,40.4995,-123.96483333333332,19.32,2.96,XQ.ME53.01.BH,P,-1,2008-07-25T08:32:10.9400
nc40221138,2008-07-25 08:31:50.190,40.4995,-123.96483333333332,19.32,2.96,XQ.ME10.01.BH,P,1,2008-07-25T08:32:11.0900
nc40221138,2008-07-25 08:31:50.190,40.4995,-123.96483333333332,19.32,2.96,NC.GNA..EH,P,-1,2008-07-25T08:32:11.1700
nc40221138,2008-07-25 08:31:50.190,40.4995,-123.96483333333332,19.32,2.96,XQ.ME52.01.BH,P,-1,2008-07-25T08:32:11.2100
nc40221138,2008-07-25 08:31:50.190,40.4995,-123.96483333333332,19.32,2.96,NC.GNA.02.EH,P,1,2008-07-25T08:32:11.2500
nc40221138,2008-07-25 08:31:50.190,40.4995,-123.96483333333332,19.32,2.96,NC.GHM..EH,P,-1,2008-07-25T08:32:11.4300
nc40221138,2008-07-25 08:31:50.190,40.4995,-123.96483333333332,19.32,2.96,NC.KSXB..HH,P,-1,2008-07-25T08:32:11.6500
nc40221138,2008-07-25 08:31:50.190,40.4995,-123.96483333333332,19.32,2.96,BK.GASB..HH,P,-1,2008-07-25T08:32:11.8300
nc40221138,2008-07-25 08:31:50.190,40.4995,-123.96483333333332,19.32,2.96,XQ.ME08.01.BH,P,1,2008-07-25T08:32:12.1400
nc40221138,2008-07-25 08:31:50.190,40.4995,-123.96483333333332,19.32,2.96,NC.GWR..EH,P,-1,2008-07-25T08:32:12.3800
nc40221138,2008-07-25 08:31:50.190,40.4995,-123.96483333333332,19.32,2.96,NC.GHO..EH,P,-1,2008-07-25T08:32:13.4700
nc40221138,2008-07-25 08:31:50.190,40.4995,-123.96483333333332,19.32,2.96,NC.KTR..SH,P,-1,2008-07-25T08:32:13.9200
nc40221138,2008-07-25 08:31:50.190,40.4995,-123.96483333333332,19.32,2.96,NC.LSR..SH,P,1,2008-07-25T08:32:14.1100
nc40221138,2008-07-25 08:31:50.190,40.4995,-123.96483333333332,19.32,2.96,PB.B039..EH,P,1,2008-07-25T08:32:14.4600
nc40221138,2008-07-25 08:31:50.190,40.4995,-123.96483333333332,19.32,2.96,NC.LSH..SH,P,1,2008-07-25T08:32:14.8000
nc40221138,2008-07-25 08:31:50.190,40.4995,-123.96483333333332,19.32,2.96,NC.LWH..SH,P,1,2008-07-25T08:32:15.2400
nc40221138,2008-07-25 08:31:50.190,40.4995,-123.96483333333332,19.32,2.96,NC.GHL..EH,P,-1,2008-07-25T08:32:15.8300
nc40221138,2008-07-25 08:31:50.190,40.4995,-123.96483333333332,19.32,2.96,NC.LGB..SH,P,1,2008-07-25T08:32:16.7200
nc40221138,2008-07-25 08:31:50.190,40.4995,-123.96483333333332,19.32,2.96,NC.KBO..HH,P,-1,2008-07-25T08:32:16.8200
nc40221138,2008-07-25 08:31:50.190,40.4995,-123.96483333333332,19.32,2.96,NC.LBO..SH,P,1,2008-07-25T08:32:17.7300
nc40221138,2008-07-25 08:31:50.190,40.4995,-123.96483333333332,19.32,2.96,NC.LTI..SH,P,1,2008-07-25T08:32:22.2000
nc40221138,2008-07-25 08:31:50.190,40.4995,-123.96483333333332,19.32,2.96,NC.LBC..SH,P,1,2008-07-25T08:32:22.4000
nc40221171,2008-07-26 09:16:37.840,40.351166666666664,-123.54066666666668,22.29,2.44,NC.KPP..SH,P,-1,2008-07-26T09:16:43.2900
nc40221171,2008-07-26 09:16:37.840,40.351166666666664,-123.54066666666668,22.29,2.44,NC.KMR..HH,P,-1,2008-07-26T09:16:43.6400
nc40221171,2008-07-26 09:16:37.840,40.351166666666664,-123.54066666666668,22.29,2.44,NC.KCS..SH,P,1,2008-07-26T09:16:43.7900
nc40221171,2008-07-26 09:16:37.840,40.351166666666664,-123.54066666666668,22.29,2.44,NC.KCR..SH,P,-1,2008-07-26T09:16:43.9100
nc40221171,2008-07-26 09:16:37.840,40.351166666666664,-123.54066666666668,22.29,2.44,NC.KKP..SH,P,-1,2008-07-26T09:16:44.0700
nc40221171,2008-07-26 09:16:37.840,40.351166666666664,-123.54066666666668,22.29,2.44,NC.KHBB..HH,P,1,2008-07-26T09:16:46.0900
nc40221171,2008-07-26 09:16:37.840,40.351166666666664,-123.54066666666668,22.29,2.44,NC.KSM..SH,P,1,2008-07-26T09:16:47.6900
nc40221171,2008-07-26 09:16:37.840,40.351166666666664,-123.54066666666668,22.29,2.44,NC.LBP..SH,P,1,2008-07-26T09:16:47.7800
nc40221171,2008-07-26 09:16:37.840,40.351166666666664,-123.54066666666668,22.29,2.44,NC.KHMB..HH,P,1,2008-07-26T09:16:48.3200
nc40221171,2008-07-26 09:16:37.840,40.351166666666664,-123.54066666666668,22.29,2.44,BK.JCC..HH,P,-1,2008-07-26T09:16:48.3800
nc40221171,2008-07-26 09:16:37.840,40.351166666666664,-123.54066666666668,22.29,2.44,NC.KIP..SH,P,1,2008-07-26T09:16:48.5800
nc40221171,2008-07-26 09:16:37.840,40.351166666666664,-123.54066666666668,22.29,2.44,NC.KBN..SH,P,1,2008-07-26T09:16:48.6800
nc40221171,2008-07-26 09:16:37.840,40.351166666666664,-123.54066666666668,22.29,2.44,NC.KJJ..SH,P,None,2008-07-26T09:16:49.0000
nc40221171,2008-07-26 09:16:37.840,40.351166666666664,-123.54066666666668,22.29,2.44,NC.KCPB..HH,P,1,2008-07-26T09:16:50.1000
nc40221171,2008-07-26 09:16:37.840,40.351166666666664,-123.54066666666668,22.29,2.44,NC.KFP..SH,P,1,2008-07-26T09:16:50.6900
nc40221171,2008-07-26 09:16:37.840,40.351166666666664,-123.54066666666668,22.29,2.44,NC.LVR..SH,P,1,2008-07-26T09:16:51.3600
nc40221171,2008-07-26 09:16:37.840,40.351166666666664,-123.54066666666668,22.29,2.44,NC.LGP..SH,P,1,2008-07-26T09:16:51.5600
