event_id,etime,elat,elon,edep,emag,station_id,phase_type,phase_polarity,phase_time
nc51202870,2008-05-17 21:41:47.010,39.887166666666666,-123.20566666666667,7.8,2.18,NC.KPP..SHZ,P,-1.0,2008-05-17 21:41:56.820
nc51202870,2008-05-17 21:41:47.010,39.887166666666666,-123.20566666666667,7.8,2.18,NC.KRK..SHZ,P,-1.0,2008-05-17 21:41:53.780
nc51202870,2008-05-17 21:41:47.010,39.887166666666666,-123.20566666666667,7.8,2.18,NC.LBP..SHZ,P,1.0,2008-05-17 21:41:56.990
nc51202870,2008-05-17 21:41:47.010,39.887166666666666,-123.20566666666667,7.8,2.18,NC.LPG..SHZ,P,1.0,2008-05-17 21:41:56.750
nc51202870,2008-05-17 21:41:47.010,39.887166666666666,-123.20566666666667,7.8,2.18,NC.LRB..SHZ,P,1.0,2008-05-17 21:41:58.890
nc51202870,2008-05-17 21:41:47.010,39.887166666666666,-123.20566666666667,7.8,2.18,NC.LSF..SHZ,P,1.0,2008-05-17 21:42:04.520
nc51202870,2008-05-17 21:41:47.010,39.887166666666666,-123.20566666666667,7.8,2.18,NC.LVR..SHZ,P,1.0,2008-05-17 21:41:55.870
nc51202874,2008-05-17 22:11:14.790,39.88916666666667,-123.20816666666667,7.99,1.77,BK.GASB..HHZ,P,1.0,2008-05-17 22:11:23.640
nc51202874,2008-05-17 22:11:14.790,39.88916666666667,-123.20816666666667,7.99,1.77,NC.GCK..EHZ,P,,2008-05-17 22:11:28.920
nc51202874,2008-05-17 22:11:14.790,39.88916666666667,-123.20816666666667,7.99,1.77,NC.GHM..EHZ,P,-1.0,2008-05-17 22:11:24.030
nc51202874,2008-05-17 22:11:14.790,39.88916666666667,-123.20816666666667,7.99,1.77,NC.GRO..EHZ,P,1.0,2008-05-17 22:11:23.270
nc51202874,2008-05-17 22:11:14.790,39.88916666666667,-123.20816666666667,7.99,1.77,NC.GTC..SHZ,P,-1.0,2008-05-17 22:11:26.060
nc51202874,2008-05-17 22:11:14.790,39.88916666666667,-123.20816666666667,7.99,1.77,NC.KBN..SHZ,P,-1.0,2008-05-17 22:11:16.740
nc51202874,2008-05-17 22:11:14.790,39.88916666666667,-123.20816666666667,7.99,1.77,NC.KCPB..HHZ,P,1.0,2008-05-17 22:11:22.220
nc51202874,2008-05-17 22:11:14.790,39.88916666666667,-123.20816666666667,7.99,1.77,NC.KCS..SHZ,P,-1.0,2008-05-17 22:11:28.660
nc51202874,2008-05-17 22:11:14.790,39.88916666666667,-123.20816666666667,7.99,1.77,NC.KFP..SHZ,P,-1.0,2008-05-17 22:11:20.870
nc51202874,2008-05-17 22:11:14.790,39.88916666666667,-123.20816666666667,7.99,1.77,NC.KIP..SHZ,P,1.0,2008-05-17 22:11:19.560
nc51202874,2008-05-17 22:11:14.790,39.88916666666667,-123.20816666666667,7.99,1.77,NC.KKP..SHZ,P,-1.0,2008-05-17 22:11:22.210
nc51202874,2008-05-17 22:11:14.790,39.88916666666667,-123.20816666666667,7.99,1.77,NC.KMR..HHZ,P,1.0,2008-05-17 22:11:25.150
nc51202874,2008-05-17 22:11:14.790,39.88916666666667,-123.20816666666667,7.99,1.77,NC.KPP..SHZ,P,-1.0,2008-05-17 22:11:24.620
nc51202874,2008-05-17 22:11:14.790,39.88916666666667,-123.20816666666667,7.99,1.77,NC.KRK..SHZ,P,-1.0,2008-05-17 22:11:21.570
nc51202874,2008-05-17 22:11:14.790,39.88916666666667,-123.20816666666667,7.99,1.77,NC.LBP..SHZ,P,-1.0,2008-05-17 22:11:24.790
nc51202874,2008-05-17 22:11:14.790,39.88916666666667,-123.20816666666667,7.99,1.77,NC.LPG..SHZ,P,1.0,2008-05-17 22:11:24.560
nc51202874,2008-05-17 22:11:14.790,39.88916666666667,-123.20816666666667,7.99,1.77,NC.LRB..SHZ,P,1.0,2008-05-17 22:11:26.680
nc51202874,2008-05-17 22:11:14.790,39.88916666666667,-123.20816666666667,7.99,1.77,NC.LVR..SHZ,P,1.0,2008-05-17 22:11:23.660
nc71118361,2008-05-18 01:56:01.080,39.8865,-123.2065,7.54,1.43,BK.GASB..HHZ,P,-1.0,2008-05-18 01:56:10.020
nc71118361,2008-05-18 01:56:01.080,39.8865,-123.2065,7.54,1.43,NC.GHM..EHZ,P,1.0,2008-05-18 01:56:10.230
nc71118361,2008-05-18 01:56:01.080,39.8865,-123.2065,7.54,1.43,NC.GRO..EHZ,P,1.0,2008-05-18 01:56:09.510
nc71118361,2008-05-18 01:56:01.080,39.8865,-123.2065,7.54,1.43,NC.GTS..EHZ,P,1.0,2008-05-18 01:56:15.610
nc71118361,2008-05-18 01:56:01.080,39.8865,-123.2065,7.54,1.43,NC.KBN..SHZ,P,-1.0,2008-05-18 01:56:02.960
nc71118361,2008-05-18 01:56:01.080,39.8865,-123.2065,7.54,1.43,NC.KBS..SHZ,P,1.0,2008-05-18 01:56:07.260
nc71118361,2008-05-18 01:56:01.080,39.8865,-123.2065,7.54,1.43,NC.KFP..SHZ,P,1.0,2008-05-18 01:56:07.100
nc71118361,2008-05-18 01:56:01.080,39.8865,-123.2065,7.54,1.43,NC.KIP..SHZ,P,1.0,2008-05-18 01:56:05.760
nc71118361,2008-05-18 01:56:01.080,39.8865,-123.2065,7.54,1.43,NC.KKP..SHZ,P,1.0,2008-05-18 01:56:08.500
nc71118361,2008-05-18 01:56:01.080,39.8865,-123.2065,7.54,1.43,NC.KPP..SHZ,P,-1.0,2008-05-18 01:56:10.850
nc71118361,2008-05-18 01:56:01.080,39.8865,-123.2065,7.54,1.43,NC.KRK..SHZ,P,1.0,2008-05-18 01:56:07.920
nc71118361,2008-05-18 01:56:01.080,39.8865,-123.2065,7.54,1.43,NC.KSM..SHZ,P,,2008-05-18 01:56:17.140
nc71118361,2008-05-18 01:56:01.080,39.8865,-123.2065,7.54,1.43,NC.LBP..SHZ,P,-1.0,2008-05-18 01:56:11.080
nc71118361,2008-05-18 01:56:01.080,39.8865,-123.2065,7.54,1.43,NC.LPG..SHZ,P,1.0,2008-05-18 01:56:10.830
nc71118361,2008-05-18 01:56:01.080,39.8865,-123.2065,7.54,1.43,NC.LRB..SHZ,P,1.0,2008-05-18 01:56:12.930
nc71118361,2008-05-18 01:56:01.080,39.8865,-123.2065,7.54,1.43,NC.LVR..SHZ,P,1.0,2008-05-18 01:56:09.930
nc71118366,2008-05-18 02:20:05.440,40.35183333333333,-123.614,20.24,1.2,NC.KBS..SHZ,P,-1.0,2008-05-18 02:20:15.140
nc71118366,2008-05-18 02:20:05.440,40.35183333333333,-123.614,20.24,1.2,NC.KCR..SHZ,P,1.0,2008-05-18 02:20:10.780
nc71118366,2008-05-18 02:20:05.440,40.35183333333333,-123.614,20.24,1.2,NC.KCS..SHZ,P,1.0,2008-05-18 02:20:11.280
nc71118366,2008-05-18 02:20:05.440,40.35183333333333,-123.614,20.24,1.2,NC.KHBB..HHZ,P,-1.0,2008-05-18 02:20:14.590
nc71118366,2008-05-18 02:20:05.440,40.35183333333333,-123.614,20.24,1.2,NC.KKP..SHZ,P,-1.0,2008-05-18 02:20:12.010
nc71118366,2008-05-18 02:20:05.440,40.35183333333333,-123.614,20.24,1.2,NC.KPP..SHZ,P,-1.0,2008-05-18 02:20:11.390
nc71118366,2008-05-18 02:20:05.440,40.35183333333333,-123.614,20.24,1.2,NC.LBP..SHZ,P,1.0,2008-05-18 02:20:16.360
nc71118366,2008-05-18 02:20:05.440,40.35183333333333,-123.614,20.24,1.2,NC.LVR..SHZ,P,-1.0,2008-05-18 02:20:19.950
nc51202893,2008-05-18 05:23:43.260,41.028166666666664,-123.38533333333334,27.8,2.3,BK.JCC..HHZ,P,-1.0,2008-05-18 05:23:53.440
nc51202893,2008-05-18 05:23:43.260,41.028166666666664,-123.38533333333334,27.8,2.3,BK.WDC..HHZ,P,1.0,2008-05-18 05:23:57.850
nc51202893,2008-05-18 05:23:43.260,41.028166666666664,-123.38533333333334,27.8,2.3,NC.KCR..SHZ,P,,2008-05-18 05:23:56.000
nc51202893,2008-05-18 05:23:43.260,41.028166666666664,-123.38533333333334,27.8,2.3,NC.KCS..SHZ,P,1.0,2008-05-18 05:23:53.720
nc51202893,2008-05-18 05:23:43.260,41.028166666666664,-123.38533333333334,27.8,2.3,NC.KHBB..HHZ,P,-1.0,2008-05-18 05:23:51.790
nc51202893,2008-05-18 05:23:43.260,41.028166666666664,-123.38533333333334,27.8,2.3,NC.KHMB..HHZ,P,1.0,2008-05-18 05:23:50.680
nc51202893,2008-05-18 05:23:43.260,41.028166666666664,-123.38533333333334,27.8,2.3,NC.KMPB..HHZ,P,,2008-05-18 05:23:57.750
nc51202893,2008-05-18 05:23:43.260,41.028166666666664,-123.38533333333334,27.8,2.3,NC.KOM..SHZ,P,1.0,2008-05-18 05:23:50.000
nc51202893,2008-05-18 05:23:43.260,41.028166666666664,-123.38533333333334,27.8,2.3,NC.KPP..SHZ,P,1.0,2008-05-18 05:23:56.310
nc51202893,2008-05-18 05:23:43.260,41.028166666666664,-123.38533333333334,27.8,2.3,NC.KRMB..HHZ,P,-1.0,2008-05-18 05:23:54.970
nc51202893,2008-05-18 05:23:43.260,41.028166666666664,-123.38533333333334,27.8,2.3,NC.KRP..HHZ,P,1.0,2008-05-18 05:23:53.240
nc51202893,2008-05-18 05:23:43.260,41.028166666666664,-123.38533333333334,27.8,2.3,NC.KSXB..HHZ,P,1.0,2008-05-18 05:23:58.730
nc51202893,2008-05-18 05:23:43.260,41.028166666666664,-123.38533333333334,27.8,2.3,NC.KTR..SHZ,P,1.0,2008-05-18 05:23:59.040
nc51202893,2008-05-18 05:23:43.260,41.028166666666664,-123.38533333333334,27.8,2.3,NC.LBF..SHZ,P,-1.0,2008-05-18 05:24:04.860
nc51202893,2008-05-18 05:23:43.260,41.028166666666664,-123.38533333333334,27.8,2.3,NC.LBK..SHZ,P,-1.0,2008-05-18 05:23:53.870
nc51202893,2008-05-18 05:23:43.260,41.028166666666664,-123.38533333333334,27.8,2.3,NC.LBO..SHZ,P,1.0,2008-05-18 05:24:01.400
nc51202893,2008-05-18 05:23:43.260,41.028166666666664,-123.38533333333334,27.8,2.3,NC.LGB..SHZ,P,1.0,2008-05-18 05:24:00.950
nc51202893,2008-05-18 05:23:43.260,41.028166666666664,-123.38533333333334,27.8,2.3,NC.LGP..SHZ,P,-1.0,2008-05-18 05:23:52.220
nc51202893,2008-05-18 05:23:43.260,41.028166666666664,-123.38533333333334,27.8,2.3,NC.LMP..SHZ,P,-1.0,2008-05-18 05:24:02.560
nc51202893,2008-05-18 05:23:43.260,41.028166666666664,-123.38533333333334,27.8,2.3,NC.LSH..SHZ,P,1.0,2008-05-18 05:24:01.600
nc51202893,2008-05-18 05:23:43.260,41.028166666666664,-123.38533333333334,27.8,2.3,NC.LSR..SHZ,P,1.0,2008-05-18 05:23:58.800
nc40218174,2008-05-25 19:25:45.070,40.43633333333333,-123.837,5.22,1.81,BK.JCC..HHZ,P,-1.0,2008-05-25 19:25:53.360
nc40218174,2008-05-25 19:25:45.070,40.43633333333333,-123.837,5.22,1.81,NC.KCR..SHZ,P,1.0,2008-05-25 19:25:46.660
nc40218174,2008-05-25 19:25:45.070,40.43633333333333,-123.837,5.22,1.81,NC.KCS..SHZ,P,-1.0,2008-05-25 19:25:51.420
nc40218174,2008-05-25 19:25:45.070,40.43633333333333,-123.837,5.22,1.81,NC.KFP..SHZ,P,1.0,2008-05-25 19:26:02.580
nc40218174,2008-05-25 19:25:45.070,40.43633333333333,-123.837,5.22,1.81,NC.KHBB..HHZ,P,,2008-05-25 19:25:55.840
nc40218174,2008-05-25 19:25:45.070,40.43633333333333,-123.837,5.22,1.81,NC.KJJ..SHZ,P,-1.0,2008-05-25 19:25:54.250
nc40218174,2008-05-25 19:25:45.070,40.43633333333333,-123.837,5.22,1.81,NC.KMPB..HHZ,P,-1.0,2008-05-25 19:25:49.950
nc40218174,2008-05-25 19:25:45.070,40.43633333333333,-123.837,5.22,1.81,NC.KMR..HHZ,P,-1.0,2008-05-25 19:25:51.120
nc40218174,2008-05-25 19:25:45.070,40.43633333333333,-123.837,5.22,1.81,NC.KOM..SHZ,P,1.0,2008-05-25 19:26:02.250
nc40218174,2008-05-25 19:25:45.070,40.43633333333333,-123.837,5.22,1.81,NC.KPP..SHZ,P,-1.0,2008-05-25 19:25:53.830
nc40218174,2008-05-25 19:25:45.070,40.43633333333333,-123.837,5.22,1.81,NC.KRP..HHZ,P,-1.0,2008-05-25 19:25:59.870
nc40218174,2008-05-25 19:25:45.070,40.43633333333333,-123.837,5.22,1.81,NC.KSM..SHZ,P,-1.0,2008-05-25 19:25:53.330
nc40218174,2008-05-25 19:25:45.070,40.43633333333333,-123.837,5.22,1.81,NC.LGP..SHZ,P,-1.0,2008-05-25 19:26:02.520
nc71120785,2008-05-26 10:38:59.100,40.41883333333333,-123.149,25.34,1.62,BK.WDC..HHZ,P,-1.0,2008-05-26 10:39:08.770
nc71120785,2008-05-26 10:38:59.100,40.41883333333333,-123.149,25.34,1.62,NC.KCR..SHZ,P,1.0,2008-05-26 10:39:08.960
nc71120785,2008-05-26 10:38:59.100,40.41883333333333,-123.149,25.34,1.62,NC.KCS..SHZ,P,1.0,2008-05-26 10:39:06.500
nc71120785,2008-05-26 10:38:59.100,40.41883333333333,-123.149,25.34,1.62,NC.KHBB..HHZ,P,1.0,2008-05-26 10:39:05.690
nc71120785,2008-05-26 10:38:59.100,40.41883333333333,-123.149,25.34,1.62,NC.KKP..SHZ,P,-1.0,2008-05-26 10:39:07.810
nc71120785,2008-05-26 10:38:59.100,40.41883333333333,-123.149,25.34,1.62,NC.KPP..SHZ,P,1.0,2008-05-26 10:39:05.180
nc71120785,2008-05-26 10:38:59.100,40.41883333333333,-123.149,25.34,1.62,NC.LBP..SHZ,P,-1.0,2008-05-26 10:39:05.380
nc71120785,2008-05-26 10:38:59.100,40.41883333333333,-123.149,25.34,1.62,NC.LGP..SHZ,P,-1.0,2008-05-26 10:39:09.910
nc71120785,2008-05-26 10:38:59.100,40.41883333333333,-123.149,25.34,1.62,NC.LSF..SHZ,P,-1.0,2008-05-26 10:39:09.570
nc40218352,2008-05-29 02:19:21.940,40.113,-123.09533333333333,38.76,2.31,BK.GASB..HHZ,P,-1.0,2008-05-29 02:19:33.500
nc40218352,2008-05-29 02:19:21.940,40.113,-123.09533333333333,38.76,2.31,BK.WDC..HHZ,P,1.0,2008-05-29 02:19:33.980
nc40218352,2008-05-29 02:19:21.940,40.113,-123.09533333333333,38.76,2.31,NC.GBB..EHZ,P,1.0,2008-05-29 02:19:34.920
nc40218352,2008-05-29 02:19:21.940,40.113,-123.09533333333333,38.76,2.31,NC.GHG..EHZ,P,1.0,2008-05-29 02:19:39.120
nc40218352,2008-05-29 02:19:21.940,40.113,-123.09533333333333,38.76,2.31,NC.GHM..EHZ,P,-1.0,2008-05-29 02:19:34.250
nc40218352,2008-05-29 02:19:21.940,40.113,-123.09533333333333,38.76,2.31,NC.GRO..EHZ,P,-1.0,2008-05-29 02:19:31.290
nc40218352,2008-05-29 02:19:21.940,40.113,-123.09533333333333,38.76,2.31,NC.GTC..SHZ,P,-1.0,2008-05-29 02:19:35.780
nc40218352,2008-05-29 02:19:21.940,40.113,-123.09533333333333,38.76,2.31,NC.GVV..EHZ,P,,2008-05-29 02:19:32.390
nc40218352,2008-05-29 02:19:21.940,40.113,-123.09533333333333,38.76,2.31,NC.GWR..EHZ,P,-1.0,2008-05-29 02:19:37.650
nc40218352,2008-05-29 02:19:21.940,40.113,-123.09533333333333,38.76,2.31,NC.KBN..SHZ,P,-1.0,2008-05-29 02:19:29.720
nc40218352,2008-05-29 02:19:21.940,40.113,-123.09533333333333,38.76,2.31,NC.KCPB..HHZ,P,-1.0,2008-05-29 02:19:33.100
nc40218352,2008-05-29 02:19:21.940,40.113,-123.09533333333333,38.76,2.31,NC.KCR..SHZ,P,1.0,2008-05-29 02:19:34.190
nc40218352,2008-05-29 02:19:21.940,40.113,-123.09533333333333,38.76,2.31,NC.KCS..SHZ,P,1.0,2008-05-29 02:19:33.130
nc40218352,2008-05-29 02:19:21.940,40.113,-123.09533333333333,38.76,2.31,NC.KFP..SHZ,P,-1.0,2008-05-29 02:19:32.620
nc40218352,2008-05-29 02:19:21.940,40.113,-123.09533333333333,38.76,2.31,NC.KHBB..HHZ,P,-1.0,2008-05-29 02:19:33.070
nc40218352,2008-05-29 02:19:21.940,40.113,-123.09533333333333,38.76,2.31,NC.KIP..SHZ,P,-1.0,2008-05-29 02:19:31.440
nc40218352,2008-05-29 02:19:21.940,40.113,-123.09533333333333,38.76,2.31,NC.KJJ..SHZ,P,,2008-05-29 02:19:37.630
nc40218352,2008-05-29 02:19:21.940,40.113,-123.09533333333333,38.76,2.31,NC.KKP..SHZ,P,1.0,2008-05-29 02:19:30.570
nc40218352,2008-05-29 02:19:21.940,40.113,-123.09533333333333,38.76,2.31,NC.KMPB..HHZ,P,1.0,2008-05-29 02:19:36.710
nc40218352,2008-05-29 02:19:21.940,40.113,-123.09533333333333,38.76,2.31,NC.KMR..HHZ,P,1.0,2008-05-29 02:19:32.230
nc40218352,2008-05-29 02:19:21.940,40.113,-123.09533333333333,38.76,2.31,NC.KPP..SHZ,P,1.0,2008-05-29 02:19:30.510
nc40218352,2008-05-29 02:19:21.940,40.113,-123.09533333333333,38.76,2.31,NC.KRK..SHZ,P,-1.0,2008-05-29 02:19:33.260
nc40218352,2008-05-29 02:19:21.940,40.113,-123.09533333333333,38.76,2.31,NC.KSM..SHZ,P,,2008-05-29 02:19:36.290
nc40218352,2008-05-29 02:19:21.940,40.113,-123.09533333333333,38.76,2.31,NC.LBP..SHZ,P,-1.0,2008-05-29 02:19:29.730
nc40218352,2008-05-29 02:19:21.940,40.113,-123.09533333333333,38.76,2.31,NC.LDB..SHZ,P,-1.0,2008-05-29 02:19:39.170
nc40218352,2008-05-29 02:19:21.940,40.113,-123.09533333333333,38.76,2.31,NC.LGP..SHZ,P,-1.0,2008-05-29 02:19:36.750
nc40218352,2008-05-29 02:19:21.940,40.113,-123.09533333333333,38.76,2.31,NC.LPG..SHZ,P,1.0,2008-05-29 02:19:30.360
nc40218352,2008-05-29 02:19:21.940,40.113,-123.09533333333333,38.76,2.31,NC.LRB..SHZ,P,1.0,2008-05-29 02:19:31.850
nc40218352,2008-05-29 02:19:21.940,40.113,-123.09533333333333,38.76,2.31,NC.LRR..SHZ,P,-1.0,2008-05-29 02:19:41.470
nc40218352,2008-05-29 02:19:21.940,40.113,-123.09533333333333,38.76,2.31,NC.LSF..SHZ,P,1.0,2008-05-29 02:19:34.930
nc40218352,2008-05-29 02:19:21.940,40.113,-123.09533333333333,38.76,2.31,NC.LSH..SHZ,P,-1.0,2008-05-29 02:19:39.620
nc40218352,2008-05-29 02:19:21.940,40.113,-123.09533333333333,38.76,2.31,NC.LTC..SHZ,P,1.0,2008-05-29 02:19:35.310
nc40218352,2008-05-29 02:19:21.940,40.113,-123.09533333333333,38.76,2.31,NC.LVR..SHZ,P,1.0,2008-05-29 02:19:30.730
nc71121715,2008-05-29 14:12:43.840,40.24966666666667,-124.13883333333334,13.3,1.43,BK.JCC..HHZ,P,-1.0,2008-05-29 14:12:55.590
nc71121715,2008-05-29 14:12:43.840,40.24966666666667,-124.13883333333334,13.3,1.43,NC.KCR..SHZ,P,-1.0,2008-05-29 14:12:50.830
nc71121715,2008-05-29 14:12:43.840,40.24966666666667,-124.13883333333334,13.3,1.43,NC.KCS..SHZ,P,1.0,2008-05-29 14:12:56.070
nc71121715,2008-05-29 14:12:43.840,40.24966666666667,-124.13883333333334,13.3,1.43,NC.KCT..HHZ,P,,2008-05-29 14:12:50.550
nc71121715,2008-05-29 14:12:43.840,40.24966666666667,-124.13883333333334,13.3,1.43,NC.KIP..SHZ,P,-1.0,2008-05-29 14:12:57.160
nc71121715,2008-05-29 14:12:43.840,40.24966666666667,-124.13883333333334,13.3,1.43,NC.KJJ..SHZ,P,1.0,2008-05-29 14:12:47.610
nc71121715,2008-05-29 14:12:43.840,40.24966666666667,-124.13883333333334,13.3,1.43,NC.KKP..SHZ,P,-1.0,2008-05-29 14:12:55.370
nc71121715,2008-05-29 14:12:43.840,40.24966666666667,-124.13883333333334,13.3,1.43,NC.KMPB..HHZ,P,-1.0,2008-05-29 14:12:48.220
nc71121715,2008-05-29 14:12:43.840,40.24966666666667,-124.13883333333334,13.3,1.43,NC.KMR..HHZ,P,-1.0,2008-05-29 14:12:51.360
nc71121715,2008-05-29 14:12:43.840,40.24966666666667,-124.13883333333334,13.3,1.43,NC.KPP..SHZ,P,1.0,2008-05-29 14:12:56.850
nc71121715,2008-05-29 14:12:43.840,40.24966666666667,-124.13883333333334,13.3,1.43,NC.KSM..SHZ,P,1.0,2008-05-29 14:12:46.830
nc71121910,2008-05-29 23:37:07.300,40.058,-123.69816666666667,-0.66,1.25,NC.GTC..SHZ,P,-1.0,2008-05-29 23:37:22.060
nc71121910,2008-05-29 23:37:07.300,40.058,-123.69816666666667,-0.66,1.25,NC.KCPB..HHZ,P,-1.0,2008-05-29 23:37:16.360
nc71121910,2008-05-29 23:37:07.300,40.058,-123.69816666666667,-0.66,1.25,NC.KCR..SHZ,P,-1.0,2008-05-29 23:37:15.930
nc71121910,2008-05-29 23:37:07.300,40.058,-123.69816666666667,-0.66,1.25,NC.KFP..SHZ,P,-1.0,2008-05-29 23:37:18.260
nc71121910,2008-05-29 23:37:07.300,40.058,-123.69816666666667,-0.66,1.25,NC.KIP..SHZ,P,-1.0,2008-05-29 23:37:15.000
nc71121910,2008-05-29 23:37:07.300,40.058,-123.69816666666667,-0.66,1.25,NC.KJJ..SHZ,P,1.0,2008-05-29 23:37:18.850
nc71121910,2008-05-29 23:37:07.300,40.058,-123.69816666666667,-0.66,1.25,NC.KKP..SHZ,P,1.0,2008-05-29 23:37:13.000
nc71121910,2008-05-29 23:37:07.300,40.058,-123.69816666666667,-0.66,1.25,NC.KMR..HHZ,P,-1.0,2008-05-29 23:37:11.580
nc71121910,2008-05-29 23:37:07.300,40.058,-123.69816666666667,-0.66,1.25,NC.KSM..SHZ,P,1.0,2008-05-29 23:37:16.470
nc71122265,2008-05-31 18:31:40.730,40.42733333333334,-123.52283333333334,18.67,1.27,NC.KCR..SHZ,P,-1.0,2008-05-31 18:31:46.720
nc71122265,2008-05-31 18:31:40.730,40.42733333333334,-123.52283333333334,18.67,1.27,NC.KCS..SHZ,P,-1.0,2008-05-31 18:31:45.330
nc71122265,2008-05-31 18:31:40.730,40.42733333333334,-123.52283333333334,18.67,1.27,NC.KHMB..HHZ,P,,2008-05-31 18:31:52.210
nc71122265,2008-05-31 18:31:40.730,40.42733333333334,-123.52283333333334,18.67,1.27,NC.KJJ..SHZ,P,,2008-05-31 18:31:54.790
nc71122265,2008-05-31 18:31:40.730,40.42733333333334,-123.52283333333334,18.67,1.27,NC.KKP..SHZ,P,-1.0,2008-05-31 18:31:48.030
nc71122265,2008-05-31 18:31:40.730,40.42733333333334,-123.52283333333334,18.67,1.27,NC.KMR..HHZ,P,-1.0,2008-05-31 18:31:47.320
nc71122265,2008-05-31 18:31:40.730,40.42733333333334,-123.52283333333334,18.67,1.27,NC.KPP..SHZ,P,1.0,2008-05-31 18:31:45.860
nc71122265,2008-05-31 18:31:40.730,40.42733333333334,-123.52283333333334,18.67,1.27,NC.KSM..SHZ,P,,2008-05-31 18:31:53.450
nc40218508,2008-05-31 19:13:19.790,40.307,-124.4415,8.27,3.01,BK.GASB..HHZ,P,1.0,2008-05-31 19:13:44.890
nc40218508,2008-05-31 19:13:19.790,40.307,-124.4415,8.27,3.01,BK.JCC..HHZ,P,1.0,2008-05-31 19:13:32.050
nc40218508,2008-05-31 19:13:19.790,40.307,-124.4415,8.27,3.01,BK.WDC..HHZ,P,1.0,2008-05-31 19:13:45.630
nc40218508,2008-05-31 19:13:19.790,40.307,-124.4415,8.27,3.01,NC.GCW..EHZ,P,-1.0,2008-05-31 19:13:45.760
nc40218508,2008-05-31 19:13:19.790,40.307,-124.4415,8.27,3.01,NC.GHL..EHZ,P,-1.0,2008-05-31 19:13:47.090
nc40218508,2008-05-31 19:13:19.790,40.307,-124.4415,8.27,3.01,NC.GHO..EHZ,P,-1.0,2008-05-31 19:13:43.580
nc40218508,2008-05-31 19:13:19.790,40.307,-124.4415,8.27,3.01,NC.GNA..EHZ,P,-1.0,2008-05-31 19:13:41.310
nc40218508,2008-05-31 19:13:19.790,40.307,-124.4415,8.27,3.01,NC.GRO..EHZ,P,1.0,2008-05-31 19:13:44.410
nc40218508,2008-05-31 19:13:19.790,40.307,-124.4415,8.27,3.01,NC.GTC..SHZ,P,-1.0,2008-05-31 19:13:39.490
nc40218508,2008-05-31 19:13:19.790,40.307,-124.4415,8.27,3.01,NC.GWR..EHZ,P,-1.0,2008-05-31 19:13:43.400
nc40218508,2008-05-31 19:13:19.790,40.307,-124.4415,8.27,3.01,NC.KBN..SHZ,P,-1.0,2008-05-31 19:13:39.120
nc40218508,2008-05-31 19:13:19.790,40.307,-124.4415,8.27,3.01,NC.KCPB..HHZ,P,-1.0,2008-05-31 19:13:36.590
nc40218508,2008-05-31 19:13:19.790,40.307,-124.4415,8.27,3.01,NC.KCR..SHZ,P,1.0,2008-05-31 19:13:30.450
nc40218508,2008-05-31 19:13:19.790,40.307,-124.4415,8.27,3.01,NC.KCS..SHZ,P,-1.0,2008-05-31 19:13:35.120
nc40218508,2008-05-31 19:13:19.790,40.307,-124.4415,8.27,3.01,NC.KCT..HHZ,P,1.0,2008-05-31 19:13:24.730
nc40218508,2008-05-31 19:13:19.790,40.307,-124.4415,8.27,3.01,NC.KFP..SHZ,P,-1.0,2008-05-31 19:13:38.260
nc40218508,2008-05-31 19:13:19.790,40.307,-124.4415,8.27,3.01,NC.KHBB..HHZ,P,-1.0,2008-05-31 19:13:38.260
