event_id,etime,elat,elon,edep,emag,station_id,phase_type,phase_polarity,phase_time
nc40221171,2008-07-26 09:16:37.840,40.351166666666664,-123.54066666666668,22.29,2.44,BK.WDC..HH,P,-1,2008-07-26T09:16:51.7200
nc40221171,2008-07-26 09:16:37.840,40.351166666666664,-123.54066666666668,22.29,2.44,NC.KRK..SH,P,1,2008-07-26T09:16:52.5000
nc40221171,2008-07-26 09:16:37.840,40.351166666666664,-123.54066666666668,22.29,2.44,NC.GTC..SH,P,1,2008-07-26T09:16:53.4500
nc40221171,2008-07-26 09:16:37.840,40.351166666666664,-123.54066666666668,22.29,2.44,NC.KOM..SH,P,1,2008-07-26T09:16:53.5300
nc40221171,2008-07-26 09:16:37.840,40.351166666666664,-123.54066666666668,22.29,2.44,BK.GASB..HH,P,None,2008-07-26T09:16:54.4500
nc40221171,2008-07-26 09:16:37.840,40.351166666666664,-123.54066666666668,22.29,2.44,NC.LBK..SH,P,1,2008-07-26T09:16:54.9800
nc40221268,2008-07-28 11:53:55.320,40.62766666666667,-124.71533333333332,-0.63,2.92,NC.KCT..HH,P,1,2008-07-28T11:54:05.5000
nc40221268,2008-07-28 11:53:55.320,40.62766666666667,-124.71533333333332,-0.63,2.92,XQ.ME34.01.BH,P,1,2008-07-28T11:54:07.2900
nc40221268,2008-07-28 11:53:55.320,40.62766666666667,-124.71533333333332,-0.63,2.92,BK.JCC..HH,P,1,2008-07-28T11:54:08.1100
nc40221268,2008-07-28 11:53:55.320,40.62766666666667,-124.71533333333332,-0.63,2.92,XQ.ME36.01.BH,P,1,2008-07-28T11:54:08.5100
nc40221268,2008-07-28 11:53:55.320,40.62766666666667,-124.71533333333332,-0.63,2.92,XQ.ME31.01.BH,P,1,2008-07-28T11:54:08.9800
nc40221268,2008-07-28 11:53:55.320,40.62766666666667,-124.71533333333332,-0.63,2.92,XQ.ME32.01.BH,P,1,2008-07-28T11:54:10.0700
nc40221268,2008-07-28 11:53:55.320,40.62766666666667,-124.71533333333332,-0.63,2.92,XQ.ME33.01.BH,P,1,2008-07-28T11:54:10.9200
nc40221268,2008-07-28 11:53:55.320,40.62766666666667,-124.71533333333332,-0.63,2.92,NC.KRP..HH,P,-1,2008-07-28T11:54:11.2300
nc40221268,2008-07-28 11:53:55.320,40.62766666666667,-124.71533333333332,-0.63,2.92,XQ.ME35.01.BH,P,1,2008-07-28T11:54:11.6700
nc40221268,2008-07-28 11:53:55.320,40.62766666666667,-124.71533333333332,-0.63,2.92,NC.KHMB..HH,P,1,2008-07-28T11:54:12.1400
nc40221268,2008-07-28 11:53:55.320,40.62766666666667,-124.71533333333332,-0.63,2.92,XQ.ME07.01.BH,P,-1,2008-07-28T11:54:12.3700
nc40221268,2008-07-28 11:53:55.320,40.62766666666667,-124.71533333333332,-0.63,2.92,XQ.ME37.01.BH,P,1,2008-07-28T11:54:13.3400
nc40221268,2008-07-28 11:53:55.320,40.62766666666667,-124.71533333333332,-0.63,2.92,XQ.ME30.01.BH,P,1,2008-07-28T11:54:13.3400
nc40221268,2008-07-28 11:53:55.320,40.62766666666667,-124.71533333333332,-0.63,2.92,XQ.ME39.01.BH,P,1,2008-07-28T11:54:14.5500
nc40221268,2008-07-28 11:53:55.320,40.62766666666667,-124.71533333333332,-0.63,2.92,NC.KRMB..HH,P,-1,2008-07-28T11:54:15.8900
nc40221268,2008-07-28 11:53:55.320,40.62766666666667,-124.71533333333332,-0.63,2.92,XQ.ME38.01.BH,P,1,2008-07-28T11:54:16.0600
nc40221268,2008-07-28 11:53:55.320,40.62766666666667,-124.71533333333332,-0.63,2.92,NC.KHBB..HH,P,1,2008-07-28T11:54:16.9800
nc40221268,2008-07-28 11:53:55.320,40.62766666666667,-124.71533333333332,-0.63,2.92,NC.KOM..SH,P,1,2008-07-28T11:54:17.2900
nc40221268,2008-07-28 11:53:55.320,40.62766666666667,-124.71533333333332,-0.63,2.92,XQ.ME04.01.BH,P,-1,2008-07-28T11:54:17.3700
nc40221268,2008-07-28 11:53:55.320,40.62766666666667,-124.71533333333332,-0.63,2.92,XQ.ME27.01.BH,P,1,2008-07-28T11:54:17.8200
nc40221268,2008-07-28 11:53:55.320,40.62766666666667,-124.71533333333332,-0.63,2.92,XQ.ME03.01.BH,P,-1,2008-07-28T11:54:18.0200
nc40221268,2008-07-28 11:53:55.320,40.62766666666667,-124.71533333333332,-0.63,2.92,NC.KIP..SH,P,1,2008-07-28T11:54:18.6400
nc40221268,2008-07-28 11:53:55.320,40.62766666666667,-124.71533333333332,-0.63,2.92,NC.KCPB..HH,P,None,2008-07-28T11:54:18.7800
nc40221268,2008-07-28 11:53:55.320,40.62766666666667,-124.71533333333332,-0.63,2.92,XQ.ME29.01.BH,P,1,2008-07-28T11:54:19.0100
nc40221268,2008-07-28 11:53:55.320,40.62766666666667,-124.71533333333332,-0.63,2.92,NC.KSXB..HH,P,-1,2008-07-28T11:54:19.6500
nc40221268,2008-07-28 11:53:55.320,40.62766666666667,-124.71533333333332,-0.63,2.92,XQ.ME13.01.BH,P,1,2008-07-28T11:54:20.2800
nc40221268,2008-07-28 11:53:55.320,40.62766666666667,-124.71533333333332,-0.63,2.92,NC.KFP..SH,P,1,2008-07-28T11:54:20.3300
nc40221268,2008-07-28 11:53:55.320,40.62766666666667,-124.71533333333332,-0.63,2.92,XQ.ME50.01.BH,P,1,2008-07-28T11:54:20.4400
nc40221268,2008-07-28 11:53:55.320,40.62766666666667,-124.71533333333332,-0.63,2.92,NC.KBN..SH,P,1,2008-07-28T11:54:20.9600
nc40221268,2008-07-28 11:53:55.320,40.62766666666667,-124.71533333333332,-0.63,2.92,NC.LBP..SH,P,1,2008-07-28T11:54:21.1300
nc40221268,2008-07-28 11:53:55.320,40.62766666666667,-124.71533333333332,-0.63,2.92,NC.LGP..SH,P,1,2008-07-28T11:54:21.5500
nc40221268,2008-07-28 11:53:55.320,40.62766666666667,-124.71533333333332,-0.63,2.92,NC.KBO..HH,P,-1,2008-07-28T11:54:23.0800
nc40221268,2008-07-28 11:53:55.320,40.62766666666667,-124.71533333333332,-0.63,2.92,NC.KRK..SH,P,1,2008-07-28T11:54:23.1600
nc40221268,2008-07-28 11:53:55.320,40.62766666666667,-124.71533333333332,-0.63,2.92,NC.KTR..SH,P,-1,2008-07-28T11:54:23.7100
nc40221268,2008-07-28 11:53:55.320,40.62766666666667,-124.71533333333332,-0.63,2.92,NC.LSR..SH,P,1,2008-07-28T11:54:28.3800
nc40221268,2008-07-28 11:53:55.320,40.62766666666667,-124.71533333333332,-0.63,2.92,NC.GBB..EH,P,None,2008-07-28T11:54:30.0600
nc40221268,2008-07-28 11:53:55.320,40.62766666666667,-124.71533333333332,-0.63,2.92,NC.LSH..SH,P,1,2008-07-28T11:54:30.0900
nc40221268,2008-07-28 11:53:55.320,40.62766666666667,-124.71533333333332,-0.63,2.92,NC.LWH..SH,P,1,2008-07-28T11:54:30.8300
nc40221268,2008-07-28 11:53:55.320,40.62766666666667,-124.71533333333332,-0.63,2.92,NC.LMP..SH,P,1,2008-07-28T11:54:32.1800
nc40221268,2008-07-28 11:53:55.320,40.62766666666667,-124.71533333333332,-0.63,2.92,NC.LDB..SH,P,1,2008-07-28T11:54:32.3800
nc40221268,2008-07-28 11:53:55.320,40.62766666666667,-124.71533333333332,-0.63,2.92,NC.LRR..SH,P,1,2008-07-28T11:54:34.4500
nc40221268,2008-07-28 11:53:55.320,40.62766666666667,-124.71533333333332,-0.63,2.92,NC.LME..SH,P,-1,2008-07-28T11:54:35.1400
nc40221295,2008-07-29 02:08:12.840,40.140166666666666,-123.8555,18.84,2.09,NC.KMR..HH,P,-1,2008-07-29T02:08:17.6200
nc40221295,2008-07-29 02:08:12.840,40.140166666666666,-123.8555,18.84,2.09,XQ.ME37.01.BH,P,-1,2008-07-29T02:08:18.5400
nc40221295,2008-07-29 02:08:12.840,40.140166666666666,-123.8555,18.84,2.09,XQ.ME39.01.BH,P,-1,2008-07-29T02:08:18.5400
nc40221295,2008-07-29 02:08:12.840,40.140166666666666,-123.8555,18.84,2.09,NC.KSM..SH,P,1,2008-07-29T02:08:18.8100
nc40221295,2008-07-29 02:08:12.840,40.140166666666666,-123.8555,18.84,2.09,XQ.ME35.01.BH,P,1,2008-07-29T02:08:19.1500
nc40221295,2008-07-29 02:08:12.840,40.140166666666666,-123.8555,18.84,2.09,XQ.ME36.01.BH,P,1,2008-07-29T02:08:19.1800
nc40221295,2008-07-29 02:08:12.840,40.140166666666666,-123.8555,18.84,2.09,NC.KCR..SH,P,-1,2008-07-29T02:08:19.6000
nc40221295,2008-07-29 02:08:12.840,40.140166666666666,-123.8555,18.84,2.09,XQ.ME38.01.BH,P,-1,2008-07-29T02:08:19.6200
nc40221295,2008-07-29 02:08:12.840,40.140166666666666,-123.8555,18.84,2.09,XQ.ME49.01.BH,P,-1,2008-07-29T02:08:19.7600
nc40221295,2008-07-29 02:08:12.840,40.140166666666666,-123.8555,18.84,2.09,NC.KBS..SH,P,-1,2008-07-29T02:08:19.9800
nc40221295,2008-07-29 02:08:12.840,40.140166666666666,-123.8555,18.84,2.09,NC.KKP..SH,P,-1,2008-07-29T02:08:20.2400
nc40221295,2008-07-29 02:08:12.840,40.140166666666666,-123.8555,18.84,2.09,NC.KJJ..SH,P,None,2008-07-29T02:08:20.3200
nc40221295,2008-07-29 02:08:12.840,40.140166666666666,-123.8555,18.84,2.09,NC.KMPB..HH,P,1,2008-07-29T02:08:20.4000
nc40221295,2008-07-29 02:08:12.840,40.140166666666666,-123.8555,18.84,2.09,XQ.ME34.01.BH,P,-1,2008-07-29T02:08:21.6000
nc40221295,2008-07-29 02:08:12.840,40.140166666666666,-123.8555,18.84,2.09,NC.KIP..SH,P,1,2008-07-29T02:08:22.0800
nc40221295,2008-07-29 02:08:12.840,40.140166666666666,-123.8555,18.84,2.09,NC.KPP..SH,P,1,2008-07-29T02:08:22.2600
nc40221295,2008-07-29 02:08:12.840,40.140166666666666,-123.8555,18.84,2.09,NC.KCPB..HH,P,None,2008-07-29T02:08:22.8700
nc40221295,2008-07-29 02:08:12.840,40.140166666666666,-123.8555,18.84,2.09,NC.KCS..SH,P,1,2008-07-29T02:08:22.9800
nc40221295,2008-07-29 02:08:12.840,40.140166666666666,-123.8555,18.84,2.09,NC.KCT..HH,P,-1,2008-07-29T02:08:23.4100
nc40221295,2008-07-29 02:08:12.840,40.140166666666666,-123.8555,18.84,2.09,NC.KFP..SH,P,1,2008-07-29T02:08:24.2100
nc40221295,2008-07-29 02:08:12.840,40.140166666666666,-123.8555,18.84,2.09,XQ.ME31.01.BH,P,-1,2008-07-29T02:08:24.2100
nc40221295,2008-07-29 02:08:12.840,40.140166666666666,-123.8555,18.84,2.09,NC.KBN..SH,P,1,2008-07-29T02:08:24.3800
nc40221295,2008-07-29 02:08:12.840,40.140166666666666,-123.8555,18.84,2.09,XQ.ME27.01.BH,P,1,2008-07-29T02:08:24.8500
nc40221295,2008-07-29 02:08:12.840,40.140166666666666,-123.8555,18.84,2.09,NC.KHBB..HH,P,1,2008-07-29T02:08:26.0400
nc40221295,2008-07-29 02:08:12.840,40.140166666666666,-123.8555,18.84,2.09,NC.GTC..SH,P,-1,2008-07-29T02:08:26.4200
nc40221295,2008-07-29 02:08:12.840,40.140166666666666,-123.8555,18.84,2.09,NC.KRK..SH,P,-1,2008-07-29T02:08:26.9300
nc40221295,2008-07-29 02:08:12.840,40.140166666666666,-123.8555,18.84,2.09,NC.LBP..SH,P,1,2008-07-29T02:08:27.0100
nc40221295,2008-07-29 02:08:12.840,40.140166666666666,-123.8555,18.84,2.09,NC.LPG..SH,P,1,2008-07-29T02:08:29.1000
nc40221295,2008-07-29 02:08:12.840,40.140166666666666,-123.8555,18.84,2.09,NC.LVR..SH,P,1,2008-07-29T02:08:29.5000
nc40221295,2008-07-29 02:08:12.840,40.140166666666666,-123.8555,18.84,2.09,NC.LGP..SH,P,1,2008-07-29T02:08:31.4600
nc40221295,2008-07-29 02:08:12.840,40.140166666666666,-123.8555,18.84,2.09,XQ.ME29.01.BH,P,1,2008-07-29T02:08:32.0800
nc40221295,2008-07-29 02:08:12.840,40.140166666666666,-123.8555,18.84,2.09,XQ.ME08.01.BH,P,1,2008-07-29T02:08:35.1000
nc40221758,2008-08-10 01:58:59.920,40.58683333333333,-124.798,2.94,2.13,NC.KCT..HH,P,1,2008-08-10T01:59:10.1300
nc40221758,2008-08-10 01:58:59.920,40.58683333333333,-124.798,2.94,2.13,NC.KJJ..SH,P,None,2008-08-10T01:59:11.2900
nc40221758,2008-08-10 01:58:59.920,40.58683333333333,-124.798,2.94,2.13,XQ.ME34.01.BH,P,1,2008-08-10T01:59:12.0500
nc40221758,2008-08-10 01:58:59.920,40.58683333333333,-124.798,2.94,2.13,NC.KMPB..HH,P,1,2008-08-10T01:59:12.3500
nc40221758,2008-08-10 01:58:59.920,40.58683333333333,-124.798,2.94,2.13,BK.JCC..HH,P,1,2008-08-10T01:59:13.1200
nc40221758,2008-08-10 01:58:59.920,40.58683333333333,-124.798,2.94,2.13,NC.KSM..SH,P,1,2008-08-10T01:59:13.1900
nc40221758,2008-08-10 01:58:59.920,40.58683333333333,-124.798,2.94,2.13,XQ.ME31.01.BH,P,1,2008-08-10T01:59:13.9300
nc40221758,2008-08-10 01:58:59.920,40.58683333333333,-124.798,2.94,2.13,NC.KCR..SH,P,-1,2008-08-10T01:59:15.6700
nc40221758,2008-08-10 01:58:59.920,40.58683333333333,-124.798,2.94,2.13,NC.KHMB..HH,P,1,2008-08-10T01:59:17.0800
nc40221758,2008-08-10 01:58:59.920,40.58683333333333,-124.798,2.94,2.13,XQ.ME07.01.BH,P,1,2008-08-10T01:59:17.2500
nc40221758,2008-08-10 01:58:59.920,40.58683333333333,-124.798,2.94,2.13,XQ.ME30.01.BH,P,1,2008-08-10T01:59:18.2900
nc40221758,2008-08-10 01:58:59.920,40.58683333333333,-124.798,2.94,2.13,NC.KCS..SH,P,1,2008-08-10T01:59:19.0500
nc40221758,2008-08-10 01:58:59.920,40.58683333333333,-124.798,2.94,2.13,NC.KBS..SH,P,-1,2008-08-10T01:59:21.0600
nc40221758,2008-08-10 01:58:59.920,40.58683333333333,-124.798,2.94,2.13,NC.KHBB..HH,P,1,2008-08-10T01:59:21.9300
nc40221758,2008-08-10 01:58:59.920,40.58683333333333,-124.798,2.94,2.13,XQ.ME13.01.BH,P,1,2008-08-10T01:59:25.1900
nc40221758,2008-08-10 01:58:59.920,40.58683333333333,-124.798,2.94,2.13,NC.LGP..SH,P,1,2008-08-10T01:59:26.4100
nc40221758,2008-08-10 01:58:59.920,40.58683333333333,-124.798,2.94,2.13,NC.LBK..SH,P,-1,2008-08-10T01:59:28.7700
nc40226338,2008-11-18 07:52:08.870,40.931,-123.78916666666667,21.17,2.43,NC.KHMB..HH,P,-1,2008-11-18T07:52:13.3300
nc40226338,2008-11-18 07:52:08.870,40.931,-123.78916666666667,21.17,2.43,XQ.ME30.01.BH,P,1,2008-11-18T07:52:14.1400
nc40226338,2008-11-18 07:52:08.870,40.931,-123.78916666666667,21.17,2.43,BK.JCC..HH,P,1,2008-11-18T07:52:14.3800
nc40226338,2008-11-18 07:52:08.870,40.931,-123.78916666666667,21.17,2.43,XQ.ME31.01.BH,P,1,2008-11-18T07:52:15.1900
nc40226338,2008-11-18 07:52:08.870,40.931,-123.78916666666667,21.17,2.43,NC.KRP..HH,P,-1,2008-11-18T07:52:15.4700
nc40226338,2008-11-18 07:52:08.870,40.931,-123.78916666666667,21.17,2.43,XQ.ME32.01.BH,P,1,2008-11-18T07:52:16.8900
nc40226338,2008-11-18 07:52:08.870,40.931,-123.78916666666667,21.17,2.43,NC.KOM..SH,P,1,2008-11-18T07:52:17.6100
nc40226338,2008-11-18 07:52:08.870,40.931,-123.78916666666667,21.17,2.43,NC.KCS..SH,P,1,2008-11-18T07:52:18.5100
nc40226338,2008-11-18 07:52:08.870,40.931,-123.78916666666667,21.17,2.43,NC.KHBB..HH,P,1,2008-11-18T07:52:18.8400
nc40226338,2008-11-18 07:52:08.870,40.931,-123.78916666666667,21.17,2.43,PB.B935..EH,P,-1,2008-11-18T07:52:18.9200
nc40226338,2008-11-18 07:52:08.870,40.931,-123.78916666666667,21.17,2.43,XQ.ME29.01.BH,P,1,2008-11-18T07:52:19.0200
nc40226338,2008-11-18 07:52:08.870,40.931,-123.78916666666667,21.17,2.43,NC.KCR..SH,P,1,2008-11-18T07:52:19.2900
nc40226338,2008-11-18 07:52:08.870,40.931,-123.78916666666667,21.17,2.43,NC.KMPB..HH,P,1,2008-11-18T07:52:19.9800
nc40226338,2008-11-18 07:52:08.870,40.931,-123.78916666666667,21.17,2.43,NC.KRMB..HH,P,1,2008-11-18T07:52:20.0400
nc40226338,2008-11-18 07:52:08.870,40.931,-123.78916666666667,21.17,2.43,NC.KCT..HH,P,1,2008-11-18T07:52:20.4500
nc40226338,2008-11-18 07:52:08.870,40.931,-123.78916666666667,21.17,2.43,XQ.ME13.01.BH,P,1,2008-11-18T07:52:21.5700
nc40226338,2008-11-18 07:52:08.870,40.931,-123.78916666666667,21.17,2.43,PB.B049..EH,P,1,2008-11-18T07:52:21.6500
nc40226338,2008-11-18 07:52:08.870,40.931,-123.78916666666667,21.17,2.43,XQ.ME27.01.BH,P,-1,2008-11-18T07:52:21.7500
nc40226338,2008-11-18 07:52:08.870,40.931,-123.78916666666667,21.17,2.43,NC.KPP..SH,P,-1,2008-11-18T07:52:21.9500
nc40226338,2008-11-18 07:52:08.870,40.931,-123.78916666666667,21.17,2.43,NC.LGP..SH,P,1,2008-11-18T07:52:22.1900
nc40226338,2008-11-18 07:52:08.870,40.931,-123.78916666666667,21.17,2.43,NC.KJJ..SH,P,1,2008-11-18T07:52:22.8200
nc40226338,2008-11-18 07:52:08.870,40.931,-123.78916666666667,21.17,2.43,NC.KSM..SH,P,1,2008-11-18T07:52:23.1000
nc40226338,2008-11-18 07:52:08.870,40.931,-123.78916666666667,21.17,2.43,XQ.ME09.01.BH,P,1,2008-11-18T07:52:23.4600
nc40226338,2008-11-18 07:52:08.870,40.931,-123.78916666666667,21.17,2.43,XQ.ME08.01.BH,P,-1,2008-11-18T07:52:23.5700
nc40226338,2008-11-18 07:52:08.870,40.931,-123.78916666666667,21.17,2.43,NC.KKP..SH,P,-1,2008-11-18T07:52:23.9500
nc40226338,2008-11-18 07:52:08.870,40.931,-123.78916666666667,21.17,2.43,NC.LBK..SH,P,-1,2008-11-18T07:52:24.4300
nc40226338,2008-11-18 07:52:08.870,40.931,-123.78916666666667,21.17,2.43,NC.KSXB..HH,P,1,2008-11-18T07:52:24.6300
nc40226338,2008-11-18 07:52:08.870,40.931,-123.78916666666667,21.17,2.43,NC.LBP..SH,P,1,2008-11-18T07:52:25.3700
nc40226338,2008-11-18 07:52:08.870,40.931,-123.78916666666667,21.17,2.43,NC.KTR..SH,P,-1,2008-11-18T07:52:26.4500
nc40226338,2008-11-18 07:52:08.870,40.931,-123.78916666666667,21.17,2.43,XQ.ME10.01.BH,P,1,2008-11-18T07:52:26.5900
nc40226338,2008-11-18 07:52:08.870,40.931,-123.78916666666667,21.17,2.43,BK.WDC..HH,P,1,2008-11-18T07:52:26.9300
nc40226338,2008-11-18 07:52:08.870,40.931,-123.78916666666667,21.17,2.43,NC.LCSB..SH,P,1,2008-11-18T07:52:29.3000
nc40226338,2008-11-18 07:52:08.870,40.931,-123.78916666666667,21.17,2.43,NC.LGB..SH,P,-1,2008-11-18T07:52:31.6300
nc40226338,2008-11-18 07:52:08.870,40.931,-123.78916666666667,21.17,2.43,NC.LBO..SH,P,1,2008-11-18T07:52:31.9200
nc40226338,2008-11-18 07:52:08.870,40.931,-123.78916666666667,21.17,2.43,NC.LMP..SH,P,1,2008-11-18T07:52:33.1400
nc40227240,2008-12-04 09:44:08.760,40.0375,-123.639,-1.18,2.58,XQ.ME38.01.BH,P,1,2008-12-04T09:44:12.7500
nc40227240,2008-12-04 09:44:08.760,40.0375,-123.639,-1.18,2.58,XQ.ME39.01.BH,P,-1,2008-12-04T09:44:13.3400
nc40227240,2008-12-04 09:44:08.760,40.0375,-123.639,-1.18,2.58,NC.KMR..HH,P,-1,2008-12-04T09:44:13.7400
nc40227240,2008-12-04 09:44:08.760,40.0375,-123.639,-1.18,2.58,XQ.ME49.01.BH,P,-1,2008-12-04T09:44:13.7700
nc40227240,2008-12-04 09:44:08.760,40.0375,-123.639,-1.18,2.58,NC.KKP..SH,P,1,2008-12-04T09:44:13.8400
nc40227240,2008-12-04 09:44:08.760,40.0375,-123.639,-1.18,2.58,PB.B049..EH,P,-1,2008-12-04T09:44:14.7400
nc40227240,2008-12-04 09:44:08.760,40.0375,-123.639,-1.18,2.58,PB.B933..EH,P,1,2008-12-04T09:44:15.1100
nc40227240,2008-12-04 09:44:08.760,40.0375,-123.639,-1.18,2.58,XQ.ME37.01.BH,P,-1,2008-12-04T09:44:15.1700
nc40227240,2008-12-04 09:44:08.760,40.0375,-123.639,-1.18,2.58,NC.KIP..SH,P,-1,2008-12-04T09:44:15.4500
nc40227240,2008-12-04 09:44:08.760,40.0375,-123.639,-1.18,2.58,XQ.ME41.01.BH,P,-1,2008-12-04T09:44:15.7900
nc40227240,2008-12-04 09:44:08.760,40.0375,-123.639,-1.18,2.58,XQ.ME08.01.BH,P,1,2008-12-04T09:44:16.8400
nc40227240,2008-12-04 09:44:08.760,40.0375,-123.639,-1.18,2.58,NC.KCPB..HH,P,-1,2008-12-04T09:44:17.1000
nc40227240,2008-12-04 09:44:08.760,40.0375,-123.639,-1.18,2.58,XQ.ME35.01.BH,P,-1,2008-12-04T09:44:17.1000
nc40227240,2008-12-04 09:44:08.760,40.0375,-123.639,-1.18,2.58,NC.KBN..SH,P,1,2008-12-04T09:44:18.0800
nc40227240,2008-12-04 09:44:08.760,40.0375,-123.639,-1.18,2.58,NC.KPP..SH,P,1,2008-12-04T09:44:18.0800
nc40227240,2008-12-04 09:44:08.760,40.0375,-123.639,-1.18,2.58,NC.KCR..SH,P,1,2008-12-04T09:44:18.2900
nc40227240,2008-12-04 09:44:08.760,40.0375,-123.639,-1.18,2.58,NC.KFP..SH,P,-1,2008-12-04T09:44:18.8100
nc40227240,2008-12-04 09:44:08.760,40.0375,-123.639,-1.18,2.58,XQ.ME42.01.BH,P,-1,2008-12-04T09:44:18.9200
nc40227240,2008-12-04 09:44:08.760,40.0375,-123.639,-1.18,2.58,NC.KSM..SH,P,1,2008-12-04T09:44:19.0000
nc40227240,2008-12-04 09:44:08.760,40.0375,-123.639,-1.18,2.58,PB.B935..EH,P,-1,2008-12-04T09:44:19.0700
nc40227240,2008-12-04 09:44:08.760,40.0375,-123.639,-1.18,2.58,XQ.ME50.01.BH,P,-1,2008-12-04T09:44:19.0800
nc40227240,2008-12-04 09:44:08.760,40.0375,-123.639,-1.18,2.58,PB.B047..EH,P,1,2008-12-04T09:44:19.7300
nc40227240,2008-12-04 09:44:08.760,40.0375,-123.639,-1.18,2.58,NC.KCS..SH,P,-1,2008-12-04T09:44:20.7200
nc40227240,2008-12-04 09:44:08.760,40.0375,-123.639,-1.18,2.58,XQ.ME27.01.BH,P,1,2008-12-04T09:44:21.2000
nc40227240,2008-12-04 09:44:08.760,40.0375,-123.639,-1.18,2.58,NC.KJJ..SH,P,1,2008-12-04T09:44:21.3100
nc40227240,2008-12-04 09:44:08.760,40.0375,-123.639,-1.18,2.58,XQ.ME34.01.BH,P,-1,2008-12-04T09:44:21.8300
nc40227240,2008-12-04 09:44:08.760,40.0375,-123.639,-1.18,2.58,XQ.ME32.01.BH,P,-1,2008-12-04T09:44:21.8500
nc40227240,2008-12-04 09:44:08.760,40.0375,-123.639,-1.18,2.58,PB.B046..EH,P,-1,2008-12-04T09:44:21.8600
nc40227240,2008-12-04 09:44:08.760,40.0375,-123.639,-1.18,2.58,XQ.ME43.01.BH,P,-1,2008-12-04T09:44:22.1200
nc40227240,2008-12-04 09:44:08.760,40.0375,-123.639,-1.18,2.58,NC.KRK..SH,P,-1,2008-12-04T09:44:22.2000
nc40227240,2008-12-04 09:44:08.760,40.0375,-123.639,-1.18,2.58,NC.GTC..SH,P,-1,2008-12-04T09:44:22.7300
nc40227240,2008-12-04 09:44:08.760,40.0375,-123.639,-1.18,2.58,NC.LBP..SH,P,1,2008-12-04T09:44:22.9500
nc40227240,2008-12-04 09:44:08.760,40.0375,-123.639,-1.18,2.58,XQ.ME44.01.BH,P,-1,2008-12-04T09:44:23.0300
nc40227240,2008-12-04 09:44:08.760,40.0375,-123.639,-1.18,2.58,NC.KHBB..HH,P,1,2008-12-04T09:44:23.9000
nc40227240,2008-12-04 09:44:08.760,40.0375,-123.639,-1.18,2.58,NC.KCT..HH,P,-1,2008-12-04T09:44:24.5200
nc40227240,2008-12-04 09:44:08.760,40.0375,-123.639,-1.18,2.58,XQ.ME31.01.BH,P,-1,2008-12-04T09:44:24.6300
nc40227240,2008-12-04 09:44:08.760,40.0375,-123.639,-1.18,2.58,NC.LVR..SH,P,1,2008-12-04T09:44:24.9300
nc40227240,2008-12-04 09:44:08.760,40.0375,-123.639,-1.18,2.58,XQ.ME52.01.BH,P,-1,2008-12-04T09:44:24.9500
nc40227240,2008-12-04 09:44:08.760,40.0375,-123.639,-1.18,2.58,NC.GHM..EH,P,-1,2008-12-04T09:44:25.7400
nc40227240,2008-12-04 09:44:08.760,40.0375,-123.639,-1.18,2.58,XQ.ME30.01.BH,P,-1,2008-12-04T09:44:25.8300
