event_id,etime,elat,elon,edep,emag,station_id,phase_type,phase_polarity,phase_time
nc40227240,2008-12-04 09:44:08.760,40.0375,-123.639,-1.18,2.58,NC.GVV..EH,P,1,2008-12-04T09:44:25.9400
nc40227240,2008-12-04 09:44:08.760,40.0375,-123.639,-1.18,2.58,BK.JCC..HH,P,-1,2008-12-04T09:44:26.0400
nc40227240,2008-12-04 09:44:08.760,40.0375,-123.639,-1.18,2.58,NC.GWR..EH,P,-1,2008-12-04T09:44:26.2900
nc40227240,2008-12-04 09:44:08.760,40.0375,-123.639,-1.18,2.58,NC.KHMB..HH,P,-1,2008-12-04T09:44:26.6800
nc40227240,2008-12-04 09:44:08.760,40.0375,-123.639,-1.18,2.58,NC.LRB..SH,P,1,2008-12-04T09:44:27.2700
nc40227240,2008-12-04 09:44:08.760,40.0375,-123.639,-1.18,2.58,XQ.ME13.01.BH,P,-1,2008-12-04T09:44:27.5600
nc40227240,2008-12-04 09:44:08.760,40.0375,-123.639,-1.18,2.58,XQ.ME12.01.BH,P,1,2008-12-04T09:44:28.3800
nc40227240,2008-12-04 09:44:08.760,40.0375,-123.639,-1.18,2.58,BK.WDC..HH,P,1,2008-12-04T09:44:28.8900
nc40227240,2008-12-04 09:44:08.760,40.0375,-123.639,-1.18,2.58,XQ.ME28.01.BH,P,1,2008-12-04T09:44:29.0200
nc40227240,2008-12-04 09:44:08.760,40.0375,-123.639,-1.18,2.58,NC.GHL..EH,P,-1,2008-12-04T09:44:29.6200
nc40227240,2008-12-04 09:44:08.760,40.0375,-123.639,-1.18,2.58,NC.LGP..SH,P,1,2008-12-04T09:44:30.2600
nc40227240,2008-12-04 09:44:08.760,40.0375,-123.639,-1.18,2.58,NC.KOM..SH,P,1,2008-12-04T09:44:32.5000
nc51193680,2008-01-01 05:58:18.290,40.7805,-123.56133333333334,20.32,2.04,NC.KHMB..HH,P,-1,2008-01-01T05:58:23.8900
nc51193680,2008-01-01 05:58:18.290,40.7805,-123.56133333333334,20.32,2.04,NC.KCS..SH,P,1,2008-01-01T05:58:24.9300
nc51193680,2008-01-01 05:58:18.290,40.7805,-123.56133333333334,20.32,2.04,NC.KHBB..HH,P,1,2008-01-01T05:58:25.1600
nc51193680,2008-01-01 05:58:18.290,40.7805,-123.56133333333334,20.32,2.04,XQ.ME31.01.BH,P,1,2008-01-01T05:58:25.7200
nc51193680,2008-01-01 05:58:18.290,40.7805,-123.56133333333334,20.32,2.04,BK.JCC..HH,P,1,2008-01-01T05:58:26.2200
nc51193680,2008-01-01 05:58:18.290,40.7805,-123.56133333333334,20.32,2.04,NC.KCR..SH,P,1,2008-01-01T05:58:27.1400
nc51193680,2008-01-01 05:58:18.290,40.7805,-123.56133333333334,20.32,2.04,XQ.ME13.01.BH,P,1,2008-01-01T05:58:27.9600
nc51193680,2008-01-01 05:58:18.290,40.7805,-123.56133333333334,20.32,2.04,NC.KPP..SH,P,1,2008-01-01T05:58:27.9900
nc51193680,2008-01-01 05:58:18.290,40.7805,-123.56133333333334,20.32,2.04,XQ.ME07.01.BH,P,1,2008-01-01T05:58:28.0200
nc51193680,2008-01-01 05:58:18.290,40.7805,-123.56133333333334,20.32,2.04,NC.KOM..SH,P,-1,2008-01-01T05:58:28.2800
nc51193680,2008-01-01 05:58:18.290,40.7805,-123.56133333333334,20.32,2.04,XQ.ME37.01.BH,P,-1,2008-01-01T05:58:28.6300
nc51193680,2008-01-01 05:58:18.290,40.7805,-123.56133333333334,20.32,2.04,NC.KRP..HH,P,-1,2008-01-01T05:58:28.8100
nc51193680,2008-01-01 05:58:18.290,40.7805,-123.56133333333334,20.32,2.04,NC.LGP..SH,P,1,2008-01-01T05:58:29.3300
nc51193680,2008-01-01 05:58:18.290,40.7805,-123.56133333333334,20.32,2.04,XQ.ME04.01.BH,P,-1,2008-01-01T05:58:29.5500
nc51193680,2008-01-01 05:58:18.290,40.7805,-123.56133333333334,20.32,2.04,XQ.ME08.01.BH,P,1,2008-01-01T05:58:29.8400
nc51193680,2008-01-01 05:58:18.290,40.7805,-123.56133333333334,20.32,2.04,XQ.ME39.01.BH,P,-1,2008-01-01T05:58:29.9900
nc51193680,2008-01-01 05:58:18.290,40.7805,-123.56133333333334,20.32,2.04,NC.KCT..HH,P,None,2008-01-01T05:58:30.5400
nc51193680,2008-01-01 05:58:18.290,40.7805,-123.56133333333334,20.32,2.04,NC.KKP..SH,P,-1,2008-01-01T05:58:31.0300
nc51193680,2008-01-01 05:58:18.290,40.7805,-123.56133333333334,20.32,2.04,XQ.ME09.01.BH,P,1,2008-01-01T05:58:31.1800
nc51193680,2008-01-01 05:58:18.290,40.7805,-123.56133333333334,20.32,2.04,NC.LBP..SH,P,1,2008-01-01T05:58:31.2400
nc51193680,2008-01-01 05:58:18.290,40.7805,-123.56133333333334,20.32,2.04,NC.LBK..SH,P,1,2008-01-01T05:58:31.9500
nc51193680,2008-01-01 05:58:18.290,40.7805,-123.56133333333334,20.32,2.04,NC.KJJ..SH,P,-1,2008-01-01T05:58:32.1400
nc51193680,2008-01-01 05:58:18.290,40.7805,-123.56133333333334,20.32,2.04,NC.KRMB..HH,P,-1,2008-01-01T05:58:32.3700
nc51193680,2008-01-01 05:58:18.290,40.7805,-123.56133333333334,20.32,2.04,BK.WDC..HH,P,1,2008-01-01T05:58:33.0600
nc51193680,2008-01-01 05:58:18.290,40.7805,-123.56133333333334,20.32,2.04,NC.LSF..SH,P,1,2008-01-01T05:58:33.2300
nc51193680,2008-01-01 05:58:18.290,40.7805,-123.56133333333334,20.32,2.04,NC.KBS..SH,P,-1,2008-01-01T05:58:34.2700
nc51193680,2008-01-01 05:58:18.290,40.7805,-123.56133333333334,20.32,2.04,NC.LSH..SH,P,None,2008-01-01T05:58:38.9800
nc51193680,2008-01-01 05:58:18.290,40.7805,-123.56133333333334,20.32,2.04,NC.LGB..SH,P,-1,2008-01-01T05:58:39.7300
nc51193680,2008-01-01 05:58:18.290,40.7805,-123.56133333333334,20.32,2.04,NC.LDB..SH,P,None,2008-01-01T05:58:43.1500
nc51194589,2008-01-14 19:11:31.050,40.779833333333336,-123.564,22.51,2.5,XQ.ME30.01.BH,P,-1,2008-01-14T19:11:35.4500
nc51194589,2008-01-14 19:11:31.050,40.779833333333336,-123.564,22.51,2.5,NC.KHMB..HH,P,1,2008-01-14T19:11:36.3200
nc51194589,2008-01-14 19:11:31.050,40.779833333333336,-123.564,22.51,2.5,NC.KCS..SH,P,-1,2008-01-14T19:11:37.6500
nc51194589,2008-01-14 19:11:31.050,40.779833333333336,-123.564,22.51,2.5,NC.KHBB..HH,P,-1,2008-01-14T19:11:37.9500
nc51194589,2008-01-14 19:11:31.050,40.779833333333336,-123.564,22.51,2.5,XQ.ME31.01.BH,P,1,2008-01-14T19:11:38.1500
nc51194589,2008-01-14 19:11:31.050,40.779833333333336,-123.564,22.51,2.5,BK.JCC..HH,P,1,2008-01-14T19:11:38.6300
nc51194589,2008-01-14 19:11:31.050,40.779833333333336,-123.564,22.51,2.5,XQ.ME33.01.BH,P,1,2008-01-14T19:11:39.1200
nc51194589,2008-01-14 19:11:31.050,40.779833333333336,-123.564,22.51,2.5,NC.KCR..SH,P,1,2008-01-14T19:11:39.8000
nc51194589,2008-01-14 19:11:31.050,40.779833333333336,-123.564,22.51,2.5,XQ.ME35.01.BH,P,1,2008-01-14T19:11:39.9100
nc51194589,2008-01-14 19:11:31.050,40.779833333333336,-123.564,22.51,2.5,XQ.ME27.01.BH,P,1,2008-01-14T19:11:40.3800
nc51194589,2008-01-14 19:11:31.050,40.779833333333336,-123.564,22.51,2.5,XQ.ME07.01.BH,P,1,2008-01-14T19:11:40.3900
nc51194589,2008-01-14 19:11:31.050,40.779833333333336,-123.564,22.51,2.5,XQ.ME29.01.BH,P,1,2008-01-14T19:11:40.4000
nc51194589,2008-01-14 19:11:31.050,40.779833333333336,-123.564,22.51,2.5,NC.KOM..SH,P,1,2008-01-14T19:11:40.7600
nc51194589,2008-01-14 19:11:31.050,40.779833333333336,-123.564,22.51,2.5,XQ.ME13.01.BH,P,1,2008-01-14T19:11:40.7900
nc51194589,2008-01-14 19:11:31.050,40.779833333333336,-123.564,22.51,2.5,NC.KPP..SH,P,1,2008-01-14T19:11:40.8200
nc51194589,2008-01-14 19:11:31.050,40.779833333333336,-123.564,22.51,2.5,NC.KRP..HH,P,1,2008-01-14T19:11:41.1300
nc51194589,2008-01-14 19:11:31.050,40.779833333333336,-123.564,22.51,2.5,XQ.ME37.01.BH,P,1,2008-01-14T19:11:41.3100
nc51194589,2008-01-14 19:11:31.050,40.779833333333336,-123.564,22.51,2.5,XQ.ME04.01.BH,P,1,2008-01-14T19:11:41.7800
nc51194589,2008-01-14 19:11:31.050,40.779833333333336,-123.564,22.51,2.5,NC.KMR..HH,P,1,2008-01-14T19:11:42.4900
nc51194589,2008-01-14 19:11:31.050,40.779833333333336,-123.564,22.51,2.5,XQ.ME08.01.BH,P,1,2008-01-14T19:11:42.6600
nc51194589,2008-01-14 19:11:31.050,40.779833333333336,-123.564,22.51,2.5,NC.KCT..HH,P,-1,2008-01-14T19:11:43.1900
nc51194589,2008-01-14 19:11:31.050,40.779833333333336,-123.564,22.51,2.5,NC.KKP..SH,P,1,2008-01-14T19:11:43.5400
nc51194589,2008-01-14 19:11:31.050,40.779833333333336,-123.564,22.51,2.5,XQ.ME09.01.BH,P,1,2008-01-14T19:11:43.9000
nc51194589,2008-01-14 19:11:31.050,40.779833333333336,-123.564,22.51,2.5,NC.KSM..SH,P,-1,2008-01-14T19:11:44.4800
nc51194589,2008-01-14 19:11:31.050,40.779833333333336,-123.564,22.51,2.5,NC.KJJ..SH,P,1,2008-01-14T19:11:44.6800
nc51194589,2008-01-14 19:11:31.050,40.779833333333336,-123.564,22.51,2.5,NC.KRMB..HH,P,-1,2008-01-14T19:11:44.8300
nc51194589,2008-01-14 19:11:31.050,40.779833333333336,-123.564,22.51,2.5,BK.WDC..HH,P,1,2008-01-14T19:11:45.9200
nc51194589,2008-01-14 19:11:31.050,40.779833333333336,-123.564,22.51,2.5,XQ.ME10.01.BH,P,1,2008-01-14T19:11:46.3900
nc51194589,2008-01-14 19:11:31.050,40.779833333333336,-123.564,22.51,2.5,NC.KBN..SH,P,-1,2008-01-14T19:11:47.8300
nc51194589,2008-01-14 19:11:31.050,40.779833333333336,-123.564,22.51,2.5,NC.KIP..SH,P,-1,2008-01-14T19:11:48.1200
nc51194589,2008-01-14 19:11:31.050,40.779833333333336,-123.564,22.51,2.5,NC.KSXB..HH,P,-1,2008-01-14T19:11:48.8200
nc51194589,2008-01-14 19:11:31.050,40.779833333333336,-123.564,22.51,2.5,NC.LAM..SH,P,-1,2008-01-14T19:11:49.9600
nc51194589,2008-01-14 19:11:31.050,40.779833333333336,-123.564,22.51,2.5,NC.GRO..EH,P,None,2008-01-14T19:11:50.7400
nc51194589,2008-01-14 19:11:31.050,40.779833333333336,-123.564,22.51,2.5,NC.LGB..SH,P,1,2008-01-14T19:11:52.5700
nc51194589,2008-01-14 19:11:31.050,40.779833333333336,-123.564,22.51,2.5,NC.LBO..SH,P,-1,2008-01-14T19:11:53.0300
nc51194589,2008-01-14 19:11:31.050,40.779833333333336,-123.564,22.51,2.5,NC.LMP..SH,P,1,2008-01-14T19:11:53.7500
nc51194589,2008-01-14 19:11:31.050,40.779833333333336,-123.564,22.51,2.5,NC.LGM..SH,P,None,2008-01-14T19:11:58.0400
nc51194666,2008-01-15 17:03:12.430,40.553333333333335,-124.1945,10.27,2.28,NC.KMPB..HN,P,-1,2008-01-15T17:03:16.2500
nc51194666,2008-01-15 17:03:12.430,40.553333333333335,-124.1945,10.27,2.28,NC.KCT..HH,P,1,2008-01-15T17:03:16.3300
nc51194666,2008-01-15 17:03:12.430,40.553333333333335,-124.1945,10.27,2.28,XQ.ME31.01.BH,P,-1,2008-01-15T17:03:18.4900
nc51194666,2008-01-15 17:03:12.430,40.553333333333335,-124.1945,10.27,2.28,BK.JCC..HH,P,-1,2008-01-15T17:03:19.1400
nc51194666,2008-01-15 17:03:12.430,40.553333333333335,-124.1945,10.27,2.28,XQ.ME36.01.BH,P,-1,2008-01-15T17:03:19.1700
nc51194666,2008-01-15 17:03:12.430,40.553333333333335,-124.1945,10.27,2.28,NC.KCR..SH,P,-1,2008-01-15T17:03:19.4500
nc51194666,2008-01-15 17:03:12.430,40.553333333333335,-124.1945,10.27,2.28,NC.KJJ..SH,P,-1,2008-01-15T17:03:19.5300
nc51194666,2008-01-15 17:03:12.430,40.553333333333335,-124.1945,10.27,2.28,NC.KSM..SH,P,-1,2008-01-15T17:03:20.3700
nc51194666,2008-01-15 17:03:12.430,40.553333333333335,-124.1945,10.27,2.28,XQ.ME35.01.BH,P,-1,2008-01-15T17:03:20.4900
nc51194666,2008-01-15 17:03:12.430,40.553333333333335,-124.1945,10.27,2.28,XQ.ME37.01.BH,P,-1,2008-01-15T17:03:22.7800
nc51194666,2008-01-15 17:03:12.430,40.553333333333335,-124.1945,10.27,2.28,NC.KHMB..HH,P,1,2008-01-15T17:03:23.0400
nc51194666,2008-01-15 17:03:12.430,40.553333333333335,-124.1945,10.27,2.28,NC.KCS..SH,P,1,2008-01-15T17:03:23.8700
nc51194666,2008-01-15 17:03:12.430,40.553333333333335,-124.1945,10.27,2.28,XQ.ME30.01.BH,P,-1,2008-01-15T17:03:23.9700
nc51194666,2008-01-15 17:03:12.430,40.553333333333335,-124.1945,10.27,2.28,XQ.ME39.01.BH,P,1,2008-01-15T17:03:24.6800
nc51194666,2008-01-15 17:03:12.430,40.553333333333335,-124.1945,10.27,2.28,XQ.ME07.01.BH,P,-1,2008-01-15T17:03:25.5700
nc51194666,2008-01-15 17:03:12.430,40.553333333333335,-124.1945,10.27,2.28,NC.KRP..HH,P,-1,2008-01-15T17:03:25.7100
nc51194666,2008-01-15 17:03:12.430,40.553333333333335,-124.1945,10.27,2.28,NC.KPP..SH,P,None,2008-01-15T17:03:26.2600
nc51194666,2008-01-15 17:03:12.430,40.553333333333335,-124.1945,10.27,2.28,NC.KKP..SH,P,-1,2008-01-15T17:03:26.4700
nc51194666,2008-01-15 17:03:12.430,40.553333333333335,-124.1945,10.27,2.28,NC.KHBB..HH,P,1,2008-01-15T17:03:27.0400
nc51194666,2008-01-15 17:03:12.430,40.553333333333335,-124.1945,10.27,2.28,NC.KOM..SH,P,-1,2008-01-15T17:03:29.4300
nc51194666,2008-01-15 17:03:12.430,40.553333333333335,-124.1945,10.27,2.28,NC.KIP..SH,P,None,2008-01-15T17:03:29.8600
nc51194666,2008-01-15 17:03:12.430,40.553333333333335,-124.1945,10.27,2.28,NC.KRMB..HH,P,-1,2008-01-15T17:03:30.2000
nc51194666,2008-01-15 17:03:12.430,40.553333333333335,-124.1945,10.27,2.28,XQ.ME29.01.BH,P,1,2008-01-15T17:03:30.3900
nc51194666,2008-01-15 17:03:12.430,40.553333333333335,-124.1945,10.27,2.28,NC.KFP..SH,P,-1,2008-01-15T17:03:31.5200
nc51194666,2008-01-15 17:03:12.430,40.553333333333335,-124.1945,10.27,2.28,NC.GTC..SH,P,-1,2008-01-15T17:03:33.4200
nc51194666,2008-01-15 17:03:12.430,40.553333333333335,-124.1945,10.27,2.28,XQ.ME36.01.BH,P,-1,2008-01-15T17:04:53.8300
nc51194666,2008-01-15 17:03:12.430,40.553333333333335,-124.1945,10.27,2.28,XQ.ME30.01.BH,P,-1,2008-01-15T17:04:58.6400
nc51194666,2008-01-15 17:03:12.430,40.553333333333335,-124.1945,10.27,2.28,XQ.ME39.01.BH,P,1,2008-01-15T17:04:59.4100
nc51194828,2008-01-18 04:23:30.440,39.94433333333333,-123.3305,8.43,2.02,NC.KBN..SH,P,-1,2008-01-18T04:23:34.3400
nc51194828,2008-01-18 04:23:30.440,39.94433333333333,-123.3305,8.43,2.02,NC.KIP..SH,P,1,2008-01-18T04:23:34.8600
nc51194828,2008-01-18 04:23:30.440,39.94433333333333,-123.3305,8.43,2.02,XQ.ME38.01.BH,P,-1,2008-01-18T04:23:35.6200
nc51194828,2008-01-18 04:23:30.440,39.94433333333333,-123.3305,8.43,2.02,XQ.ME42.01.BH,P,-1,2008-01-18T04:23:36.0200
nc51194828,2008-01-18 04:23:30.440,39.94433333333333,-123.3305,8.43,2.02,NC.KKP..SH,P,-1,2008-01-18T04:23:36.4100
nc51194828,2008-01-18 04:23:30.440,39.94433333333333,-123.3305,8.43,2.02,NC.KFP..SH,P,-1,2008-01-18T04:23:37.2300
nc51194828,2008-01-18 04:23:30.440,39.94433333333333,-123.3305,8.43,2.02,XQ.ME08.01.BH,P,-1,2008-01-18T04:23:37.3000
nc51194828,2008-01-18 04:23:30.440,39.94433333333333,-123.3305,8.43,2.02,NC.KMR..HH,P,-1,2008-01-18T04:23:39.2200
nc51194828,2008-01-18 04:23:30.440,39.94433333333333,-123.3305,8.43,2.02,XQ.ME43.01.BH,P,-1,2008-01-18T04:23:39.2900
nc51194828,2008-01-18 04:23:30.440,39.94433333333333,-123.3305,8.43,2.02,NC.KRK..SH,P,-1,2008-01-18T04:23:39.4600
nc51194828,2008-01-18 04:23:30.440,39.94433333333333,-123.3305,8.43,2.02,NC.KPP..SH,P,None,2008-01-18T04:23:39.7300
nc51194828,2008-01-18 04:23:30.440,39.94433333333333,-123.3305,8.43,2.02,XQ.ME37.01.BH,P,-1,2008-01-18T04:23:39.8300
nc51194828,2008-01-18 04:23:30.440,39.94433333333333,-123.3305,8.43,2.02,XQ.ME44.01.BH,P,-1,2008-01-18T04:23:40.4900
nc51194828,2008-01-18 04:23:30.440,39.94433333333333,-123.3305,8.43,2.02,NC.LBP..SH,P,1,2008-01-18T04:23:41.4100
nc51194828,2008-01-18 04:23:30.440,39.94433333333333,-123.3305,8.43,2.02,NC.GRO..EH,P,1,2008-01-18T04:23:41.4800
nc51194828,2008-01-18 04:23:30.440,39.94433333333333,-123.3305,8.43,2.02,NC.LVR..SH,P,1,2008-01-18T04:23:41.5700
nc51194828,2008-01-18 04:23:30.440,39.94433333333333,-123.3305,8.43,2.02,NC.LPG..SH,P,1,2008-01-18T04:23:42.0600
nc51194828,2008-01-18 04:23:30.440,39.94433333333333,-123.3305,8.43,2.02,XQ.ME35.01.BH,P,-1,2008-01-18T04:23:42.1400
nc51194828,2008-01-18 04:23:30.440,39.94433333333333,-123.3305,8.43,2.02,NC.GHM..EH,P,-1,2008-01-18T04:23:42.2000
nc51194828,2008-01-18 04:23:30.440,39.94433333333333,-123.3305,8.43,2.02,BK.GASB..HH,P,None,2008-01-18T04:23:42.2800
nc51194828,2008-01-18 04:23:30.440,39.94433333333333,-123.3305,8.43,2.02,NC.GTC..SH,P,-1,2008-01-18T04:23:42.5800
nc51194828,2008-01-18 04:23:30.440,39.94433333333333,-123.3305,8.43,2.02,NC.KCR..SH,P,-1,2008-01-18T04:23:43.3600
nc51194828,2008-01-18 04:23:30.440,39.94433333333333,-123.3305,8.43,2.02,NC.LRB..SH,P,1,2008-01-18T04:23:44.3000
nc51194828,2008-01-18 04:23:30.440,39.94433333333333,-123.3305,8.43,2.02,XQ.ME12.01.BH,P,1,2008-01-18T04:23:45.1000
nc51194828,2008-01-18 04:23:30.440,39.94433333333333,-123.3305,8.43,2.02,NC.KSM..SH,P,None,2008-01-18T04:23:45.2600
nc51194828,2008-01-18 04:23:30.440,39.94433333333333,-123.3305,8.43,2.02,NC.GWR..EH,P,None,2008-01-18T04:23:45.6300
nc51194828,2008-01-18 04:23:30.440,39.94433333333333,-123.3305,8.43,2.02,NC.GCK..EH,P,1,2008-01-18T04:23:47.6500
nc51194828,2008-01-18 04:23:30.440,39.94433333333333,-123.3305,8.43,2.02,BK.WDC..HH,P,1,2008-01-18T04:23:47.6700
nc51194828,2008-01-18 04:23:30.440,39.94433333333333,-123.3305,8.43,2.02,NC.LGP..SH,P,-1,2008-01-18T04:23:51.1300
nc51194828,2008-01-18 04:23:30.440,39.94433333333333,-123.3305,8.43,2.02,NC.LWH..SH,P,1,2008-01-18T04:23:54.6100
nc51194903,2008-01-19 08:47:14.750,39.95033333333333,-123.3235,6.32,1.7,NC.KBN..SH,P,-1,2008-01-19T08:47:18.6200
nc51194903,2008-01-19 08:47:14.750,39.95033333333333,-123.3235,6.32,1.7,NC.KIP..SH,P,1,2008-01-19T08:47:19.1200
nc51194903,2008-01-19 08:47:14.750,39.95033333333333,-123.3235,6.32,1.7,XQ.ME38.01.BH,P,-1,2008-01-19T08:47:19.8900
nc51194903,2008-01-19 08:47:14.750,39.95033333333333,-123.3235,6.32,1.7,XQ.ME42.01.BH,P,-1,2008-01-19T08:47:20.3000
nc51194903,2008-01-19 08:47:14.750,39.95033333333333,-123.3235,6.32,1.7,NC.KKP..SH,P,-1,2008-01-19T08:47:20.6800
nc51194903,2008-01-19 08:47:14.750,39.95033333333333,-123.3235,6.32,1.7,NC.KFP..SH,P,-1,2008-01-19T08:47:21.5600
nc51194903,2008-01-19 08:47:14.750,39.95033333333333,-123.3235,6.32,1.7,XQ.ME08.01.BH,P,-1,2008-01-19T08:47:21.6000
nc51194903,2008-01-19 08:47:14.750,39.95033333333333,-123.3235,6.32,1.7,XQ.ME39.01.BH,P,-1,2008-01-19T08:47:21.9300
nc51194903,2008-01-19 08:47:14.750,39.95033333333333,-123.3235,6.32,1.7,NC.KCPB..HH,P,1,2008-01-19T08:47:22.1100
nc51194903,2008-01-19 08:47:14.750,39.95033333333333,-123.3235,6.32,1.7,XQ.ME43.01.BH,P,-1,2008-01-19T08:47:23.5400
nc51194903,2008-01-19 08:47:14.750,39.95033333333333,-123.3235,6.32,1.7,NC.KRK..SH,P,-1,2008-01-19T08:47:23.7100
nc51194903,2008-01-19 08:47:14.750,39.95033333333333,-123.3235,6.32,1.7,XQ.ME37.01.BH,P,-1,2008-01-19T08:47:24.1400
nc51194903,2008-01-19 08:47:14.750,39.95033333333333,-123.3235,6.32,1.7,NC.KPP..SH,P,-1,2008-01-19T08:47:24.1600
nc51194903,2008-01-19 08:47:14.750,39.95033333333333,-123.3235,6.32,1.7,XQ.ME44.01.BH,P,-1,2008-01-19T08:47:24.8000
nc51194903,2008-01-19 08:47:14.750,39.95033333333333,-123.3235,6.32,1.7,NC.GRO..EH,P,1,2008-01-19T08:47:25.7300
nc51194903,2008-01-19 08:47:14.750,39.95033333333333,-123.3235,6.32,1.7,NC.LBP..SH,P,1,2008-01-19T08:47:25.7300
nc51194903,2008-01-19 08:47:14.750,39.95033333333333,-123.3235,6.32,1.7,NC.LVR..SH,P,1,2008-01-19T08:47:25.8700
nc51194903,2008-01-19 08:47:14.750,39.95033333333333,-123.3235,6.32,1.7,NC.LPG..SH,P,1,2008-01-19T08:47:26.3300
nc51194903,2008-01-19 08:47:14.750,39.95033333333333,-123.3235,6.32,1.7,NC.GVV..EH,P,-1,2008-01-19T08:47:26.4100
nc51194903,2008-01-19 08:47:14.750,39.95033333333333,-123.3235,6.32,1.7,BK.GASB..HH,P,-1,2008-01-19T08:47:26.6100
nc51194903,2008-01-19 08:47:14.750,39.95033333333333,-123.3235,6.32,1.7,NC.GHM..EH,P,1,2008-01-19T08:47:26.6500
nc51194903,2008-01-19 08:47:14.750,39.95033333333333,-123.3235,6.32,1.7,NC.GTC..SH,P,1,2008-01-19T08:47:27.0200
nc51194903,2008-01-19 08:47:14.750,39.95033333333333,-123.3235,6.32,1.7,NC.KCR..SH,P,-1,2008-01-19T08:47:27.6600
nc51194903,2008-01-19 08:47:14.750,39.95033333333333,-123.3235,6.32,1.7,NC.KCS..SH,P,-1,2008-01-19T08:47:28.1700
nc51194903,2008-01-19 08:47:14.750,39.95033333333333,-123.3235,6.32,1.7,NC.LRB..SH,P,1,2008-01-19T08:47:28.6200
nc51194903,2008-01-19 08:47:14.750,39.95033333333333,-123.3235,6.32,1.7,NC.KSM..SH,P,1,2008-01-19T08:47:29.2200
nc51194903,2008-01-19 08:47:14.750,39.95033333333333,-123.3235,6.32,1.7,XQ.ME12.01.BH,P,1,2008-01-19T08:47:29.3800
nc51194903,2008-01-19 08:47:14.750,39.95033333333333,-123.3235,6.32,1.7,NC.LGP..SH,P,1,2008-01-19T08:47:35.5500
nc51196020,2008-02-08 00:17:44.590,40.82783333333333,-123.40366666666668,24.38,2.43,XQ.ME30.01.BH,P,-1,2008-02-08T00:17:49.6400
nc51196020,2008-02-08 00:17:44.590,40.82783333333333,-123.40366666666668,24.38,2.43,NC.KHBB..HH,P,-1,2008-02-08T00:17:50.7300
nc51196020,2008-02-08 00:17:44.590,40.82783333333333,-123.40366666666668,24.38,2.43,NC.KHMB..HH,P,1,2008-02-08T00:17:51.1300
nc51196020,2008-02-08 00:17:44.590,40.82783333333333,-123.40366666666668,24.38,2.43,NC.KCS..SH,P,-1,2008-02-08T00:17:52.0100
nc51196020,2008-02-08 00:17:44.590,40.82783333333333,-123.40366666666668,24.38,2.43,XQ.ME29.01.BH,P,1,2008-02-08T00:17:52.5700
nc51196020,2008-02-08 00:17:44.590,40.82783333333333,-123.40366666666668,24.38,2.43,XQ.ME27.01.BH,P,-1,2008-02-08T00:17:53.3600
nc51196020,2008-02-08 00:17:44.590,40.82783333333333,-123.40366666666668,24.38,2.43,NC.LGP..SH,P,1,2008-02-08T00:17:53.6500
nc51196020,2008-02-08 00:17:44.590,40.82783333333333,-123.40366666666668,24.38,2.43,XQ.ME31.01.BH,P,1,2008-02-08T00:17:53.7100
nc51196020,2008-02-08 00:17:44.590,40.82783333333333,-123.40366666666668,24.38,2.43,NC.KOM..SH,P,1,2008-02-08T00:17:53.7900
