event_id,etime,elat,elon,edep,emag,station_id,phase_type,phase_polarity,phase_time
nc71101376,2008-02-27 04:11:45.550,40.3065,-124.26416666666667,14.67,1.46,NC.KCT..HHZ,P,-1.0,2008-02-27 04:11:50.490
nc71101376,2008-02-27 04:11:45.550,40.3065,-124.26416666666667,14.67,1.46,NC.KFP..SHZ,P,-1.0,2008-02-27 04:12:00.400
nc71101376,2008-02-27 04:11:45.550,40.3065,-124.26416666666667,14.67,1.46,NC.KIP..SHZ,P,1.0,2008-02-27 04:11:58.820
nc71101376,2008-02-27 04:11:45.550,40.3065,-124.26416666666667,14.67,1.46,NC.KJJ..SHZ,P,1.0,2008-02-27 04:11:48.790
nc71101376,2008-02-27 04:11:45.550,40.3065,-124.26416666666667,14.67,1.46,NC.KKP..SHZ,P,-1.0,2008-02-27 04:11:57.700
nc71101376,2008-02-27 04:11:45.550,40.3065,-124.26416666666667,14.67,1.46,NC.KOM..SHZ,P,1.0,2008-02-27 04:12:04.320
nc71101376,2008-02-27 04:11:45.550,40.3065,-124.26416666666667,14.67,1.46,NC.KPP..SHZ,P,-1.0,2008-02-27 04:11:59.170
nc71101376,2008-02-27 04:11:45.550,40.3065,-124.26416666666667,14.67,1.46,NC.KSM..SHZ,P,-1.0,2008-02-27 04:11:49.490
nc71101376,2008-02-27 04:11:45.550,40.3065,-124.26416666666667,14.67,1.46,NC.LBK..SHZ,P,1.0,2008-02-27 04:12:08.770
nc71101376,2008-02-27 04:11:45.550,40.3065,-124.26416666666667,14.67,1.46,NC.LGP..SHZ,P,-1.0,2008-02-27 04:12:06.080
nc71101441,2008-02-27 13:45:57.410,40.03966666666667,-123.76066666666667,10.95,1.52,NC.KBN..SHZ,P,1.0,2008-02-27 13:46:07.630
nc71101441,2008-02-27 13:45:57.410,40.03966666666667,-123.76066666666667,10.95,1.52,NC.KCS..SHZ,P,1.0,2008-02-27 13:46:09.000
nc71101441,2008-02-27 13:45:57.410,40.03966666666667,-123.76066666666667,10.95,1.52,NC.KFP..SHZ,P,-1.0,2008-02-27 13:46:07.500
nc71101441,2008-02-27 13:45:57.410,40.03966666666667,-123.76066666666667,10.95,1.52,NC.KIP..SHZ,P,1.0,2008-02-27 13:46:04.700
nc71101441,2008-02-27 13:45:57.410,40.03966666666667,-123.76066666666667,10.95,1.52,NC.KKP..SHZ,P,-1.0,2008-02-27 13:46:03.790
nc71101441,2008-02-27 13:45:57.410,40.03966666666667,-123.76066666666667,10.95,1.52,NC.KRK..SHZ,P,1.0,2008-02-27 13:46:10.330
nc71101441,2008-02-27 13:45:57.410,40.03966666666667,-123.76066666666667,10.95,1.52,NC.KSM..SHZ,P,1.0,2008-02-27 13:46:04.950
nc71101441,2008-02-27 13:45:57.410,40.03966666666667,-123.76066666666667,10.95,1.52,NC.LBP..SHZ,P,1.0,2008-02-27 13:46:11.630
nc71101441,2008-02-27 13:45:57.410,40.03966666666667,-123.76066666666667,10.95,1.52,NC.LPG..SHZ,P,1.0,2008-02-27 13:46:13.300
nc71101441,2008-02-27 13:45:57.410,40.03966666666667,-123.76066666666667,10.95,1.52,NC.LVR..SHZ,P,-1.0,2008-02-27 13:46:13.420
nc71102321,2008-03-03 04:27:05.530,40.3325,-124.62266666666666,3.69,2.01,NC.KCR..SHZ,P,1.0,2008-03-03 04:27:18.860
nc71102321,2008-03-03 04:27:05.530,40.3325,-124.62266666666666,3.69,2.01,NC.KCS..SHZ,P,,2008-03-03 04:27:22.790
nc71102321,2008-03-03 04:27:05.530,40.3325,-124.62266666666666,3.69,2.01,NC.KHBB..HHZ,P,,2008-03-03 04:27:26.710
nc71102321,2008-03-03 04:27:05.530,40.3325,-124.62266666666666,3.69,2.01,NC.KKP..SHZ,P,1.0,2008-03-03 04:27:23.590
nc71102321,2008-03-03 04:27:05.530,40.3325,-124.62266666666666,3.69,2.01,NC.KOM..SHZ,P,1.0,2008-03-03 04:27:28.490
nc71102321,2008-03-03 04:27:05.530,40.3325,-124.62266666666666,3.69,2.01,NC.LBK..SHZ,P,-1.0,2008-03-03 04:27:33.940
nc71102321,2008-03-03 04:27:05.530,40.3325,-124.62266666666666,3.69,2.01,NC.LGP..SHZ,P,-1.0,2008-03-03 04:27:31.250
nc71102321,2008-03-03 04:27:05.530,40.3325,-124.62266666666666,3.69,2.01,NC.LSH..SHZ,P,1.0,2008-03-03 04:27:39.310
nc51197677,2008-03-06 01:16:55.590,40.51916666666666,-123.663,19.37,1.63,NC.KBS..SHZ,P,-1.0,2008-03-06 01:17:07.390
nc51197677,2008-03-06 01:16:55.590,40.51916666666666,-123.663,19.37,1.63,NC.KCR..SHZ,P,1.0,2008-03-06 01:17:00.520
nc51197677,2008-03-06 01:16:55.590,40.51916666666666,-123.663,19.37,1.63,NC.KCS..SHZ,P,1.0,2008-03-06 01:17:00.510
nc51197677,2008-03-06 01:16:55.590,40.51916666666666,-123.663,19.37,1.63,NC.KHBB..HHZ,P,1.0,2008-03-06 01:17:03.560
nc51197677,2008-03-06 01:16:55.590,40.51916666666666,-123.663,19.37,1.63,NC.KHMB..HHZ,P,-1.0,2008-03-06 01:17:03.610
nc51197677,2008-03-06 01:16:55.590,40.51916666666666,-123.663,19.37,1.63,NC.KIP..SHZ,P,-1.0,2008-03-06 01:17:09.000
nc51197677,2008-03-06 01:16:55.590,40.51916666666666,-123.663,19.37,1.63,NC.KKP..SHZ,P,-1.0,2008-03-06 01:17:04.340
nc51197677,2008-03-06 01:16:55.590,40.51916666666666,-123.663,19.37,1.63,NC.KPP..SHZ,P,1.0,2008-03-06 01:17:02.670
nc51197677,2008-03-06 01:16:55.590,40.51916666666666,-123.663,19.37,1.63,NC.KSM..SHZ,P,1.0,2008-03-06 01:17:05.540
nc51197677,2008-03-06 01:16:55.590,40.51916666666666,-123.663,19.37,1.63,NC.LBP..SHZ,P,1.0,2008-03-06 01:17:07.690
nc51197677,2008-03-06 01:16:55.590,40.51916666666666,-123.663,19.37,1.63,NC.LGP..SHZ,P,,2008-03-06 01:17:09.230
nc51197782,2008-03-07 16:44:17.600,39.8795,-123.19016666666667,9.19,2.29,BK.GASB..HHZ,P,-1.0,2008-03-07 16:44:26.250
nc51197782,2008-03-07 16:44:17.600,39.8795,-123.19016666666667,9.19,2.29,BK.WDC..HHZ,P,-1.0,2008-03-07 16:44:33.770
nc51197782,2008-03-07 16:44:17.600,39.8795,-123.19016666666667,9.19,2.29,NC.GBB..EHZ,P,,2008-03-07 16:44:31.560
nc51197782,2008-03-07 16:44:17.600,39.8795,-123.19016666666667,9.19,2.29,NC.GCK..EHZ,P,-1.0,2008-03-07 16:44:31.480
nc51197782,2008-03-07 16:44:17.600,39.8795,-123.19016666666667,9.19,2.29,NC.GCW..EHZ,P,,2008-03-07 16:44:32.750
nc51197782,2008-03-07 16:44:17.600,39.8795,-123.19016666666667,9.19,2.29,NC.GHL..EHZ,P,-1.0,2008-03-07 16:44:34.070
nc51197782,2008-03-07 16:44:17.600,39.8795,-123.19016666666667,9.19,2.29,NC.GHM..EHZ,P,-1.0,2008-03-07 16:44:26.450
nc51197782,2008-03-07 16:44:17.600,39.8795,-123.19016666666667,9.19,2.29,NC.GNA..EHZ,P,-1.0,2008-03-07 16:44:32.360
nc51197782,2008-03-07 16:44:17.600,39.8795,-123.19016666666667,9.19,2.29,NC.GRO..EHZ,P,1.0,2008-03-07 16:44:25.880
nc51197782,2008-03-07 16:44:17.600,39.8795,-123.19016666666667,9.19,2.29,NC.GTC..SHZ,P,1.0,2008-03-07 16:44:28.880
nc51197782,2008-03-07 16:44:17.600,39.8795,-123.19016666666667,9.19,2.29,NC.GTS..EHZ,P,1.0,2008-03-07 16:44:31.870
nc51197782,2008-03-07 16:44:17.600,39.8795,-123.19016666666667,9.19,2.29,NC.GVV..EHZ,P,1.0,2008-03-07 16:44:26.020
nc51197782,2008-03-07 16:44:17.600,39.8795,-123.19016666666667,9.19,2.29,NC.GWR..EHZ,P,-1.0,2008-03-07 16:44:31.210
nc51197782,2008-03-07 16:44:17.600,39.8795,-123.19016666666667,9.19,2.29,NC.KBN..SHZ,P,1.0,2008-03-07 16:44:19.740
nc51197782,2008-03-07 16:44:17.600,39.8795,-123.19016666666667,9.19,2.29,NC.KCPB..HHZ,P,1.0,2008-03-07 16:44:25.180
nc51197782,2008-03-07 16:44:17.600,39.8795,-123.19016666666667,9.19,2.29,NC.KCR..SHZ,P,-1.0,2008-03-07 16:44:32.320
nc51197782,2008-03-07 16:44:17.600,39.8795,-123.19016666666667,9.19,2.29,NC.KCS..SHZ,P,-1.0,2008-03-07 16:44:31.610
nc51197782,2008-03-07 16:44:17.600,39.8795,-123.19016666666667,9.19,2.29,NC.KFP..SHZ,P,1.0,2008-03-07 16:44:23.760
nc51197782,2008-03-07 16:44:17.600,39.8795,-123.19016666666667,9.19,2.29,NC.KHBB..HHZ,P,-1.0,2008-03-07 16:44:32.270
nc51197782,2008-03-07 16:44:17.600,39.8795,-123.19016666666667,9.19,2.29,NC.KIP..SHZ,P,1.0,2008-03-07 16:44:22.580
nc51197782,2008-03-07 16:44:17.600,39.8795,-123.19016666666667,9.19,2.29,NC.KJJ..SHZ,P,1.0,2008-03-07 16:44:34.380
nc51197782,2008-03-07 16:44:17.600,39.8795,-123.19016666666667,9.19,2.29,NC.KKP..SHZ,P,-1.0,2008-03-07 16:44:25.170
nc51197782,2008-03-07 16:44:17.600,39.8795,-123.19016666666667,9.19,2.29,NC.KPP..SHZ,P,-1.0,2008-03-07 16:44:27.570
nc51197782,2008-03-07 16:44:17.600,39.8795,-123.19016666666667,9.19,2.29,NC.KRK..SHZ,P,-1.0,2008-03-07 16:44:24.300
nc51197782,2008-03-07 16:44:17.600,39.8795,-123.19016666666667,9.19,2.29,NC.KSM..SHZ,P,-1.0,2008-03-07 16:44:32.910
nc51197782,2008-03-07 16:44:17.600,39.8795,-123.19016666666667,9.19,2.29,NC.LBK..SHZ,P,,2008-03-07 16:44:40.900
nc51197782,2008-03-07 16:44:17.600,39.8795,-123.19016666666667,9.19,2.29,NC.LBP..SHZ,P,-1.0,2008-03-07 16:44:27.670
nc51197782,2008-03-07 16:44:17.600,39.8795,-123.19016666666667,9.19,2.29,NC.LGP..SHZ,P,1.0,2008-03-07 16:44:37.520
nc51197782,2008-03-07 16:44:17.600,39.8795,-123.19016666666667,9.19,2.29,NC.LRB..SHZ,P,1.0,2008-03-07 16:44:29.410
nc51197782,2008-03-07 16:44:17.600,39.8795,-123.19016666666667,9.19,2.29,NC.LSF..SHZ,P,-1.0,2008-03-07 16:44:35.140
nc51197782,2008-03-07 16:44:17.600,39.8795,-123.19016666666667,9.19,2.29,NC.LVR..SHZ,P,1.0,2008-03-07 16:44:26.360
nc51197782,2008-03-07 16:44:17.600,39.8795,-123.19016666666667,9.19,2.29,NC.LWH..SHZ,P,1.0,2008-03-07 16:44:40.470
nc71103341,2008-03-07 19:42:26.110,39.9465,-123.3365,9.2,0.93,NC.KBN..SHZ,P,-1.0,2008-03-07 19:42:30.030
nc71103341,2008-03-07 19:42:26.110,39.9465,-123.3365,9.2,0.93,NC.KBS..SHZ,P,1.0,2008-03-07 19:42:31.160
nc71103341,2008-03-07 19:42:26.110,39.9465,-123.3365,9.2,0.93,NC.KFP..SHZ,P,1.0,2008-03-07 19:42:33.060
nc71103341,2008-03-07 19:42:26.110,39.9465,-123.3365,9.2,0.93,NC.KIP..SHZ,P,1.0,2008-03-07 19:42:30.500
nc71103341,2008-03-07 19:42:26.110,39.9465,-123.3365,9.2,0.93,NC.KKP..SHZ,P,-1.0,2008-03-07 19:42:32.040
nc71103341,2008-03-07 19:42:26.110,39.9465,-123.3365,9.2,0.93,NC.KRK..SHZ,P,-1.0,2008-03-07 19:42:35.090
nc71103341,2008-03-07 19:42:26.110,39.9465,-123.3365,9.2,0.93,NC.LBP..SHZ,P,1.0,2008-03-07 19:42:37.100
nc71103341,2008-03-07 19:42:26.110,39.9465,-123.3365,9.2,0.93,NC.LPG..SHZ,P,1.0,2008-03-07 19:42:37.750
nc71103341,2008-03-07 19:42:26.110,39.9465,-123.3365,9.2,0.93,NC.LVR..SHZ,P,1.0,2008-03-07 19:42:37.240
nc71104386,2008-03-13 08:06:26.160,40.82383333333333,-123.85333333333334,14.41,2.0,NC.KCR..SHZ,P,-1.0,2008-03-13 08:06:34.830
nc71104386,2008-03-13 08:06:26.160,40.82383333333333,-123.85333333333334,14.41,2.0,NC.KCS..SHZ,P,1.0,2008-03-13 08:06:35.100
nc71104386,2008-03-13 08:06:26.160,40.82383333333333,-123.85333333333334,14.41,2.0,NC.KHBB..HHZ,P,1.0,2008-03-13 08:06:36.700
nc71104386,2008-03-13 08:06:26.160,40.82383333333333,-123.85333333333334,14.41,2.0,NC.KOM..SHZ,P,1.0,2008-03-13 08:06:37.220
nc71104386,2008-03-13 08:06:26.160,40.82383333333333,-123.85333333333334,14.41,2.0,NC.LBK..SHZ,P,,2008-03-13 08:06:43.030
nc71104386,2008-03-13 08:06:26.160,40.82383333333333,-123.85333333333334,14.41,2.0,NC.LBP..SHZ,P,1.0,2008-03-13 08:06:43.180
nc71104386,2008-03-13 08:06:26.160,40.82383333333333,-123.85333333333334,14.41,2.0,NC.LGP..SHZ,P,1.0,2008-03-13 08:06:40.660
nc71104416,2008-03-13 12:44:31.200,40.12833333333333,-123.856,19.4,1.76,NC.GRO..EHZ,P,-1.0,2008-03-13 12:44:48.340
nc71104416,2008-03-13 12:44:31.200,40.12833333333333,-123.856,19.4,1.76,NC.KBN..SHZ,P,1.0,2008-03-13 12:44:42.650
nc71104416,2008-03-13 12:44:31.200,40.12833333333333,-123.856,19.4,1.76,NC.KCPB..HHZ,P,,2008-03-13 12:44:41.430
nc71104416,2008-03-13 12:44:31.200,40.12833333333333,-123.856,19.4,1.76,NC.KCR..SHZ,P,1.0,2008-03-13 12:44:37.900
nc71104416,2008-03-13 12:44:31.200,40.12833333333333,-123.856,19.4,1.76,NC.KCT..HHZ,P,1.0,2008-03-13 12:44:41.600
nc71104416,2008-03-13 12:44:31.200,40.12833333333333,-123.856,19.4,1.76,NC.KFP..SHZ,P,1.0,2008-03-13 12:44:42.480
nc71104416,2008-03-13 12:44:31.200,40.12833333333333,-123.856,19.4,1.76,NC.KIP..SHZ,P,1.0,2008-03-13 12:44:40.440
nc71104416,2008-03-13 12:44:31.200,40.12833333333333,-123.856,19.4,1.76,NC.KJJ..SHZ,P,,2008-03-13 12:44:38.810
nc71104416,2008-03-13 12:44:31.200,40.12833333333333,-123.856,19.4,1.76,NC.KKP..SHZ,P,1.0,2008-03-13 12:44:38.630
nc71104416,2008-03-13 12:44:31.200,40.12833333333333,-123.856,19.4,1.76,NC.KMR..HHZ,P,-1.0,2008-03-13 12:44:36.050
nc71104416,2008-03-13 12:44:31.200,40.12833333333333,-123.856,19.4,1.76,NC.KRK..SHZ,P,-1.0,2008-03-13 12:44:45.210
nc71104416,2008-03-13 12:44:31.200,40.12833333333333,-123.856,19.4,1.76,NC.KSM..SHZ,P,1.0,2008-03-13 12:44:37.200
nc71104416,2008-03-13 12:44:31.200,40.12833333333333,-123.856,19.4,1.76,NC.LBP..SHZ,P,1.0,2008-03-13 12:44:45.460
nc71104416,2008-03-13 12:44:31.200,40.12833333333333,-123.856,19.4,1.76,NC.LVR..SHZ,P,1.0,2008-03-13 12:44:47.720
nc71104916,2008-03-16 02:12:31.060,40.29066666666667,-124.3035,8.62,1.89,NC.KBS..SHZ,P,,2008-03-16 02:12:44.320
nc71104916,2008-03-16 02:12:31.060,40.29066666666667,-124.3035,8.62,1.89,NC.KCR..SHZ,P,-1.0,2008-03-16 02:12:39.810
nc71104916,2008-03-16 02:12:31.060,40.29066666666667,-124.3035,8.62,1.89,NC.KCS..SHZ,P,1.0,2008-03-16 02:12:44.840
nc71104916,2008-03-16 02:12:31.060,40.29066666666667,-124.3035,8.62,1.89,NC.KCT..HHZ,P,-1.0,2008-03-16 02:12:35.860
nc71104916,2008-03-16 02:12:31.060,40.29066666666667,-124.3035,8.62,1.89,NC.KIP..SHZ,P,,2008-03-16 02:12:46.540
nc71104916,2008-03-16 02:12:31.060,40.29066666666667,-124.3035,8.62,1.89,NC.KJJ..SHZ,P,1.0,2008-03-16 02:12:33.190
nc71104916,2008-03-16 02:12:31.060,40.29066666666667,-124.3035,8.62,1.89,NC.KKP..SHZ,P,1.0,2008-03-16 02:12:45.010
nc71104916,2008-03-16 02:12:31.060,40.29066666666667,-124.3035,8.62,1.89,NC.KSM..SHZ,P,-1.0,2008-03-16 02:12:34.630
nc71104916,2008-03-16 02:12:31.060,40.29066666666667,-124.3035,8.62,1.89,NC.LGP..SHZ,P,-1.0,2008-03-16 02:12:53.810
nc71105426,2008-03-20 07:16:20.050,40.747,-123.658,14.18,1.64,BK.WDC..HHZ,P,-1.0,2008-03-20 07:16:35.800
nc71105426,2008-03-20 07:16:20.050,40.747,-123.658,14.18,1.64,NC.KCR..SHZ,P,1.0,2008-03-20 07:16:27.560
nc71105426,2008-03-20 07:16:20.050,40.747,-123.658,14.18,1.64,NC.KCS..SHZ,P,1.0,2008-03-20 07:16:26.420
nc71105426,2008-03-20 07:16:20.050,40.747,-123.658,14.18,1.64,NC.KHBB..HHZ,P,1.0,2008-03-20 07:16:27.660
nc71105426,2008-03-20 07:16:20.050,40.747,-123.658,14.18,1.64,NC.KKP..SHZ,P,-1.0,2008-03-20 07:16:31.540
nc71105426,2008-03-20 07:16:20.050,40.747,-123.658,14.18,1.64,NC.KOM..SHZ,P,1.0,2008-03-20 07:16:31.270
nc71105426,2008-03-20 07:16:20.050,40.747,-123.658,14.18,1.64,NC.KPP..SHZ,P,-1.0,2008-03-20 07:16:29.280
nc71105426,2008-03-20 07:16:20.050,40.747,-123.658,14.18,1.64,NC.LBK..SHZ,P,-1.0,2008-03-20 07:16:34.970
nc71105426,2008-03-20 07:16:20.050,40.747,-123.658,14.18,1.64,NC.LGP..SHZ,P,1.0,2008-03-20 07:16:32.160
nc71105426,2008-03-20 07:16:20.050,40.747,-123.658,14.18,1.64,NC.LSH..SHZ,P,1.0,2008-03-20 07:16:40.970
nc51198711,2008-03-20 21:10:51.310,40.48466666666667,-123.66366666666667,22.94,1.99,BK.JCC..HHZ,P,1.0,2008-03-20 21:11:00.110
nc51198711,2008-03-20 21:10:51.310,40.48466666666667,-123.66366666666667,22.94,1.99,NC.KBN..SHZ,P,1.0,2008-03-20 21:11:04.830
nc51198711,2008-03-20 21:10:51.310,40.48466666666667,-123.66366666666667,22.94,1.99,NC.KBS..SHZ,P,1.0,2008-03-20 21:11:02.950
nc51198711,2008-03-20 21:10:51.310,40.48466666666667,-123.66366666666667,22.94,1.99,NC.KCR..SHZ,P,1.0,2008-03-20 21:10:56.390
nc51198711,2008-03-20 21:10:51.310,40.48466666666667,-123.66366666666667,22.94,1.99,NC.KCS..SHZ,P,-1.0,2008-03-20 21:10:56.500
nc51198711,2008-03-20 21:10:51.310,40.48466666666667,-123.66366666666667,22.94,1.99,NC.KHBB..HHZ,P,1.0,2008-03-20 21:10:59.560
nc51198711,2008-03-20 21:10:51.310,40.48466666666667,-123.66366666666667,22.94,1.99,NC.KHMB..HHZ,P,1.0,2008-03-20 21:10:59.890
nc51198711,2008-03-20 21:10:51.310,40.48466666666667,-123.66366666666667,22.94,1.99,NC.KIP..SHZ,P,1.0,2008-03-20 21:11:04.650
nc51198711,2008-03-20 21:10:51.310,40.48466666666667,-123.66366666666667,22.94,1.99,NC.KJJ..SHZ,P,-1.0,2008-03-20 21:11:01.760
nc51198711,2008-03-20 21:10:51.310,40.48466666666667,-123.66366666666667,22.94,1.99,NC.KKP..SHZ,P,1.0,2008-03-20 21:10:59.890
nc51198711,2008-03-20 21:10:51.310,40.48466666666667,-123.66366666666667,22.94,1.99,NC.KMR..HHZ,P,1.0,2008-03-20 21:10:58.390
nc51198711,2008-03-20 21:10:51.310,40.48466666666667,-123.66366666666667,22.94,1.99,NC.KPP..SHZ,P,-1.0,2008-03-20 21:10:58.360
nc51198711,2008-03-20 21:10:51.310,40.48466666666667,-123.66366666666667,22.94,1.99,NC.KSM..SHZ,P,1.0,2008-03-20 21:11:01.150
nc51198711,2008-03-20 21:10:51.310,40.48466666666667,-123.66366666666667,22.94,1.99,NC.LBP..SHZ,P,1.0,2008-03-20 21:11:03.160
nc51198711,2008-03-20 21:10:51.310,40.48466666666667,-123.66366666666667,22.94,1.99,NC.LGP..SHZ,P,1.0,2008-03-20 21:11:05.160
nc51198711,2008-03-20 21:10:51.310,40.48466666666667,-123.66366666666667,22.94,1.99,NC.LSH..SHZ,P,-1.0,2008-03-20 21:11:13.050
nc51198711,2008-03-20 21:10:51.310,40.48466666666667,-123.66366666666667,22.94,1.99,NC.LSR..SHZ,P,1.0,2008-03-20 21:11:12.280
nc71106981,2008-03-29 18:40:01.790,41.43,-123.41333333333333,30.18,2.44,BK.YBH..HHZ,P,1.0,2008-03-29 18:40:13.470
nc71106981,2008-03-29 18:40:01.790,41.43,-123.41333333333333,30.18,2.44,NC.LAM..SHZ,P,1.0,2008-03-29 18:40:13.780
nc71106981,2008-03-29 18:40:01.790,41.43,-123.41333333333333,30.18,2.44,NC.LBF..SHZ,P,1.0,2008-03-29 18:40:23.000
nc71106981,2008-03-29 18:40:01.790,41.43,-123.41333333333333,30.18,2.44,NC.LBK..SHZ,P,1.0,2008-03-29 18:40:14.800
nc71106981,2008-03-29 18:40:01.790,41.43,-123.41333333333333,30.18,2.44,NC.LBO..SHZ,P,1.0,2008-03-29 18:40:18.420
nc71106981,2008-03-29 18:40:01.790,41.43,-123.41333333333333,30.18,2.44,NC.LGB..SHZ,P,1.0,2008-03-29 18:40:19.470
nc71106981,2008-03-29 18:40:01.790,41.43,-123.41333333333333,30.18,2.44,NC.LGP..SHZ,P,-1.0,2008-03-29 18:40:14.860
nc71106981,2008-03-29 18:40:01.790,41.43,-123.41333333333333,30.18,2.44,NC.LMH..SHZ,P,1.0,2008-03-29 18:40:24.940
nc71106981,2008-03-29 18:40:01.790,41.43,-123.41333333333333,30.18,2.44,NC.LMP..SHZ,P,1.0,2008-03-29 18:40:19.490
nc71106981,2008-03-29 18:40:01.790,41.43,-123.41333333333333,30.18,2.44,NC.LSH..SHZ,P,-1.0,2008-03-29 18:40:23.020
nc71106981,2008-03-29 18:40:01.790,41.43,-123.41333333333333,30.18,2.44,NC.LSR..SHZ,P,1.0,2008-03-29 18:40:18.760
nc71106981,2008-03-29 18:40:01.790,41.43,-123.41333333333333,30.18,2.44,UW.BUO..EHZ,P,1.0,2008-03-29 18:40:23.380
nc51199341,2008-03-30 02:28:12.960,40.533166666666666,-123.54083333333334,25.92,2.25,BK.JCC..HHZ,P,-1.0,2008-03-30 02:28:22.330
nc51199341,2008-03-30 02:28:12.960,40.533166666666666,-123.54083333333334,25.92,2.25,BK.WDC..HHZ,P,1.0,2008-03-30 02:28:26.480
nc51199341,2008-03-30 02:28:12.960,40.533166666666666,-123.54083333333334,25.92,2.25,NC.KBN..SHZ,P,1.0,2008-03-30 02:28:26.760
nc51199341,2008-03-30 02:28:12.960,40.533166666666666,-123.54083333333334,25.92,2.25,NC.KBS..SHZ,P,1.0,2008-03-30 02:28:25.160
nc51199341,2008-03-30 02:28:12.960,40.533166666666666,-123.54083333333334,25.92,2.25,NC.KCR..SHZ,P,1.0,2008-03-30 02:28:19.440
nc51199341,2008-03-30 02:28:12.960,40.533166666666666,-123.54083333333334,25.92,2.25,NC.KCS..SHZ,P,-1.0,2008-03-30 02:28:17.870
nc51199341,2008-03-30 02:28:12.960,40.533166666666666,-123.54083333333334,25.92,2.25,NC.KCT..HHZ,P,1.0,2008-03-30 02:28:24.530
nc51199341,2008-03-30 02:28:12.960,40.533166666666666,-123.54083333333334,25.92,2.25,NC.KFP..SHZ,P,-1.0,2008-03-30 02:28:28.680
nc51199341,2008-03-30 02:28:12.960,40.533166666666666,-123.54083333333334,25.92,2.25,NC.KHBB..HHZ,P,1.0,2008-03-30 02:28:19.710
nc51199341,2008-03-30 02:28:12.960,40.533166666666666,-123.54083333333334,25.92,2.25,NC.KHMB..HHZ,P,-1.0,2008-03-30 02:28:21.000
nc51199341,2008-03-30 02:28:12.960,40.533166666666666,-123.54083333333334,25.92,2.25,NC.KIP..SHZ,P,1.0,2008-03-30 02:28:26.490
nc51199341,2008-03-30 02:28:12.960,40.533166666666666,-123.54083333333334,25.92,2.25,NC.KJJ..SHZ,P,-1.0,2008-03-30 02:28:24.750
nc51199341,2008-03-30 02:28:12.960,40.533166666666666,-123.54083333333334,25.92,2.25,NC.KKP..SHZ,P,1.0,2008-03-30 02:28:21.970
nc51199341,2008-03-30 02:28:12.960,40.533166666666666,-123.54083333333334,25.92,2.25,NC.KMR..HHZ,P,1.0,2008-03-30 02:28:21.090
nc51199341,2008-03-30 02:28:12.960,40.533166666666666,-123.54083333333334,25.92,2.25,NC.KOM..SHZ,P,-1.0,2008-03-30 02:28:26.040
nc51199341,2008-03-30 02:28:12.960,40.533166666666666,-123.54083333333334,25.92,2.25,NC.KPP..SHZ,P,-1.0,2008-03-30 02:28:19.710
nc51199341,2008-03-30 02:28:12.960,40.533166666666666,-123.54083333333334,25.92,2.25,NC.KSM..SHZ,P,1.0,2008-03-30 02:28:24.090
nc51199341,2008-03-30 02:28:12.960,40.533166666666666,-123.54083333333334,25.92,2.25,NC.LBK..SHZ,P,1.0,2008-03-30 02:28:28.080
nc51199341,2008-03-30 02:28:12.960,40.533166666666666,-123.54083333333334,25.92,2.25,NC.LBP..SHZ,P,1.0,2008-03-30 02:28:23.720
nc51199341,2008-03-30 02:28:12.960,40.533166666666666,-123.54083333333334,25.92,2.25,NC.LGP..SHZ,P,1.0,2008-03-30 02:28:25.090
