event_id,etime,elat,elon,edep,emag,station_id,phase_type,phase_polarity,phase_time
nc40232766,2009-03-06 13:39:13.850,40.14266666666666,-123.067,40.54,2.45,NC.LGM..SHZ,P,-1.0,2009-03-06 13:39:42.170
nc40232766,2009-03-06 13:39:13.850,40.14266666666666,-123.067,40.54,2.45,NC.LGP..SHZ,P,-1.0,2009-03-06 13:39:28.420
nc40232766,2009-03-06 13:39:13.850,40.14266666666666,-123.067,40.54,2.45,NC.LRB..SHZ,P,1.0,2009-03-06 13:39:23.760
nc40232766,2009-03-06 13:39:13.850,40.14266666666666,-123.067,40.54,2.45,NC.LRR..SHZ,P,1.0,2009-03-06 13:39:33.370
nc40232766,2009-03-06 13:39:13.850,40.14266666666666,-123.067,40.54,2.45,NC.LSF..SHZ,P,1.0,2009-03-06 13:39:26.740
nc40232766,2009-03-06 13:39:13.850,40.14266666666666,-123.067,40.54,2.45,NC.LSH..SHZ,P,-1.0,2009-03-06 13:39:31.610
nc40232766,2009-03-06 13:39:13.850,40.14266666666666,-123.067,40.54,2.45,NC.LSI..SHZ,P,-1.0,2009-03-06 13:39:35.360
nc40232766,2009-03-06 13:39:13.850,40.14266666666666,-123.067,40.54,2.45,NC.LSR..SHZ,P,,2009-03-06 13:39:33.360
nc40232766,2009-03-06 13:39:13.850,40.14266666666666,-123.067,40.54,2.45,NC.LTC..SHZ,P,1.0,2009-03-06 13:39:27.310
nc40232766,2009-03-06 13:39:13.850,40.14266666666666,-123.067,40.54,2.45,NC.LWH..SHZ,P,1.0,2009-03-06 13:39:30.780
nc40232766,2009-03-06 13:39:13.850,40.14266666666666,-123.067,40.54,2.45,NC.OCR..EHZ,P,1.0,2009-03-06 13:39:31.210
nc71197890,2009-03-18 06:15:06.970,40.64366666666667,-124.35933333333334,8.14,2.5,BK.HATC..HHZ,P,,2009-03-18 06:15:42.660
nc71197890,2009-03-18 06:15:06.970,40.64366666666667,-124.35933333333334,8.14,2.5,BK.WDC..HHZ,P,-1.0,2009-03-18 06:15:30.420
nc71197890,2009-03-18 06:15:06.970,40.64366666666667,-124.35933333333334,8.14,2.5,NC.KHBB..HHZ,P,1.0,2009-03-18 06:15:23.160
nc71197890,2009-03-18 06:15:06.970,40.64366666666667,-124.35933333333334,8.14,2.5,NC.KOM..SHZ,P,1.0,2009-03-18 06:15:24.110
nc71197890,2009-03-18 06:15:06.970,40.64366666666667,-124.35933333333334,8.14,2.5,NC.LAM..SHZ,P,1.0,2009-03-18 06:15:34.100
nc71197890,2009-03-18 06:15:06.970,40.64366666666667,-124.35933333333334,8.14,2.5,NC.LBK..SHZ,P,-1.0,2009-03-18 06:15:30.530
nc71197890,2009-03-18 06:15:06.970,40.64366666666667,-124.35933333333334,8.14,2.5,NC.LBO..SHZ,P,,2009-03-18 06:15:37.640
nc71197890,2009-03-18 06:15:06.970,40.64366666666667,-124.35933333333334,8.14,2.5,NC.LBP..SHZ,P,,2009-03-18 06:15:27.370
nc71197890,2009-03-18 06:15:06.970,40.64366666666667,-124.35933333333334,8.14,2.5,NC.LCSB..SHZ,P,,2009-03-18 06:15:35.460
nc71197890,2009-03-18 06:15:06.970,40.64366666666667,-124.35933333333334,8.14,2.5,NC.LDB..SHZ,P,1.0,2009-03-18 06:15:38.780
nc71197890,2009-03-18 06:15:06.970,40.64366666666667,-124.35933333333334,8.14,2.5,NC.LDH..HHZ,P,-1.0,2009-03-18 06:15:41.230
nc71197890,2009-03-18 06:15:06.970,40.64366666666667,-124.35933333333334,8.14,2.5,NC.LEL..SHZ,P,1.0,2009-03-18 06:15:42.340
nc71197890,2009-03-18 06:15:06.970,40.64366666666667,-124.35933333333334,8.14,2.5,NC.LGB..SHZ,P,1.0,2009-03-18 06:15:37.220
nc71197890,2009-03-18 06:15:06.970,40.64366666666667,-124.35933333333334,8.14,2.5,NC.LGM..SHZ,P,-1.0,2009-03-18 06:15:42.200
nc71197890,2009-03-18 06:15:06.970,40.64366666666667,-124.35933333333334,8.14,2.5,NC.LGP..SHZ,P,1.0,2009-03-18 06:15:27.890
nc71197890,2009-03-18 06:15:06.970,40.64366666666667,-124.35933333333334,8.14,2.5,NC.LHE..SHZ,P,-1.0,2009-03-18 06:15:38.970
nc71197890,2009-03-18 06:15:06.970,40.64366666666667,-124.35933333333334,8.14,2.5,NC.LMP..SHZ,P,1.0,2009-03-18 06:15:38.900
nc71197890,2009-03-18 06:15:06.970,40.64366666666667,-124.35933333333334,8.14,2.5,NC.LRD..SHZ,P,,2009-03-18 06:15:43.000
nc71197890,2009-03-18 06:15:06.970,40.64366666666667,-124.35933333333334,8.14,2.5,NC.LRR..SHZ,P,-1.0,2009-03-18 06:15:40.570
nc71197890,2009-03-18 06:15:06.970,40.64366666666667,-124.35933333333334,8.14,2.5,NC.LSF..SHZ,P,1.0,2009-03-18 06:15:30.910
nc71197890,2009-03-18 06:15:06.970,40.64366666666667,-124.35933333333334,8.14,2.5,NC.LSH..SHZ,P,1.0,2009-03-18 06:15:36.500
nc71197890,2009-03-18 06:15:06.970,40.64366666666667,-124.35933333333334,8.14,2.5,NC.LSI..SHZ,P,-1.0,2009-03-18 06:15:43.190
nc71197890,2009-03-18 06:15:06.970,40.64366666666667,-124.35933333333334,8.14,2.5,NC.LSR..SHZ,P,-1.0,2009-03-18 06:15:35.100
nc71197890,2009-03-18 06:15:06.970,40.64366666666667,-124.35933333333334,8.14,2.5,NC.LTC..SHZ,P,,2009-03-18 06:15:36.350
nc71197890,2009-03-18 06:15:06.970,40.64366666666667,-124.35933333333334,8.14,2.5,NC.LVR..SHZ,P,-1.0,2009-03-18 06:15:30.880
nc71197890,2009-03-18 06:15:06.970,40.64366666666667,-124.35933333333334,8.14,2.5,NC.LWH..SHZ,P,-1.0,2009-03-18 06:15:37.050
nc71197890,2009-03-18 06:15:06.970,40.64366666666667,-124.35933333333334,8.14,2.5,NC.OSU..EHZ,P,1.0,2009-03-18 06:15:42.480
nc71199035,2009-03-21 02:00:35.290,40.66133333333333,-124.29933333333334,4.76,2.01,BK.WDC..HHZ,P,-1.0,2009-03-21 02:00:58.700
nc71199035,2009-03-21 02:00:35.290,40.66133333333333,-124.29933333333334,4.76,2.01,NC.KCR..SHZ,P,1.0,2009-03-21 02:00:45.120
nc71199035,2009-03-21 02:00:35.290,40.66133333333333,-124.29933333333334,4.76,2.01,NC.KCS..SHZ,P,1.0,2009-03-21 02:00:48.420
nc71199035,2009-03-21 02:00:35.290,40.66133333333333,-124.29933333333334,4.76,2.01,NC.KHBB..HHZ,P,1.0,2009-03-21 02:00:51.300
nc71199035,2009-03-21 02:00:35.290,40.66133333333333,-124.29933333333334,4.76,2.01,NC.KKP..SHZ,P,1.0,2009-03-21 02:00:52.180
nc71199035,2009-03-21 02:00:35.290,40.66133333333333,-124.29933333333334,4.76,2.01,NC.KOM..SHZ,P,1.0,2009-03-21 02:00:52.490
nc71199035,2009-03-21 02:00:35.290,40.66133333333333,-124.29933333333334,4.76,2.01,NC.KPP..SHZ,P,1.0,2009-03-21 02:00:50.620
nc71199035,2009-03-21 02:00:35.290,40.66133333333333,-124.29933333333334,4.76,2.01,NC.LBK..SHZ,P,-1.0,2009-03-21 02:00:58.580
nc71199035,2009-03-21 02:00:35.290,40.66133333333333,-124.29933333333334,4.76,2.01,NC.LBP..SHZ,P,1.0,2009-03-21 02:00:55.330
nc71199035,2009-03-21 02:00:35.290,40.66133333333333,-124.29933333333334,4.76,2.01,NC.LGP..SHZ,P,1.0,2009-03-21 02:00:56.020
nc71199035,2009-03-21 02:00:35.290,40.66133333333333,-124.29933333333334,4.76,2.01,NC.LSH..SHZ,P,-1.0,2009-03-21 02:01:04.680
nc71200790,2009-03-25 07:46:56.280,39.862833333333334,-123.09733333333334,4.27,1.42,NC.GCK..EHZ,P,-1.0,2009-03-25 07:47:08.870
nc71200790,2009-03-25 07:46:56.280,39.862833333333334,-123.09733333333334,4.27,1.42,NC.KFP..SHZ,P,-1.0,2009-03-25 07:47:03.070
nc71200790,2009-03-25 07:46:56.280,39.862833333333334,-123.09733333333334,4.27,1.42,NC.KIP..SHZ,P,1.0,2009-03-25 07:47:02.340
nc71200790,2009-03-25 07:46:56.280,39.862833333333334,-123.09733333333334,4.27,1.42,NC.LPG..SHZ,P,1.0,2009-03-25 07:47:05.020
nc71200790,2009-03-25 07:46:56.280,39.862833333333334,-123.09733333333334,4.27,1.42,NC.LRB..SHZ,P,1.0,2009-03-25 07:47:06.980
nc40234034,2009-03-30 15:33:22.580,41.43566666666667,-123.38883333333334,38.14,2.94,BK.HATC..HHZ,P,-1.0,2009-03-30 15:33:50.150
nc40234034,2009-03-30 15:33:22.580,41.43566666666667,-123.38883333333334,38.14,2.94,BK.HUMO..HHZ,P,1.0,2009-03-30 15:33:43.440
nc40234034,2009-03-30 15:33:22.580,41.43566666666667,-123.38883333333334,38.14,2.94,BK.JCC..HHZ,P,1.0,2009-03-30 15:33:36.950
nc40234034,2009-03-30 15:33:22.580,41.43566666666667,-123.38883333333334,38.14,2.94,BK.WDC..HHZ,P,,2009-03-30 15:33:42.070
nc40234034,2009-03-30 15:33:22.580,41.43566666666667,-123.38883333333334,38.14,2.94,NC.GTC..SHZ,P,-1.0,2009-03-30 15:33:54.390
nc40234034,2009-03-30 15:33:22.580,41.43566666666667,-123.38883333333334,38.14,2.94,NC.KBN..SHZ,P,1.0,2009-03-30 15:33:48.510
nc40234034,2009-03-30 15:33:22.580,41.43566666666667,-123.38883333333334,38.14,2.94,NC.KBO..HHZ,P,-1.0,2009-03-30 15:33:39.780
nc40234034,2009-03-30 15:33:22.580,41.43566666666667,-123.38883333333334,38.14,2.94,NC.KCR..SHZ,P,1.0,2009-03-30 15:33:41.340
nc40234034,2009-03-30 15:33:22.580,41.43566666666667,-123.38883333333334,38.14,2.94,NC.KCS..SHZ,P,1.0,2009-03-30 15:33:39.460
nc40234034,2009-03-30 15:33:22.580,41.43566666666667,-123.38883333333334,38.14,2.94,NC.KCT..HHZ,P,-1.0,2009-03-30 15:33:43.100
nc40234034,2009-03-30 15:33:22.580,41.43566666666667,-123.38883333333334,38.14,2.94,NC.KFP..SHZ,P,-1.0,2009-03-30 15:33:51.460
nc40234034,2009-03-30 15:33:22.580,41.43566666666667,-123.38883333333334,38.14,2.94,NC.KHBB..HHZ,P,1.0,2009-03-30 15:33:37.690
nc40234034,2009-03-30 15:33:22.580,41.43566666666667,-123.38883333333334,38.14,2.94,NC.KHMB..HHZ,P,1.0,2009-03-30 15:33:35.380
nc40234034,2009-03-30 15:33:22.580,41.43566666666667,-123.38883333333334,38.14,2.94,NC.KJJ..SHZ,P,1.0,2009-03-30 15:33:45.260
nc40234034,2009-03-30 15:33:22.580,41.43566666666667,-123.38883333333334,38.14,2.94,NC.KKP..SHZ,P,1.0,2009-03-30 15:33:45.000
nc40234034,2009-03-30 15:33:22.580,41.43566666666667,-123.38883333333334,38.14,2.94,NC.KMPB..HHZ,P,-1.0,2009-03-30 15:33:42.500
nc40234034,2009-03-30 15:33:22.580,41.43566666666667,-123.38883333333334,38.14,2.94,NC.KMR..HHZ,P,1.0,2009-03-30 15:33:44.120
nc40234034,2009-03-30 15:33:22.580,41.43566666666667,-123.38883333333334,38.14,2.94,NC.KOM..SHZ,P,-1.0,2009-03-30 15:33:29.950
nc40234034,2009-03-30 15:33:22.580,41.43566666666667,-123.38883333333334,38.14,2.94,NC.KPP..SHZ,P,1.0,2009-03-30 15:33:42.090
nc40234034,2009-03-30 15:33:22.580,41.43566666666667,-123.38883333333334,38.14,2.94,NC.KRMB..HHZ,P,-1.0,2009-03-30 15:33:32.340
nc40234034,2009-03-30 15:33:22.580,41.43566666666667,-123.38883333333334,38.14,2.94,NC.KRP..HHZ,P,1.0,2009-03-30 15:33:34.330
nc40234034,2009-03-30 15:33:22.580,41.43566666666667,-123.38883333333334,38.14,2.94,NC.KSM..SHZ,P,1.0,2009-03-30 15:33:45.560
nc40234034,2009-03-30 15:33:22.580,41.43566666666667,-123.38883333333334,38.14,2.94,NC.KSXB..HHZ,P,-1.0,2009-03-30 15:33:33.930
nc40234034,2009-03-30 15:33:22.580,41.43566666666667,-123.38883333333334,38.14,2.94,NC.KTR..SHZ,P,1.0,2009-03-30 15:33:32.920
nc40234034,2009-03-30 15:33:22.580,41.43566666666667,-123.38883333333334,38.14,2.94,NC.LAM..SHZ,P,1.0,2009-03-30 15:33:34.540
nc40234034,2009-03-30 15:33:22.580,41.43566666666667,-123.38883333333334,38.14,2.94,NC.LAS..SHZ,P,,2009-03-30 15:33:47.540
nc40234034,2009-03-30 15:33:22.580,41.43566666666667,-123.38883333333334,38.14,2.94,NC.LBC..SHZ,P,1.0,2009-03-30 15:33:51.840
nc40234034,2009-03-30 15:33:22.580,41.43566666666667,-123.38883333333334,38.14,2.94,NC.LBF..SHZ,P,1.0,2009-03-30 15:33:42.090
nc40234034,2009-03-30 15:33:22.580,41.43566666666667,-123.38883333333334,38.14,2.94,NC.LBK..SHZ,P,-1.0,2009-03-30 15:33:35.440
nc40234034,2009-03-30 15:33:22.580,41.43566666666667,-123.38883333333334,38.14,2.94,NC.LBO..SHZ,P,-1.0,2009-03-30 15:33:38.780
nc40234034,2009-03-30 15:33:22.580,41.43566666666667,-123.38883333333334,38.14,2.94,NC.LBP..SHZ,P,-1.0,2009-03-30 15:33:43.350
nc40234034,2009-03-30 15:33:22.580,41.43566666666667,-123.38883333333334,38.14,2.94,NC.LCSB..SHZ,P,1.0,2009-03-30 15:33:36.550
nc40234034,2009-03-30 15:33:22.580,41.43566666666667,-123.38883333333334,38.14,2.94,NC.LDB..SHZ,P,-1.0,2009-03-30 15:33:49.290
nc40234034,2009-03-30 15:33:22.580,41.43566666666667,-123.38883333333334,38.14,2.94,NC.LGB..SHZ,P,1.0,2009-03-30 15:33:39.490
nc40234034,2009-03-30 15:33:22.580,41.43566666666667,-123.38883333333334,38.14,2.94,NC.LGM..SHZ,P,-1.0,2009-03-30 15:33:44.220
nc40234034,2009-03-30 15:33:22.580,41.43566666666667,-123.38883333333334,38.14,2.94,NC.LGP..SHZ,P,-1.0,2009-03-30 15:33:35.780
nc40234034,2009-03-30 15:33:22.580,41.43566666666667,-123.38883333333334,38.14,2.94,NC.LHE..SHZ,P,1.0,2009-03-30 15:33:39.460
nc40234034,2009-03-30 15:33:22.580,41.43566666666667,-123.38883333333334,38.14,2.94,NC.LMP..SHZ,P,-1.0,2009-03-30 15:33:39.930
nc40234034,2009-03-30 15:33:22.580,41.43566666666667,-123.38883333333334,38.14,2.94,NC.LSF..SHZ,P,1.0,2009-03-30 15:33:41.320
nc40234034,2009-03-30 15:33:22.580,41.43566666666667,-123.38883333333334,38.14,2.94,NC.LSR..SHZ,P,-1.0,2009-03-30 15:33:39.470
nc40234034,2009-03-30 15:33:22.580,41.43566666666667,-123.38883333333334,38.14,2.94,NC.LTI..SHZ,P,-1.0,2009-03-30 15:33:48.920
nc40234034,2009-03-30 15:33:22.580,41.43566666666667,-123.38883333333334,38.14,2.94,NC.LWH..SHZ,P,1.0,2009-03-30 15:33:45.920
nc40234034,2009-03-30 15:33:22.580,41.43566666666667,-123.38883333333334,38.14,2.94,UW.BBO..EHZ,P,-1.0,2009-03-30 15:33:49.290
nc40234034,2009-03-30 15:33:22.580,41.43566666666667,-123.38883333333334,38.14,2.94,UW.BUO..EHZ,P,1.0,2009-03-30 15:33:44.290
nc40234034,2009-03-30 15:33:22.580,41.43566666666667,-123.38883333333334,38.14,2.94,UW.HOG..EHZ,P,1.0,2009-03-30 15:33:47.390
nc40234034,2009-03-30 15:33:22.580,41.43566666666667,-123.38883333333334,38.14,2.94,UW.LAB..EHZ,P,1.0,2009-03-30 15:33:45.490
nc40234034,2009-03-30 15:33:22.580,41.43566666666667,-123.38883333333334,38.14,2.94,UW.VSP..EHZ,P,1.0,2009-03-30 15:33:46.820
nc71203430,2009-04-04 00:31:31.610,40.31516666666667,-124.4435,9.59,2.0,NC.KBS..SHZ,P,1.0,2009-04-04 00:31:46.980
nc71203430,2009-04-04 00:31:31.610,40.31516666666667,-124.4435,9.59,2.0,NC.KCPB..HHZ,P,,2009-04-04 00:31:49.280
nc71203430,2009-04-04 00:31:31.610,40.31516666666667,-124.4435,9.59,2.0,NC.KCR..SHZ,P,1.0,2009-04-04 00:31:42.160
nc71203430,2009-04-04 00:31:31.610,40.31516666666667,-124.4435,9.59,2.0,NC.KCT..HHZ,P,1.0,2009-04-04 00:31:36.300
nc71203430,2009-04-04 00:31:31.610,40.31516666666667,-124.4435,9.59,2.0,NC.KJJ..SHZ,P,-1.0,2009-04-04 00:31:35.060
nc71203430,2009-04-04 00:31:31.610,40.31516666666667,-124.4435,9.59,2.0,NC.KKP..SHZ,P,1.0,2009-04-04 00:31:47.030
nc71203430,2009-04-04 00:31:31.610,40.31516666666667,-124.4435,9.59,2.0,NC.KMPB..HHZ,P,1.0,2009-04-04 00:31:37.680
nc71203430,2009-04-04 00:31:31.610,40.31516666666667,-124.4435,9.59,2.0,NC.KSM..SHZ,P,-1.0,2009-04-04 00:31:37.070
nc71203430,2009-04-04 00:31:31.610,40.31516666666667,-124.4435,9.59,2.0,NC.LGP..SHZ,P,-1.0,2009-04-04 00:31:54.890
nc40234475,2009-04-07 22:17:24.490,40.7505,-123.30816666666666,24.96,2.94,BK.GASB..HHZ,P,-1.0,2009-04-07 22:17:43.750
nc40234475,2009-04-07 22:17:24.490,40.7505,-123.30816666666666,24.96,2.94,BK.HATC..HHZ,P,1.0,2009-04-07 22:17:48.460
nc40234475,2009-04-07 22:17:24.490,40.7505,-123.30816666666666,24.96,2.94,BK.JCC..HHZ,P,1.0,2009-04-07 22:17:34.920
nc40234475,2009-04-07 22:17:24.490,40.7505,-123.30816666666666,24.96,2.94,BK.WDC..HHZ,P,1.0,2009-04-07 22:17:35.890
nc40234475,2009-04-07 22:17:24.490,40.7505,-123.30816666666666,24.96,2.94,NC.GBB..EHZ,P,1.0,2009-04-07 22:17:45.380
nc40234475,2009-04-07 22:17:24.490,40.7505,-123.30816666666666,24.96,2.94,NC.GHM..EHZ,P,,2009-04-07 22:17:46.850
nc40234475,2009-04-07 22:17:24.490,40.7505,-123.30816666666666,24.96,2.94,NC.GRO..EHZ,P,,2009-04-07 22:17:41.960
nc40234475,2009-04-07 22:17:24.490,40.7505,-123.30816666666666,24.96,2.94,NC.GTC..SHZ,P,-1.0,2009-04-07 22:17:46.350
nc40234475,2009-04-07 22:17:24.490,40.7505,-123.30816666666666,24.96,2.94,NC.KBO..HHZ,P,,2009-04-07 22:17:50.460
nc40234475,2009-04-07 22:17:24.490,40.7505,-123.30816666666666,24.96,2.94,NC.KCPB..HHZ,P,1.0,2009-04-07 22:17:42.640
nc40234475,2009-04-07 22:17:24.490,40.7505,-123.30816666666666,24.96,2.94,NC.KCR..SHZ,P,1.0,2009-04-07 22:17:34.770
nc40234475,2009-04-07 22:17:24.490,40.7505,-123.30816666666666,24.96,2.94,NC.KCS..SHZ,P,1.0,2009-04-07 22:17:31.530
nc40234475,2009-04-07 22:17:24.490,40.7505,-123.30816666666666,24.96,2.94,NC.KCT..HHZ,P,-1.0,2009-04-07 22:17:39.210
nc40234475,2009-04-07 22:17:24.490,40.7505,-123.30816666666666,24.96,2.94,NC.KFP..SHZ,P,1.0,2009-04-07 22:17:42.820
nc40234475,2009-04-07 22:17:24.490,40.7505,-123.30816666666666,24.96,2.94,NC.KHBB..HHZ,P,-1.0,2009-04-07 22:17:29.650
nc40234475,2009-04-07 22:17:24.490,40.7505,-123.30816666666666,24.96,2.94,NC.KHMB..HHZ,P,1.0,2009-04-07 22:17:32.250
nc40234475,2009-04-07 22:17:24.490,40.7505,-123.30816666666666,24.96,2.94,NC.KIP..SHZ,P,-1.0,2009-04-07 22:17:40.900
nc40234475,2009-04-07 22:17:24.490,40.7505,-123.30816666666666,24.96,2.94,NC.KJJ..SHZ,P,1.0,2009-04-07 22:17:39.840
nc40234475,2009-04-07 22:17:24.490,40.7505,-123.30816666666666,24.96,2.94,NC.KKP..SHZ,P,-1.0,2009-04-07 22:17:36.740
nc40234475,2009-04-07 22:17:24.490,40.7505,-123.30816666666666,24.96,2.94,NC.KMPB..HHZ,P,1.0,2009-04-07 22:17:37.220
nc40234475,2009-04-07 22:17:24.490,40.7505,-123.30816666666666,24.96,2.94,NC.KMR..HHZ,P,1.0,2009-04-07 22:17:36.350
nc40234475,2009-04-07 22:17:24.490,40.7505,-123.30816666666666,24.96,2.94,NC.KOM..SHZ,P,1.0,2009-04-07 22:17:34.770
nc40234475,2009-04-07 22:17:24.490,40.7505,-123.30816666666666,24.96,2.94,NC.KPP..SHZ,P,-1.0,2009-04-07 22:17:33.330
nc40234475,2009-04-07 22:17:24.490,40.7505,-123.30816666666666,24.96,2.94,NC.KRK..SHZ,P,-1.0,2009-04-07 22:17:44.960
nc40234475,2009-04-07 22:17:24.490,40.7505,-123.30816666666666,24.96,2.94,NC.KRMB..HHZ,P,1.0,2009-04-07 22:17:39.860
nc40234475,2009-04-07 22:17:24.490,40.7505,-123.30816666666666,24.96,2.94,NC.KRP..HHZ,P,1.0,2009-04-07 22:17:37.280
nc40234475,2009-04-07 22:17:24.490,40.7505,-123.30816666666666,24.96,2.94,NC.KSM..SHZ,P,1.0,2009-04-07 22:17:39.400
nc40234475,2009-04-07 22:17:24.490,40.7505,-123.30816666666666,24.96,2.94,NC.KSXB..HHZ,P,1.0,2009-04-07 22:17:44.250
nc40234475,2009-04-07 22:17:24.490,40.7505,-123.30816666666666,24.96,2.94,NC.KTR..SHZ,P,1.0,2009-04-07 22:17:44.250
nc40234475,2009-04-07 22:17:24.490,40.7505,-123.30816666666666,24.96,2.94,NC.LAM..SHZ,P,1.0,2009-04-07 22:17:42.100
nc40234475,2009-04-07 22:17:24.490,40.7505,-123.30816666666666,24.96,2.94,NC.LAS..SHZ,P,,2009-04-07 22:17:50.650
nc40234475,2009-04-07 22:17:24.490,40.7505,-123.30816666666666,24.96,2.94,NC.LBC..SHZ,P,1.0,2009-04-07 22:17:48.880
nc40234475,2009-04-07 22:17:24.490,40.7505,-123.30816666666666,24.96,2.94,NC.LBF..SHZ,P,1.0,2009-04-07 22:17:46.170
nc40234475,2009-04-07 22:17:24.490,40.7505,-123.30816666666666,24.96,2.94,NC.LBK..SHZ,P,1.0,2009-04-07 22:17:35.370
nc40234475,2009-04-07 22:17:24.490,40.7505,-123.30816666666666,24.96,2.94,NC.LBO..SHZ,P,1.0,2009-04-07 22:17:44.480
nc40234475,2009-04-07 22:17:24.490,40.7505,-123.30816666666666,24.96,2.94,NC.LBP..SHZ,P,1.0,2009-04-07 22:17:34.910
nc40234475,2009-04-07 22:17:24.490,40.7505,-123.30816666666666,24.96,2.94,NC.LCM..SHZ,P,1.0,2009-04-07 22:17:49.150
nc40234475,2009-04-07 22:17:24.490,40.7505,-123.30816666666666,24.96,2.94,NC.LDB..SHZ,P,-1.0,2009-04-07 22:17:44.750
nc40234475,2009-04-07 22:17:24.490,40.7505,-123.30816666666666,24.96,2.94,NC.LDH..HHZ,P,1.0,2009-04-07 22:17:47.140
nc40234475,2009-04-07 22:17:24.490,40.7505,-123.30816666666666,24.96,2.94,NC.LEL..SHZ,P,-1.0,2009-04-07 22:17:47.380
nc40234475,2009-04-07 22:17:24.490,40.7505,-123.30816666666666,24.96,2.94,NC.LGB..SHZ,P,-1.0,2009-04-07 22:17:42.960
nc40234475,2009-04-07 22:17:24.490,40.7505,-123.30816666666666,24.96,2.94,NC.LGM..SHZ,P,1.0,2009-04-07 22:17:49.200
nc40234475,2009-04-07 22:17:24.490,40.7505,-123.30816666666666,24.96,2.94,NC.LGP..SHZ,P,1.0,2009-04-07 22:17:32.710
nc40234475,2009-04-07 22:17:24.490,40.7505,-123.30816666666666,24.96,2.94,NC.LHE..SHZ,P,1.0,2009-04-07 22:17:45.540
nc40234475,2009-04-07 22:17:24.490,40.7505,-123.30816666666666,24.96,2.94,NC.LME..SHZ,P,-1.0,2009-04-07 22:17:47.320
nc40234475,2009-04-07 22:17:24.490,40.7505,-123.30816666666666,24.96,2.94,NC.LMH..SHZ,P,,2009-04-07 22:17:50.490
nc40234475,2009-04-07 22:17:24.490,40.7505,-123.30816666666666,24.96,2.94,NC.LMP..SHZ,P,-1.0,2009-04-07 22:17:45.060
nc40234475,2009-04-07 22:17:24.490,40.7505,-123.30816666666666,24.96,2.94,NC.LPG..SHZ,P,1.0,2009-04-07 22:17:38.610
nc40234475,2009-04-07 22:17:24.490,40.7505,-123.30816666666666,24.96,2.94,NC.LRB..SHZ,P,-1.0,2009-04-07 22:17:40.170
nc40234475,2009-04-07 22:17:24.490,40.7505,-123.30816666666666,24.96,2.94,NC.LRD..SHZ,P,1.0,2009-04-07 22:17:48.570
nc40234475,2009-04-07 22:17:24.490,40.7505,-123.30816666666666,24.96,2.94,NC.LRR..SHZ,P,-1.0,2009-04-07 22:17:46.300
nc40234475,2009-04-07 22:17:24.490,40.7505,-123.30816666666666,24.96,2.94,NC.LSF..SHZ,P,1.0,2009-04-07 22:17:35.950
nc40234475,2009-04-07 22:17:24.490,40.7505,-123.30816666666666,24.96,2.94,NC.LSH..SHZ,P,1.0,2009-04-07 22:17:41.310
nc40234475,2009-04-07 22:17:24.490,40.7505,-123.30816666666666,24.96,2.94,NC.LSI..SHZ,P,-1.0,2009-04-07 22:17:48.800
