event_id,etime,elat,elon,edep,emag,station_id,phase_type,phase_polarity,phase_time
nc40238256,2009-06-16 09:14:11.050,41.3835,-123.479,14.98,2.39,NC.LBO..SHZ,P,1.0,2009-06-16 09:14:28.200
nc40238256,2009-06-16 09:14:11.050,41.3835,-123.479,14.98,2.39,NC.LCSB..SHZ,P,-1.0,2009-06-16 09:14:26.390
nc40238256,2009-06-16 09:14:11.050,41.3835,-123.479,14.98,2.39,NC.LGB..SHZ,P,1.0,2009-06-16 09:14:28.930
nc40238256,2009-06-16 09:14:11.050,41.3835,-123.479,14.98,2.39,NC.LGM..SHZ,P,1.0,2009-06-16 09:14:33.830
nc40238256,2009-06-16 09:14:11.050,41.3835,-123.479,14.98,2.39,NC.LMP..SHZ,P,1.0,2009-06-16 09:14:29.450
nc40238256,2009-06-16 09:14:11.050,41.3835,-123.479,14.98,2.39,NC.LSF..SHZ,P,,2009-06-16 09:14:29.340
nc40238256,2009-06-16 09:14:11.050,41.3835,-123.479,14.98,2.39,NC.LSH..SHZ,P,,2009-06-16 09:14:32.820
nc40238256,2009-06-16 09:14:11.050,41.3835,-123.479,14.98,2.39,NC.LSR..SHZ,P,-1.0,2009-06-16 09:14:28.550
nc40238256,2009-06-16 09:14:11.050,41.3835,-123.479,14.98,2.39,NC.LWH..SHZ,P,-1.0,2009-06-16 09:14:34.410
nc40238305,2009-06-17 13:11:33.960,40.74666666666667,-124.19233333333334,15.42,2.22,BK.JCC..HHZ,P,1.0,2009-06-17 13:11:38.220
nc40238305,2009-06-17 13:11:33.960,40.74666666666667,-124.19233333333334,15.42,2.22,NC.KCR..SHZ,P,-1.0,2009-06-17 13:11:43.130
nc40238305,2009-06-17 13:11:33.960,40.74666666666667,-124.19233333333334,15.42,2.22,NC.KCS..SHZ,P,-1.0,2009-06-17 13:11:45.380
nc40238305,2009-06-17 13:11:33.960,40.74666666666667,-124.19233333333334,15.42,2.22,NC.KCT..HHZ,P,1.0,2009-06-17 13:11:40.870
nc40238305,2009-06-17 13:11:33.960,40.74666666666667,-124.19233333333334,15.42,2.22,NC.KHBB..HHZ,P,1.0,2009-06-17 13:11:47.670
nc40238305,2009-06-17 13:11:33.960,40.74666666666667,-124.19233333333334,15.42,2.22,NC.KHMB..HHZ,P,1.0,2009-06-17 13:11:42.290
nc40238305,2009-06-17 13:11:33.960,40.74666666666667,-124.19233333333334,15.42,2.22,NC.KJJ..SHZ,P,,2009-06-17 13:11:44.050
nc40238305,2009-06-17 13:11:33.960,40.74666666666667,-124.19233333333334,15.42,2.22,NC.KMPB..HHZ,P,-1.0,2009-06-17 13:11:41.530
nc40238305,2009-06-17 13:11:33.960,40.74666666666667,-124.19233333333334,15.42,2.22,NC.KMR..HHZ,P,-1.0,2009-06-17 13:11:46.520
nc40238305,2009-06-17 13:11:33.960,40.74666666666667,-124.19233333333334,15.42,2.22,NC.KOM..SHZ,P,1.0,2009-06-17 13:11:48.080
nc40238305,2009-06-17 13:11:33.960,40.74666666666667,-124.19233333333334,15.42,2.22,NC.KPP..SHZ,P,-1.0,2009-06-17 13:11:48.740
nc40238305,2009-06-17 13:11:33.960,40.74666666666667,-124.19233333333334,15.42,2.22,NC.KRMB..HHZ,P,-1.0,2009-06-17 13:11:48.200
nc40238305,2009-06-17 13:11:33.960,40.74666666666667,-124.19233333333334,15.42,2.22,NC.KRP..HHZ,P,1.0,2009-06-17 13:11:42.920
nc40238305,2009-06-17 13:11:33.960,40.74666666666667,-124.19233333333334,15.42,2.22,NC.KSM..SHZ,P,,2009-06-17 13:11:44.900
nc40238305,2009-06-17 13:11:33.960,40.74666666666667,-124.19233333333334,15.42,2.22,NC.LGB..SHZ,P,-1.0,2009-06-17 13:12:01.550
nc40238541,2009-06-21 11:47:14.140,40.741166666666665,-123.05016666666667,-1.01,2.51,BK.WDC..HHZ,P,1.0,2009-06-21 11:47:23.920
nc40238541,2009-06-21 11:47:14.140,40.741166666666665,-123.05016666666667,-1.01,2.51,BK.YBH..HHZ,P,,2009-06-21 11:47:34.490
nc40238541,2009-06-21 11:47:14.140,40.741166666666665,-123.05016666666667,-1.01,2.51,NC.GRO..EHZ,P,,2009-06-21 11:47:32.200
nc40238541,2009-06-21 11:47:14.140,40.741166666666665,-123.05016666666667,-1.01,2.51,NC.GVV..EHZ,P,-1.0,2009-06-21 11:47:34.760
nc40238541,2009-06-21 11:47:14.140,40.741166666666665,-123.05016666666667,-1.01,2.51,NC.KCR..SHZ,P,-1.0,2009-06-21 11:47:29.660
nc40238541,2009-06-21 11:47:14.140,40.741166666666665,-123.05016666666667,-1.01,2.51,NC.KCS..SHZ,P,-1.0,2009-06-21 11:47:23.450
nc40238541,2009-06-21 11:47:14.140,40.741166666666665,-123.05016666666667,-1.01,2.51,NC.KFP..SHZ,P,,2009-06-21 11:47:38.060
nc40238541,2009-06-21 11:47:14.140,40.741166666666665,-123.05016666666667,-1.01,2.51,NC.KHBB..HHZ,P,-1.0,2009-06-21 11:47:18.750
nc40238541,2009-06-21 11:47:14.140,40.741166666666665,-123.05016666666667,-1.01,2.51,NC.KHMB..HHZ,P,,2009-06-21 11:47:25.680
nc40238541,2009-06-21 11:47:14.140,40.741166666666665,-123.05016666666667,-1.01,2.51,NC.KMR..HHZ,P,,2009-06-21 11:47:30.690
nc40238541,2009-06-21 11:47:14.140,40.741166666666665,-123.05016666666667,-1.01,2.51,NC.KOM..SHZ,P,1.0,2009-06-21 11:47:27.270
nc40238541,2009-06-21 11:47:14.140,40.741166666666665,-123.05016666666667,-1.01,2.51,NC.KPP..SHZ,P,,2009-06-21 11:47:24.480
nc40238541,2009-06-21 11:47:14.140,40.741166666666665,-123.05016666666667,-1.01,2.51,NC.KRK..SHZ,P,,2009-06-21 11:47:39.120
nc40238541,2009-06-21 11:47:14.140,40.741166666666665,-123.05016666666667,-1.01,2.51,NC.KRMB..HHZ,P,-1.0,2009-06-21 11:47:34.900
nc40238541,2009-06-21 11:47:14.140,40.741166666666665,-123.05016666666667,-1.01,2.51,NC.KRP..HHZ,P,,2009-06-21 11:47:33.520
nc40238541,2009-06-21 11:47:14.140,40.741166666666665,-123.05016666666667,-1.01,2.51,NC.KTR..SHZ,P,1.0,2009-06-21 11:47:37.560
nc40238541,2009-06-21 11:47:14.140,40.741166666666665,-123.05016666666667,-1.01,2.51,NC.LAM..SHZ,P,,2009-06-21 11:47:32.710
nc40238541,2009-06-21 11:47:14.140,40.741166666666665,-123.05016666666667,-1.01,2.51,NC.LBF..SHZ,P,,2009-06-21 11:47:35.740
nc40238541,2009-06-21 11:47:14.140,40.741166666666665,-123.05016666666667,-1.01,2.51,NC.LBK..SHZ,P,-1.0,2009-06-21 11:47:24.660
nc40238541,2009-06-21 11:47:14.140,40.741166666666665,-123.05016666666667,-1.01,2.51,NC.LBO..SHZ,P,1.0,2009-06-21 11:47:33.900
nc40238541,2009-06-21 11:47:14.140,40.741166666666665,-123.05016666666667,-1.01,2.51,NC.LBP..SHZ,P,1.0,2009-06-21 11:47:23.950
nc40238541,2009-06-21 11:47:14.140,40.741166666666665,-123.05016666666667,-1.01,2.51,NC.LCSB..SHZ,P,,2009-06-21 11:47:31.230
nc40238541,2009-06-21 11:47:14.140,40.741166666666665,-123.05016666666667,-1.01,2.51,NC.LDB..SHZ,P,-1.0,2009-06-21 11:47:34.260
nc40238541,2009-06-21 11:47:14.140,40.741166666666665,-123.05016666666667,-1.01,2.51,NC.LEL..SHZ,P,1.0,2009-06-21 11:47:37.920
nc40238541,2009-06-21 11:47:14.140,40.741166666666665,-123.05016666666667,-1.01,2.51,NC.LGB..SHZ,P,-1.0,2009-06-21 11:47:32.470
nc40238541,2009-06-21 11:47:14.140,40.741166666666665,-123.05016666666667,-1.01,2.51,NC.LMP..SHZ,P,-1.0,2009-06-21 11:47:34.710
nc40238541,2009-06-21 11:47:14.140,40.741166666666665,-123.05016666666667,-1.01,2.51,NC.LRD..SHZ,P,1.0,2009-06-21 11:47:38.660
nc40238541,2009-06-21 11:47:14.140,40.741166666666665,-123.05016666666667,-1.01,2.51,NC.LRR..SHZ,P,-1.0,2009-06-21 11:47:36.430
nc40238541,2009-06-21 11:47:14.140,40.741166666666665,-123.05016666666667,-1.01,2.51,NC.LSF..SHZ,P,-1.0,2009-06-21 11:47:23.990
nc40238541,2009-06-21 11:47:14.140,40.741166666666665,-123.05016666666667,-1.01,2.51,NC.LSH..SHZ,P,-1.0,2009-06-21 11:47:29.980
nc40238541,2009-06-21 11:47:14.140,40.741166666666665,-123.05016666666667,-1.01,2.51,NC.LSR..SHZ,P,1.0,2009-06-21 11:47:29.220
nc40238541,2009-06-21 11:47:14.140,40.741166666666665,-123.05016666666667,-1.01,2.51,NC.LTC..SHZ,P,,2009-06-21 11:47:32.710
nc40238541,2009-06-21 11:47:14.140,40.741166666666665,-123.05016666666667,-1.01,2.51,NC.LWH..SHZ,P,-1.0,2009-06-21 11:47:31.370
nc40238541,2009-06-21 11:47:14.140,40.741166666666665,-123.05016666666667,-1.01,2.51,WR.MGL..EHZ,P,-1.0,2009-06-21 11:47:41.680
nc71238611,2009-06-25 14:59:09.260,40.63516666666666,-124.50733333333334,4.22,1.95,NC.KCR..SHZ,P,-1.0,2009-06-25 14:59:21.530
nc71238611,2009-06-25 14:59:09.260,40.63516666666666,-124.50733333333334,4.22,1.95,NC.KCT..HHZ,P,,2009-06-25 14:59:15.810
nc71238611,2009-06-25 14:59:09.260,40.63516666666666,-124.50733333333334,4.22,1.95,NC.KJJ..SHZ,P,-1.0,2009-06-25 14:59:18.570
nc71238611,2009-06-25 14:59:09.260,40.63516666666666,-124.50733333333334,4.22,1.95,NC.KMPB..HHZ,P,,2009-06-25 14:59:18.280
nc71238611,2009-06-25 14:59:09.260,40.63516666666666,-124.50733333333334,4.22,1.95,NC.KOM..SHZ,P,1.0,2009-06-25 14:59:28.400
nc71238611,2009-06-25 14:59:09.260,40.63516666666666,-124.50733333333334,4.22,1.95,NC.KSM..SHZ,P,-1.0,2009-06-25 14:59:20.030
nc71240486,2009-06-28 21:11:25.310,41.062666666666665,-123.21133333333333,36.98,2.24,BK.JCC..HHZ,P,-1.0,2009-06-28 21:11:38.470
nc71240486,2009-06-28 21:11:25.310,41.062666666666665,-123.21133333333333,36.98,2.24,BK.WDC..HHZ,P,1.0,2009-06-28 21:11:38.990
nc71240486,2009-06-28 21:11:25.310,41.062666666666665,-123.21133333333333,36.98,2.24,NC.KCS..SHZ,P,,2009-06-28 21:11:37.370
nc71240486,2009-06-28 21:11:25.310,41.062666666666665,-123.21133333333333,36.98,2.24,NC.KHBB..HHZ,P,1.0,2009-06-28 21:11:34.810
nc71240486,2009-06-28 21:11:25.310,41.062666666666665,-123.21133333333333,36.98,2.24,NC.KHMB..HHZ,P,1.0,2009-06-28 21:11:35.310
nc71240486,2009-06-28 21:11:25.310,41.062666666666665,-123.21133333333333,36.98,2.24,NC.KOM..SHZ,P,1.0,2009-06-28 21:11:33.340
nc71240486,2009-06-28 21:11:25.310,41.062666666666665,-123.21133333333333,36.98,2.24,NC.KRMB..HHZ,P,1.0,2009-06-28 21:11:38.880
nc71240486,2009-06-28 21:11:25.310,41.062666666666665,-123.21133333333333,36.98,2.24,NC.KRP..HHZ,P,-1.0,2009-06-28 21:11:37.950
nc71240486,2009-06-28 21:11:25.310,41.062666666666665,-123.21133333333333,36.98,2.24,NC.KSXB..HHZ,P,1.0,2009-06-28 21:11:42.370
nc71240486,2009-06-28 21:11:25.310,41.062666666666665,-123.21133333333333,36.98,2.24,NC.KTR..SHZ,P,,2009-06-28 21:11:41.500
nc71240486,2009-06-28 21:11:25.310,41.062666666666665,-123.21133333333333,36.98,2.24,NC.LBF..SHZ,P,1.0,2009-06-28 21:11:45.030
nc71240486,2009-06-28 21:11:25.310,41.062666666666665,-123.21133333333333,36.98,2.24,NC.LBK..SHZ,P,-1.0,2009-06-28 21:11:34.690
nc71240486,2009-06-28 21:11:25.310,41.062666666666665,-123.21133333333333,36.98,2.24,NC.LBP..SHZ,P,-1.0,2009-06-28 21:11:40.690
nc71240486,2009-06-28 21:11:25.310,41.062666666666665,-123.21133333333333,36.98,2.24,NC.LGB..SHZ,P,-1.0,2009-06-28 21:11:41.270
nc71240486,2009-06-28 21:11:25.310,41.062666666666665,-123.21133333333333,36.98,2.24,NC.LGM..SHZ,P,,2009-06-28 21:11:47.330
nc71240486,2009-06-28 21:11:25.310,41.062666666666665,-123.21133333333333,36.98,2.24,NC.LMP..SHZ,P,-1.0,2009-06-28 21:11:42.780
nc71240486,2009-06-28 21:11:25.310,41.062666666666665,-123.21133333333333,36.98,2.24,NC.LSF..SHZ,P,1.0,2009-06-28 21:11:38.490
nc71240486,2009-06-28 21:11:25.310,41.062666666666665,-123.21133333333333,36.98,2.24,NC.LSH..SHZ,P,-1.0,2009-06-28 21:11:42.050
nc71240486,2009-06-28 21:11:25.310,41.062666666666665,-123.21133333333333,36.98,2.24,NC.LSR..SHZ,P,1.0,2009-06-28 21:11:39.340
nc71240486,2009-06-28 21:11:25.310,41.062666666666665,-123.21133333333333,36.98,2.24,NC.LWH..SHZ,P,-1.0,2009-06-28 21:11:44.060
nc71242741,2009-07-03 08:26:15.550,39.88216666666667,-123.22866666666667,9.01,1.49,BK.GASB..HHZ,P,1.0,2009-07-03 08:26:24.730
nc71242741,2009-07-03 08:26:15.550,39.88216666666667,-123.22866666666667,9.01,1.49,NC.GHM..EHZ,P,-1.0,2009-07-03 08:26:24.790
nc71242741,2009-07-03 08:26:15.550,39.88216666666667,-123.22866666666667,9.01,1.49,NC.GRO..EHZ,P,1.0,2009-07-03 08:26:24.420
nc71242741,2009-07-03 08:26:15.550,39.88216666666667,-123.22866666666667,9.01,1.49,NC.GTC..SHZ,P,-1.0,2009-07-03 08:26:26.600
nc71242741,2009-07-03 08:26:15.550,39.88216666666667,-123.22866666666667,9.01,1.49,NC.GVV..EHZ,P,-1.0,2009-07-03 08:26:24.480
nc71242741,2009-07-03 08:26:15.550,39.88216666666667,-123.22866666666667,9.01,1.49,NC.KBN..SHZ,P,1.0,2009-07-03 08:26:17.760
nc71242741,2009-07-03 08:26:15.550,39.88216666666667,-123.22866666666667,9.01,1.49,NC.KFP..SHZ,P,-1.0,2009-07-03 08:26:21.400
nc71242741,2009-07-03 08:26:15.550,39.88216666666667,-123.22866666666667,9.01,1.49,NC.KIP..SHZ,P,1.0,2009-07-03 08:26:20.020
nc71242741,2009-07-03 08:26:15.550,39.88216666666667,-123.22866666666667,9.01,1.49,NC.KKP..SHZ,P,,2009-07-03 08:26:21.320
nc71242741,2009-07-03 08:26:15.550,39.88216666666667,-123.22866666666667,9.01,1.49,NC.KPP..SHZ,P,1.0,2009-07-03 08:26:25.370
nc71242741,2009-07-03 08:26:15.550,39.88216666666667,-123.22866666666667,9.01,1.49,NC.KRK..SHZ,P,-1.0,2009-07-03 08:26:22.240
nc71242741,2009-07-03 08:26:15.550,39.88216666666667,-123.22866666666667,9.01,1.49,NC.KSM..SHZ,P,,2009-07-03 08:26:30.740
nc71242741,2009-07-03 08:26:15.550,39.88216666666667,-123.22866666666667,9.01,1.49,NC.LBP..SHZ,P,,2009-07-03 08:26:26.140
nc71242741,2009-07-03 08:26:15.550,39.88216666666667,-123.22866666666667,9.01,1.49,NC.LRB..SHZ,P,1.0,2009-07-03 08:26:27.820
nc71242741,2009-07-03 08:26:15.550,39.88216666666667,-123.22866666666667,9.01,1.49,NC.LVR..SHZ,P,1.0,2009-07-03 08:26:24.780
nc71245436,2009-07-08 11:05:59.020,40.3325,-124.39033333333333,2.53,1.91,BK.JCC..HHZ,P,,2009-07-08 11:06:09.850
nc71245436,2009-07-08 11:05:59.020,40.3325,-124.39033333333333,2.53,1.91,NC.KCR..SHZ,P,1.0,2009-07-08 11:06:09.280
nc71245436,2009-07-08 11:05:59.020,40.3325,-124.39033333333333,2.53,1.91,NC.KCT..HHZ,P,1.0,2009-07-08 11:06:03.000
nc71245436,2009-07-08 11:05:59.020,40.3325,-124.39033333333333,2.53,1.91,NC.KIP..SHZ,P,,2009-07-08 11:06:15.660
nc71245436,2009-07-08 11:05:59.020,40.3325,-124.39033333333333,2.53,1.91,NC.KJJ..SHZ,P,-1.0,2009-07-08 11:06:01.830
nc71245436,2009-07-08 11:05:59.020,40.3325,-124.39033333333333,2.53,1.91,NC.KMPB..HHZ,P,1.0,2009-07-08 11:06:04.810
nc71245436,2009-07-08 11:05:59.020,40.3325,-124.39033333333333,2.53,1.91,NC.KMR..HHZ,P,1.0,2009-07-08 11:06:11.420
nc71245436,2009-07-08 11:05:59.020,40.3325,-124.39033333333333,2.53,1.91,NC.KSM..SHZ,P,-1.0,2009-07-08 11:06:04.120
nc71246061,2009-07-09 11:08:20.910,41.272666666666666,-124.38783333333333,11.94,2.55,BK.GASB..HHZ,P,,2009-07-09 11:08:54.750
nc71246061,2009-07-09 11:08:20.910,41.272666666666666,-124.38783333333333,11.94,2.55,BK.HOPS..HHZ,P,-1.0,2009-07-09 11:09:00.530
nc71246061,2009-07-09 11:08:20.910,41.272666666666666,-124.38783333333333,11.94,2.55,BK.HUMO..HHZ,P,-1.0,2009-07-09 11:08:48.750
nc71246061,2009-07-09 11:08:20.910,41.272666666666666,-124.38783333333333,11.94,2.55,BK.JCC..HHZ,P,1.0,2009-07-09 11:08:31.860
nc71246061,2009-07-09 11:08:20.910,41.272666666666666,-124.38783333333333,11.94,2.55,BK.WDC..HHZ,P,1.0,2009-07-09 11:08:46.860
nc71246061,2009-07-09 11:08:20.910,41.272666666666666,-124.38783333333333,11.94,2.55,BK.YBH..BHZ,P,-1.0,2009-07-09 11:08:44.360
nc71246061,2009-07-09 11:08:20.910,41.272666666666666,-124.38783333333333,11.94,2.55,NC.GBB..EHZ,P,1.0,2009-07-09 11:08:57.190
nc71246061,2009-07-09 11:08:20.910,41.272666666666666,-124.38783333333333,11.94,2.55,NC.GCK..EHZ,P,-1.0,2009-07-09 11:08:58.990
nc71246061,2009-07-09 11:08:20.910,41.272666666666666,-124.38783333333333,11.94,2.55,NC.GFC..EHZ,P,,2009-07-09 11:09:01.700
nc71246061,2009-07-09 11:08:20.910,41.272666666666666,-124.38783333333333,11.94,2.55,NC.GHG..EHZ,P,1.0,2009-07-09 11:09:00.030
nc71246061,2009-07-09 11:08:20.910,41.272666666666666,-124.38783333333333,11.94,2.55,NC.GHL..EHZ,P,1.0,2009-07-09 11:09:00.090
nc71246061,2009-07-09 11:08:20.910,41.272666666666666,-124.38783333333333,11.94,2.55,NC.GHM..EHZ,P,1.0,2009-07-09 11:08:55.530
nc71246061,2009-07-09 11:08:20.910,41.272666666666666,-124.38783333333333,11.94,2.55,NC.GHO..EHZ,P,-1.0,2009-07-09 11:08:57.430
nc71246061,2009-07-09 11:08:20.910,41.272666666666666,-124.38783333333333,11.94,2.55,NC.GRO..EHZ,P,,2009-07-09 11:08:52.790
nc71246061,2009-07-09 11:08:20.910,41.272666666666666,-124.38783333333333,11.94,2.55,NC.GSN..EHZ,P,1.0,2009-07-09 11:09:00.650
nc71246061,2009-07-09 11:08:20.910,41.272666666666666,-124.38783333333333,11.94,2.55,NC.GTC..SHZ,P,,2009-07-09 11:08:52.360
nc71246061,2009-07-09 11:08:20.910,41.272666666666666,-124.38783333333333,11.94,2.55,NC.GVV..EHZ,P,,2009-07-09 11:08:54.280
nc71246061,2009-07-09 11:08:20.910,41.272666666666666,-124.38783333333333,11.94,2.55,NC.KBN..SHZ,P,,2009-07-09 11:08:49.800
nc71246061,2009-07-09 11:08:20.910,41.272666666666666,-124.38783333333333,11.94,2.55,NC.KBO..HHZ,P,-1.0,2009-07-09 11:08:37.840
nc71246061,2009-07-09 11:08:20.910,41.272666666666666,-124.38783333333333,11.94,2.55,NC.KCR..SHZ,P,1.0,2009-07-09 11:08:38.190
nc71246061,2009-07-09 11:08:20.910,41.272666666666666,-124.38783333333333,11.94,2.55,NC.KCS..SHZ,P,1.0,2009-07-09 11:08:38.880
nc71246061,2009-07-09 11:08:20.910,41.272666666666666,-124.38783333333333,11.94,2.55,NC.KCT..HHZ,P,-1.0,2009-07-09 11:08:36.120
nc71246061,2009-07-09 11:08:20.910,41.272666666666666,-124.38783333333333,11.94,2.55,NC.KEB..HHZ,P,-1.0,2009-07-09 11:08:46.860
nc71246061,2009-07-09 11:08:20.910,41.272666666666666,-124.38783333333333,11.94,2.55,NC.KFP..SHZ,P,-1.0,2009-07-09 11:08:50.140
nc71246061,2009-07-09 11:08:20.910,41.272666666666666,-124.38783333333333,11.94,2.55,NC.KHBB..HHZ,P,1.0,2009-07-09 11:08:39.500
nc71246061,2009-07-09 11:08:20.910,41.272666666666666,-124.38783333333333,11.94,2.55,NC.KHMB..HHZ,P,1.0,2009-07-09 11:08:33.660
nc71246061,2009-07-09 11:08:20.910,41.272666666666666,-124.38783333333333,11.94,2.55,NC.KIP..SHZ,P,1.0,2009-07-09 11:08:48.080
nc71246061,2009-07-09 11:08:20.910,41.272666666666666,-124.38783333333333,11.94,2.55,NC.KJJ..SHZ,P,-1.0,2009-07-09 11:08:39.060
nc71246061,2009-07-09 11:08:20.910,41.272666666666666,-124.38783333333333,11.94,2.55,NC.KMPB..HHZ,P,,2009-07-09 11:08:35.440
nc71246061,2009-07-09 11:08:20.910,41.272666666666666,-124.38783333333333,11.94,2.55,NC.KMR..HHZ,P,1.0,2009-07-09 11:08:41.670
nc71246061,2009-07-09 11:08:20.910,41.272666666666666,-124.38783333333333,11.94,2.55,NC.KOM..SHZ,P,1.0,2009-07-09 11:08:34.460
nc71246061,2009-07-09 11:08:20.910,41.272666666666666,-124.38783333333333,11.94,2.55,NC.KPP..SHZ,P,,2009-07-09 11:08:41.440
nc71246061,2009-07-09 11:08:20.910,41.272666666666666,-124.38783333333333,11.94,2.55,NC.KRK..SHZ,P,-1.0,2009-07-09 11:08:53.050
nc71246061,2009-07-09 11:08:20.910,41.272666666666666,-124.38783333333333,11.94,2.55,NC.KRMB..HHZ,P,-1.0,2009-07-09 11:08:30.070
nc71246061,2009-07-09 11:08:20.910,41.272666666666666,-124.38783333333333,11.94,2.55,NC.KRP..HHZ,P,1.0,2009-07-09 11:08:28.580
nc71246061,2009-07-09 11:08:20.910,41.272666666666666,-124.38783333333333,11.94,2.55,NC.KSM..SHZ,P,,2009-07-09 11:08:41.040
nc71246061,2009-07-09 11:08:20.910,41.272666666666666,-124.38783333333333,11.94,2.55,NC.KSXB..HHZ,P,-1.0,2009-07-09 11:08:33.740
nc71246061,2009-07-09 11:08:20.910,41.272666666666666,-124.38783333333333,11.94,2.55,NC.LAM..SHZ,P,1.0,2009-07-09 11:08:44.710
nc71246061,2009-07-09 11:08:20.910,41.272666666666666,-124.38783333333333,11.94,2.55,NC.LBF..SHZ,P,,2009-07-09 11:08:52.450
nc71246061,2009-07-09 11:08:20.910,41.272666666666666,-124.38783333333333,11.94,2.55,NC.LBO..SHZ,P,-1.0,2009-07-09 11:08:49.260
nc71246061,2009-07-09 11:08:20.910,41.272666666666666,-124.38783333333333,11.94,2.55,NC.LBP..SHZ,P,1.0,2009-07-09 11:08:45.620
nc71246061,2009-07-09 11:08:20.910,41.272666666666666,-124.38783333333333,11.94,2.55,NC.LDH..HHZ,P,1.0,2009-07-09 11:08:57.360
nc71246061,2009-07-09 11:08:20.910,41.272666666666666,-124.38783333333333,11.94,2.55,NC.LGB..SHZ,P,1.0,2009-07-09 11:08:49.300
nc71246061,2009-07-09 11:08:20.910,41.272666666666666,-124.38783333333333,11.94,2.55,NC.LGM..SHZ,P,,2009-07-09 11:08:53.680
nc71246061,2009-07-09 11:08:20.910,41.272666666666666,-124.38783333333333,11.94,2.55,NC.LMP..SHZ,P,,2009-07-09 11:08:49.890
nc71246061,2009-07-09 11:08:20.910,41.272666666666666,-124.38783333333333,11.94,2.55,NC.LRR..SHZ,P,1.0,2009-07-09 11:08:56.450
nc71246061,2009-07-09 11:08:20.910,41.272666666666666,-124.38783333333333,11.94,2.55,NC.LSF..SHZ,P,-1.0,2009-07-09 11:08:46.990
nc71246061,2009-07-09 11:08:20.910,41.272666666666666,-124.38783333333333,11.94,2.55,NC.LSR..SHZ,P,,2009-07-09 11:08:47.520
nc71246061,2009-07-09 11:08:20.910,41.272666666666666,-124.38783333333333,11.94,2.55,NC.LVR..SHZ,P,,2009-07-09 11:08:50.390
nc71246061,2009-07-09 11:08:20.910,41.272666666666666,-124.38783333333333,11.94,2.55,NC.LWH..SHZ,P,,2009-07-09 11:08:52.940
nc71246061,2009-07-09 11:08:20.910,41.272666666666666,-124.38783333333333,11.94,2.55,UO.DBO..BHZ,P,-1.0,2009-07-09 11:08:53.610
nc71246061,2009-07-09 11:08:20.910,41.272666666666666,-124.38783333333333,11.94,2.55,UW.BBO..EHZ,P,1.0,2009-07-09 11:08:54.620
