event_id,etime,elat,elon,edep,emag,station_id,phase_type,phase_polarity,phase_time
nc71251526,2009-07-20 23:55:29.560,40.384166666666665,-124.28866666666667,7.92,1.02,NC.KHMB..HHZ,P,1.0,2009-07-20 23:55:42.950
nc71251526,2009-07-20 23:55:29.560,40.384166666666665,-124.28866666666667,7.92,1.02,NC.KJJ..SHZ,P,1.0,2009-07-20 23:55:33.120
nc71251526,2009-07-20 23:55:29.560,40.384166666666665,-124.28866666666667,7.92,1.02,NC.KMPB..HHZ,P,-1.0,2009-07-20 23:55:32.880
nc71251526,2009-07-20 23:55:29.560,40.384166666666665,-124.28866666666667,7.92,1.02,NC.KSM..SHZ,P,-1.0,2009-07-20 23:55:34.540
nc71255406,2009-07-28 05:01:15.050,40.766666666666666,-123.38383333333333,22.94,2.02,BK.WDC..HHZ,P,1.0,2009-07-28 05:01:27.330
nc71255406,2009-07-28 05:01:15.050,40.766666666666666,-123.38383333333333,22.94,2.02,NC.GRO..EHZ,P,,2009-07-28 05:01:32.970
nc71255406,2009-07-28 05:01:15.050,40.766666666666666,-123.38383333333333,22.94,2.02,NC.KBN..SHZ,P,,2009-07-28 05:01:30.730
nc71255406,2009-07-28 05:01:15.050,40.766666666666666,-123.38383333333333,22.94,2.02,NC.KCR..SHZ,P,1.0,2009-07-28 05:01:24.770
nc71255406,2009-07-28 05:01:15.050,40.766666666666666,-123.38383333333333,22.94,2.02,NC.KCS..SHZ,P,1.0,2009-07-28 05:01:21.750
nc71255406,2009-07-28 05:01:15.050,40.766666666666666,-123.38383333333333,22.94,2.02,NC.KHBB..HHZ,P,-1.0,2009-07-28 05:01:20.430
nc71255406,2009-07-28 05:01:15.050,40.766666666666666,-123.38383333333333,22.94,2.02,NC.KHMB..HHZ,P,1.0,2009-07-28 05:01:22.030
nc71255406,2009-07-28 05:01:15.050,40.766666666666666,-123.38383333333333,22.94,2.02,NC.KIP..SHZ,P,1.0,2009-07-28 05:01:31.430
nc71255406,2009-07-28 05:01:15.050,40.766666666666666,-123.38383333333333,22.94,2.02,NC.KJJ..SHZ,P,,2009-07-28 05:01:30.050
nc71255406,2009-07-28 05:01:15.050,40.766666666666666,-123.38383333333333,22.94,2.02,NC.KMR..HHZ,P,,2009-07-28 05:01:26.600
nc71255406,2009-07-28 05:01:15.050,40.766666666666666,-123.38383333333333,22.94,2.02,NC.KOM..SHZ,P,1.0,2009-07-28 05:01:25.010
nc71255406,2009-07-28 05:01:15.050,40.766666666666666,-123.38383333333333,22.94,2.02,NC.KPP..SHZ,P,1.0,2009-07-28 05:01:23.920
nc71255406,2009-07-28 05:01:15.050,40.766666666666666,-123.38383333333333,22.94,2.02,NC.KRMB..HHZ,P,,2009-07-28 05:01:29.920
nc71255406,2009-07-28 05:01:15.050,40.766666666666666,-123.38383333333333,22.94,2.02,NC.KRP..HHZ,P,,2009-07-28 05:01:27.080
nc71255406,2009-07-28 05:01:15.050,40.766666666666666,-123.38383333333333,22.94,2.02,NC.KSM..SHZ,P,1.0,2009-07-28 05:01:29.440
nc71255406,2009-07-28 05:01:15.050,40.766666666666666,-123.38383333333333,22.94,2.02,NC.LGB..SHZ,P,,2009-07-28 05:01:34.170
nc71255406,2009-07-28 05:01:15.050,40.766666666666666,-123.38383333333333,22.94,2.02,NC.LSF..SHZ,P,1.0,2009-07-28 05:01:27.370
nc71255406,2009-07-28 05:01:15.050,40.766666666666666,-123.38383333333333,22.94,2.02,NC.LSH..SHZ,P,-1.0,2009-07-28 05:01:32.770
nc71255406,2009-07-28 05:01:15.050,40.766666666666666,-123.38383333333333,22.94,2.02,NC.LSR..SHZ,P,,2009-07-28 05:01:31.200
nc71255501,2009-07-28 07:59:08.970,40.4795,-123.5165,5.76,2.78,BK.GASB..HHZ,P,,2009-07-28 07:59:29.770
nc71255501,2009-07-28 07:59:08.970,40.4795,-123.5165,5.76,2.78,BK.JCC..HHZ,P,-1.0,2009-07-28 07:59:20.150
nc71255501,2009-07-28 07:59:08.970,40.4795,-123.5165,5.76,2.78,BK.WDC..HHZ,P,-1.0,2009-07-28 07:59:23.850
nc71255501,2009-07-28 07:59:08.970,40.4795,-123.5165,5.76,2.78,NC.GBB..EHZ,P,-1.0,2009-07-28 07:59:32.630
nc71255501,2009-07-28 07:59:08.970,40.4795,-123.5165,5.76,2.78,NC.GRO..EHZ,P,1.0,2009-07-28 07:59:26.560
nc71255501,2009-07-28 07:59:08.970,40.4795,-123.5165,5.76,2.78,NC.GTC..SHZ,P,1.0,2009-07-28 07:59:29.820
nc71255501,2009-07-28 07:59:08.970,40.4795,-123.5165,5.76,2.78,NC.GVV..EHZ,P,1.0,2009-07-28 07:59:28.270
nc71255501,2009-07-28 07:59:08.970,40.4795,-123.5165,5.76,2.78,NC.KCPB..HHZ,P,-1.0,2009-07-28 07:59:26.090
nc71255501,2009-07-28 07:59:08.970,40.4795,-123.5165,5.76,2.78,NC.KCR..SHZ,P,-1.0,2009-07-28 07:59:14.170
nc71255501,2009-07-28 07:59:08.970,40.4795,-123.5165,5.76,2.78,NC.KCS..SHZ,P,-1.0,2009-07-28 07:59:11.380
nc71255501,2009-07-28 07:59:08.970,40.4795,-123.5165,5.76,2.78,NC.KCT..HHZ,P,,2009-07-28 07:59:22.680
nc71255501,2009-07-28 07:59:08.970,40.4795,-123.5165,5.76,2.78,NC.KFP..SHZ,P,-1.0,2009-07-28 07:59:26.960
nc71255501,2009-07-28 07:59:08.970,40.4795,-123.5165,5.76,2.78,NC.KHBB..HHZ,P,-1.0,2009-07-28 07:59:15.860
nc71255501,2009-07-28 07:59:08.970,40.4795,-123.5165,5.76,2.78,NC.KHMB..HHZ,P,-1.0,2009-07-28 07:59:18.030
nc71255501,2009-07-28 07:59:08.970,40.4795,-123.5165,5.76,2.78,NC.KIP..SHZ,P,-1.0,2009-07-28 07:59:23.230
nc71255501,2009-07-28 07:59:08.970,40.4795,-123.5165,5.76,2.78,NC.KJJ..SHZ,P,1.0,2009-07-28 07:59:22.930
nc71255501,2009-07-28 07:59:08.970,40.4795,-123.5165,5.76,2.78,NC.KKP..SHZ,P,-1.0,2009-07-28 07:59:16.820
nc71255501,2009-07-28 07:59:08.970,40.4795,-123.5165,5.76,2.78,NC.KMPB..HHZ,P,1.0,2009-07-28 07:59:18.920
nc71255501,2009-07-28 07:59:08.970,40.4795,-123.5165,5.76,2.78,NC.KMR..HHZ,P,-1.0,2009-07-28 07:59:16.030
nc71255501,2009-07-28 07:59:08.970,40.4795,-123.5165,5.76,2.78,NC.KOM..SHZ,P,-1.0,2009-07-28 07:59:24.340
nc71255501,2009-07-28 07:59:08.970,40.4795,-123.5165,5.76,2.78,NC.KPP..SHZ,P,1.0,2009-07-28 07:59:13.960
nc71255501,2009-07-28 07:59:08.970,40.4795,-123.5165,5.76,2.78,NC.KRK..SHZ,P,1.0,2009-07-28 07:59:28.920
nc71255501,2009-07-28 07:59:08.970,40.4795,-123.5165,5.76,2.78,NC.KRMB..HHZ,P,-1.0,2009-07-28 07:59:30.090
nc71255501,2009-07-28 07:59:08.970,40.4795,-123.5165,5.76,2.78,NC.KRP..HHZ,P,-1.0,2009-07-28 07:59:25.340
nc71255501,2009-07-28 07:59:08.970,40.4795,-123.5165,5.76,2.78,NC.KSM..SHZ,P,-1.0,2009-07-28 07:59:21.540
nc71255501,2009-07-28 07:59:08.970,40.4795,-123.5165,5.76,2.78,NC.LBK..SHZ,P,-1.0,2009-07-28 07:59:26.060
nc71255501,2009-07-28 07:59:08.970,40.4795,-123.5165,5.76,2.78,NC.LBP..SHZ,P,1.0,2009-07-28 07:59:20.040
nc71255501,2009-07-28 07:59:08.970,40.4795,-123.5165,5.76,2.78,NC.LSF..SHZ,P,-1.0,2009-07-28 07:59:24.560
nc71255501,2009-07-28 07:59:08.970,40.4795,-123.5165,5.76,2.78,NC.LSH..SHZ,P,-1.0,2009-07-28 07:59:31.300
nc71255501,2009-07-28 07:59:08.970,40.4795,-123.5165,5.76,2.78,NC.LSR..SHZ,P,,2009-07-28 07:59:30.900
nc71255501,2009-07-28 07:59:08.970,40.4795,-123.5165,5.76,2.78,NC.LTC..SHZ,P,,2009-07-28 07:59:31.180
nc71255501,2009-07-28 07:59:08.970,40.4795,-123.5165,5.76,2.78,NC.LVR..SHZ,P,,2009-07-28 07:59:25.150
nc71255526,2009-07-28 08:31:54.940,40.492666666666665,-123.52616666666667,0.94,2.35,BK.JCC..HHZ,P,-1.0,2009-07-28 08:32:06.550
nc71255526,2009-07-28 08:31:54.940,40.492666666666665,-123.52616666666667,0.94,2.35,BK.WDC..HHZ,P,-1.0,2009-07-28 08:32:10.360
nc71255526,2009-07-28 08:31:54.940,40.492666666666665,-123.52616666666667,0.94,2.35,NC.GRO..EHZ,P,-1.0,2009-07-28 08:32:13.220
nc71255526,2009-07-28 08:31:54.940,40.492666666666665,-123.52616666666667,0.94,2.35,NC.GTC..SHZ,P,1.0,2009-07-28 08:32:16.250
nc71255526,2009-07-28 08:31:54.940,40.492666666666665,-123.52616666666667,0.94,2.35,NC.KCPB..HHZ,P,-1.0,2009-07-28 08:32:12.490
nc71255526,2009-07-28 08:31:54.940,40.492666666666665,-123.52616666666667,0.94,2.35,NC.KCR..SHZ,P,-1.0,2009-07-28 08:32:00.660
nc71255526,2009-07-28 08:31:54.940,40.492666666666665,-123.52616666666667,0.94,2.35,NC.KCT..HHZ,P,-1.0,2009-07-28 08:32:09.310
nc71255526,2009-07-28 08:31:54.940,40.492666666666665,-123.52616666666667,0.94,2.35,NC.KFP..SHZ,P,-1.0,2009-07-28 08:32:13.490
nc71255526,2009-07-28 08:31:54.940,40.492666666666665,-123.52616666666667,0.94,2.35,NC.KHBB..HHZ,P,-1.0,2009-07-28 08:32:02.300
nc71255526,2009-07-28 08:31:54.940,40.492666666666665,-123.52616666666667,0.94,2.35,NC.KHMB..HHZ,P,1.0,2009-07-28 08:32:04.420
nc71255526,2009-07-28 08:31:54.940,40.492666666666665,-123.52616666666667,0.94,2.35,NC.KIP..SHZ,P,1.0,2009-07-28 08:32:09.880
nc71255526,2009-07-28 08:31:54.940,40.492666666666665,-123.52616666666667,0.94,2.35,NC.KJJ..SHZ,P,1.0,2009-07-28 08:32:09.260
nc71255526,2009-07-28 08:31:54.940,40.492666666666665,-123.52616666666667,0.94,2.35,NC.KKP..SHZ,P,-1.0,2009-07-28 08:32:03.810
nc71255526,2009-07-28 08:31:54.940,40.492666666666665,-123.52616666666667,0.94,2.35,NC.KMPB..HHZ,P,-1.0,2009-07-28 08:32:05.280
nc71255526,2009-07-28 08:31:54.940,40.492666666666665,-123.52616666666667,0.94,2.35,NC.KMR..HHZ,P,-1.0,2009-07-28 08:32:02.620
nc71255526,2009-07-28 08:31:54.940,40.492666666666665,-123.52616666666667,0.94,2.35,NC.KOM..SHZ,P,-1.0,2009-07-28 08:32:10.870
nc71255526,2009-07-28 08:31:54.940,40.492666666666665,-123.52616666666667,0.94,2.35,NC.KPP..SHZ,P,1.0,2009-07-28 08:32:00.440
nc71255526,2009-07-28 08:31:54.940,40.492666666666665,-123.52616666666667,0.94,2.35,NC.KRP..HHZ,P,-1.0,2009-07-28 08:32:11.820
nc71255526,2009-07-28 08:31:54.940,40.492666666666665,-123.52616666666667,0.94,2.35,NC.KSM..SHZ,P,-1.0,2009-07-28 08:32:07.980
nc71255526,2009-07-28 08:31:54.940,40.492666666666665,-123.52616666666667,0.94,2.35,NC.LBK..SHZ,P,1.0,2009-07-28 08:32:12.860
nc71255526,2009-07-28 08:31:54.940,40.492666666666665,-123.52616666666667,0.94,2.35,NC.LBP..SHZ,P,-1.0,2009-07-28 08:32:06.560
nc71255526,2009-07-28 08:31:54.940,40.492666666666665,-123.52616666666667,0.94,2.35,NC.LGB..SHZ,P,-1.0,2009-07-28 08:32:20.520
nc71255526,2009-07-28 08:31:54.940,40.492666666666665,-123.52616666666667,0.94,2.35,NC.LSF..SHZ,P,1.0,2009-07-28 08:32:11.260
nc71255526,2009-07-28 08:31:54.940,40.492666666666665,-123.52616666666667,0.94,2.35,NC.LSH..SHZ,P,-1.0,2009-07-28 08:32:17.740
nc71255526,2009-07-28 08:31:54.940,40.492666666666665,-123.52616666666667,0.94,2.35,NC.LSR..SHZ,P,1.0,2009-07-28 08:32:17.390
nc71255526,2009-07-28 08:31:54.940,40.492666666666665,-123.52616666666667,0.94,2.35,NC.LVR..SHZ,P,1.0,2009-07-28 08:32:11.660
nc71255526,2009-07-28 08:31:54.940,40.492666666666665,-123.52616666666667,0.94,2.35,NC.LWH..SHZ,P,-1.0,2009-07-28 08:32:18.560
nc71255551,2009-07-28 10:06:46.060,40.490833333333335,-123.52633333333333,-0.02,2.12,BK.JCC..HHZ,P,1.0,2009-07-28 10:06:57.840
nc71255551,2009-07-28 10:06:46.060,40.490833333333335,-123.52633333333333,-0.02,2.12,BK.WDC..HHZ,P,1.0,2009-07-28 10:07:01.750
nc71255551,2009-07-28 10:06:46.060,40.490833333333335,-123.52633333333333,-0.02,2.12,NC.KCR..SHZ,P,-1.0,2009-07-28 10:06:51.870
nc71255551,2009-07-28 10:06:46.060,40.490833333333335,-123.52633333333333,-0.02,2.12,NC.KCS..SHZ,P,1.0,2009-07-28 10:06:48.990
nc71255551,2009-07-28 10:06:46.060,40.490833333333335,-123.52633333333333,-0.02,2.12,NC.KCT..HHZ,P,1.0,2009-07-28 10:07:00.980
nc71255551,2009-07-28 10:06:46.060,40.490833333333335,-123.52633333333333,-0.02,2.12,NC.KFP..SHZ,P,1.0,2009-07-28 10:07:04.740
nc71255551,2009-07-28 10:06:46.060,40.490833333333335,-123.52633333333333,-0.02,2.12,NC.KHBB..HHZ,P,-1.0,2009-07-28 10:06:53.490
nc71255551,2009-07-28 10:06:46.060,40.490833333333335,-123.52633333333333,-0.02,2.12,NC.KHMB..HHZ,P,,2009-07-28 10:06:55.830
nc71255551,2009-07-28 10:06:46.060,40.490833333333335,-123.52633333333333,-0.02,2.12,NC.KIP..SHZ,P,1.0,2009-07-28 10:07:01.070
nc71255551,2009-07-28 10:06:46.060,40.490833333333335,-123.52633333333333,-0.02,2.12,NC.KJJ..SHZ,P,1.0,2009-07-28 10:07:00.490
nc71255551,2009-07-28 10:06:46.060,40.490833333333335,-123.52633333333333,-0.02,2.12,NC.KKP..SHZ,P,,2009-07-28 10:06:54.130
nc71255551,2009-07-28 10:06:46.060,40.490833333333335,-123.52633333333333,-0.02,2.12,NC.KMPB..HHZ,P,,2009-07-28 10:06:56.540
nc71255551,2009-07-28 10:06:46.060,40.490833333333335,-123.52633333333333,-0.02,2.12,NC.KMR..HHZ,P,-1.0,2009-07-28 10:06:53.790
nc71255551,2009-07-28 10:06:46.060,40.490833333333335,-123.52633333333333,-0.02,2.12,NC.KOM..SHZ,P,-1.0,2009-07-28 10:07:02.080
nc71255551,2009-07-28 10:06:46.060,40.490833333333335,-123.52633333333333,-0.02,2.12,NC.KPP..SHZ,P,1.0,2009-07-28 10:06:51.640
nc71255551,2009-07-28 10:06:46.060,40.490833333333335,-123.52633333333333,-0.02,2.12,NC.KRP..HHZ,P,-1.0,2009-07-28 10:07:03.250
nc71255551,2009-07-28 10:06:46.060,40.490833333333335,-123.52633333333333,-0.02,2.12,NC.KSM..SHZ,P,-1.0,2009-07-28 10:06:59.180
nc71255551,2009-07-28 10:06:46.060,40.490833333333335,-123.52633333333333,-0.02,2.12,NC.LBP..SHZ,P,-1.0,2009-07-28 10:06:57.640
nc71255551,2009-07-28 10:06:46.060,40.490833333333335,-123.52633333333333,-0.02,2.12,NC.LGB..SHZ,P,1.0,2009-07-28 10:07:11.580
nc71255551,2009-07-28 10:06:46.060,40.490833333333335,-123.52633333333333,-0.02,2.12,NC.LPG..SHZ,P,-1.0,2009-07-28 10:07:00.100
nc71255551,2009-07-28 10:06:46.060,40.490833333333335,-123.52633333333333,-0.02,2.12,NC.LSF..SHZ,P,1.0,2009-07-28 10:07:02.450
nc71255551,2009-07-28 10:06:46.060,40.490833333333335,-123.52633333333333,-0.02,2.12,NC.LSR..SHZ,P,-1.0,2009-07-28 10:07:08.880
nc71255551,2009-07-28 10:06:46.060,40.490833333333335,-123.52633333333333,-0.02,2.12,NC.LWH..SHZ,P,-1.0,2009-07-28 10:07:09.380
nc71255986,2009-07-29 09:31:07.260,40.4845,-123.527,4.4,2.14,BK.GASB..HHZ,P,1.0,2009-07-29 09:31:27.980
nc71255986,2009-07-29 09:31:07.260,40.4845,-123.527,4.4,2.14,BK.JCC..HHZ,P,-1.0,2009-07-29 09:31:18.450
nc71255986,2009-07-29 09:31:07.260,40.4845,-123.527,4.4,2.14,BK.WDC..HHZ,P,1.0,2009-07-29 09:31:22.450
nc71255986,2009-07-29 09:31:07.260,40.4845,-123.527,4.4,2.14,NC.GBB..EHZ,P,-1.0,2009-07-29 09:31:30.830
nc71255986,2009-07-29 09:31:07.260,40.4845,-123.527,4.4,2.14,NC.GHM..EHZ,P,1.0,2009-07-29 09:31:29.350
nc71255986,2009-07-29 09:31:07.260,40.4845,-123.527,4.4,2.14,NC.GHO..EHZ,P,-1.0,2009-07-29 09:31:32.930
nc71255986,2009-07-29 09:31:07.260,40.4845,-123.527,4.4,2.14,NC.GRO..EHZ,P,1.0,2009-07-29 09:31:24.840
nc71255986,2009-07-29 09:31:07.260,40.4845,-123.527,4.4,2.14,NC.GTC..SHZ,P,-1.0,2009-07-29 09:31:28.130
nc71255986,2009-07-29 09:31:07.260,40.4845,-123.527,4.4,2.14,NC.GVV..EHZ,P,1.0,2009-07-29 09:31:26.610
nc71255986,2009-07-29 09:31:07.260,40.4845,-123.527,4.4,2.14,NC.KCPB..HHZ,P,1.0,2009-07-29 09:31:24.600
nc71255986,2009-07-29 09:31:07.260,40.4845,-123.527,4.4,2.14,NC.KCR..SHZ,P,-1.0,2009-07-29 09:31:12.260
nc71255986,2009-07-29 09:31:07.260,40.4845,-123.527,4.4,2.14,NC.KCS..SHZ,P,-1.0,2009-07-29 09:31:09.720
nc71255986,2009-07-29 09:31:07.260,40.4845,-123.527,4.4,2.14,NC.KCT..HHZ,P,-1.0,2009-07-29 09:31:21.040
nc71255986,2009-07-29 09:31:07.260,40.4845,-123.527,4.4,2.14,NC.KFP..SHZ,P,-1.0,2009-07-29 09:31:25.230
nc71255986,2009-07-29 09:31:07.260,40.4845,-123.527,4.4,2.14,NC.KHBB..HHZ,P,-1.0,2009-07-29 09:31:14.190
nc71255986,2009-07-29 09:31:07.260,40.4845,-123.527,4.4,2.14,NC.KHMB..HHZ,P,-1.0,2009-07-29 09:31:16.410
nc71255986,2009-07-29 09:31:07.260,40.4845,-123.527,4.4,2.14,NC.KIP..SHZ,P,1.0,2009-07-29 09:31:21.560
nc71255986,2009-07-29 09:31:07.260,40.4845,-123.527,4.4,2.14,NC.KJJ..SHZ,P,1.0,2009-07-29 09:31:21.160
nc71255986,2009-07-29 09:31:07.260,40.4845,-123.527,4.4,2.14,NC.KKP..SHZ,P,,2009-07-29 09:31:15.320
nc71255986,2009-07-29 09:31:07.260,40.4845,-123.527,4.4,2.14,NC.KMR..HHZ,P,-1.0,2009-07-29 09:31:14.430
nc71255986,2009-07-29 09:31:07.260,40.4845,-123.527,4.4,2.14,NC.KOM..SHZ,P,1.0,2009-07-29 09:31:22.750
nc71255986,2009-07-29 09:31:07.260,40.4845,-123.527,4.4,2.14,NC.KPP..SHZ,P,1.0,2009-07-29 09:31:12.320
nc71255986,2009-07-29 09:31:07.260,40.4845,-123.527,4.4,2.14,NC.KRK..SHZ,P,-1.0,2009-07-29 09:31:27.160
nc71255986,2009-07-29 09:31:07.260,40.4845,-123.527,4.4,2.14,NC.KRMB..HHZ,P,1.0,2009-07-29 09:31:28.350
nc71255986,2009-07-29 09:31:07.260,40.4845,-123.527,4.4,2.14,NC.KRP..HHZ,P,1.0,2009-07-29 09:31:23.920
nc71255986,2009-07-29 09:31:07.260,40.4845,-123.527,4.4,2.14,NC.KSM..SHZ,P,1.0,2009-07-29 09:31:19.700
nc71255986,2009-07-29 09:31:07.260,40.4845,-123.527,4.4,2.14,NC.KSXB..HHZ,P,-1.0,2009-07-29 09:31:32.810
nc71255986,2009-07-29 09:31:07.260,40.4845,-123.527,4.4,2.14,NC.KTR..SHZ,P,,2009-07-29 09:31:32.640
nc71255986,2009-07-29 09:31:07.260,40.4845,-123.527,4.4,2.14,NC.LAM..SHZ,P,1.0,2009-07-29 09:31:32.120
nc71255986,2009-07-29 09:31:07.260,40.4845,-123.527,4.4,2.14,NC.LBC..SHZ,P,1.0,2009-07-29 09:31:38.660
nc71255986,2009-07-29 09:31:07.260,40.4845,-123.527,4.4,2.14,NC.LBF..SHZ,P,-1.0,2009-07-29 09:31:36.020
nc71255986,2009-07-29 09:31:07.260,40.4845,-123.527,4.4,2.14,NC.LBP..SHZ,P,1.0,2009-07-29 09:31:18.390
nc71255986,2009-07-29 09:31:07.260,40.4845,-123.527,4.4,2.14,NC.LDB..SHZ,P,-1.0,2009-07-29 09:31:32.520
nc71255986,2009-07-29 09:31:07.260,40.4845,-123.527,4.4,2.14,NC.LGB..SHZ,P,,2009-07-29 09:31:32.010
nc71255986,2009-07-29 09:31:07.260,40.4845,-123.527,4.4,2.14,NC.LGM..SHZ,P,1.0,2009-07-29 09:31:39.150
nc71255986,2009-07-29 09:31:07.260,40.4845,-123.527,4.4,2.14,NC.LRR..SHZ,P,-1.0,2009-07-29 09:31:34.850
nc71255986,2009-07-29 09:31:07.260,40.4845,-123.527,4.4,2.14,NC.LSF..SHZ,P,1.0,2009-07-29 09:31:23.100
nc71255986,2009-07-29 09:31:07.260,40.4845,-123.527,4.4,2.14,NC.LSR..SHZ,P,1.0,2009-07-29 09:31:29.430
nc71255986,2009-07-29 09:31:07.260,40.4845,-123.527,4.4,2.14,NC.LTI..SHZ,P,1.0,2009-07-29 09:31:39.930
nc71255986,2009-07-29 09:31:07.260,40.4845,-123.527,4.4,2.14,NC.LVR..SHZ,P,1.0,2009-07-29 09:31:23.600
nc71255986,2009-07-29 09:31:07.260,40.4845,-123.527,4.4,2.14,NC.LWH..SHZ,P,1.0,2009-07-29 09:31:30.360
nc71255986,2009-07-29 09:31:07.260,40.4845,-123.527,4.4,2.14,WR.MGL..EHZ,P,1.0,2009-07-29 09:31:37.790
nc71256386,2009-07-30 04:42:02.500,40.7635,-123.38216666666666,25.09,2.48,BK.JCC..HHZ,P,1.0,2009-07-30 04:42:12.220
nc71256386,2009-07-30 04:42:02.500,40.7635,-123.38216666666666,25.09,2.48,BK.WDC..HHZ,P,1.0,2009-07-30 04:42:14.870
nc71256386,2009-07-30 04:42:02.500,40.7635,-123.38216666666666,25.09,2.48,NC.GVV..EHZ,P,1.0,2009-07-30 04:42:21.870
nc71256386,2009-07-30 04:42:02.500,40.7635,-123.38216666666666,25.09,2.48,NC.KBN..SHZ,P,-1.0,2009-07-30 04:42:18.270
nc71256386,2009-07-30 04:42:02.500,40.7635,-123.38216666666666,25.09,2.48,NC.KCR..SHZ,P,-1.0,2009-07-30 04:42:12.300
nc71256386,2009-07-30 04:42:02.500,40.7635,-123.38216666666666,25.09,2.48,NC.KCS..SHZ,P,1.0,2009-07-30 04:42:09.300
nc71256386,2009-07-30 04:42:02.500,40.7635,-123.38216666666666,25.09,2.48,NC.KCT..HHZ,P,-1.0,2009-07-30 04:42:16.280
nc71256386,2009-07-30 04:42:02.500,40.7635,-123.38216666666666,25.09,2.48,NC.KFP..SHZ,P,-1.0,2009-07-30 04:42:20.990
nc71256386,2009-07-30 04:42:02.500,40.7635,-123.38216666666666,25.09,2.48,NC.KHBB..HHZ,P,-1.0,2009-07-30 04:42:07.990
nc71256386,2009-07-30 04:42:02.500,40.7635,-123.38216666666666,25.09,2.48,NC.KHMB..HHZ,P,1.0,2009-07-30 04:42:09.570
nc71256386,2009-07-30 04:42:02.500,40.7635,-123.38216666666666,25.09,2.48,NC.KIP..SHZ,P,1.0,2009-07-30 04:42:18.950
nc71256386,2009-07-30 04:42:02.500,40.7635,-123.38216666666666,25.09,2.48,NC.KJJ..SHZ,P,-1.0,2009-07-30 04:42:17.500
nc71256386,2009-07-30 04:42:02.500,40.7635,-123.38216666666666,25.09,2.48,NC.KKP..SHZ,P,,2009-07-30 04:42:14.670
nc71256386,2009-07-30 04:42:02.500,40.7635,-123.38216666666666,25.09,2.48,NC.KMPB..HHZ,P,1.0,2009-07-30 04:42:14.710
nc71256386,2009-07-30 04:42:02.500,40.7635,-123.38216666666666,25.09,2.48,NC.KMR..HHZ,P,-1.0,2009-07-30 04:42:14.240
nc71256386,2009-07-30 04:42:02.500,40.7635,-123.38216666666666,25.09,2.48,NC.KOM..SHZ,P,1.0,2009-07-30 04:42:12.510
nc71256386,2009-07-30 04:42:02.500,40.7635,-123.38216666666666,25.09,2.48,NC.KPP..SHZ,P,1.0,2009-07-30 04:42:11.490
nc71256386,2009-07-30 04:42:02.500,40.7635,-123.38216666666666,25.09,2.48,NC.KRMB..HHZ,P,-1.0,2009-07-30 04:42:17.430
nc71256386,2009-07-30 04:42:02.500,40.7635,-123.38216666666666,25.09,2.48,NC.KRP..HHZ,P,1.0,2009-07-30 04:42:14.670
nc71256386,2009-07-30 04:42:02.500,40.7635,-123.38216666666666,25.09,2.48,NC.KSM..SHZ,P,-1.0,2009-07-30 04:42:17.000
nc71256386,2009-07-30 04:42:02.500,40.7635,-123.38216666666666,25.09,2.48,NC.LAM..SHZ,P,-1.0,2009-07-30 04:42:20.520
nc71256386,2009-07-30 04:42:02.500,40.7635,-123.38216666666666,25.09,2.48,NC.LBF..SHZ,P,1.0,2009-07-30 04:42:24.900
nc71256386,2009-07-30 04:42:02.500,40.7635,-123.38216666666666,25.09,2.48,NC.LBP..SHZ,P,1.0,2009-07-30 04:42:13.510
nc71256386,2009-07-30 04:42:02.500,40.7635,-123.38216666666666,25.09,2.48,NC.LDB..SHZ,P,,2009-07-30 04:42:23.180
nc71256386,2009-07-30 04:42:02.500,40.7635,-123.38216666666666,25.09,2.48,NC.LGB..SHZ,P,1.0,2009-07-30 04:42:21.510
