event_id,etime,elat,elon,edep,emag,station_id,phase_type,phase_polarity,phase_time
nc71246061,2009-07-09 11:08:20.910,41.272666666666666,-124.38783333333333,11.94,2.55,UW.BUO..EHZ,P,1.0,2009-07-09 11:08:53.240
nc71246061,2009-07-09 11:08:20.910,41.272666666666666,-124.38783333333333,11.94,2.55,UW.HOG..EHZ,P,-1.0,2009-07-09 11:08:56.930
nc71246061,2009-07-09 11:08:20.910,41.272666666666666,-124.38783333333333,11.94,2.55,UW.LAB..EHZ,P,-1.0,2009-07-09 11:08:54.090
nc71246116,2009-07-09 16:09:53.180,41.01416666666667,-123.484,26.81,2.24,BK.JCC..HHZ,P,1.0,2009-07-09 16:10:02.370
nc71246116,2009-07-09 16:09:53.180,41.01416666666667,-123.484,26.81,2.24,BK.WDC..HHZ,P,1.0,2009-07-09 16:10:08.210
nc71246116,2009-07-09 16:09:53.180,41.01416666666667,-123.484,26.81,2.24,NC.GRO..EHZ,P,,2009-07-09 16:10:15.470
nc71246116,2009-07-09 16:09:53.180,41.01416666666667,-123.484,26.81,2.24,NC.KCR..SHZ,P,1.0,2009-07-09 16:10:05.410
nc71246116,2009-07-09 16:09:53.180,41.01416666666667,-123.484,26.81,2.24,NC.KCS..SHZ,P,-1.0,2009-07-09 16:10:03.190
nc71246116,2009-07-09 16:09:53.180,41.01416666666667,-123.484,26.81,2.24,NC.KHBB..HHZ,P,-1.0,2009-07-09 16:10:01.770
nc71246116,2009-07-09 16:09:53.180,41.01416666666667,-123.484,26.81,2.24,NC.KHMB..HHZ,P,-1.0,2009-07-09 16:09:59.670
nc71246116,2009-07-09 16:09:53.180,41.01416666666667,-123.484,26.81,2.24,NC.KJJ..SHZ,P,1.0,2009-07-09 16:10:09.820
nc71246116,2009-07-09 16:09:53.180,41.01416666666667,-123.484,26.81,2.24,NC.KOM..SHZ,P,-1.0,2009-07-09 16:09:59.700
nc71246116,2009-07-09 16:09:53.180,41.01416666666667,-123.484,26.81,2.24,NC.KPP..SHZ,P,-1.0,2009-07-09 16:10:06.080
nc71246116,2009-07-09 16:09:53.180,41.01416666666667,-123.484,26.81,2.24,NC.KRMB..HHZ,P,1.0,2009-07-09 16:10:04.410
nc71246116,2009-07-09 16:09:53.180,41.01416666666667,-123.484,26.81,2.24,NC.KRP..HHZ,P,1.0,2009-07-09 16:10:02.190
nc71246116,2009-07-09 16:09:53.180,41.01416666666667,-123.484,26.81,2.24,NC.KSM..SHZ,P,-1.0,2009-07-09 16:10:09.880
nc71246116,2009-07-09 16:09:53.180,41.01416666666667,-123.484,26.81,2.24,NC.KSXB..HHZ,P,1.0,2009-07-09 16:10:08.290
nc71246116,2009-07-09 16:09:53.180,41.01416666666667,-123.484,26.81,2.24,NC.KTR..SHZ,P,-1.0,2009-07-09 16:10:08.840
nc71246116,2009-07-09 16:09:53.180,41.01416666666667,-123.484,26.81,2.24,NC.LAM..SHZ,P,-1.0,2009-07-09 16:10:08.710
nc71246116,2009-07-09 16:09:53.180,41.01416666666667,-123.484,26.81,2.24,NC.LBC..SHZ,P,-1.0,2009-07-09 16:10:21.740
nc71246116,2009-07-09 16:09:53.180,41.01416666666667,-123.484,26.81,2.24,NC.LBF..SHZ,P,1.0,2009-07-09 16:10:15.610
nc71246116,2009-07-09 16:09:53.180,41.01416666666667,-123.484,26.81,2.24,NC.LBP..SHZ,P,-1.0,2009-07-09 16:10:08.380
nc71246116,2009-07-09 16:09:53.180,41.01416666666667,-123.484,26.81,2.24,NC.LDB..SHZ,P,-1.0,2009-07-09 16:10:17.930
nc71246116,2009-07-09 16:09:53.180,41.01416666666667,-123.484,26.81,2.24,NC.LGB..SHZ,P,1.0,2009-07-09 16:10:11.560
nc71246116,2009-07-09 16:09:53.180,41.01416666666667,-123.484,26.81,2.24,NC.LGM..SHZ,P,1.0,2009-07-09 16:10:17.590
nc71246116,2009-07-09 16:09:53.180,41.01416666666667,-123.484,26.81,2.24,NC.LPG..SHZ,P,1.0,2009-07-09 16:10:12.120
nc71246116,2009-07-09 16:09:53.180,41.01416666666667,-123.484,26.81,2.24,NC.LSF..SHZ,P,-1.0,2009-07-09 16:10:07.900
nc71246116,2009-07-09 16:09:53.180,41.01416666666667,-123.484,26.81,2.24,NC.LSH..SHZ,P,-1.0,2009-07-09 16:10:12.590
nc71246116,2009-07-09 16:09:53.180,41.01416666666667,-123.484,26.81,2.24,NC.LSR..SHZ,P,1.0,2009-07-09 16:10:09.440
nc71246116,2009-07-09 16:09:53.180,41.01416666666667,-123.484,26.81,2.24,NC.LWH..SHZ,P,-1.0,2009-07-09 16:10:14.360
nc71247611,2009-07-12 21:48:04.880,40.853,-123.41133333333333,28.03,2.01,BK.GASB..HHZ,P,,2009-07-12 21:48:27.090
nc71247611,2009-07-12 21:48:04.880,40.853,-123.41133333333333,28.03,2.01,BK.JCC..HHZ,P,,2009-07-12 21:48:14.540
nc71247611,2009-07-12 21:48:04.880,40.853,-123.41133333333333,28.03,2.01,BK.WDC..HHZ,P,-1.0,2009-07-12 21:48:18.110
nc71247611,2009-07-12 21:48:04.880,40.853,-123.41133333333333,28.03,2.01,NC.KCR..SHZ,P,,2009-07-12 21:48:15.640
nc71247611,2009-07-12 21:48:04.880,40.853,-123.41133333333333,28.03,2.01,NC.KCS..SHZ,P,1.0,2009-07-12 21:48:12.910
nc71247611,2009-07-12 21:48:04.880,40.853,-123.41133333333333,28.03,2.01,NC.KHBB..HHZ,P,-1.0,2009-07-12 21:48:11.450
nc71247611,2009-07-12 21:48:04.880,40.853,-123.41133333333333,28.03,2.01,NC.KHMB..HHZ,P,-1.0,2009-07-12 21:48:11.540
nc71247611,2009-07-12 21:48:04.880,40.853,-123.41133333333333,28.03,2.01,NC.KIP..SHZ,P,1.0,2009-07-12 21:48:22.610
nc71247611,2009-07-12 21:48:04.880,40.853,-123.41133333333333,28.03,2.01,NC.KMR..HHZ,P,1.0,2009-07-12 21:48:17.680
nc71247611,2009-07-12 21:48:04.880,40.853,-123.41133333333333,28.03,2.01,NC.KOM..SHZ,P,-1.0,2009-07-12 21:48:13.730
nc71247611,2009-07-12 21:48:04.880,40.853,-123.41133333333333,28.03,2.01,NC.KPP..SHZ,P,1.0,2009-07-12 21:48:15.310
nc71247611,2009-07-12 21:48:04.880,40.853,-123.41133333333333,28.03,2.01,NC.KRMB..HHZ,P,1.0,2009-07-12 21:48:18.180
nc71247611,2009-07-12 21:48:04.880,40.853,-123.41133333333333,28.03,2.01,NC.KRP..HHZ,P,-1.0,2009-07-12 21:48:16.100
nc71247611,2009-07-12 21:48:04.880,40.853,-123.41133333333333,28.03,2.01,NC.KSXB..HHZ,P,-1.0,2009-07-12 21:48:23.290
nc71247611,2009-07-12 21:48:04.880,40.853,-123.41133333333333,28.03,2.01,NC.LBK..SHZ,P,-1.0,2009-07-12 21:48:16.160
nc71247611,2009-07-12 21:48:04.880,40.853,-123.41133333333333,28.03,2.01,NC.LBP..SHZ,P,1.0,2009-07-12 21:48:17.650
nc71247611,2009-07-12 21:48:04.880,40.853,-123.41133333333333,28.03,2.01,NC.LSF..SHZ,P,1.0,2009-07-12 21:48:18.070
nc71247611,2009-07-12 21:48:04.880,40.853,-123.41133333333333,28.03,2.01,NC.LSR..SHZ,P,-1.0,2009-07-12 21:48:20.910
nc71247711,2009-07-13 03:06:22.060,40.49066666666667,-123.55116666666666,6.16,2.24,BK.JCC..HHZ,P,-1.0,2009-07-13 03:06:33.210
nc71247711,2009-07-13 03:06:22.060,40.49066666666667,-123.55116666666666,6.16,2.24,BK.WDC..HHZ,P,1.0,2009-07-13 03:06:37.280
nc71247711,2009-07-13 03:06:22.060,40.49066666666667,-123.55116666666666,6.16,2.24,NC.GRO..EHZ,P,,2009-07-13 03:06:39.690
nc71247711,2009-07-13 03:06:22.060,40.49066666666667,-123.55116666666666,6.16,2.24,NC.GTC..SHZ,P,1.0,2009-07-13 03:06:42.910
nc71247711,2009-07-13 03:06:22.060,40.49066666666667,-123.55116666666666,6.16,2.24,NC.KBN..SHZ,P,1.0,2009-07-13 03:06:35.960
nc71247711,2009-07-13 03:06:22.060,40.49066666666667,-123.55116666666666,6.16,2.24,NC.KCR..SHZ,P,-1.0,2009-07-13 03:06:27.270
nc71247711,2009-07-13 03:06:22.060,40.49066666666667,-123.55116666666666,6.16,2.24,NC.KCS..SHZ,P,-1.0,2009-07-13 03:06:24.550
nc71247711,2009-07-13 03:06:22.060,40.49066666666667,-123.55116666666666,6.16,2.24,NC.KFP..SHZ,P,-1.0,2009-07-13 03:06:39.830
nc71247711,2009-07-13 03:06:22.060,40.49066666666667,-123.55116666666666,6.16,2.24,NC.KHBB..HHZ,P,-1.0,2009-07-13 03:06:29.000
nc71247711,2009-07-13 03:06:22.060,40.49066666666667,-123.55116666666666,6.16,2.24,NC.KHMB..HHZ,P,,2009-07-13 03:06:31.150
nc71247711,2009-07-13 03:06:22.060,40.49066666666667,-123.55116666666666,6.16,2.24,NC.KIP..SHZ,P,-1.0,2009-07-13 03:06:36.510
nc71247711,2009-07-13 03:06:22.060,40.49066666666667,-123.55116666666666,6.16,2.24,NC.KJJ..SHZ,P,1.0,2009-07-13 03:06:35.980
nc71247711,2009-07-13 03:06:22.060,40.49066666666667,-123.55116666666666,6.16,2.24,NC.KMR..HHZ,P,-1.0,2009-07-13 03:06:29.240
nc71247711,2009-07-13 03:06:22.060,40.49066666666667,-123.55116666666666,6.16,2.24,NC.KOM..SHZ,P,-1.0,2009-07-13 03:06:37.480
nc71247711,2009-07-13 03:06:22.060,40.49066666666667,-123.55116666666666,6.16,2.24,NC.KPP..SHZ,P,1.0,2009-07-13 03:06:27.090
nc71247711,2009-07-13 03:06:22.060,40.49066666666667,-123.55116666666666,6.16,2.24,NC.KSM..SHZ,P,,2009-07-13 03:06:34.580
nc71247711,2009-07-13 03:06:22.060,40.49066666666667,-123.55116666666666,6.16,2.24,NC.LBP..SHZ,P,-1.0,2009-07-13 03:06:33.270
nc71247711,2009-07-13 03:06:22.060,40.49066666666667,-123.55116666666666,6.16,2.24,NC.LGB..SHZ,P,1.0,2009-07-13 03:06:47.270
nc71247711,2009-07-13 03:06:22.060,40.49066666666667,-123.55116666666666,6.16,2.24,NC.LSF..SHZ,P,1.0,2009-07-13 03:06:37.940
nc71247711,2009-07-13 03:06:22.060,40.49066666666667,-123.55116666666666,6.16,2.24,NC.LSR..SHZ,P,1.0,2009-07-13 03:06:44.060
nc71247711,2009-07-13 03:06:22.060,40.49066666666667,-123.55116666666666,6.16,2.24,NC.LVR..SHZ,P,1.0,2009-07-13 03:06:38.400
nc71247711,2009-07-13 03:06:22.060,40.49066666666667,-123.55116666666666,6.16,2.24,NC.LWH..SHZ,P,1.0,2009-07-13 03:06:45.420
nc71249026,2009-07-16 07:00:59.320,40.36716666666667,-123.49566666666666,22.25,1.89,BK.JCC..HHZ,P,1.0,2009-07-16 07:01:10.160
nc71249026,2009-07-16 07:00:59.320,40.36716666666667,-123.49566666666666,22.25,1.89,NC.KBN..SHZ,P,1.0,2009-07-16 07:01:10.100
nc71249026,2009-07-16 07:00:59.320,40.36716666666667,-123.49566666666666,22.25,1.89,NC.KCR..SHZ,P,1.0,2009-07-16 07:01:05.770
nc71249026,2009-07-16 07:00:59.320,40.36716666666667,-123.49566666666666,22.25,1.89,NC.KCS..SHZ,P,-1.0,2009-07-16 07:01:05.090
nc71249026,2009-07-16 07:00:59.320,40.36716666666667,-123.49566666666666,22.25,1.89,NC.KFP..SHZ,P,-1.0,2009-07-16 07:01:12.800
nc71249026,2009-07-16 07:00:59.320,40.36716666666667,-123.49566666666666,22.25,1.89,NC.KHBB..HHZ,P,1.0,2009-07-16 07:01:07.160
nc71249026,2009-07-16 07:00:59.320,40.36716666666667,-123.49566666666666,22.25,1.89,NC.KHMB..HHZ,P,-1.0,2009-07-16 07:01:09.920
nc71249026,2009-07-16 07:00:59.320,40.36716666666667,-123.49566666666666,22.25,1.89,NC.KIP..SHZ,P,-1.0,2009-07-16 07:01:10.300
nc71249026,2009-07-16 07:00:59.320,40.36716666666667,-123.49566666666666,22.25,1.89,NC.KJJ..SHZ,P,-1.0,2009-07-16 07:01:10.950
nc71249026,2009-07-16 07:00:59.320,40.36716666666667,-123.49566666666666,22.25,1.89,NC.KMPB..HHZ,P,-1.0,2009-07-16 07:01:08.860
nc71249026,2009-07-16 07:00:59.320,40.36716666666667,-123.49566666666666,22.25,1.89,NC.KMR..HHZ,P,1.0,2009-07-16 07:01:05.500
nc71249026,2009-07-16 07:00:59.320,40.36716666666667,-123.49566666666666,22.25,1.89,NC.KPP..SHZ,P,-1.0,2009-07-16 07:01:04.410
nc71249026,2009-07-16 07:00:59.320,40.36716666666667,-123.49566666666666,22.25,1.89,NC.KSM..SHZ,P,1.0,2009-07-16 07:01:09.650
nc71249026,2009-07-16 07:00:59.320,40.36716666666667,-123.49566666666666,22.25,1.89,NC.LBP..SHZ,P,1.0,2009-07-16 07:01:08.810
nc71249026,2009-07-16 07:00:59.320,40.36716666666667,-123.49566666666666,22.25,1.89,NC.LSF..SHZ,P,-1.0,2009-07-16 07:01:13.570
nc71249026,2009-07-16 07:00:59.320,40.36716666666667,-123.49566666666666,22.25,1.89,NC.LVR..SHZ,P,1.0,2009-07-16 07:01:12.610
nc71249101,2009-07-16 10:56:05.870,40.71933333333333,-124.77166666666666,6.29,2.69,BK.GASB..HHZ,P,1.0,2009-07-16 10:56:37.510
nc71249101,2009-07-16 10:56:05.870,40.71933333333333,-124.77166666666666,6.29,2.69,BK.JCC..HHZ,P,1.0,2009-07-16 10:56:17.900
nc71249101,2009-07-16 10:56:05.870,40.71933333333333,-124.77166666666666,6.29,2.69,BK.SUTB..HHZ,P,1.0,2009-07-16 10:56:47.720
nc71249101,2009-07-16 10:56:05.870,40.71933333333333,-124.77166666666666,6.29,2.69,NC.GBB..EHZ,P,-1.0,2009-07-16 10:56:40.740
nc71249101,2009-07-16 10:56:05.870,40.71933333333333,-124.77166666666666,6.29,2.69,NC.GCK..EHZ,P,1.0,2009-07-16 10:56:41.470
nc71249101,2009-07-16 10:56:05.870,40.71933333333333,-124.77166666666666,6.29,2.69,NC.GRO..EHZ,P,1.0,2009-07-16 10:56:36.120
nc71249101,2009-07-16 10:56:05.870,40.71933333333333,-124.77166666666666,6.29,2.69,NC.GTC..SHZ,P,1.0,2009-07-16 10:56:32.650
nc71249101,2009-07-16 10:56:05.870,40.71933333333333,-124.77166666666666,6.29,2.69,NC.GVV..EHZ,P,1.0,2009-07-16 10:56:37.140
nc71249101,2009-07-16 10:56:05.870,40.71933333333333,-124.77166666666666,6.29,2.69,NC.KCPB..HHZ,P,1.0,2009-07-16 10:56:29.570
nc71249101,2009-07-16 10:56:05.870,40.71933333333333,-124.77166666666666,6.29,2.69,NC.KCR..SHZ,P,1.0,2009-07-16 10:56:21.370
nc71249101,2009-07-16 10:56:05.870,40.71933333333333,-124.77166666666666,6.29,2.69,NC.KCS..SHZ,P,1.0,2009-07-16 10:56:24.430
nc71249101,2009-07-16 10:56:05.870,40.71933333333333,-124.77166666666666,6.29,2.69,NC.KCT..HHZ,P,1.0,2009-07-16 10:56:16.190
nc71249101,2009-07-16 10:56:05.870,40.71933333333333,-124.77166666666666,6.29,2.69,NC.KFP..SHZ,P,1.0,2009-07-16 10:56:31.160
nc71249101,2009-07-16 10:56:05.870,40.71933333333333,-124.77166666666666,6.29,2.69,NC.KHBB..HHZ,P,1.0,2009-07-16 10:56:27.010
nc71249101,2009-07-16 10:56:05.870,40.71933333333333,-124.77166666666666,6.29,2.69,NC.KHMB..HHZ,P,1.0,2009-07-16 10:56:21.770
nc71249101,2009-07-16 10:56:05.870,40.71933333333333,-124.77166666666666,6.29,2.69,NC.KIP..SHZ,P,1.0,2009-07-16 10:56:29.540
nc71249101,2009-07-16 10:56:05.870,40.71933333333333,-124.77166666666666,6.29,2.69,NC.KJJ..SHZ,P,1.0,2009-07-16 10:56:18.170
nc71249101,2009-07-16 10:56:05.870,40.71933333333333,-124.77166666666666,6.29,2.69,NC.KKP..SHZ,P,1.0,2009-07-16 10:56:27.000
nc71249101,2009-07-16 10:56:05.870,40.71933333333333,-124.77166666666666,6.29,2.69,NC.KMPB..HHZ,P,1.0,2009-07-16 10:56:18.430
nc71249101,2009-07-16 10:56:05.870,40.71933333333333,-124.77166666666666,6.29,2.69,NC.KMR..HHZ,P,1.0,2009-07-16 10:56:24.100
nc71249101,2009-07-16 10:56:05.870,40.71933333333333,-124.77166666666666,6.29,2.69,NC.KOM..SHZ,P,1.0,2009-07-16 10:56:26.490
nc71249101,2009-07-16 10:56:05.870,40.71933333333333,-124.77166666666666,6.29,2.69,NC.KPP..SHZ,P,1.0,2009-07-16 10:56:26.750
nc71249101,2009-07-16 10:56:05.870,40.71933333333333,-124.77166666666666,6.29,2.69,NC.KRK..SHZ,P,1.0,2009-07-16 10:56:34.020
nc71249101,2009-07-16 10:56:05.870,40.71933333333333,-124.77166666666666,6.29,2.69,NC.KRMB..HHZ,P,-1.0,2009-07-16 10:56:24.540
nc71249101,2009-07-16 10:56:05.870,40.71933333333333,-124.77166666666666,6.29,2.69,NC.KRP..HHZ,P,-1.0,2009-07-16 10:56:20.300
nc71249101,2009-07-16 10:56:05.870,40.71933333333333,-124.77166666666666,6.29,2.69,NC.KSM..SHZ,P,1.0,2009-07-16 10:56:19.790
nc71249101,2009-07-16 10:56:05.870,40.71933333333333,-124.77166666666666,6.29,2.69,NC.KSXB..HHZ,P,-1.0,2009-07-16 10:56:28.210
nc71249101,2009-07-16 10:56:05.870,40.71933333333333,-124.77166666666666,6.29,2.69,NC.LBC..SHZ,P,1.0,2009-07-16 10:56:47.740
nc71249101,2009-07-16 10:56:05.870,40.71933333333333,-124.77166666666666,6.29,2.69,NC.LBF..SHZ,P,1.0,2009-07-16 10:56:43.690
nc71249101,2009-07-16 10:56:05.870,40.71933333333333,-124.77166666666666,6.29,2.69,NC.LBP..SHZ,P,1.0,2009-07-16 10:56:31.450
nc71249101,2009-07-16 10:56:05.870,40.71933333333333,-124.77166666666666,6.29,2.69,NC.LDB..SHZ,P,1.0,2009-07-16 10:56:42.510
nc71249101,2009-07-16 10:56:05.870,40.71933333333333,-124.77166666666666,6.29,2.69,NC.LGB..SHZ,P,1.0,2009-07-16 10:56:40.210
nc71249101,2009-07-16 10:56:05.870,40.71933333333333,-124.77166666666666,6.29,2.69,NC.LMP..SHZ,P,1.0,2009-07-16 10:56:41.530
nc71249101,2009-07-16 10:56:05.870,40.71933333333333,-124.77166666666666,6.29,2.69,NC.LRD..SHZ,P,1.0,2009-07-16 10:56:47.250
nc71249101,2009-07-16 10:56:05.870,40.71933333333333,-124.77166666666666,6.29,2.69,NC.LRR..SHZ,P,-1.0,2009-07-16 10:56:44.610
nc71249101,2009-07-16 10:56:05.870,40.71933333333333,-124.77166666666666,6.29,2.69,NC.LSH..SHZ,P,1.0,2009-07-16 10:56:39.870
nc71249101,2009-07-16 10:56:05.870,40.71933333333333,-124.77166666666666,6.29,2.69,NC.LSI..SHZ,P,-1.0,2009-07-16 10:56:46.970
nc71249101,2009-07-16 10:56:05.870,40.71933333333333,-124.77166666666666,6.29,2.69,NC.LSR..SHZ,P,-1.0,2009-07-16 10:56:38.330
nc71249101,2009-07-16 10:56:05.870,40.71933333333333,-124.77166666666666,6.29,2.69,NC.LTC..SHZ,P,1.0,2009-07-16 10:56:40.070
nc71249101,2009-07-16 10:56:05.870,40.71933333333333,-124.77166666666666,6.29,2.69,NC.LVR..SHZ,P,1.0,2009-07-16 10:56:35.210
nc71249101,2009-07-16 10:56:05.870,40.71933333333333,-124.77166666666666,6.29,2.69,NC.LWH..SHZ,P,-1.0,2009-07-16 10:56:40.830
nc71249101,2009-07-16 10:56:05.870,40.71933333333333,-124.77166666666666,6.29,2.69,NC.OGO..EHZ,P,1.0,2009-07-16 10:56:46.980
nc71249101,2009-07-16 10:56:05.870,40.71933333333333,-124.77166666666666,6.29,2.69,NC.ORA..EHZ,P,1.0,2009-07-16 10:56:50.510
nc71249101,2009-07-16 10:56:05.870,40.71933333333333,-124.77166666666666,6.29,2.69,NC.OST..EHZ,P,-1.0,2009-07-16 10:56:48.810
nc71249101,2009-07-16 10:56:05.870,40.71933333333333,-124.77166666666666,6.29,2.69,NC.OSU..EHZ,P,1.0,2009-07-16 10:56:47.310
nc71249101,2009-07-16 10:56:05.870,40.71933333333333,-124.77166666666666,6.29,2.69,NN.EMB..SHZ,P,1.0,2009-07-16 10:57:08.190
nc71249101,2009-07-16 10:56:05.870,40.71933333333333,-124.77166666666666,6.29,2.69,NN.EUR..SHZ,P,1.0,2009-07-16 10:56:57.910
nc71249101,2009-07-16 10:56:05.870,40.71933333333333,-124.77166666666666,6.29,2.69,NN.IND..SHZ,P,1.0,2009-07-16 10:57:03.750
nc71249101,2009-07-16 10:56:05.870,40.71933333333333,-124.77166666666666,6.29,2.69,NN.SAT..SHZ,P,1.0,2009-07-16 10:57:00.820
nc71249101,2009-07-16 10:56:05.870,40.71933333333333,-124.77166666666666,6.29,2.69,NN.SBT..SHZ,P,1.0,2009-07-16 10:56:58.450
nc71249101,2009-07-16 10:56:05.870,40.71933333333333,-124.77166666666666,6.29,2.69,NN.TNK..SHZ,P,-1.0,2009-07-16 10:57:05.200
nc71249101,2009-07-16 10:56:05.870,40.71933333333333,-124.77166666666666,6.29,2.69,WR.MGL..EHZ,P,1.0,2009-07-16 10:56:46.920
nc71249361,2009-07-17 01:41:27.890,40.7835,-123.5905,18.16,1.66,BK.WDC..HHZ,P,1.0,2009-07-17 01:41:42.800
nc71249361,2009-07-17 01:41:27.890,40.7835,-123.5905,18.16,1.66,NC.KCR..SHZ,P,,2009-07-17 01:41:36.920
nc71249361,2009-07-17 01:41:27.890,40.7835,-123.5905,18.16,1.66,NC.KCS..SHZ,P,1.0,2009-07-17 01:41:34.630
nc71249361,2009-07-17 01:41:27.890,40.7835,-123.5905,18.16,1.66,NC.KHBB..HHZ,P,1.0,2009-07-17 01:41:34.870
nc71249361,2009-07-17 01:41:27.890,40.7835,-123.5905,18.16,1.66,NC.KOM..SHZ,P,-1.0,2009-07-17 01:41:38.010
nc71249361,2009-07-17 01:41:27.890,40.7835,-123.5905,18.16,1.66,NC.KPP..SHZ,P,1.0,2009-07-17 01:41:37.730
nc71249361,2009-07-17 01:41:27.890,40.7835,-123.5905,18.16,1.66,NC.LBK..SHZ,P,1.0,2009-07-17 01:41:41.650
nc71249361,2009-07-17 01:41:27.890,40.7835,-123.5905,18.16,1.66,NC.LBP..SHZ,P,-1.0,2009-07-17 01:41:41.180
nc71249361,2009-07-17 01:41:27.890,40.7835,-123.5905,18.16,1.66,NC.LSF..SHZ,P,,2009-07-17 01:41:42.900
nc71250731,2009-07-19 10:58:38.740,40.86533333333333,-123.31383333333333,28.17,1.91,BK.JCC..HHZ,P,-1.0,2009-07-19 10:58:49.200
nc71250731,2009-07-19 10:58:38.740,40.86533333333333,-123.31383333333333,28.17,1.91,BK.WDC..HHZ,P,1.0,2009-07-19 10:58:50.650
nc71250731,2009-07-19 10:58:38.740,40.86533333333333,-123.31383333333333,28.17,1.91,NC.KCR..SHZ,P,-1.0,2009-07-19 10:58:50.180
nc71250731,2009-07-19 10:58:38.740,40.86533333333333,-123.31383333333333,28.17,1.91,NC.KCS..SHZ,P,1.0,2009-07-19 10:58:47.180
nc71250731,2009-07-19 10:58:38.740,40.86533333333333,-123.31383333333333,28.17,1.91,NC.KHBB..HHZ,P,-1.0,2009-07-19 10:58:44.980
nc71250731,2009-07-19 10:58:38.740,40.86533333333333,-123.31383333333333,28.17,1.91,NC.KHMB..HHZ,P,1.0,2009-07-19 10:58:46.310
nc71250731,2009-07-19 10:58:38.740,40.86533333333333,-123.31383333333333,28.17,1.91,NC.KOM..SHZ,P,-1.0,2009-07-19 10:58:47.430
nc71250731,2009-07-19 10:58:38.740,40.86533333333333,-123.31383333333333,28.17,1.91,NC.KPP..SHZ,P,1.0,2009-07-19 10:58:49.300
nc71250731,2009-07-19 10:58:38.740,40.86533333333333,-123.31383333333333,28.17,1.91,NC.KRMB..HHZ,P,1.0,2009-07-19 10:58:52.550
nc71250731,2009-07-19 10:58:38.740,40.86533333333333,-123.31383333333333,28.17,1.91,NC.LBP..SHZ,P,-1.0,2009-07-19 10:58:50.800
nc71250731,2009-07-19 10:58:38.740,40.86533333333333,-123.31383333333333,28.17,1.91,NC.LSF..SHZ,P,,2009-07-19 10:58:50.400
nc71250731,2009-07-19 10:58:38.740,40.86533333333333,-123.31383333333333,28.17,1.91,NC.LSH..SHZ,P,-1.0,2009-07-19 10:58:55.510
nc71250731,2009-07-19 10:58:38.740,40.86533333333333,-123.31383333333333,28.17,1.91,NC.LSR..SHZ,P,-1.0,2009-07-19 10:58:53.210
nc71251526,2009-07-20 23:55:29.560,40.384166666666665,-124.28866666666667,7.92,1.02,NC.KCR..SHZ,P,1.0,2009-07-20 23:55:37.320
nc71251526,2009-07-20 23:55:29.560,40.384166666666665,-124.28866666666667,7.92,1.02,NC.KCS..SHZ,P,1.0,2009-07-20 23:55:42.760
nc71251526,2009-07-20 23:55:29.560,40.384166666666665,-124.28866666666667,7.92,1.02,NC.KCT..HHZ,P,-1.0,2009-07-20 23:55:32.670
