event_id,etime,elat,elon,edep,emag,station_id,phase_type,phase_polarity,phase_time
nc71365895,2010-03-20 02:42:15.620,40.86183333333334,-123.47833333333334,27.2,2.31,NC.LWH..SHZ,P,-1.0,2010-03-20 02:42:36.210
nc71365895,2010-03-20 02:42:15.620,40.86183333333334,-123.47833333333334,27.2,2.31,PB.B045..EHZ,P,1.0,2010-03-20 02:42:26.720
nc71365895,2010-03-20 02:42:15.620,40.86183333333334,-123.47833333333334,27.2,2.31,PB.B046..EHZ,P,1.0,2010-03-20 02:42:29.930
nc71365895,2010-03-20 02:42:15.620,40.86183333333334,-123.47833333333334,27.2,2.31,PB.B047..EHZ,P,1.0,2010-03-20 02:42:29.830
nc71365895,2010-03-20 02:42:15.620,40.86183333333334,-123.47833333333334,27.2,2.31,PB.B049..EHZ,P,-1.0,2010-03-20 02:42:28.120
nc71365895,2010-03-20 02:42:15.620,40.86183333333334,-123.47833333333334,27.2,2.31,PB.B932..EHZ,P,1.0,2010-03-20 02:42:29.780
nc71365895,2010-03-20 02:42:15.620,40.86183333333334,-123.47833333333334,27.2,2.31,PB.B933..EHZ,P,,2010-03-20 02:42:30.880
nc71365895,2010-03-20 02:42:15.620,40.86183333333334,-123.47833333333334,27.2,2.31,PB.B935..EHZ,P,-1.0,2010-03-20 02:42:24.300
nc71366840,2010-03-22 03:37:40.900,40.260333333333335,-123.73433333333334,23.53,2.04,BK.GASB..HHZ,P,-1.0,2010-03-22 03:37:58.600
nc71366840,2010-03-22 03:37:40.900,40.260333333333335,-123.73433333333334,23.53,2.04,BK.JCC..HHZ,P,,2010-03-22 03:37:52.780
nc71366840,2010-03-22 03:37:40.900,40.260333333333335,-123.73433333333334,23.53,2.04,NC.GHM..EHZ,P,,2010-03-22 03:37:58.080
nc71366840,2010-03-22 03:37:40.900,40.260333333333335,-123.73433333333334,23.53,2.04,NC.GRO..EHZ,P,1.0,2010-03-22 03:37:56.770
nc71366840,2010-03-22 03:37:40.900,40.260333333333335,-123.73433333333334,23.53,2.04,NC.GTC..SHZ,P,-1.0,2010-03-22 03:37:55.430
nc71366840,2010-03-22 03:37:40.900,40.260333333333335,-123.73433333333334,23.53,2.04,NC.GVV..EHZ,P,1.0,2010-03-22 03:37:57.590
nc71366840,2010-03-22 03:37:40.900,40.260333333333335,-123.73433333333334,23.53,2.04,NC.KCPB..HHZ,P,-1.0,2010-03-22 03:37:52.050
nc71366840,2010-03-22 03:37:40.900,40.260333333333335,-123.73433333333334,23.53,2.04,NC.KCR..SHZ,P,-1.0,2010-03-22 03:37:46.410
nc71366840,2010-03-22 03:37:40.900,40.260333333333335,-123.73433333333334,23.53,2.04,NC.KCS..SHZ,P,-1.0,2010-03-22 03:37:48.750
nc71366840,2010-03-22 03:37:40.900,40.260333333333335,-123.73433333333334,23.53,2.04,NC.KCT..HHZ,P,,2010-03-22 03:37:49.600
nc71366840,2010-03-22 03:37:40.900,40.260333333333335,-123.73433333333334,23.53,2.04,NC.KHBB..HHZ,P,1.0,2010-03-22 03:37:51.770
nc71366840,2010-03-22 03:37:40.900,40.260333333333335,-123.73433333333334,23.53,2.04,NC.KHMB..HHZ,P,1.0,2010-03-22 03:37:52.690
nc71366840,2010-03-22 03:37:40.900,40.260333333333335,-123.73433333333334,23.53,2.04,NC.KIP..SHZ,P,1.0,2010-03-22 03:37:50.960
nc71366840,2010-03-22 03:37:40.900,40.260333333333335,-123.73433333333334,23.53,2.04,NC.KJJ..SHZ,P,1.0,2010-03-22 03:37:49.850
nc71366840,2010-03-22 03:37:40.900,40.260333333333335,-123.73433333333334,23.53,2.04,NC.KKP..SHZ,P,1.0,2010-03-22 03:37:47.240
nc71366840,2010-03-22 03:37:40.900,40.260333333333335,-123.73433333333334,23.53,2.04,NC.KMPB..HHZ,P,1.0,2010-03-22 03:37:48.490
nc71366840,2010-03-22 03:37:40.900,40.260333333333335,-123.73433333333334,23.53,2.04,NC.KMR..HHZ,P,1.0,2010-03-22 03:37:45.480
nc71366840,2010-03-22 03:37:40.900,40.260333333333335,-123.73433333333334,23.53,2.04,NC.KPP..SHZ,P,1.0,2010-03-22 03:37:48.230
nc71366840,2010-03-22 03:37:40.900,40.260333333333335,-123.73433333333334,23.53,2.04,NC.KSM..SHZ,P,1.0,2010-03-22 03:37:48.630
nc71366840,2010-03-22 03:37:40.900,40.260333333333335,-123.73433333333334,23.53,2.04,PB.B045..EHZ,P,1.0,2010-03-22 03:37:47.440
nc71366840,2010-03-22 03:37:40.900,40.260333333333335,-123.73433333333334,23.53,2.04,PB.B046..EHZ,P,1.0,2010-03-22 03:37:49.690
nc71366840,2010-03-22 03:37:40.900,40.260333333333335,-123.73433333333334,23.53,2.04,PB.B047..EHZ,P,1.0,2010-03-22 03:37:48.460
nc71366840,2010-03-22 03:37:40.900,40.260333333333335,-123.73433333333334,23.53,2.04,PB.B049..EHZ,P,1.0,2010-03-22 03:37:45.240
nc71366840,2010-03-22 03:37:40.900,40.260333333333335,-123.73433333333334,23.53,2.04,PB.B932..EHZ,P,1.0,2010-03-22 03:37:48.810
nc71366840,2010-03-22 03:37:40.900,40.260333333333335,-123.73433333333334,23.53,2.04,PB.B933..EHZ,P,1.0,2010-03-22 03:37:47.500
nc71366840,2010-03-22 03:37:40.900,40.260333333333335,-123.73433333333334,23.53,2.04,PB.B934..EHZ,P,-1.0,2010-03-22 03:37:49.270
nc71366840,2010-03-22 03:37:40.900,40.260333333333335,-123.73433333333334,23.53,2.04,PB.B935..EHZ,P,-1.0,2010-03-22 03:37:47.430
nc71376126,2010-03-31 20:55:34.170,40.70016666666667,-124.60883333333334,4.7,2.6,BK.HUMO..HHZ,P,1.0,2010-03-31 20:56:11.300
nc71376126,2010-03-31 20:55:34.170,40.70016666666667,-124.60883333333334,4.7,2.6,BK.JCC..HHZ,P,1.0,2010-03-31 20:55:44.410
nc71376126,2010-03-31 20:55:34.170,40.70016666666667,-124.60883333333334,4.7,2.6,BK.WDC..HHZ,P,-1.0,2010-03-31 20:56:01.660
nc71376126,2010-03-31 20:55:34.170,40.70016666666667,-124.60883333333334,4.7,2.6,NC.GVV..EHZ,P,-1.0,2010-03-31 20:56:01.960
nc71376126,2010-03-31 20:55:34.170,40.70016666666667,-124.60883333333334,4.7,2.6,NC.KBO..HHZ,P,-1.0,2010-03-31 20:55:59.710
nc71376126,2010-03-31 20:55:34.170,40.70016666666667,-124.60883333333334,4.7,2.6,NC.KCPB..HHZ,P,,2010-03-31 20:55:56.900
nc71376126,2010-03-31 20:55:34.170,40.70016666666667,-124.60883333333334,4.7,2.6,NC.KCT..HHZ,P,1.0,2010-03-31 20:55:42.820
nc71376126,2010-03-31 20:55:34.170,40.70016666666667,-124.60883333333334,4.7,2.6,NC.KHBB..HHZ,P,1.0,2010-03-31 20:55:53.550
nc71376126,2010-03-31 20:55:34.170,40.70016666666667,-124.60883333333334,4.7,2.6,NC.KHMB..HHZ,P,1.0,2010-03-31 20:55:48.410
nc71376126,2010-03-31 20:55:34.170,40.70016666666667,-124.60883333333334,4.7,2.6,NC.KJJ..SHZ,P,-1.0,2010-03-31 20:55:45.340
nc71376126,2010-03-31 20:55:34.170,40.70016666666667,-124.60883333333334,4.7,2.6,NC.KMPB..HHZ,P,,2010-03-31 20:55:44.990
nc71376126,2010-03-31 20:55:34.170,40.70016666666667,-124.60883333333334,4.7,2.6,NC.KMR..HHZ,P,,2010-03-31 20:55:51.620
nc71376126,2010-03-31 20:55:34.170,40.70016666666667,-124.60883333333334,4.7,2.6,NC.KOM..SHZ,P,1.0,2010-03-31 20:55:53.620
nc71376126,2010-03-31 20:55:34.170,40.70016666666667,-124.60883333333334,4.7,2.6,NC.KPP..SHZ,P,1.0,2010-03-31 20:55:53.200
nc71376126,2010-03-31 20:55:34.170,40.70016666666667,-124.60883333333334,4.7,2.6,NC.KRP..HHZ,P,,2010-03-31 20:55:47.430
nc71376126,2010-03-31 20:55:34.170,40.70016666666667,-124.60883333333334,4.7,2.6,NC.KSM..SHZ,P,-1.0,2010-03-31 20:55:46.840
nc71376126,2010-03-31 20:55:34.170,40.70016666666667,-124.60883333333334,4.7,2.6,NC.KSXB..HHZ,P,-1.0,2010-03-31 20:55:56.160
nc71376126,2010-03-31 20:55:34.170,40.70016666666667,-124.60883333333334,4.7,2.6,NC.LDB..SHZ,P,-1.0,2010-03-31 20:56:09.500
nc71376126,2010-03-31 20:55:34.170,40.70016666666667,-124.60883333333334,4.7,2.6,NC.LDH..HHZ,P,1.0,2010-03-31 20:56:11.850
nc71376126,2010-03-31 20:55:34.170,40.70016666666667,-124.60883333333334,4.7,2.6,NC.LEL..SHZ,P,1.0,2010-03-31 20:56:12.050
nc71376126,2010-03-31 20:55:34.170,40.70016666666667,-124.60883333333334,4.7,2.6,NC.LME..SHZ,P,-1.0,2010-03-31 20:56:12.670
nc71376126,2010-03-31 20:55:34.170,40.70016666666667,-124.60883333333334,4.7,2.6,NC.LRR..SHZ,P,,2010-03-31 20:56:11.330
nc71376126,2010-03-31 20:55:34.170,40.70016666666667,-124.60883333333334,4.7,2.6,NC.LSF..SHZ,P,,2010-03-31 20:56:01.430
nc71376126,2010-03-31 20:55:34.170,40.70016666666667,-124.60883333333334,4.7,2.6,NC.LSH..SHZ,P,,2010-03-31 20:56:06.870
nc71376126,2010-03-31 20:55:34.170,40.70016666666667,-124.60883333333334,4.7,2.6,NC.LSR..SHZ,P,-1.0,2010-03-31 20:56:05.230
nc71376126,2010-03-31 20:55:34.170,40.70016666666667,-124.60883333333334,4.7,2.6,NC.LWH..SHZ,P,1.0,2010-03-31 20:56:07.690
nc71376126,2010-03-31 20:55:34.170,40.70016666666667,-124.60883333333334,4.7,2.6,NC.OCR..EHZ,P,-1.0,2010-03-31 20:56:11.410
nc71376126,2010-03-31 20:55:34.170,40.70016666666667,-124.60883333333334,4.7,2.6,PB.B045..EHZ,P,1.0,2010-03-31 20:55:45.860
nc71376126,2010-03-31 20:55:34.170,40.70016666666667,-124.60883333333334,4.7,2.6,PB.B046..EHZ,P,-1.0,2010-03-31 20:55:44.690
nc71376126,2010-03-31 20:55:34.170,40.70016666666667,-124.60883333333334,4.7,2.6,PB.B047..EHZ,P,-1.0,2010-03-31 20:55:46.560
nc71376126,2010-03-31 20:55:34.170,40.70016666666667,-124.60883333333334,4.7,2.6,PB.B049..EHZ,P,-1.0,2010-03-31 20:55:49.930
nc71376126,2010-03-31 20:55:34.170,40.70016666666667,-124.60883333333334,4.7,2.6,PB.B932..EHZ,P,-1.0,2010-03-31 20:55:45.490
nc71376126,2010-03-31 20:55:34.170,40.70016666666667,-124.60883333333334,4.7,2.6,PB.B933..EHZ,P,,2010-03-31 20:55:50.380
nc71376126,2010-03-31 20:55:34.170,40.70016666666667,-124.60883333333334,4.7,2.6,PB.B935..EHZ,P,1.0,2010-03-31 20:55:49.830
nc71378821,2010-04-07 06:02:25.600,40.707166666666666,-124.62583333333333,5.75,2.34,BK.JCC..HHZ,P,1.0,2010-04-07 06:02:35.900
nc71378821,2010-04-07 06:02:25.600,40.707166666666666,-124.62583333333333,5.75,2.34,BK.WDC..HHZ,P,,2010-04-07 06:02:52.990
nc71378821,2010-04-07 06:02:25.600,40.707166666666666,-124.62583333333333,5.75,2.34,NC.GRO..EHZ,P,,2010-04-07 06:02:54.440
nc71378821,2010-04-07 06:02:25.600,40.707166666666666,-124.62583333333333,5.75,2.34,NC.KCR..SHZ,P,1.0,2010-04-07 06:02:39.400
nc71378821,2010-04-07 06:02:25.600,40.707166666666666,-124.62583333333333,5.75,2.34,NC.KCT..HHZ,P,1.0,2010-04-07 06:02:34.410
nc71378821,2010-04-07 06:02:25.600,40.707166666666666,-124.62583333333333,5.75,2.34,NC.KHMB..HHZ,P,1.0,2010-04-07 06:02:39.910
nc71378821,2010-04-07 06:02:25.600,40.707166666666666,-124.62583333333333,5.75,2.34,NC.KJJ..SHZ,P,-1.0,2010-04-07 06:02:37.130
nc71378821,2010-04-07 06:02:25.600,40.707166666666666,-124.62583333333333,5.75,2.34,NC.KKP..SHZ,P,,2010-04-07 06:02:44.980
nc71378821,2010-04-07 06:02:25.600,40.707166666666666,-124.62583333333333,5.75,2.34,NC.KMPB..HHZ,P,,2010-04-07 06:02:36.640
nc71378821,2010-04-07 06:02:25.600,40.707166666666666,-124.62583333333333,5.75,2.34,NC.KMR..HHZ,P,-1.0,2010-04-07 06:02:42.120
nc71378821,2010-04-07 06:02:25.600,40.707166666666666,-124.62583333333333,5.75,2.34,NC.KOM..SHZ,P,-1.0,2010-04-07 06:02:45.060
nc71378821,2010-04-07 06:02:25.600,40.707166666666666,-124.62583333333333,5.75,2.34,NC.KPP..SHZ,P,,2010-04-07 06:02:44.620
nc71378821,2010-04-07 06:02:25.600,40.707166666666666,-124.62583333333333,5.75,2.34,NC.KSM..SHZ,P,-1.0,2010-04-07 06:02:38.440
nc71378821,2010-04-07 06:02:25.600,40.707166666666666,-124.62583333333333,5.75,2.34,NC.KSXB..HHZ,P,-1.0,2010-04-07 06:02:47.500
nc71378821,2010-04-07 06:02:25.600,40.707166666666666,-124.62583333333333,5.75,2.34,NC.LSF..SHZ,P,-1.0,2010-04-07 06:02:53.460
nc71378821,2010-04-07 06:02:25.600,40.707166666666666,-124.62583333333333,5.75,2.34,PB.B045..EHZ,P,1.0,2010-04-07 06:02:37.360
nc71378821,2010-04-07 06:02:25.600,40.707166666666666,-124.62583333333333,5.75,2.34,PB.B046..EHZ,P,1.0,2010-04-07 06:02:36.170
nc71378821,2010-04-07 06:02:25.600,40.707166666666666,-124.62583333333333,5.75,2.34,PB.B049..EHZ,P,1.0,2010-04-07 06:02:40.650
nc71378821,2010-04-07 06:02:25.600,40.707166666666666,-124.62583333333333,5.75,2.34,PB.B932..EHZ,P,-1.0,2010-04-07 06:02:36.840
nc71378821,2010-04-07 06:02:25.600,40.707166666666666,-124.62583333333333,5.75,2.34,PB.B933..EHZ,P,-1.0,2010-04-07 06:02:41.440
nc71378821,2010-04-07 06:02:25.600,40.707166666666666,-124.62583333333333,5.75,2.34,PB.B935..EHZ,P,1.0,2010-04-07 06:02:41.650
nc71379011,2010-04-07 18:46:57.350,40.71216666666667,-124.45616666666666,5.51,1.77,NC.KCT..HHZ,P,1.0,2010-04-07 18:47:03.040
nc71379011,2010-04-07 18:46:57.350,40.71216666666667,-124.45616666666666,5.51,1.77,NC.KIP..SHZ,P,1.0,2010-04-07 18:47:18.190
nc71379011,2010-04-07 18:46:57.350,40.71216666666667,-124.45616666666666,5.51,1.77,NC.KJJ..SHZ,P,1.0,2010-04-07 18:47:07.840
nc71379011,2010-04-07 18:46:57.350,40.71216666666667,-124.45616666666666,5.51,1.77,NC.KKP..SHZ,P,-1.0,2010-04-07 18:47:15.740
nc71379011,2010-04-07 18:46:57.350,40.71216666666667,-124.45616666666666,5.51,1.77,NC.KMPB..HHZ,P,1.0,2010-04-07 18:47:06.030
nc71379011,2010-04-07 18:46:57.350,40.71216666666667,-124.45616666666666,5.51,1.77,NC.KMR..HHZ,P,1.0,2010-04-07 18:47:13.210
nc71379011,2010-04-07 18:46:57.350,40.71216666666667,-124.45616666666666,5.51,1.77,NC.KSM..SHZ,P,1.0,2010-04-07 18:47:09.380
nc71379011,2010-04-07 18:46:57.350,40.71216666666667,-124.45616666666666,5.51,1.77,PB.B045..EHZ,P,1.0,2010-04-07 18:47:07.300
nc71379011,2010-04-07 18:46:57.350,40.71216666666667,-124.45616666666666,5.51,1.77,PB.B046..EHZ,P,1.0,2010-04-07 18:47:06.390
nc71379011,2010-04-07 18:46:57.350,40.71216666666667,-124.45616666666666,5.51,1.77,PB.B047..EHZ,P,1.0,2010-04-07 18:47:08.290
nc71379011,2010-04-07 18:46:57.350,40.71216666666667,-124.45616666666666,5.51,1.77,PB.B049..EHZ,P,1.0,2010-04-07 18:47:11.570
nc71379011,2010-04-07 18:46:57.350,40.71216666666667,-124.45616666666666,5.51,1.77,PB.B932..EHZ,P,1.0,2010-04-07 18:47:07.460
nc71379011,2010-04-07 18:46:57.350,40.71216666666667,-124.45616666666666,5.51,1.77,PB.B933..EHZ,P,-1.0,2010-04-07 18:47:12.400
nc71379011,2010-04-07 18:46:57.350,40.71216666666667,-124.45616666666666,5.51,1.77,PB.B935..EHZ,P,1.0,2010-04-07 18:47:12.380
nc71381276,2010-04-13 04:54:24.550,40.11633333333333,-123.78083333333333,21.49,1.59,NC.KCPB..HHZ,P,-1.0,2010-04-13 04:54:33.960
nc71381276,2010-04-13 04:54:24.550,40.11633333333333,-123.78083333333333,21.49,1.59,NC.KCR..SHZ,P,-1.0,2010-04-13 04:54:31.960
nc71381276,2010-04-13 04:54:24.550,40.11633333333333,-123.78083333333333,21.49,1.59,NC.KIP..SHZ,P,-1.0,2010-04-13 04:54:32.930
nc71381276,2010-04-13 04:54:24.550,40.11633333333333,-123.78083333333333,21.49,1.59,NC.KJJ..SHZ,P,1.0,2010-04-13 04:54:33.390
nc71381276,2010-04-13 04:54:24.550,40.11633333333333,-123.78083333333333,21.49,1.59,NC.KKP..SHZ,P,1.0,2010-04-13 04:54:31.130
nc71381276,2010-04-13 04:54:24.550,40.11633333333333,-123.78083333333333,21.49,1.59,NC.KMPB..HHZ,P,-1.0,2010-04-13 04:54:33.490
nc71381276,2010-04-13 04:54:24.550,40.11633333333333,-123.78083333333333,21.49,1.59,NC.KMR..HHZ,P,-1.0,2010-04-13 04:54:29.290
nc71381276,2010-04-13 04:54:24.550,40.11633333333333,-123.78083333333333,21.49,1.59,NC.KPP..SHZ,P,1.0,2010-04-13 04:54:33.450
nc71381276,2010-04-13 04:54:24.550,40.11633333333333,-123.78083333333333,21.49,1.59,NC.KSM..SHZ,P,1.0,2010-04-13 04:54:31.710
nc71381276,2010-04-13 04:54:24.550,40.11633333333333,-123.78083333333333,21.49,1.59,PB.B045..EHZ,P,-1.0,2010-04-13 04:54:32.660
nc71381276,2010-04-13 04:54:24.550,40.11633333333333,-123.78083333333333,21.49,1.59,PB.B046..EHZ,P,1.0,2010-04-13 04:54:33.550
nc71381276,2010-04-13 04:54:24.550,40.11633333333333,-123.78083333333333,21.49,1.59,PB.B047..EHZ,P,1.0,2010-04-13 04:54:32.110
nc71381276,2010-04-13 04:54:24.550,40.11633333333333,-123.78083333333333,21.49,1.59,PB.B049..EHZ,P,1.0,2010-04-13 04:54:29.240
nc71381276,2010-04-13 04:54:24.550,40.11633333333333,-123.78083333333333,21.49,1.59,PB.B932..EHZ,P,1.0,2010-04-13 04:54:32.520
nc71381276,2010-04-13 04:54:24.550,40.11633333333333,-123.78083333333333,21.49,1.59,PB.B933..EHZ,P,1.0,2010-04-13 04:54:29.620
nc71381276,2010-04-13 04:54:24.550,40.11633333333333,-123.78083333333333,21.49,1.59,PB.B934..EHZ,P,-1.0,2010-04-13 04:54:31.060
nc71381276,2010-04-13 04:54:24.550,40.11633333333333,-123.78083333333333,21.49,1.59,PB.B935..EHZ,P,-1.0,2010-04-13 04:54:33.380
nc71382236,2010-04-14 21:59:57.940,40.135666666666665,-123.827,22.85,1.3,NC.KBS..SHZ,P,-1.0,2010-04-14 22:00:04.900
nc71382236,2010-04-14 21:59:57.940,40.135666666666665,-123.827,22.85,1.3,NC.KCR..SHZ,P,-1.0,2010-04-14 22:00:04.950
nc71382236,2010-04-14 21:59:57.940,40.135666666666665,-123.827,22.85,1.3,NC.KJJ..SHZ,P,1.0,2010-04-14 22:00:06.370
nc71382236,2010-04-14 21:59:57.940,40.135666666666665,-123.827,22.85,1.3,NC.KKP..SHZ,P,1.0,2010-04-14 22:00:05.020
nc71382236,2010-04-14 21:59:57.940,40.135666666666665,-123.827,22.85,1.3,NC.KMPB..HHZ,P,-1.0,2010-04-14 22:00:06.280
nc71382236,2010-04-14 21:59:57.940,40.135666666666665,-123.827,22.85,1.3,NC.KMR..HHZ,P,-1.0,2010-04-14 22:00:02.940
nc71382236,2010-04-14 21:59:57.940,40.135666666666665,-123.827,22.85,1.3,NC.KSM..SHZ,P,1.0,2010-04-14 22:00:04.680
nc71382236,2010-04-14 21:59:57.940,40.135666666666665,-123.827,22.85,1.3,PB.B045..EHZ,P,-1.0,2010-04-14 22:00:05.440
nc71382236,2010-04-14 21:59:57.940,40.135666666666665,-123.827,22.85,1.3,PB.B046..EHZ,P,1.0,2010-04-14 22:00:06.390
nc71382236,2010-04-14 21:59:57.940,40.135666666666665,-123.827,22.85,1.3,PB.B047..EHZ,P,-1.0,2010-04-14 22:00:04.970
nc71382236,2010-04-14 21:59:57.940,40.135666666666665,-123.827,22.85,1.3,PB.B049..EHZ,P,1.0,2010-04-14 22:00:02.480
nc71382236,2010-04-14 21:59:57.940,40.135666666666665,-123.827,22.85,1.3,PB.B932..EHZ,P,1.0,2010-04-14 22:00:05.350
nc71382236,2010-04-14 21:59:57.940,40.135666666666665,-123.827,22.85,1.3,PB.B933..EHZ,P,1.0,2010-04-14 22:00:02.950
nc71382236,2010-04-14 21:59:57.940,40.135666666666665,-123.827,22.85,1.3,PB.B934..EHZ,P,-1.0,2010-04-14 22:00:05.010
nc71382236,2010-04-14 21:59:57.940,40.135666666666665,-123.827,22.85,1.3,PB.B935..EHZ,P,-1.0,2010-04-14 22:00:06.620
nc71383806,2010-04-17 08:31:58.600,40.815666666666665,-124.1685,2.56,2.98,BK.GASB..HHZ,P,-1.0,2010-04-17 08:32:26.910
nc71383806,2010-04-17 08:31:58.600,40.815666666666665,-124.1685,2.56,2.98,BK.JCC..HHZ,P,-1.0,2010-04-17 08:32:01.430
nc71383806,2010-04-17 08:31:58.600,40.815666666666665,-124.1685,2.56,2.98,BK.WDC..HHZ,P,,2010-04-17 08:32:21.910
nc71383806,2010-04-17 08:31:58.600,40.815666666666665,-124.1685,2.56,2.98,NC.GRO..EHZ,P,,2010-04-17 08:32:24.530
nc71383806,2010-04-17 08:31:58.600,40.815666666666665,-124.1685,2.56,2.98,NC.GTC..SHZ,P,1.0,2010-04-17 08:32:23.710
nc71383806,2010-04-17 08:31:58.600,40.815666666666665,-124.1685,2.56,2.98,NC.GVV..EHZ,P,,2010-04-17 08:32:26.240
nc71383806,2010-04-17 08:31:58.600,40.815666666666665,-124.1685,2.56,2.98,NC.KBO..HHZ,P,1.0,2010-04-17 08:32:22.350
nc71383806,2010-04-17 08:31:58.600,40.815666666666665,-124.1685,2.56,2.98,NC.KCPB..HHZ,P,,2010-04-17 08:32:20.990
nc71383806,2010-04-17 08:31:58.600,40.815666666666665,-124.1685,2.56,2.98,NC.KCR..SHZ,P,1.0,2010-04-17 08:32:08.900
nc71383806,2010-04-17 08:31:58.600,40.815666666666665,-124.1685,2.56,2.98,NC.KCS..SHZ,P,1.0,2010-04-17 08:32:11.420
nc71383806,2010-04-17 08:31:58.600,40.815666666666665,-124.1685,2.56,2.98,NC.KCT..HHZ,P,-1.0,2010-04-17 08:32:07.220
nc71383806,2010-04-17 08:31:58.600,40.815666666666665,-124.1685,2.56,2.98,NC.KHBB..HHZ,P,1.0,2010-04-17 08:32:13.680
nc71383806,2010-04-17 08:31:58.600,40.815666666666665,-124.1685,2.56,2.98,NC.KHMB..HHZ,P,1.0,2010-04-17 08:32:06.570
nc71383806,2010-04-17 08:31:58.600,40.815666666666665,-124.1685,2.56,2.98,NC.KIP..SHZ,P,-1.0,2010-04-17 08:32:20.190
nc71383806,2010-04-17 08:31:58.600,40.815666666666665,-124.1685,2.56,2.98,NC.KJJ..SHZ,P,-1.0,2010-04-17 08:32:10.960
nc71383806,2010-04-17 08:31:58.600,40.815666666666665,-124.1685,2.56,2.98,NC.KKP..SHZ,P,1.0,2010-04-17 08:32:15.740
nc71383806,2010-04-17 08:31:58.600,40.815666666666665,-124.1685,2.56,2.98,NC.KMPB..HHZ,P,-1.0,2010-04-17 08:32:07.840
nc71383806,2010-04-17 08:31:58.600,40.815666666666665,-124.1685,2.56,2.98,NC.KMR..HHZ,P,1.0,2010-04-17 08:32:13.500
nc71383806,2010-04-17 08:31:58.600,40.815666666666665,-124.1685,2.56,2.98,NC.KOM..SHZ,P,1.0,2010-04-17 08:32:13.030
nc71383806,2010-04-17 08:31:58.600,40.815666666666665,-124.1685,2.56,2.98,NC.KPP..SHZ,P,1.0,2010-04-17 08:32:14.700
nc71383806,2010-04-17 08:31:58.600,40.815666666666665,-124.1685,2.56,2.98,NC.KRP..HHZ,P,1.0,2010-04-17 08:32:06.570
nc71383806,2010-04-17 08:31:58.600,40.815666666666665,-124.1685,2.56,2.98,NC.KSM..SHZ,P,1.0,2010-04-17 08:32:11.930
nc71383806,2010-04-17 08:31:58.600,40.815666666666665,-124.1685,2.56,2.98,NC.KSXB..HHZ,P,1.0,2010-04-17 08:32:17.630
nc71383806,2010-04-17 08:31:58.600,40.815666666666665,-124.1685,2.56,2.98,NC.KTR..SHZ,P,1.0,2010-04-17 08:32:20.920
nc71383806,2010-04-17 08:31:58.600,40.815666666666665,-124.1685,2.56,2.98,NC.LAM..SHZ,P,1.0,2010-04-17 08:32:23.620
