event_id,etime,elat,elon,edep,emag,station_id,phase_type,phase_polarity,phase_time
nc71383806,2010-04-17 08:31:58.600,40.815666666666665,-124.1685,2.56,2.98,NC.LBK..SHZ,P,1.0,2010-04-17 08:32:20.660
nc71383806,2010-04-17 08:31:58.600,40.815666666666665,-124.1685,2.56,2.98,NC.LBO..SHZ,P,1.0,2010-04-17 08:32:27.440
nc71383806,2010-04-17 08:31:58.600,40.815666666666665,-124.1685,2.56,2.98,NC.LGB..SHZ,P,1.0,2010-04-17 08:32:27.080
nc71383806,2010-04-17 08:31:58.600,40.815666666666665,-124.1685,2.56,2.98,NC.LMC..HHZ,P,1.0,2010-04-17 08:32:27.350
nc71383806,2010-04-17 08:31:58.600,40.815666666666665,-124.1685,2.56,2.98,NC.LMP..SHZ,P,1.0,2010-04-17 08:32:28.440
nc71383806,2010-04-17 08:31:58.600,40.815666666666665,-124.1685,2.56,2.98,NC.LSF..SHZ,P,1.0,2010-04-17 08:32:21.870
nc71383806,2010-04-17 08:31:58.600,40.815666666666665,-124.1685,2.56,2.98,NC.LSH..SHZ,P,1.0,2010-04-17 08:32:26.900
nc71383806,2010-04-17 08:31:58.600,40.815666666666665,-124.1685,2.56,2.98,NC.LWH..SHZ,P,1.0,2010-04-17 08:32:27.860
nc71383806,2010-04-17 08:31:58.600,40.815666666666665,-124.1685,2.56,2.98,PB.B039..EHZ,P,,2010-04-17 08:32:23.820
nc71383806,2010-04-17 08:31:58.600,40.815666666666665,-124.1685,2.56,2.98,PB.B040..EHZ,P,1.0,2010-04-17 08:32:27.670
nc71383806,2010-04-17 08:31:58.600,40.815666666666665,-124.1685,2.56,2.98,PB.B045..EHZ,P,1.0,2010-04-17 08:32:07.820
nc71383806,2010-04-17 08:31:58.600,40.815666666666665,-124.1685,2.56,2.98,PB.B046..EHZ,P,-1.0,2010-04-17 08:32:09.980
nc71383806,2010-04-17 08:31:58.600,40.815666666666665,-124.1685,2.56,2.98,PB.B047..EHZ,P,1.0,2010-04-17 08:32:10.920
nc71383806,2010-04-17 08:31:58.600,40.815666666666665,-124.1685,2.56,2.98,PB.B049..EHZ,P,1.0,2010-04-17 08:32:12.190
nc71383806,2010-04-17 08:31:58.600,40.815666666666665,-124.1685,2.56,2.98,PB.B932..EHZ,P,-1.0,2010-04-17 08:32:10.480
nc71383806,2010-04-17 08:31:58.600,40.815666666666665,-124.1685,2.56,2.98,PB.B933..EHZ,P,,2010-04-17 08:32:14.050
nc71383806,2010-04-17 08:31:58.600,40.815666666666665,-124.1685,2.56,2.98,PB.B934..EHZ,P,-1.0,2010-04-17 08:32:18.000
nc71383806,2010-04-17 08:31:58.600,40.815666666666665,-124.1685,2.56,2.98,PB.B935..EHZ,P,,2010-04-17 08:32:10.830
nc71383816,2010-04-17 09:06:19.310,40.816833333333335,-124.16683333333333,2.82,1.8,BK.JCC..HHZ,P,-1.0,2010-04-17 09:06:22.120
nc71383816,2010-04-17 09:06:19.310,40.816833333333335,-124.16683333333333,2.82,1.8,NC.KCR..SHZ,P,1.0,2010-04-17 09:06:29.990
nc71383816,2010-04-17 09:06:19.310,40.816833333333335,-124.16683333333333,2.82,1.8,NC.KCT..HHZ,P,-1.0,2010-04-17 09:06:27.900
nc71383816,2010-04-17 09:06:19.310,40.816833333333335,-124.16683333333333,2.82,1.8,NC.KHBB..HHZ,P,1.0,2010-04-17 09:06:34.850
nc71383816,2010-04-17 09:06:19.310,40.816833333333335,-124.16683333333333,2.82,1.8,NC.KHMB..HHZ,P,1.0,2010-04-17 09:06:27.260
nc71383816,2010-04-17 09:06:19.310,40.816833333333335,-124.16683333333333,2.82,1.8,NC.KJJ..SHZ,P,-1.0,2010-04-17 09:06:31.800
nc71383816,2010-04-17 09:06:19.310,40.816833333333335,-124.16683333333333,2.82,1.8,NC.KKP..SHZ,P,1.0,2010-04-17 09:06:36.960
nc71383816,2010-04-17 09:06:19.310,40.816833333333335,-124.16683333333333,2.82,1.8,NC.KMR..HHZ,P,1.0,2010-04-17 09:06:34.460
nc71383816,2010-04-17 09:06:19.310,40.816833333333335,-124.16683333333333,2.82,1.8,NC.KOM..SHZ,P,1.0,2010-04-17 09:06:34.020
nc71383816,2010-04-17 09:06:19.310,40.816833333333335,-124.16683333333333,2.82,1.8,NC.KPP..SHZ,P,1.0,2010-04-17 09:06:35.800
nc71383816,2010-04-17 09:06:19.310,40.816833333333335,-124.16683333333333,2.82,1.8,NC.KRP..HHZ,P,1.0,2010-04-17 09:06:27.310
nc71383816,2010-04-17 09:06:19.310,40.816833333333335,-124.16683333333333,2.82,1.8,PB.B045..EHZ,P,1.0,2010-04-17 09:06:28.560
nc71383816,2010-04-17 09:06:19.310,40.816833333333335,-124.16683333333333,2.82,1.8,PB.B046..EHZ,P,-1.0,2010-04-17 09:06:30.620
nc71383816,2010-04-17 09:06:19.310,40.816833333333335,-124.16683333333333,2.82,1.8,PB.B047..EHZ,P,,2010-04-17 09:06:31.620
nc71383816,2010-04-17 09:06:19.310,40.816833333333335,-124.16683333333333,2.82,1.8,PB.B049..EHZ,P,-1.0,2010-04-17 09:06:33.060
nc71383816,2010-04-17 09:06:19.310,40.816833333333335,-124.16683333333333,2.82,1.8,PB.B932..EHZ,P,-1.0,2010-04-17 09:06:31.130
nc71383816,2010-04-17 09:06:19.310,40.816833333333335,-124.16683333333333,2.82,1.8,PB.B933..EHZ,P,-1.0,2010-04-17 09:06:34.700
nc71383816,2010-04-17 09:06:19.310,40.816833333333335,-124.16683333333333,2.82,1.8,PB.B934..EHZ,P,1.0,2010-04-17 09:06:40.910
nc71383816,2010-04-17 09:06:19.310,40.816833333333335,-124.16683333333333,2.82,1.8,PB.B935..EHZ,P,,2010-04-17 09:06:31.540
nc71383971,2010-04-17 16:03:26.780,40.81516666666667,-124.17666666666666,-0.64,2.64,BK.JCC..HHZ,P,-1.0,2010-04-17 16:03:30.140
nc71383971,2010-04-17 16:03:26.780,40.81516666666667,-124.17666666666666,-0.64,2.64,BK.WDC..HHZ,P,-1.0,2010-04-17 16:03:50.450
nc71383971,2010-04-17 16:03:26.780,40.81516666666667,-124.17666666666666,-0.64,2.64,BK.YBH..HHZ,P,1.0,2010-04-17 16:03:52.620
nc71383971,2010-04-17 16:03:26.780,40.81516666666667,-124.17666666666666,-0.64,2.64,NC.GRO..EHZ,P,1.0,2010-04-17 16:03:52.960
nc71383971,2010-04-17 16:03:26.780,40.81516666666667,-124.17666666666666,-0.64,2.64,NC.GTC..SHZ,P,1.0,2010-04-17 16:03:52.410
nc71383971,2010-04-17 16:03:26.780,40.81516666666667,-124.17666666666666,-0.64,2.64,NC.GVV..EHZ,P,-1.0,2010-04-17 16:03:54.710
nc71383971,2010-04-17 16:03:26.780,40.81516666666667,-124.17666666666666,-0.64,2.64,NC.KBN..SHZ,P,1.0,2010-04-17 16:03:49.310
nc71383971,2010-04-17 16:03:26.780,40.81516666666667,-124.17666666666666,-0.64,2.64,NC.KBO..HHZ,P,-1.0,2010-04-17 16:03:50.790
nc71383971,2010-04-17 16:03:26.780,40.81516666666667,-124.17666666666666,-0.64,2.64,NC.KCPB..HHZ,P,1.0,2010-04-17 16:03:49.200
nc71383971,2010-04-17 16:03:26.780,40.81516666666667,-124.17666666666666,-0.64,2.64,NC.KCR..SHZ,P,1.0,2010-04-17 16:03:37.740
nc71383971,2010-04-17 16:03:26.780,40.81516666666667,-124.17666666666666,-0.64,2.64,NC.KCS..SHZ,P,1.0,2010-04-17 16:03:40.120
nc71383971,2010-04-17 16:03:26.780,40.81516666666667,-124.17666666666666,-0.64,2.64,NC.KCT..HHZ,P,-1.0,2010-04-17 16:03:35.920
nc71383971,2010-04-17 16:03:26.780,40.81516666666667,-124.17666666666666,-0.64,2.64,NC.KFP..SHZ,P,,2010-04-17 16:03:50.520
nc71383971,2010-04-17 16:03:26.780,40.81516666666667,-124.17666666666666,-0.64,2.64,NC.KHBB..HHZ,P,1.0,2010-04-17 16:03:42.440
nc71383971,2010-04-17 16:03:26.780,40.81516666666667,-124.17666666666666,-0.64,2.64,NC.KHMB..HHZ,P,-1.0,2010-04-17 16:03:35.230
nc71383971,2010-04-17 16:03:26.780,40.81516666666667,-124.17666666666666,-0.64,2.64,NC.KIP..SHZ,P,-1.0,2010-04-17 16:03:48.470
nc71383971,2010-04-17 16:03:26.780,40.81516666666667,-124.17666666666666,-0.64,2.64,NC.KJJ..SHZ,P,-1.0,2010-04-17 16:03:39.610
nc71383971,2010-04-17 16:03:26.780,40.81516666666667,-124.17666666666666,-0.64,2.64,NC.KKP..SHZ,P,,2010-04-17 16:03:44.420
nc71383971,2010-04-17 16:03:26.780,40.81516666666667,-124.17666666666666,-0.64,2.64,NC.KMPB..HHZ,P,1.0,2010-04-17 16:03:36.580
nc71383971,2010-04-17 16:03:26.780,40.81516666666667,-124.17666666666666,-0.64,2.64,NC.KMR..HHZ,P,1.0,2010-04-17 16:03:42.180
nc71383971,2010-04-17 16:03:26.780,40.81516666666667,-124.17666666666666,-0.64,2.64,NC.KOM..SHZ,P,-1.0,2010-04-17 16:03:41.730
nc71383971,2010-04-17 16:03:26.780,40.81516666666667,-124.17666666666666,-0.64,2.64,NC.KPP..SHZ,P,1.0,2010-04-17 16:03:43.430
nc71383971,2010-04-17 16:03:26.780,40.81516666666667,-124.17666666666666,-0.64,2.64,NC.KRP..HHZ,P,1.0,2010-04-17 16:03:35.180
nc71383971,2010-04-17 16:03:26.780,40.81516666666667,-124.17666666666666,-0.64,2.64,NC.KSM..SHZ,P,1.0,2010-04-17 16:03:40.520
nc71383971,2010-04-17 16:03:26.780,40.81516666666667,-124.17666666666666,-0.64,2.64,NC.KSXB..HHZ,P,1.0,2010-04-17 16:03:46.300
nc71383971,2010-04-17 16:03:26.780,40.81516666666667,-124.17666666666666,-0.64,2.64,NC.KTR..SHZ,P,1.0,2010-04-17 16:03:49.520
nc71383971,2010-04-17 16:03:26.780,40.81516666666667,-124.17666666666666,-0.64,2.64,NC.LAM..SHZ,P,1.0,2010-04-17 16:03:52.310
nc71383971,2010-04-17 16:03:26.780,40.81516666666667,-124.17666666666666,-0.64,2.64,NC.LGB..SHZ,P,1.0,2010-04-17 16:03:55.810
nc71383971,2010-04-17 16:03:26.780,40.81516666666667,-124.17666666666666,-0.64,2.64,NC.LSF..SHZ,P,-1.0,2010-04-17 16:03:50.460
nc71383971,2010-04-17 16:03:26.780,40.81516666666667,-124.17666666666666,-0.64,2.64,PB.B039..EHZ,P,,2010-04-17 16:03:52.370
nc71383971,2010-04-17 16:03:26.780,40.81516666666667,-124.17666666666666,-0.64,2.64,PB.B045..EHZ,P,-1.0,2010-04-17 16:03:36.510
nc71383971,2010-04-17 16:03:26.780,40.81516666666667,-124.17666666666666,-0.64,2.64,PB.B046..EHZ,P,-1.0,2010-04-17 16:03:38.650
nc71383971,2010-04-17 16:03:26.780,40.81516666666667,-124.17666666666666,-0.64,2.64,PB.B047..EHZ,P,1.0,2010-04-17 16:03:39.630
nc71383971,2010-04-17 16:03:26.780,40.81516666666667,-124.17666666666666,-0.64,2.64,PB.B049..EHZ,P,1.0,2010-04-17 16:03:40.920
nc71383971,2010-04-17 16:03:26.780,40.81516666666667,-124.17666666666666,-0.64,2.64,PB.B932..EHZ,P,-1.0,2010-04-17 16:03:39.110
nc71383971,2010-04-17 16:03:26.780,40.81516666666667,-124.17666666666666,-0.64,2.64,PB.B933..EHZ,P,-1.0,2010-04-17 16:03:42.840
nc71383971,2010-04-17 16:03:26.780,40.81516666666667,-124.17666666666666,-0.64,2.64,PB.B934..EHZ,P,,2010-04-17 16:03:46.630
nc71383971,2010-04-17 16:03:26.780,40.81516666666667,-124.17666666666666,-0.64,2.64,PB.B935..EHZ,P,-1.0,2010-04-17 16:03:39.540
nc71386726,2010-04-22 17:34:10.420,40.53516666666667,-124.21516666666666,3.81,1.9,PB.B046..EHZ,P,,2010-04-22 17:34:15.820
nc71386726,2010-04-22 17:34:10.420,40.53516666666667,-124.21516666666666,3.81,1.9,PB.B047..EHZ,P,-1.0,2010-04-22 17:34:17.180
nc71386726,2010-04-22 17:34:10.420,40.53516666666667,-124.21516666666666,3.81,1.9,PB.B932..EHZ,P,-1.0,2010-04-22 17:34:16.430
nc71391921,2010-05-03 18:38:12.980,40.7435,-123.56383333333333,24.54,2.29,BK.JCC..HHZ,P,1.0,2010-05-03 18:38:20.660
nc71391921,2010-05-03 18:38:12.980,40.7435,-123.56383333333333,24.54,2.29,BK.WDC..HHZ,P,1.0,2010-05-03 18:38:27.790
nc71391921,2010-05-03 18:38:12.980,40.7435,-123.56383333333333,24.54,2.29,NC.KBN..SHZ,P,-1.0,2010-05-03 18:38:29.880
nc71391921,2010-05-03 18:38:12.980,40.7435,-123.56383333333333,24.54,2.29,NC.KCR..SHZ,P,1.0,2010-05-03 18:38:21.300
nc71391921,2010-05-03 18:38:12.980,40.7435,-123.56383333333333,24.54,2.29,NC.KCT..HHZ,P,,2010-05-03 18:38:24.890
nc71391921,2010-05-03 18:38:12.980,40.7435,-123.56383333333333,24.54,2.29,NC.KHBB..HHZ,P,1.0,2010-05-03 18:38:19.870
nc71391921,2010-05-03 18:38:12.980,40.7435,-123.56383333333333,24.54,2.29,NC.KHMB..HHZ,P,-1.0,2010-05-03 18:38:18.560
nc71391921,2010-05-03 18:38:12.980,40.7435,-123.56383333333333,24.54,2.29,NC.KIP..SHZ,P,,2010-05-03 18:38:31.130
nc71391921,2010-05-03 18:38:12.980,40.7435,-123.56383333333333,24.54,2.29,NC.KJJ..SHZ,P,-1.0,2010-05-03 18:38:26.390
nc71391921,2010-05-03 18:38:12.980,40.7435,-123.56383333333333,24.54,2.29,NC.KKP..SHZ,P,-1.0,2010-05-03 18:38:25.290
nc71391921,2010-05-03 18:38:12.980,40.7435,-123.56383333333333,24.54,2.29,NC.KMPB..HHZ,P,1.0,2010-05-03 18:38:23.420
nc71391921,2010-05-03 18:38:12.980,40.7435,-123.56383333333333,24.54,2.29,NC.KMR..HHZ,P,-1.0,2010-05-03 18:38:23.920
nc71391921,2010-05-03 18:38:12.980,40.7435,-123.56383333333333,24.54,2.29,NC.KOM..SHZ,P,1.0,2010-05-03 18:38:23.340
nc71391921,2010-05-03 18:38:12.980,40.7435,-123.56383333333333,24.54,2.29,NC.KPP..SHZ,P,1.0,2010-05-03 18:38:22.300
nc71391921,2010-05-03 18:38:12.980,40.7435,-123.56383333333333,24.54,2.29,NC.KRP..HHZ,P,1.0,2010-05-03 18:38:23.310
nc71391921,2010-05-03 18:38:12.980,40.7435,-123.56383333333333,24.54,2.29,NC.KSM..SHZ,P,1.0,2010-05-03 18:38:26.220
nc71391921,2010-05-03 18:38:12.980,40.7435,-123.56383333333333,24.54,2.29,NC.LBF..SHZ,P,-1.0,2010-05-03 18:38:38.560
nc71391921,2010-05-03 18:38:12.980,40.7435,-123.56383333333333,24.54,2.29,NC.LBK..SHZ,P,-1.0,2010-05-03 18:38:26.430
nc71391921,2010-05-03 18:38:12.980,40.7435,-123.56383333333333,24.54,2.29,NC.LGB..SHZ,P,-1.0,2010-05-03 18:38:34.500
nc71391921,2010-05-03 18:38:12.980,40.7435,-123.56383333333333,24.54,2.29,NC.LSF..SHZ,P,1.0,2010-05-03 18:38:27.950
nc71391921,2010-05-03 18:38:12.980,40.7435,-123.56383333333333,24.54,2.29,NC.LSH..SHZ,P,1.0,2010-05-03 18:38:33.180
nc71391921,2010-05-03 18:38:12.980,40.7435,-123.56383333333333,24.54,2.29,NC.LWH..SHZ,P,,2010-05-03 18:38:35.000
nc71391921,2010-05-03 18:38:12.980,40.7435,-123.56383333333333,24.54,2.29,PB.B045..EHZ,P,1.0,2010-05-03 18:38:22.260
nc71391921,2010-05-03 18:38:12.980,40.7435,-123.56383333333333,24.54,2.29,PB.B046..EHZ,P,1.0,2010-05-03 18:38:25.470
nc71391921,2010-05-03 18:38:12.980,40.7435,-123.56383333333333,24.54,2.29,PB.B047..EHZ,P,1.0,2010-05-03 18:38:25.290
nc71391921,2010-05-03 18:38:12.980,40.7435,-123.56383333333333,24.54,2.29,PB.B049..EHZ,P,-1.0,2010-05-03 18:38:23.540
nc71391921,2010-05-03 18:38:12.980,40.7435,-123.56383333333333,24.54,2.29,PB.B932..EHZ,P,1.0,2010-05-03 18:38:25.230
nc71391921,2010-05-03 18:38:12.980,40.7435,-123.56383333333333,24.54,2.29,PB.B933..EHZ,P,-1.0,2010-05-03 18:38:26.490
nc71391921,2010-05-03 18:38:12.980,40.7435,-123.56383333333333,24.54,2.29,PB.B935..EHZ,P,-1.0,2010-05-03 18:38:19.700
nc71391946,2010-05-03 19:16:54.020,40.532333333333334,-124.47083333333333,12.3,1.42,NC.KJJ..SHZ,P,-1.0,2010-05-03 19:17:01.000
nc71391946,2010-05-03 19:16:54.020,40.532333333333334,-124.47083333333333,12.3,1.42,NC.KSM..SHZ,P,1.0,2010-05-03 19:17:02.670
nc71391946,2010-05-03 19:16:54.020,40.532333333333334,-124.47083333333333,12.3,1.42,PB.B046..EHZ,P,-1.0,2010-05-03 19:17:00.650
nc71391946,2010-05-03 19:16:54.020,40.532333333333334,-124.47083333333333,12.3,1.42,PB.B047..EHZ,P,-1.0,2010-05-03 19:17:02.140
nc71391946,2010-05-03 19:16:54.020,40.532333333333334,-124.47083333333333,12.3,1.42,PB.B932..EHZ,P,1.0,2010-05-03 19:17:01.240
nc71388040,2010-05-06 13:06:36.920,40.152,-123.18483333333333,33.47,2.0,NC.GRO..EHZ,P,1.0,2010-05-06 13:06:46.790
nc71388040,2010-05-06 13:06:36.920,40.152,-123.18483333333333,33.47,2.0,NC.GTC..SHZ,P,,2010-05-06 13:06:50.630
nc71388040,2010-05-06 13:06:36.920,40.152,-123.18483333333333,33.47,2.0,NC.GVV..EHZ,P,1.0,2010-05-06 13:06:47.960
nc71388040,2010-05-06 13:06:36.920,40.152,-123.18483333333333,33.47,2.0,NC.KCR..SHZ,P,1.0,2010-05-06 13:06:47.920
nc71388040,2010-05-06 13:06:36.920,40.152,-123.18483333333333,33.47,2.0,NC.KHBB..HHZ,P,-1.0,2010-05-06 13:06:47.330
nc71388040,2010-05-06 13:06:36.920,40.152,-123.18483333333333,33.47,2.0,NC.KIP..SHZ,P,-1.0,2010-05-06 13:06:46.040
nc71388040,2010-05-06 13:06:36.920,40.152,-123.18483333333333,33.47,2.0,NC.KKP..SHZ,P,1.0,2010-05-06 13:06:44.340
nc71388040,2010-05-06 13:06:36.920,40.152,-123.18483333333333,33.47,2.0,NC.KMR..HHZ,P,1.0,2010-05-06 13:06:46.020
nc71388040,2010-05-06 13:06:36.920,40.152,-123.18483333333333,33.47,2.0,NC.KPP..SHZ,P,,2010-05-06 13:06:44.450
nc71388040,2010-05-06 13:06:36.920,40.152,-123.18483333333333,33.47,2.0,NC.KRK..SHZ,P,1.0,2010-05-06 13:06:48.470
nc71388040,2010-05-06 13:06:36.920,40.152,-123.18483333333333,33.47,2.0,NC.KSM..SHZ,P,-1.0,2010-05-06 13:06:50.440
nc71388040,2010-05-06 13:06:36.920,40.152,-123.18483333333333,33.47,2.0,NC.LBP..SHZ,P,-1.0,2010-05-06 13:06:44.480
nc71388040,2010-05-06 13:06:36.920,40.152,-123.18483333333333,33.47,2.0,NC.LPG..SHZ,P,1.0,2010-05-06 13:06:45.720
nc71388040,2010-05-06 13:06:36.920,40.152,-123.18483333333333,33.47,2.0,NC.LRB..SHZ,P,-1.0,2010-05-06 13:06:47.540
nc71388040,2010-05-06 13:06:36.920,40.152,-123.18483333333333,33.47,2.0,NC.LVR..SHZ,P,1.0,2010-05-06 13:06:46.120
nc71388040,2010-05-06 13:06:36.920,40.152,-123.18483333333333,33.47,2.0,PB.B049..EHZ,P,1.0,2010-05-06 13:06:46.800
nc71388040,2010-05-06 13:06:36.920,40.152,-123.18483333333333,33.47,2.0,PB.B933..EHZ,P,-1.0,2010-05-06 13:06:48.360
nc71388040,2010-05-06 13:06:36.920,40.152,-123.18483333333333,33.47,2.0,PB.B934..EHZ,P,1.0,2010-05-06 13:06:46.960
nc71388040,2010-05-06 13:06:36.920,40.152,-123.18483333333333,33.47,2.0,PB.B935..EHZ,P,1.0,2010-05-06 13:06:46.590
nc71390415,2010-05-10 01:22:56.600,40.64566666666666,-124.4395,5.32,1.7,BK.JCC..HHZ,P,-1.0,2010-05-10 01:23:04.880
nc71390415,2010-05-10 01:22:56.600,40.64566666666666,-124.4395,5.32,1.7,NC.KCR..SHZ,P,1.0,2010-05-10 01:23:08.210
nc71390415,2010-05-10 01:22:56.600,40.64566666666666,-124.4395,5.32,1.7,NC.KCT..HHZ,P,1.0,2010-05-10 01:23:01.320
nc71390415,2010-05-10 01:22:56.600,40.64566666666666,-124.4395,5.32,1.7,NC.KHBB..HHZ,P,1.0,2010-05-10 01:23:14.090
nc71390415,2010-05-10 01:22:56.600,40.64566666666666,-124.4395,5.32,1.7,NC.KJJ..SHZ,P,-1.0,2010-05-10 01:23:06.170
nc71390415,2010-05-10 01:22:56.600,40.64566666666666,-124.4395,5.32,1.7,NC.KKP..SHZ,P,1.0,2010-05-10 01:23:14.580
nc71390415,2010-05-10 01:22:56.600,40.64566666666666,-124.4395,5.32,1.7,NC.KMPB..HHZ,P,1.0,2010-05-10 01:23:04.270
nc71390415,2010-05-10 01:22:56.600,40.64566666666666,-124.4395,5.32,1.7,NC.KMR..HHZ,P,1.0,2010-05-10 01:23:11.470
nc71390415,2010-05-10 01:22:56.600,40.64566666666666,-124.4395,5.32,1.7,NC.KRP..HHZ,P,-1.0,2010-05-10 01:23:09.150
nc71390415,2010-05-10 01:22:56.600,40.64566666666666,-124.4395,5.32,1.7,NC.KSM..SHZ,P,1.0,2010-05-10 01:23:07.650
nc71390415,2010-05-10 01:22:56.600,40.64566666666666,-124.4395,5.32,1.7,PB.B045..EHZ,P,1.0,2010-05-10 01:23:05.520
nc71390415,2010-05-10 01:22:56.600,40.64566666666666,-124.4395,5.32,1.7,PB.B046..EHZ,P,1.0,2010-05-10 01:23:04.660
nc71390415,2010-05-10 01:22:56.600,40.64566666666666,-124.4395,5.32,1.7,PB.B047..EHZ,P,1.0,2010-05-10 01:23:06.600
nc71390415,2010-05-10 01:22:56.600,40.64566666666666,-124.4395,5.32,1.7,PB.B049..EHZ,P,1.0,2010-05-10 01:23:09.880
nc71390415,2010-05-10 01:22:56.600,40.64566666666666,-124.4395,5.32,1.7,PB.B932..EHZ,P,1.0,2010-05-10 01:23:05.690
nc71390415,2010-05-10 01:22:56.600,40.64566666666666,-124.4395,5.32,1.7,PB.B935..EHZ,P,,2010-05-10 01:23:10.600
nc71397951,2010-05-14 13:09:33.350,40.563833333333335,-123.48983333333334,25.1,2.28,BK.JCC..HHZ,P,1.0,2010-05-14 13:09:42.760
nc71397951,2010-05-14 13:09:33.350,40.563833333333335,-123.48983333333334,25.1,2.28,BK.WDC..HHZ,P,1.0,2010-05-14 13:09:46.360
nc71397951,2010-05-14 13:09:33.350,40.563833333333335,-123.48983333333334,25.1,2.28,NC.KCPB..HHZ,P,,2010-05-14 13:09:49.320
nc71397951,2010-05-14 13:09:33.350,40.563833333333335,-123.48983333333334,25.1,2.28,NC.KCR..SHZ,P,1.0,2010-05-14 13:09:40.470
nc71397951,2010-05-14 13:09:33.350,40.563833333333335,-123.48983333333334,25.1,2.28,NC.KCS..SHZ,P,1.0,2010-05-14 13:09:38.310
nc71397951,2010-05-14 13:09:33.350,40.563833333333335,-123.48983333333334,25.1,2.28,NC.KCT..HHZ,P,-1.0,2010-05-14 13:09:45.530
nc71397951,2010-05-14 13:09:33.350,40.563833333333335,-123.48983333333334,25.1,2.28,NC.KHBB..HHZ,P,-1.0,2010-05-14 13:09:39.500
nc71397951,2010-05-14 13:09:33.350,40.563833333333335,-123.48983333333334,25.1,2.28,NC.KHMB..HHZ,P,-1.0,2010-05-14 13:09:41.390
nc71397951,2010-05-14 13:09:33.350,40.563833333333335,-123.48983333333334,25.1,2.28,NC.KIP..SHZ,P,-1.0,2010-05-14 13:09:47.220
nc71397951,2010-05-14 13:09:33.350,40.563833333333335,-123.48983333333334,25.1,2.28,NC.KJJ..SHZ,P,1.0,2010-05-14 13:09:45.810
nc71397951,2010-05-14 13:09:33.350,40.563833333333335,-123.48983333333334,25.1,2.28,NC.KKP..SHZ,P,1.0,2010-05-14 13:09:42.810
nc71397951,2010-05-14 13:09:33.350,40.563833333333335,-123.48983333333334,25.1,2.28,NC.KMR..HHZ,P,1.0,2010-05-14 13:09:42.060
nc71397951,2010-05-14 13:09:33.350,40.563833333333335,-123.48983333333334,25.1,2.28,NC.KOM..SHZ,P,1.0,2010-05-14 13:09:46.210
nc71397951,2010-05-14 13:09:33.350,40.563833333333335,-123.48983333333334,25.1,2.28,NC.KPP..SHZ,P,-1.0,2010-05-14 13:09:40.030
nc71397951,2010-05-14 13:09:33.350,40.563833333333335,-123.48983333333334,25.1,2.28,NC.KRP..HHZ,P,1.0,2010-05-14 13:09:46.090
nc71397951,2010-05-14 13:09:33.350,40.563833333333335,-123.48983333333334,25.1,2.28,NC.KSM..SHZ,P,-1.0,2010-05-14 13:09:45.170
nc71397951,2010-05-14 13:09:33.350,40.563833333333335,-123.48983333333334,25.1,2.28,NC.LBO..SHZ,P,,2010-05-14 13:09:56.240
