event_id,etime,elat,elon,edep,emag,station_id,phase_type,phase_polarity,phase_time
nc71397951,2010-05-14 13:09:33.350,40.563833333333335,-123.48983333333334,25.1,2.28,NC.LBP..SHZ,P,1.0,2010-05-14 13:09:43.830
nc71397951,2010-05-14 13:09:33.350,40.563833333333335,-123.48983333333334,25.1,2.28,NC.LDB..SHZ,P,-1.0,2010-05-14 13:09:54.840
nc71397951,2010-05-14 13:09:33.350,40.563833333333335,-123.48983333333334,25.1,2.28,NC.LGB..SHZ,P,-1.0,2010-05-14 13:09:55.340
nc71397951,2010-05-14 13:09:33.350,40.563833333333335,-123.48983333333334,25.1,2.28,NC.LMI..SHZ,P,,2010-05-14 13:09:51.140
nc71397951,2010-05-14 13:09:33.350,40.563833333333335,-123.48983333333334,25.1,2.28,NC.LMP..SHZ,P,,2010-05-14 13:09:57.430
nc71397951,2010-05-14 13:09:33.350,40.563833333333335,-123.48983333333334,25.1,2.28,NC.LPG..SHZ,P,-1.0,2010-05-14 13:09:47.350
nc71397951,2010-05-14 13:09:33.350,40.563833333333335,-123.48983333333334,25.1,2.28,NC.LRB..SHZ,P,-1.0,2010-05-14 13:09:48.790
nc71397951,2010-05-14 13:09:33.350,40.563833333333335,-123.48983333333334,25.1,2.28,NC.LSF..SHZ,P,1.0,2010-05-14 13:09:46.850
nc71397951,2010-05-14 13:09:33.350,40.563833333333335,-123.48983333333334,25.1,2.28,NC.LSH..SHZ,P,1.0,2010-05-14 13:09:52.600
nc71397951,2010-05-14 13:09:33.350,40.563833333333335,-123.48983333333334,25.1,2.28,NC.LVR..SHZ,P,1.0,2010-05-14 13:09:48.190
nc71397951,2010-05-14 13:09:33.350,40.563833333333335,-123.48983333333334,25.1,2.28,NC.LWH..SHZ,P,1.0,2010-05-14 13:09:53.020
nc71397951,2010-05-14 13:09:33.350,40.563833333333335,-123.48983333333334,25.1,2.28,PB.B045..EHZ,P,-1.0,2010-05-14 13:09:41.930
nc71397951,2010-05-14 13:09:33.350,40.563833333333335,-123.48983333333334,25.1,2.28,PB.B046..EHZ,P,-1.0,2010-05-14 13:09:45.070
nc71397951,2010-05-14 13:09:33.350,40.563833333333335,-123.48983333333334,25.1,2.28,PB.B049..EHZ,P,-1.0,2010-05-14 13:09:42.010
nc71397951,2010-05-14 13:09:33.350,40.563833333333335,-123.48983333333334,25.1,2.28,PB.B932..EHZ,P,-1.0,2010-05-14 13:09:44.580
nc71397951,2010-05-14 13:09:33.350,40.563833333333335,-123.48983333333334,25.1,2.28,PB.B933..EHZ,P,-1.0,2010-05-14 13:09:44.980
nc71397951,2010-05-14 13:09:33.350,40.563833333333335,-123.48983333333334,25.1,2.28,PB.B934..EHZ,P,-1.0,2010-05-14 13:09:46.630
nc71397951,2010-05-14 13:09:33.350,40.563833333333335,-123.48983333333334,25.1,2.28,PB.B935..EHZ,P,1.0,2010-05-14 13:09:38.230
nc71399811,2010-05-17 11:12:52.770,40.85216666666667,-123.68816666666666,8.93,1.48,BK.JCC..HHZ,P,-1.0,2010-05-17 11:12:57.540
nc71399811,2010-05-17 11:12:52.770,40.85216666666667,-123.68816666666666,8.93,1.48,NC.KCR..SHZ,P,1.0,2010-05-17 11:13:02.400
nc71399811,2010-05-17 11:12:52.770,40.85216666666667,-123.68816666666666,8.93,1.48,NC.KCS..SHZ,P,1.0,2010-05-17 11:13:00.790
nc71399811,2010-05-17 11:12:52.770,40.85216666666667,-123.68816666666666,8.93,1.48,NC.KCT..HHZ,P,-1.0,2010-05-17 11:13:05.820
nc71399811,2010-05-17 11:12:52.770,40.85216666666667,-123.68816666666666,8.93,1.48,NC.KHBB..HHZ,P,1.0,2010-05-17 11:13:01.580
nc71399811,2010-05-17 11:12:52.770,40.85216666666667,-123.68816666666666,8.93,1.48,NC.KHMB..HHZ,P,1.0,2010-05-17 11:12:54.990
nc71399811,2010-05-17 11:12:52.770,40.85216666666667,-123.68816666666666,8.93,1.48,NC.KJJ..SHZ,P,,2010-05-17 11:13:08.140
nc71399811,2010-05-17 11:12:52.770,40.85216666666667,-123.68816666666666,8.93,1.48,NC.KKP..SHZ,P,1.0,2010-05-17 11:13:09.000
nc71399811,2010-05-17 11:12:52.770,40.85216666666667,-123.68816666666666,8.93,1.48,NC.KMPB..HHZ,P,,2010-05-17 11:13:04.930
nc71399811,2010-05-17 11:12:52.770,40.85216666666667,-123.68816666666666,8.93,1.48,NC.KMR..HHZ,P,1.0,2010-05-17 11:13:07.040
nc71399811,2010-05-17 11:12:52.770,40.85216666666667,-123.68816666666666,8.93,1.48,NC.KOM..SHZ,P,-1.0,2010-05-17 11:13:02.710
nc71399811,2010-05-17 11:12:52.770,40.85216666666667,-123.68816666666666,8.93,1.48,NC.KPP..SHZ,P,1.0,2010-05-17 11:13:05.070
nc71399811,2010-05-17 11:12:52.770,40.85216666666667,-123.68816666666666,8.93,1.48,NC.KRP..HHZ,P,-1.0,2010-05-17 11:13:01.450
nc71399811,2010-05-17 11:12:52.770,40.85216666666667,-123.68816666666666,8.93,1.48,NC.KSM..SHZ,P,,2010-05-17 11:13:08.530
nc71399811,2010-05-17 11:12:52.770,40.85216666666667,-123.68816666666666,8.93,1.48,PB.B045..EHZ,P,-1.0,2010-05-17 11:13:02.850
nc71399811,2010-05-17 11:12:52.770,40.85216666666667,-123.68816666666666,8.93,1.48,PB.B046..EHZ,P,-1.0,2010-05-17 11:13:07.080
nc71399811,2010-05-17 11:12:52.770,40.85216666666667,-123.68816666666666,8.93,1.48,PB.B049..EHZ,P,1.0,2010-05-17 11:13:05.960
nc71399811,2010-05-17 11:12:52.770,40.85216666666667,-123.68816666666666,8.93,1.48,PB.B932..EHZ,P,-1.0,2010-05-17 11:13:07.060
nc71399811,2010-05-17 11:12:52.770,40.85216666666667,-123.68816666666666,8.93,1.48,PB.B935..EHZ,P,1.0,2010-05-17 11:13:01.750
nc71403191,2010-05-23 22:02:10.880,40.7535,-123.20533333333333,32.61,1.97,BK.JCC..HHZ,P,1.0,2010-05-23 22:02:23.000
nc71403191,2010-05-23 22:02:10.880,40.7535,-123.20533333333333,32.61,1.97,BK.WDC..HHZ,P,1.0,2010-05-23 22:02:21.400
nc71403191,2010-05-23 22:02:10.880,40.7535,-123.20533333333333,32.61,1.97,NC.KCR..SHZ,P,,2010-05-23 22:02:22.160
nc71403191,2010-05-23 22:02:10.880,40.7535,-123.20533333333333,32.61,1.97,NC.KCS..SHZ,P,-1.0,2010-05-23 22:02:18.950
nc71403191,2010-05-23 22:02:10.880,40.7535,-123.20533333333333,32.61,1.97,NC.KHBB..HHZ,P,-1.0,2010-05-23 22:02:16.520
nc71403191,2010-05-23 22:02:10.880,40.7535,-123.20533333333333,32.61,1.97,NC.KHMB..HHZ,P,1.0,2010-05-23 22:02:19.920
nc71403191,2010-05-23 22:02:10.880,40.7535,-123.20533333333333,32.61,1.97,NC.KOM..SHZ,P,-1.0,2010-05-23 22:02:21.970
nc71403191,2010-05-23 22:02:10.880,40.7535,-123.20533333333333,32.61,1.97,NC.KPP..SHZ,P,1.0,2010-05-23 22:02:20.130
nc71403191,2010-05-23 22:02:10.880,40.7535,-123.20533333333333,32.61,1.97,NC.LBP..SHZ,P,-1.0,2010-05-23 22:02:21.110
nc71403191,2010-05-23 22:02:10.880,40.7535,-123.20533333333333,32.61,1.97,NC.LMI..SHZ,P,,2010-05-23 22:02:26.010
nc71403191,2010-05-23 22:02:10.880,40.7535,-123.20533333333333,32.61,1.97,NC.LPG..SHZ,P,,2010-05-23 22:02:24.510
nc71403191,2010-05-23 22:02:10.880,40.7535,-123.20533333333333,32.61,1.97,NC.LRB..SHZ,P,1.0,2010-05-23 22:02:26.010
nc71403191,2010-05-23 22:02:10.880,40.7535,-123.20533333333333,32.61,1.97,NC.LSF..SHZ,P,-1.0,2010-05-23 22:02:21.550
nc71403191,2010-05-23 22:02:10.880,40.7535,-123.20533333333333,32.61,1.97,NC.LSH..SHZ,P,1.0,2010-05-23 22:02:26.850
nc71403191,2010-05-23 22:02:10.880,40.7535,-123.20533333333333,32.61,1.97,NC.LVR..SHZ,P,1.0,2010-05-23 22:02:26.560
nc71403191,2010-05-23 22:02:10.880,40.7535,-123.20533333333333,32.61,1.97,NC.LWH..SHZ,P,-1.0,2010-05-23 22:02:28.000
nc71403191,2010-05-23 22:02:10.880,40.7535,-123.20533333333333,32.61,1.97,PB.B039..EHZ,P,1.0,2010-05-23 22:02:27.330
nc71403191,2010-05-23 22:02:10.880,40.7535,-123.20533333333333,32.61,1.97,PB.B049..EHZ,P,1.0,2010-05-23 22:02:23.360
nc71403191,2010-05-23 22:02:10.880,40.7535,-123.20533333333333,32.61,1.97,PB.B935..EHZ,P,-1.0,2010-05-23 22:02:19.680
nc71407041,2010-05-30 21:58:23.530,40.275666666666666,-124.0565,14.51,0.59,NC.KSM..SHZ,P,1.0,2010-05-30 21:58:27.220
nc71407041,2010-05-30 21:58:23.530,40.275666666666666,-124.0565,14.51,0.59,PB.B047..EHZ,P,1.0,2010-05-30 21:58:27.030
nc71407041,2010-05-30 21:58:23.530,40.275666666666666,-124.0565,14.51,0.59,PB.B932..EHZ,P,1.0,2010-05-30 21:58:27.360
nc71407421,2010-05-31 16:19:38.940,40.30716666666667,-124.38716666666667,10.04,2.03,BK.JCC..HHZ,P,1.0,2010-05-31 16:19:50.350
nc71407421,2010-05-31 16:19:38.940,40.30716666666667,-124.38716666666667,10.04,2.03,NC.GGU..EHZ,P,1.0,2010-05-31 16:20:04.450
nc71407421,2010-05-31 16:19:38.940,40.30716666666667,-124.38716666666667,10.04,2.03,NC.GTC..SHZ,P,1.0,2010-05-31 16:19:58.010
nc71407421,2010-05-31 16:19:38.940,40.30716666666667,-124.38716666666667,10.04,2.03,NC.GVV..EHZ,P,,2010-05-31 16:20:03.460
nc71407421,2010-05-31 16:19:38.940,40.30716666666667,-124.38716666666667,10.04,2.03,NC.KCPB..HHZ,P,-1.0,2010-05-31 16:19:55.030
nc71407421,2010-05-31 16:19:38.940,40.30716666666667,-124.38716666666667,10.04,2.03,NC.KCR..SHZ,P,1.0,2010-05-31 16:19:48.990
nc71407421,2010-05-31 16:19:38.940,40.30716666666667,-124.38716666666667,10.04,2.03,NC.KCT..HHZ,P,1.0,2010-05-31 16:19:43.380
nc71407421,2010-05-31 16:19:38.940,40.30716666666667,-124.38716666666667,10.04,2.03,NC.KFP..SHZ,P,-1.0,2010-05-31 16:19:56.620
nc71407421,2010-05-31 16:19:38.940,40.30716666666667,-124.38716666666667,10.04,2.03,NC.KHBB..HHZ,P,1.0,2010-05-31 16:19:56.660
nc71407421,2010-05-31 16:19:38.940,40.30716666666667,-124.38716666666667,10.04,2.03,NC.KIP..SHZ,P,1.0,2010-05-31 16:19:55.070
nc71407421,2010-05-31 16:19:38.940,40.30716666666667,-124.38716666666667,10.04,2.03,NC.KJJ..SHZ,P,-1.0,2010-05-31 16:19:41.850
nc71407421,2010-05-31 16:19:38.940,40.30716666666667,-124.38716666666667,10.04,2.03,NC.KKP..SHZ,P,-1.0,2010-05-31 16:19:54.050
nc71407421,2010-05-31 16:19:38.940,40.30716666666667,-124.38716666666667,10.04,2.03,NC.KMPB..HHZ,P,1.0,2010-05-31 16:19:44.550
nc71407421,2010-05-31 16:19:38.940,40.30716666666667,-124.38716666666667,10.04,2.03,NC.KMR..HHZ,P,1.0,2010-05-31 16:19:50.220
nc71407421,2010-05-31 16:19:38.940,40.30716666666667,-124.38716666666667,10.04,2.03,NC.KOM..SHZ,P,1.0,2010-05-31 16:19:59.770
nc71407421,2010-05-31 16:19:38.940,40.30716666666667,-124.38716666666667,10.04,2.03,NC.KPP..SHZ,P,-1.0,2010-05-31 16:19:55.050
nc71407421,2010-05-31 16:19:38.940,40.30716666666667,-124.38716666666667,10.04,2.03,NC.KRP..HHZ,P,,2010-05-31 16:19:55.470
nc71407421,2010-05-31 16:19:38.940,40.30716666666667,-124.38716666666667,10.04,2.03,NC.KSM..SHZ,P,-1.0,2010-05-31 16:19:43.870
nc71407421,2010-05-31 16:19:38.940,40.30716666666667,-124.38716666666667,10.04,2.03,NC.LSH..SHZ,P,-1.0,2010-05-31 16:20:09.090
nc71407421,2010-05-31 16:19:38.940,40.30716666666667,-124.38716666666667,10.04,2.03,PB.B045..EHZ,P,1.0,2010-05-31 16:19:46.300
nc71407421,2010-05-31 16:19:38.940,40.30716666666667,-124.38716666666667,10.04,2.03,PB.B046..EHZ,P,1.0,2010-05-31 16:19:41.700
nc71407421,2010-05-31 16:19:38.940,40.30716666666667,-124.38716666666667,10.04,2.03,PB.B047..EHZ,P,-1.0,2010-05-31 16:19:43.460
nc71407421,2010-05-31 16:19:38.940,40.30716666666667,-124.38716666666667,10.04,2.03,PB.B049..EHZ,P,,2010-05-31 16:19:48.340
nc71407421,2010-05-31 16:19:38.940,40.30716666666667,-124.38716666666667,10.04,2.03,PB.B932..EHZ,P,-1.0,2010-05-31 16:19:42.480
nc71407421,2010-05-31 16:19:38.940,40.30716666666667,-124.38716666666667,10.04,2.03,PB.B933..EHZ,P,-1.0,2010-05-31 16:19:47.240
nc71407421,2010-05-31 16:19:38.940,40.30716666666667,-124.38716666666667,10.04,2.03,PB.B934..EHZ,P,-1.0,2010-05-31 16:19:52.410
nc71407421,2010-05-31 16:19:38.940,40.30716666666667,-124.38716666666667,10.04,2.03,PB.B935..EHZ,P,,2010-05-31 16:19:52.120
nc71407606,2010-05-31 21:52:58.190,40.1365,-123.8195,21.31,1.46,NC.KBS..SHZ,P,-1.0,2010-05-31 21:53:05.040
nc71407606,2010-05-31 21:52:58.190,40.1365,-123.8195,21.31,1.46,NC.KCR..SHZ,P,-1.0,2010-05-31 21:53:05.230
nc71407606,2010-05-31 21:52:58.190,40.1365,-123.8195,21.31,1.46,NC.KIP..SHZ,P,-1.0,2010-05-31 21:53:07.120
nc71407606,2010-05-31 21:52:58.190,40.1365,-123.8195,21.31,1.46,NC.KJJ..SHZ,P,1.0,2010-05-31 21:53:06.630
nc71407606,2010-05-31 21:52:58.190,40.1365,-123.8195,21.31,1.46,NC.KKP..SHZ,P,1.0,2010-05-31 21:53:05.170
nc71407606,2010-05-31 21:52:58.190,40.1365,-123.8195,21.31,1.46,NC.KMPB..HHZ,P,1.0,2010-05-31 21:53:06.440
nc71407606,2010-05-31 21:52:58.190,40.1365,-123.8195,21.31,1.46,NC.KMR..HHZ,P,1.0,2010-05-31 21:53:03.010
nc71407606,2010-05-31 21:52:58.190,40.1365,-123.8195,21.31,1.46,NC.KPP..SHZ,P,1.0,2010-05-31 21:53:07.310
nc71407606,2010-05-31 21:52:58.190,40.1365,-123.8195,21.31,1.46,NC.KSM..SHZ,P,1.0,2010-05-31 21:53:04.910
nc71407606,2010-05-31 21:52:58.190,40.1365,-123.8195,21.31,1.46,PB.B045..EHZ,P,-1.0,2010-05-31 21:53:05.780
nc71407606,2010-05-31 21:52:58.190,40.1365,-123.8195,21.31,1.46,PB.B046..EHZ,P,1.0,2010-05-31 21:53:06.660
nc71407606,2010-05-31 21:52:58.190,40.1365,-123.8195,21.31,1.46,PB.B047..EHZ,P,1.0,2010-05-31 21:53:05.240
nc71407606,2010-05-31 21:52:58.190,40.1365,-123.8195,21.31,1.46,PB.B049..EHZ,P,1.0,2010-05-31 21:53:02.640
nc71407606,2010-05-31 21:52:58.190,40.1365,-123.8195,21.31,1.46,PB.B932..EHZ,P,1.0,2010-05-31 21:53:05.610
nc71407606,2010-05-31 21:52:58.190,40.1365,-123.8195,21.31,1.46,PB.B933..EHZ,P,1.0,2010-05-31 21:53:03.090
nc71407606,2010-05-31 21:52:58.190,40.1365,-123.8195,21.31,1.46,PB.B934..EHZ,P,-1.0,2010-05-31 21:53:05.180
nc71407606,2010-05-31 21:52:58.190,40.1365,-123.8195,21.31,1.46,PB.B935..EHZ,P,-1.0,2010-05-31 21:53:06.920
nc71407741,2010-06-01 00:59:02.120,40.30166666666667,-124.477,10.83,1.87,BK.JCC..HHZ,P,1.0,2010-06-01 00:59:13.900
nc71407741,2010-06-01 00:59:02.120,40.30166666666667,-124.477,10.83,1.87,NC.GTC..SHZ,P,1.0,2010-06-01 00:59:22.360
nc71407741,2010-06-01 00:59:02.120,40.30166666666667,-124.477,10.83,1.87,NC.KBS..SHZ,P,-1.0,2010-06-01 00:59:17.700
nc71407741,2010-06-01 00:59:02.120,40.30166666666667,-124.477,10.83,1.87,NC.KCPB..HHZ,P,1.0,2010-06-01 00:59:20.380
nc71407741,2010-06-01 00:59:02.120,40.30166666666667,-124.477,10.83,1.87,NC.KCR..SHZ,P,1.0,2010-06-01 00:59:13.310
nc71407741,2010-06-01 00:59:02.120,40.30166666666667,-124.477,10.83,1.87,NC.KCT..HHZ,P,-1.0,2010-06-01 00:59:07.160
nc71407741,2010-06-01 00:59:02.120,40.30166666666667,-124.477,10.83,1.87,NC.KFP..SHZ,P,1.0,2010-06-01 00:59:20.640
nc71407741,2010-06-01 00:59:02.120,40.30166666666667,-124.477,10.83,1.87,NC.KHBB..HHZ,P,1.0,2010-06-01 00:59:20.680
nc71407741,2010-06-01 00:59:02.120,40.30166666666667,-124.477,10.83,1.87,NC.KIP..SHZ,P,-1.0,2010-06-01 00:59:20.870
nc71407741,2010-06-01 00:59:02.120,40.30166666666667,-124.477,10.83,1.87,NC.KJJ..SHZ,P,-1.0,2010-06-01 00:59:06.170
nc71407741,2010-06-01 00:59:02.120,40.30166666666667,-124.477,10.83,1.87,NC.KKP..SHZ,P,1.0,2010-06-01 00:59:18.250
nc71407741,2010-06-01 00:59:02.120,40.30166666666667,-124.477,10.83,1.87,NC.KMPB..HHZ,P,1.0,2010-06-01 00:59:08.820
nc71407741,2010-06-01 00:59:02.120,40.30166666666667,-124.477,10.83,1.87,NC.KMR..HHZ,P,-1.0,2010-06-01 00:59:15.070
nc71407741,2010-06-01 00:59:02.120,40.30166666666667,-124.477,10.83,1.87,NC.KOM..SHZ,P,1.0,2010-06-01 00:59:23.430
nc71407741,2010-06-01 00:59:02.120,40.30166666666667,-124.477,10.83,1.87,NC.KSM..SHZ,P,-1.0,2010-06-01 00:59:08.290
nc71407741,2010-06-01 00:59:02.120,40.30166666666667,-124.477,10.83,1.87,PB.B045..EHZ,P,1.0,2010-06-01 00:59:10.590
nc71407741,2010-06-01 00:59:02.120,40.30166666666667,-124.477,10.83,1.87,PB.B046..EHZ,P,1.0,2010-06-01 00:59:05.960
nc71407741,2010-06-01 00:59:02.120,40.30166666666667,-124.477,10.83,1.87,PB.B047..EHZ,P,1.0,2010-06-01 00:59:07.780
nc71407741,2010-06-01 00:59:02.120,40.30166666666667,-124.477,10.83,1.87,PB.B049..EHZ,P,-1.0,2010-06-01 00:59:13.380
nc71407741,2010-06-01 00:59:02.120,40.30166666666667,-124.477,10.83,1.87,PB.B932..EHZ,P,1.0,2010-06-01 00:59:06.820
nc71407741,2010-06-01 00:59:02.120,40.30166666666667,-124.477,10.83,1.87,PB.B933..EHZ,P,-1.0,2010-06-01 00:59:11.550
nc71407741,2010-06-01 00:59:02.120,40.30166666666667,-124.477,10.83,1.87,PB.B934..EHZ,P,-1.0,2010-06-01 00:59:17.190
nc71407741,2010-06-01 00:59:02.120,40.30166666666667,-124.477,10.83,1.87,PB.B935..EHZ,P,1.0,2010-06-01 00:59:16.260
nc71410021,2010-06-05 13:37:02.160,40.34133333333333,-124.303,12.19,1.05,NC.KJJ..SHZ,P,-1.0,2010-06-05 13:37:05.250
nc71410021,2010-06-05 13:37:02.160,40.34133333333333,-124.303,12.19,1.05,NC.KMPB..HHZ,P,-1.0,2010-06-05 13:37:06.520
nc71410021,2010-06-05 13:37:02.160,40.34133333333333,-124.303,12.19,1.05,NC.KSM..SHZ,P,-1.0,2010-06-05 13:37:06.740
nc71410021,2010-06-05 13:37:02.160,40.34133333333333,-124.303,12.19,1.05,PB.B045..EHZ,P,1.0,2010-06-05 13:37:08.040
nc71410021,2010-06-05 13:37:02.160,40.34133333333333,-124.303,12.19,1.05,PB.B046..EHZ,P,-1.0,2010-06-05 13:37:04.720
nc71410021,2010-06-05 13:37:02.160,40.34133333333333,-124.303,12.19,1.05,PB.B047..EHZ,P,-1.0,2010-06-05 13:37:06.100
nc71410021,2010-06-05 13:37:02.160,40.34133333333333,-124.303,12.19,1.05,PB.B049..EHZ,P,-1.0,2010-06-05 13:37:10.510
nc71410021,2010-06-05 13:37:02.160,40.34133333333333,-124.303,12.19,1.05,PB.B932..EHZ,P,-1.0,2010-06-05 13:37:05.290
nc71410021,2010-06-05 13:37:02.160,40.34133333333333,-124.303,12.19,1.05,PB.B933..EHZ,P,-1.0,2010-06-05 13:37:09.950
nc71406480,2010-06-08 10:31:12.790,40.32183333333333,-124.38016666666667,9.19,1.84,BK.JCC..HHZ,P,-1.0,2010-06-08 10:31:23.510
nc71406480,2010-06-08 10:31:12.790,40.32183333333333,-124.38016666666667,9.19,1.84,NC.KCR..SHZ,P,1.0,2010-06-08 10:31:22.660
nc71406480,2010-06-08 10:31:12.790,40.32183333333333,-124.38016666666667,9.19,1.84,NC.KCT..HHZ,P,1.0,2010-06-08 10:31:16.950
nc71406480,2010-06-08 10:31:12.790,40.32183333333333,-124.38016666666667,9.19,1.84,NC.KJJ..SHZ,P,1.0,2010-06-08 10:31:15.670
nc71406480,2010-06-08 10:31:12.790,40.32183333333333,-124.38016666666667,9.19,1.84,NC.KMPB..HHZ,P,1.0,2010-06-08 10:31:18.230
nc71406480,2010-06-08 10:31:12.790,40.32183333333333,-124.38016666666667,9.19,1.84,NC.KMR..HHZ,P,-1.0,2010-06-08 10:31:24.350
nc71406480,2010-06-08 10:31:12.790,40.32183333333333,-124.38016666666667,9.19,1.84,NC.KSM..SHZ,P,-1.0,2010-06-08 10:31:17.610
nc71406480,2010-06-08 10:31:12.790,40.32183333333333,-124.38016666666667,9.19,1.84,PB.B045..EHZ,P,1.0,2010-06-08 10:31:19.970
nc71406480,2010-06-08 10:31:12.790,40.32183333333333,-124.38016666666667,9.19,1.84,PB.B046..EHZ,P,1.0,2010-06-08 10:31:15.500
nc71406480,2010-06-08 10:31:12.790,40.32183333333333,-124.38016666666667,9.19,1.84,PB.B047..EHZ,P,1.0,2010-06-08 10:31:17.190
nc71406480,2010-06-08 10:31:12.790,40.32183333333333,-124.38016666666667,9.19,1.84,PB.B049..EHZ,P,-1.0,2010-06-08 10:31:21.940
nc71406480,2010-06-08 10:31:12.790,40.32183333333333,-124.38016666666667,9.19,1.84,PB.B932..EHZ,P,1.0,2010-06-08 10:31:16.230
nc71406480,2010-06-08 10:31:12.790,40.32183333333333,-124.38016666666667,9.19,1.84,PB.B933..EHZ,P,,2010-06-08 10:31:20.870
nc71406480,2010-06-08 10:31:12.790,40.32183333333333,-124.38016666666667,9.19,1.84,PB.B934..EHZ,P,1.0,2010-06-08 10:31:26.470
nc71413176,2010-06-10 15:26:16.070,40.296166666666664,-124.2505,15.47,1.46,NC.KCR..SHZ,P,,2010-06-10 15:26:24.240
nc71413176,2010-06-10 15:26:16.070,40.296166666666664,-124.2505,15.47,1.46,NC.KCT..HHZ,P,1.0,2010-06-10 15:26:21.380
nc71413176,2010-06-10 15:26:16.070,40.296166666666664,-124.2505,15.47,1.46,NC.KJJ..SHZ,P,-1.0,2010-06-10 15:26:19.390
nc71413176,2010-06-10 15:26:16.070,40.296166666666664,-124.2505,15.47,1.46,NC.KKP..SHZ,P,1.0,2010-06-10 15:26:28.540
nc71413176,2010-06-10 15:26:16.070,40.296166666666664,-124.2505,15.47,1.46,NC.KMPB..HHZ,P,-1.0,2010-06-10 15:26:20.710
nc71413176,2010-06-10 15:26:16.070,40.296166666666664,-124.2505,15.47,1.46,NC.KSM..SHZ,P,-1.0,2010-06-10 15:26:20.070
nc71413176,2010-06-10 15:26:16.070,40.296166666666664,-124.2505,15.47,1.46,PB.B045..EHZ,P,-1.0,2010-06-10 15:26:21.940
nc71413176,2010-06-10 15:26:16.070,40.296166666666664,-124.2505,15.47,1.46,PB.B046..EHZ,P,-1.0,2010-06-10 15:26:19.160
nc71413176,2010-06-10 15:26:16.070,40.296166666666664,-124.2505,15.47,1.46,PB.B049..EHZ,P,,2010-06-10 15:26:23.280
nc71413176,2010-06-10 15:26:16.070,40.296166666666664,-124.2505,15.47,1.46,PB.B932..EHZ,P,-1.0,2010-06-10 15:26:19.070
nc71413176,2010-06-10 15:26:16.070,40.296166666666664,-124.2505,15.47,1.46,PB.B933..EHZ,P,1.0,2010-06-10 15:26:22.710
nc71417116,2010-06-18 22:45:31.870,40.22083333333333,-124.125,11.89,1.91,BK.JCC..HHZ,P,,2010-06-18 22:45:44.150
nc71417116,2010-06-18 22:45:31.870,40.22083333333333,-124.125,11.89,1.91,NC.GTC..SHZ,P,1.0,2010-06-18 22:45:47.890
nc71417116,2010-06-18 22:45:31.870,40.22083333333333,-124.125,11.89,1.91,NC.KBS..SHZ,P,-1.0,2010-06-18 22:45:42.360
nc71417116,2010-06-18 22:45:31.870,40.22083333333333,-124.125,11.89,1.91,NC.KCPB..HHZ,P,-1.0,2010-06-18 22:45:45.460
nc71417116,2010-06-18 22:45:31.870,40.22083333333333,-124.125,11.89,1.91,NC.KCR..SHZ,P,1.0,2010-06-18 22:45:39.020
nc71417116,2010-06-18 22:45:31.870,40.22083333333333,-124.125,11.89,1.91,NC.KCS..SHZ,P,1.0,2010-06-18 22:45:44.130
