event_id,etime,elat,elon,edep,emag,station_id,phase_type,phase_polarity,phase_time
nc71417116,2010-06-18 22:45:31.870,40.22083333333333,-124.125,11.89,1.91,NC.KCT..HHZ,P,-1.0,2010-06-18 22:45:39.080
nc71417116,2010-06-18 22:45:31.870,40.22083333333333,-124.125,11.89,1.91,NC.KIP..SHZ,P,-1.0,2010-06-18 22:45:44.780
nc71417116,2010-06-18 22:45:31.870,40.22083333333333,-124.125,11.89,1.91,NC.KJJ..SHZ,P,1.0,2010-06-18 22:45:35.730
nc71417116,2010-06-18 22:45:31.870,40.22083333333333,-124.125,11.89,1.91,NC.KKP..SHZ,P,1.0,2010-06-18 22:45:43.110
nc71417116,2010-06-18 22:45:31.870,40.22083333333333,-124.125,11.89,1.91,NC.KMPB..HHZ,P,-1.0,2010-06-18 22:45:36.770
nc71417116,2010-06-18 22:45:31.870,40.22083333333333,-124.125,11.89,1.91,NC.KMR..HHZ,P,-1.0,2010-06-18 22:45:39.180
nc71417116,2010-06-18 22:45:31.870,40.22083333333333,-124.125,11.89,1.91,NC.KPP..SHZ,P,1.0,2010-06-18 22:45:44.690
nc71417116,2010-06-18 22:45:31.870,40.22083333333333,-124.125,11.89,1.91,NC.KSM..SHZ,P,1.0,2010-06-18 22:45:34.630
nc71417116,2010-06-18 22:45:31.870,40.22083333333333,-124.125,11.89,1.91,PB.B045..EHZ,P,-1.0,2010-06-18 22:45:37.500
nc71417116,2010-06-18 22:45:31.870,40.22083333333333,-124.125,11.89,1.91,PB.B046..EHZ,P,-1.0,2010-06-18 22:45:36.020
nc71417116,2010-06-18 22:45:31.870,40.22083333333333,-124.125,11.89,1.91,PB.B049..EHZ,P,1.0,2010-06-18 22:45:37.390
nc71417116,2010-06-18 22:45:31.870,40.22083333333333,-124.125,11.89,1.91,PB.B932..EHZ,P,1.0,2010-06-18 22:45:34.880
nc71417116,2010-06-18 22:45:31.870,40.22083333333333,-124.125,11.89,1.91,PB.B933..EHZ,P,-1.0,2010-06-18 22:45:36.500
nc71417116,2010-06-18 22:45:31.870,40.22083333333333,-124.125,11.89,1.91,PB.B934..EHZ,P,-1.0,2010-06-18 22:45:41.840
nc71417116,2010-06-18 22:45:31.870,40.22083333333333,-124.125,11.89,1.91,PB.B935..EHZ,P,1.0,2010-06-18 22:45:42.710
nc71417121,2010-06-18 22:49:55.670,40.219,-124.121,10.57,2.1,BK.JCC..HHZ,P,,2010-06-18 22:50:07.750
nc71417121,2010-06-18 22:49:55.670,40.219,-124.121,10.57,2.1,NC.GTC..SHZ,P,,2010-06-18 22:50:13.520
nc71417121,2010-06-18 22:49:55.670,40.219,-124.121,10.57,2.1,NC.KBN..SHZ,P,-1.0,2010-06-18 22:50:10.900
nc71417121,2010-06-18 22:49:55.670,40.219,-124.121,10.57,2.1,NC.KBS..SHZ,P,-1.0,2010-06-18 22:50:06.140
nc71417121,2010-06-18 22:49:55.670,40.219,-124.121,10.57,2.1,NC.KCPB..HHZ,P,,2010-06-18 22:50:09.210
nc71417121,2010-06-18 22:49:55.670,40.219,-124.121,10.57,2.1,NC.KCS..SHZ,P,1.0,2010-06-18 22:50:07.880
nc71417121,2010-06-18 22:49:55.670,40.219,-124.121,10.57,2.1,NC.KCT..HHZ,P,-1.0,2010-06-18 22:50:02.850
nc71417121,2010-06-18 22:49:55.670,40.219,-124.121,10.57,2.1,NC.KFP..SHZ,P,,2010-06-18 22:50:10.080
nc71417121,2010-06-18 22:49:55.670,40.219,-124.121,10.57,2.1,NC.KHBB..HHZ,P,1.0,2010-06-18 22:50:11.120
nc71417121,2010-06-18 22:49:55.670,40.219,-124.121,10.57,2.1,NC.KIP..SHZ,P,-1.0,2010-06-18 22:50:08.560
nc71417121,2010-06-18 22:49:55.670,40.219,-124.121,10.57,2.1,NC.KKP..SHZ,P,,2010-06-18 22:50:06.860
nc71417121,2010-06-18 22:49:55.670,40.219,-124.121,10.57,2.1,NC.KMPB..HHZ,P,-1.0,2010-06-18 22:50:00.540
nc71417121,2010-06-18 22:49:55.670,40.219,-124.121,10.57,2.1,NC.KMR..HHZ,P,-1.0,2010-06-18 22:50:02.990
nc71417121,2010-06-18 22:49:55.670,40.219,-124.121,10.57,2.1,NC.KOM..SHZ,P,1.0,2010-06-18 22:50:16.100
nc71417121,2010-06-18 22:49:55.670,40.219,-124.121,10.57,2.1,NC.KPP..SHZ,P,1.0,2010-06-18 22:50:08.480
nc71417121,2010-06-18 22:49:55.670,40.219,-124.121,10.57,2.1,NC.LBP..SHZ,P,,2010-06-18 22:50:13.340
nc71417121,2010-06-18 22:49:55.670,40.219,-124.121,10.57,2.1,NC.LSH..SHZ,P,-1.0,2010-06-18 22:50:23.760
nc71417121,2010-06-18 22:49:55.670,40.219,-124.121,10.57,2.1,PB.B046..EHZ,P,-1.0,2010-06-18 22:49:59.800
nc71417121,2010-06-18 22:49:55.670,40.219,-124.121,10.57,2.1,PB.B049..EHZ,P,1.0,2010-06-18 22:50:01.190
nc71417121,2010-06-18 22:49:55.670,40.219,-124.121,10.57,2.1,PB.B932..EHZ,P,-1.0,2010-06-18 22:49:58.670
nc71417121,2010-06-18 22:49:55.670,40.219,-124.121,10.57,2.1,PB.B933..EHZ,P,-1.0,2010-06-18 22:50:00.290
nc71417121,2010-06-18 22:49:55.670,40.219,-124.121,10.57,2.1,PB.B934..EHZ,P,1.0,2010-06-18 22:50:05.760
nc71417121,2010-06-18 22:49:55.670,40.219,-124.121,10.57,2.1,PB.B935..EHZ,P,1.0,2010-06-18 22:50:06.480
nc71418491,2010-06-21 17:19:35.470,40.584833333333336,-123.57683333333334,25.78,1.58,BK.JCC..HHZ,P,-1.0,2010-06-21 17:19:43.870
nc71418491,2010-06-21 17:19:35.470,40.584833333333336,-123.57683333333334,25.78,1.58,BK.WDC..HHZ,P,-1.0,2010-06-21 17:19:49.730
nc71418491,2010-06-21 17:19:35.470,40.584833333333336,-123.57683333333334,25.78,1.58,NC.KCR..SHZ,P,1.0,2010-06-21 17:19:42.010
nc71418491,2010-06-21 17:19:35.470,40.584833333333336,-123.57683333333334,25.78,1.58,NC.KCS..SHZ,P,-1.0,2010-06-21 17:19:40.590
nc71418491,2010-06-21 17:19:35.470,40.584833333333336,-123.57683333333334,25.78,1.58,NC.KHBB..HHZ,P,1.0,2010-06-21 17:19:42.400
nc71418491,2010-06-21 17:19:35.470,40.584833333333336,-123.57683333333334,25.78,1.58,NC.KHMB..HHZ,P,-1.0,2010-06-21 17:19:42.890
nc71418491,2010-06-21 17:19:35.470,40.584833333333336,-123.57683333333334,25.78,1.58,NC.KKP..SHZ,P,-1.0,2010-06-21 17:19:45.180
nc71418491,2010-06-21 17:19:35.470,40.584833333333336,-123.57683333333334,25.78,1.58,NC.KMR..HHZ,P,1.0,2010-06-21 17:19:44.230
nc71418491,2010-06-21 17:19:35.470,40.584833333333336,-123.57683333333334,25.78,1.58,NC.KOM..SHZ,P,-1.0,2010-06-21 17:19:48.060
nc71418491,2010-06-21 17:19:35.470,40.584833333333336,-123.57683333333334,25.78,1.58,NC.KSM..SHZ,P,1.0,2010-06-21 17:19:46.800
nc71418491,2010-06-21 17:19:35.470,40.584833333333336,-123.57683333333334,25.78,1.58,PB.B045..EHZ,P,-1.0,2010-06-21 17:19:43.280
nc71418491,2010-06-21 17:19:35.470,40.584833333333336,-123.57683333333334,25.78,1.58,PB.B046..EHZ,P,1.0,2010-06-21 17:19:46.510
nc71418491,2010-06-21 17:19:35.470,40.584833333333336,-123.57683333333334,25.78,1.58,PB.B049..EHZ,P,1.0,2010-06-21 17:19:43.900
nc71418491,2010-06-21 17:19:35.470,40.584833333333336,-123.57683333333334,25.78,1.58,PB.B932..EHZ,P,,2010-06-21 17:19:45.550
nc71418491,2010-06-21 17:19:35.470,40.584833333333336,-123.57683333333334,25.78,1.58,PB.B933..EHZ,P,1.0,2010-06-21 17:19:46.940
nc71418491,2010-06-21 17:19:35.470,40.584833333333336,-123.57683333333334,25.78,1.58,PB.B934..EHZ,P,1.0,2010-06-21 17:19:48.940
nc71418491,2010-06-21 17:19:35.470,40.584833333333336,-123.57683333333334,25.78,1.58,PB.B935..EHZ,P,1.0,2010-06-21 17:19:40.550
nc71415730,2010-06-26 13:02:32.050,40.63283333333333,-123.68016666666666,23.63,1.74,BK.JCC..HHZ,P,1.0,2010-06-26 13:02:39.050
nc71415730,2010-06-26 13:02:32.050,40.63283333333333,-123.68016666666666,23.63,1.74,BK.WDC..HHZ,P,1.0,2010-06-26 13:02:47.650
nc71415730,2010-06-26 13:02:32.050,40.63283333333333,-123.68016666666666,23.63,1.74,NC.KCR..SHZ,P,-1.0,2010-06-26 13:02:38.320
nc71415730,2010-06-26 13:02:32.050,40.63283333333333,-123.68016666666666,23.63,1.74,NC.KCS..SHZ,P,1.0,2010-06-26 13:02:37.560
nc71415730,2010-06-26 13:02:32.050,40.63283333333333,-123.68016666666666,23.63,1.74,NC.KHBB..HHZ,P,1.0,2010-06-26 13:02:39.850
nc71415730,2010-06-26 13:02:32.050,40.63283333333333,-123.68016666666666,23.63,1.74,NC.KHMB..HHZ,P,1.0,2010-06-26 13:02:38.290
nc71415730,2010-06-26 13:02:32.050,40.63283333333333,-123.68016666666666,23.63,1.74,NC.KIP..SHZ,P,-1.0,2010-06-26 13:02:47.510
nc71415730,2010-06-26 13:02:32.050,40.63283333333333,-123.68016666666666,23.63,1.74,NC.KJJ..SHZ,P,1.0,2010-06-26 13:02:43.490
nc71415730,2010-06-26 13:02:32.050,40.63283333333333,-123.68016666666666,23.63,1.74,NC.KKP..SHZ,P,1.0,2010-06-26 13:02:42.820
nc71415730,2010-06-26 13:02:32.050,40.63283333333333,-123.68016666666666,23.63,1.74,NC.KMR..HHZ,P,1.0,2010-06-26 13:02:41.230
nc71415730,2010-06-26 13:02:32.050,40.63283333333333,-123.68016666666666,23.63,1.74,NC.KOM..SHZ,P,1.0,2010-06-26 13:02:44.260
nc71415730,2010-06-26 13:02:32.050,40.63283333333333,-123.68016666666666,23.63,1.74,NC.KPP..SHZ,P,1.0,2010-06-26 13:02:40.590
nc71415730,2010-06-26 13:02:32.050,40.63283333333333,-123.68016666666666,23.63,1.74,NC.KSXB..HHZ,P,-1.0,2010-06-26 13:02:51.430
nc71415730,2010-06-26 13:02:32.050,40.63283333333333,-123.68016666666666,23.63,1.74,NC.LBP..SHZ,P,-1.0,2010-06-26 13:02:45.220
nc71415730,2010-06-26 13:02:32.050,40.63283333333333,-123.68016666666666,23.63,1.74,NC.LSF..SHZ,P,-1.0,2010-06-26 13:02:48.220
nc71415730,2010-06-26 13:02:32.050,40.63283333333333,-123.68016666666666,23.63,1.74,NC.LSH..SHZ,P,1.0,2010-06-26 13:02:54.610
nc71415730,2010-06-26 13:02:32.050,40.63283333333333,-123.68016666666666,23.63,1.74,NC.LVR..SHZ,P,,2010-06-26 13:02:49.770
nc71415730,2010-06-26 13:02:32.050,40.63283333333333,-123.68016666666666,23.63,1.74,PB.B045..EHZ,P,-1.0,2010-06-26 13:02:39.210
nc71415730,2010-06-26 13:02:32.050,40.63283333333333,-123.68016666666666,23.63,1.74,PB.B046..EHZ,P,1.0,2010-06-26 13:02:42.640
nc71415730,2010-06-26 13:02:32.050,40.63283333333333,-123.68016666666666,23.63,1.74,PB.B047..EHZ,P,1.0,2010-06-26 13:02:42.420
nc71415730,2010-06-26 13:02:32.050,40.63283333333333,-123.68016666666666,23.63,1.74,PB.B049..EHZ,P,1.0,2010-06-26 13:02:40.670
nc71415730,2010-06-26 13:02:32.050,40.63283333333333,-123.68016666666666,23.63,1.74,PB.B932..EHZ,P,1.0,2010-06-26 13:02:42.330
nc71415730,2010-06-26 13:02:32.050,40.63283333333333,-123.68016666666666,23.63,1.74,PB.B933..EHZ,P,1.0,2010-06-26 13:02:43.660
nc71415730,2010-06-26 13:02:32.050,40.63283333333333,-123.68016666666666,23.63,1.74,PB.B934..EHZ,P,-1.0,2010-06-26 13:02:46.090
nc71415730,2010-06-26 13:02:32.050,40.63283333333333,-123.68016666666666,23.63,1.74,PB.B935..EHZ,P,1.0,2010-06-26 13:02:37.440
nc71415920,2010-06-27 01:28:28.590,40.611,-124.7145,9.01,2.53,BK.JCC..HHZ,P,1.0,2010-06-27 01:28:40.060
nc71415920,2010-06-27 01:28:28.590,40.611,-124.7145,9.01,2.53,BK.WDC..HHZ,P,1.0,2010-06-27 01:28:56.130
nc71415920,2010-06-27 01:28:28.590,40.611,-124.7145,9.01,2.53,NC.GBB..EHZ,P,-1.0,2010-06-27 01:29:02.130
nc71415920,2010-06-27 01:28:28.590,40.611,-124.7145,9.01,2.53,NC.GTC..SHZ,P,1.0,2010-06-27 01:28:53.260
nc71415920,2010-06-27 01:28:28.590,40.611,-124.7145,9.01,2.53,NC.KBN..SHZ,P,1.0,2010-06-27 01:28:52.760
nc71415920,2010-06-27 01:28:28.590,40.611,-124.7145,9.01,2.53,NC.KBS..SHZ,P,1.0,2010-06-27 01:28:48.410
nc71415920,2010-06-27 01:28:28.590,40.611,-124.7145,9.01,2.53,NC.KCR..SHZ,P,1.0,2010-06-27 01:28:42.870
nc71415920,2010-06-27 01:28:28.590,40.611,-124.7145,9.01,2.53,NC.KCS..SHZ,P,1.0,2010-06-27 01:28:46.100
nc71415920,2010-06-27 01:28:28.590,40.611,-124.7145,9.01,2.53,NC.KCT..HHZ,P,1.0,2010-06-27 01:28:37.400
nc71415920,2010-06-27 01:28:28.590,40.611,-124.7145,9.01,2.53,NC.KFP..SHZ,P,1.0,2010-06-27 01:28:52.020
nc71415920,2010-06-27 01:28:28.590,40.611,-124.7145,9.01,2.53,NC.KHBB..HHZ,P,1.0,2010-06-27 01:28:48.970
nc71415920,2010-06-27 01:28:28.590,40.611,-124.7145,9.01,2.53,NC.KHMB..HHZ,P,1.0,2010-06-27 01:28:43.980
nc71415920,2010-06-27 01:28:28.590,40.611,-124.7145,9.01,2.53,NC.KIP..SHZ,P,-1.0,2010-06-27 01:28:50.600
nc71415920,2010-06-27 01:28:28.590,40.611,-124.7145,9.01,2.53,NC.KJJ..SHZ,P,1.0,2010-06-27 01:28:38.910
nc71415920,2010-06-27 01:28:28.590,40.611,-124.7145,9.01,2.53,NC.KKP..SHZ,P,1.0,2010-06-27 01:28:47.870
nc71415920,2010-06-27 01:28:28.590,40.611,-124.7145,9.01,2.53,NC.KMPB..HHZ,P,1.0,2010-06-27 01:28:39.610
nc71415920,2010-06-27 01:28:28.590,40.611,-124.7145,9.01,2.53,NC.KOM..SHZ,P,1.0,2010-06-27 01:28:48.950
nc71415920,2010-06-27 01:28:28.590,40.611,-124.7145,9.01,2.53,NC.KPP..SHZ,P,1.0,2010-06-27 01:28:48.240
nc71415920,2010-06-27 01:28:28.590,40.611,-124.7145,9.01,2.53,NC.KRK..SHZ,P,-1.0,2010-06-27 01:28:54.940
nc71415920,2010-06-27 01:28:28.590,40.611,-124.7145,9.01,2.53,NC.KRP..HHZ,P,-1.0,2010-06-27 01:28:42.950
nc71415920,2010-06-27 01:28:28.590,40.611,-124.7145,9.01,2.53,NC.KSM..SHZ,P,1.0,2010-06-27 01:28:40.600
nc71415920,2010-06-27 01:28:28.590,40.611,-124.7145,9.01,2.53,NC.LBK..SHZ,P,1.0,2010-06-27 01:28:55.560
nc71415920,2010-06-27 01:28:28.590,40.611,-124.7145,9.01,2.53,NC.LBP..SHZ,P,1.0,2010-06-27 01:28:53.010
nc71415920,2010-06-27 01:28:28.590,40.611,-124.7145,9.01,2.53,NC.LDB..SHZ,P,1.0,2010-06-27 01:29:04.260
nc71415920,2010-06-27 01:28:28.590,40.611,-124.7145,9.01,2.53,NC.LGB..SHZ,P,-1.0,2010-06-27 01:29:02.630
nc71415920,2010-06-27 01:28:28.590,40.611,-124.7145,9.01,2.53,NC.LMI..SHZ,P,1.0,2010-06-27 01:29:00.720
nc71415920,2010-06-27 01:28:28.590,40.611,-124.7145,9.01,2.53,NC.LRB..SHZ,P,-1.0,2010-06-27 01:28:57.780
nc71415920,2010-06-27 01:28:28.590,40.611,-124.7145,9.01,2.53,NC.LRR..SHZ,P,,2010-06-27 01:29:06.270
nc71415920,2010-06-27 01:28:28.590,40.611,-124.7145,9.01,2.53,NC.LSF..SHZ,P,1.0,2010-06-27 01:28:56.500
nc71415920,2010-06-27 01:28:28.590,40.611,-124.7145,9.01,2.53,NC.LSH..SHZ,P,1.0,2010-06-27 01:29:01.820
nc71415920,2010-06-27 01:28:28.590,40.611,-124.7145,9.01,2.53,NC.LTC..SHZ,P,,2010-06-27 01:29:01.770
nc71415920,2010-06-27 01:28:28.590,40.611,-124.7145,9.01,2.53,NC.LVR..SHZ,P,-1.0,2010-06-27 01:28:56.820
nc71415920,2010-06-27 01:28:28.590,40.611,-124.7145,9.01,2.53,NC.LWH..SHZ,P,-1.0,2010-06-27 01:29:02.700
nc71415920,2010-06-27 01:28:28.590,40.611,-124.7145,9.01,2.53,NC.OBHB..EHZ,P,-1.0,2010-06-27 01:29:10.040
nc71415920,2010-06-27 01:28:28.590,40.611,-124.7145,9.01,2.53,NC.OGO..EHZ,P,1.0,2010-06-27 01:29:08.430
nc71415920,2010-06-27 01:28:28.590,40.611,-124.7145,9.01,2.53,NC.OSU..EHZ,P,-1.0,2010-06-27 01:29:08.460
nc71415920,2010-06-27 01:28:28.590,40.611,-124.7145,9.01,2.53,NN.SBT..SHZ,P,,2010-06-27 01:29:19.880
nc71415920,2010-06-27 01:28:28.590,40.611,-124.7145,9.01,2.53,NN.TNK..SHZ,P,,2010-06-27 01:29:26.280
nc71415920,2010-06-27 01:28:28.590,40.611,-124.7145,9.01,2.53,PB.B045..EHZ,P,1.0,2010-06-27 01:28:40.690
nc71415920,2010-06-27 01:28:28.590,40.611,-124.7145,9.01,2.53,PB.B046..EHZ,P,1.0,2010-06-27 01:28:38.450
nc71415920,2010-06-27 01:28:28.590,40.611,-124.7145,9.01,2.53,PB.B047..EHZ,P,1.0,2010-06-27 01:28:39.950
nc71415920,2010-06-27 01:28:28.590,40.611,-124.7145,9.01,2.53,PB.B049..EHZ,P,1.0,2010-06-27 01:28:43.640
nc71415920,2010-06-27 01:28:28.590,40.611,-124.7145,9.01,2.53,PB.B932..EHZ,P,1.0,2010-06-27 01:28:39.160
nc71415920,2010-06-27 01:28:28.590,40.611,-124.7145,9.01,2.53,PB.B933..EHZ,P,1.0,2010-06-27 01:28:43.560
nc71416970,2010-06-29 08:01:28.670,40.37616666666667,-123.52633333333333,22.12,1.68,BK.JCC..HHZ,P,-1.0,2010-06-29 08:01:39.620
nc71416970,2010-06-29 08:01:28.670,40.37616666666667,-123.52633333333333,22.12,1.68,BK.WDC..HHZ,P,1.0,2010-06-29 08:01:42.540
nc71416970,2010-06-29 08:01:28.670,40.37616666666667,-123.52633333333333,22.12,1.68,NC.GRO..EHZ,P,1.0,2010-06-29 08:01:43.620
nc71416970,2010-06-29 08:01:28.670,40.37616666666667,-123.52633333333333,22.12,1.68,NC.GVV..EHZ,P,-1.0,2010-06-29 08:01:45.030
nc71416970,2010-06-29 08:01:28.670,40.37616666666667,-123.52633333333333,22.12,1.68,NC.KCR..SHZ,P,1.0,2010-06-29 08:01:34.740
nc71416970,2010-06-29 08:01:28.670,40.37616666666667,-123.52633333333333,22.12,1.68,NC.KCS..SHZ,P,-1.0,2010-06-29 08:01:34.150
nc71416970,2010-06-29 08:01:28.670,40.37616666666667,-123.52633333333333,22.12,1.68,NC.KHBB..HHZ,P,-1.0,2010-06-29 08:01:36.990
nc71416970,2010-06-29 08:01:28.670,40.37616666666667,-123.52633333333333,22.12,1.68,NC.KHMB..HHZ,P,1.0,2010-06-29 08:01:39.020
nc71416970,2010-06-29 08:01:28.670,40.37616666666667,-123.52633333333333,22.12,1.68,NC.KIP..SHZ,P,,2010-06-29 08:01:39.780
nc71416970,2010-06-29 08:01:28.670,40.37616666666667,-123.52633333333333,22.12,1.68,NC.KKP..SHZ,P,-1.0,2010-06-29 08:01:35.300
nc71416970,2010-06-29 08:01:28.670,40.37616666666667,-123.52633333333333,22.12,1.68,NC.KMR..HHZ,P,-1.0,2010-06-29 08:01:34.920
nc71416970,2010-06-29 08:01:28.670,40.37616666666667,-123.52633333333333,22.12,1.68,NC.KOM..SHZ,P,,2010-06-29 08:01:45.080
nc71416970,2010-06-29 08:01:28.670,40.37616666666667,-123.52633333333333,22.12,1.68,NC.KPP..SHZ,P,-1.0,2010-06-29 08:01:34.020
nc71416970,2010-06-29 08:01:28.670,40.37616666666667,-123.52633333333333,22.12,1.68,NC.KSM..SHZ,P,1.0,2010-06-29 08:01:39.270
nc71416970,2010-06-29 08:01:28.670,40.37616666666667,-123.52633333333333,22.12,1.68,NC.LBP..SHZ,P,1.0,2010-06-29 08:01:38.640
nc71416970,2010-06-29 08:01:28.670,40.37616666666667,-123.52633333333333,22.12,1.68,NC.LPG..SHZ,P,1.0,2010-06-29 08:01:41.510
nc71416970,2010-06-29 08:01:28.670,40.37616666666667,-123.52633333333333,22.12,1.68,NC.LVR..SHZ,P,1.0,2010-06-29 08:01:42.490
nc71416970,2010-06-29 08:01:28.670,40.37616666666667,-123.52633333333333,22.12,1.68,PB.B045..EHZ,P,1.0,2010-06-29 08:01:36.560
nc71416970,2010-06-29 08:01:28.670,40.37616666666667,-123.52633333333333,22.12,1.68,PB.B046..EHZ,P,-1.0,2010-06-29 08:01:39.320
nc71416970,2010-06-29 08:01:28.670,40.37616666666667,-123.52633333333333,22.12,1.68,PB.B047..EHZ,P,1.0,2010-06-29 08:01:38.810
nc71416970,2010-06-29 08:01:28.670,40.37616666666667,-123.52633333333333,22.12,1.68,PB.B049..EHZ,P,1.0,2010-06-29 08:01:35.180
nc71416970,2010-06-29 08:01:28.670,40.37616666666667,-123.52633333333333,22.12,1.68,PB.B932..EHZ,P,-1.0,2010-06-29 08:01:38.770
nc71416970,2010-06-29 08:01:28.670,40.37616666666667,-123.52633333333333,22.12,1.68,PB.B933..EHZ,P,1.0,2010-06-29 08:01:38.230
nc71416970,2010-06-29 08:01:28.670,40.37616666666667,-123.52633333333333,22.12,1.68,PB.B934..EHZ,P,-1.0,2010-06-29 08:01:39.700
nc71416970,2010-06-29 08:01:28.670,40.37616666666667,-123.52633333333333,22.12,1.68,PB.B935..EHZ,P,-1.0,2010-06-29 08:01:33.400
nc71417485,2010-06-30 07:01:55.480,39.891,-123.0605,3.62,1.77,BK.GASB..HHZ,P,1.0,2010-06-30 07:02:03.250
nc71417485,2010-06-30 07:01:55.480,39.891,-123.0605,3.62,1.77,BK.HOPS..HHZ,P,-1.0,2010-06-30 07:02:13.980
nc71417485,2010-06-30 07:01:55.480,39.891,-123.0605,3.62,1.77,BK.WDC..HHZ,P,,2010-06-30 07:02:10.710
nc71417485,2010-06-30 07:01:55.480,39.891,-123.0605,3.62,1.77,NC.GBB..EHZ,P,1.0,2010-06-30 07:02:08.650
nc71417485,2010-06-30 07:01:55.480,39.891,-123.0605,3.62,1.77,NC.GCK..EHZ,P,-1.0,2010-06-30 07:02:08.670
nc71417485,2010-06-30 07:01:55.480,39.891,-123.0605,3.62,1.77,NC.GHG..EHZ,P,-1.0,2010-06-30 07:02:11.220
nc71417485,2010-06-30 07:01:55.480,39.891,-123.0605,3.62,1.77,NC.GHL..EHZ,P,-1.0,2010-06-30 07:02:13.240
nc71417485,2010-06-30 07:01:55.480,39.891,-123.0605,3.62,1.77,NC.GHM..EHZ,P,-1.0,2010-06-30 07:02:04.190
nc71417485,2010-06-30 07:01:55.480,39.891,-123.0605,3.62,1.77,NC.GMK..EHZ,P,,2010-06-30 07:02:15.510
nc71417485,2010-06-30 07:01:55.480,39.891,-123.0605,3.62,1.77,NC.GRO..EHZ,P,-1.0,2010-06-30 07:02:02.240
nc71417485,2010-06-30 07:01:55.480,39.891,-123.0605,3.62,1.77,NC.GTC..SHZ,P,-1.0,2010-06-30 07:02:08.700
nc71417485,2010-06-30 07:01:55.480,39.891,-123.0605,3.62,1.77,NC.GTS..EHZ,P,1.0,2010-06-30 07:02:09.470
nc71417485,2010-06-30 07:01:55.480,39.891,-123.0605,3.62,1.77,NC.GVV..EHZ,P,1.0,2010-06-30 07:02:02.520
nc71417485,2010-06-30 07:01:55.480,39.891,-123.0605,3.62,1.77,NC.GWR..EHZ,P,-1.0,2010-06-30 07:02:11.450
nc71417485,2010-06-30 07:01:55.480,39.891,-123.0605,3.62,1.77,NC.KCS..SHZ,P,1.0,2010-06-30 07:02:10.560
nc71417485,2010-06-30 07:01:55.480,39.891,-123.0605,3.62,1.77,NC.KIP..SHZ,P,1.0,2010-06-30 07:02:02.870
nc71417485,2010-06-30 07:01:55.480,39.891,-123.0605,3.62,1.77,NC.KKP..SHZ,P,1.0,2010-06-30 07:02:04.660
nc71417485,2010-06-30 07:01:55.480,39.891,-123.0605,3.62,1.77,NC.KMR..HHZ,P,1.0,2010-06-30 07:02:08.370
nc71417485,2010-06-30 07:01:55.480,39.891,-123.0605,3.62,1.77,NC.KPP..SHZ,P,-1.0,2010-06-30 07:02:06.480
nc71417485,2010-06-30 07:01:55.480,39.891,-123.0605,3.62,1.77,NC.KRK..SHZ,P,-1.0,2010-06-30 07:02:03.100
nc71417485,2010-06-30 07:01:55.480,39.891,-123.0605,3.62,1.77,NC.KSM..SHZ,P,1.0,2010-06-30 07:02:14.950
nc71417485,2010-06-30 07:01:55.480,39.891,-123.0605,3.62,1.77,NC.LBP..SHZ,P,1.0,2010-06-30 07:02:05.100
nc71417485,2010-06-30 07:01:55.480,39.891,-123.0605,3.62,1.77,NC.LMI..SHZ,P,-1.0,2010-06-30 07:02:14.180
nc71417485,2010-06-30 07:01:55.480,39.891,-123.0605,3.62,1.77,NC.LPG..SHZ,P,-1.0,2010-06-30 07:02:04.060
nc71417485,2010-06-30 07:01:55.480,39.891,-123.0605,3.62,1.77,NC.LRB..SHZ,P,1.0,2010-06-30 07:02:06.090
nc71417485,2010-06-30 07:01:55.480,39.891,-123.0605,3.62,1.77,NC.LTC..SHZ,P,,2010-06-30 07:02:09.550
