event_id,etime,elat,elon,edep,emag,station_id,phase_type,phase_polarity,phase_time
nc71335736,2010-01-05 16:37:09.270,40.585166666666666,-124.309,13.61,2.05,BK.JCC..HHZ,P,1.0,2010-01-05 16:37:16.390
nc71335736,2010-01-05 16:37:09.270,40.585166666666666,-124.309,13.61,2.05,NC.KCS..SHZ,P,1.0,2010-01-05 16:37:21.690
nc71335736,2010-01-05 16:37:09.270,40.585166666666666,-124.309,13.61,2.05,NC.KCT..HHZ,P,1.0,2010-01-05 16:37:13.090
nc71335736,2010-01-05 16:37:09.270,40.585166666666666,-124.309,13.61,2.05,NC.KHBB..HHZ,P,-1.0,2010-01-05 16:37:24.560
nc71335736,2010-01-05 16:37:09.270,40.585166666666666,-124.309,13.61,2.05,NC.KHMB..HHZ,P,1.0,2010-01-05 16:37:20.270
nc71335736,2010-01-05 16:37:09.270,40.585166666666666,-124.309,13.61,2.05,NC.KJJ..SHZ,P,-1.0,2010-01-05 16:37:16.770
nc71335736,2010-01-05 16:37:09.270,40.585166666666666,-124.309,13.61,2.05,NC.KKP..SHZ,P,-1.0,2010-01-05 16:37:24.440
nc71335736,2010-01-05 16:37:09.270,40.585166666666666,-124.309,13.61,2.05,NC.KMPB..HHZ,P,-1.0,2010-01-05 16:37:14.590
nc71335736,2010-01-05 16:37:09.270,40.585166666666666,-124.309,13.61,2.05,NC.KMR..HHZ,P,1.0,2010-01-05 16:37:21.170
nc71335736,2010-01-05 16:37:09.270,40.585166666666666,-124.309,13.61,2.05,NC.KOM..SHZ,P,1.0,2010-01-05 16:37:26.320
nc71335736,2010-01-05 16:37:09.270,40.585166666666666,-124.309,13.61,2.05,NC.KPP..SHZ,P,,2010-01-05 16:37:23.740
nc71335736,2010-01-05 16:37:09.270,40.585166666666666,-124.309,13.61,2.05,NC.KSM..SHZ,P,,2010-01-05 16:37:17.950
nc71335736,2010-01-05 16:37:09.270,40.585166666666666,-124.309,13.61,2.05,NC.LSH..SHZ,P,-1.0,2010-01-05 16:37:38.010
nc71335736,2010-01-05 16:37:09.270,40.585166666666666,-124.309,13.61,2.05,NC.LWH..SHZ,P,-1.0,2010-01-05 16:37:35.740
nc71339731,2010-01-13 06:46:49.200,40.728,-124.4475,3.59,2.89,BK.GASB..HHZ,P,,2010-01-13 06:47:16.280
nc71339731,2010-01-13 06:46:49.200,40.728,-124.4475,3.59,2.89,BK.JCC..HHZ,P,1.0,2010-01-13 06:46:58.990
nc71339731,2010-01-13 06:46:49.200,40.728,-124.4475,3.59,2.89,BK.WDC..HHZ,P,,2010-01-13 06:47:14.920
nc71339731,2010-01-13 06:46:49.200,40.728,-124.4475,3.59,2.89,NC.GHM..EHZ,P,,2010-01-13 06:47:16.320
nc71339731,2010-01-13 06:46:49.200,40.728,-124.4475,3.59,2.89,NC.GVV..EHZ,P,-1.0,2010-01-13 06:47:16.910
nc71339731,2010-01-13 06:46:49.200,40.728,-124.4475,3.59,2.89,NC.KCS..SHZ,P,,2010-01-13 06:47:04.570
nc71339731,2010-01-13 06:46:49.200,40.728,-124.4475,3.59,2.89,NC.KCT..HHZ,P,1.0,2010-01-13 06:46:55.680
nc71339731,2010-01-13 06:46:49.200,40.728,-124.4475,3.59,2.89,NC.KHBB..HHZ,P,1.0,2010-01-13 06:47:07.740
nc71339731,2010-01-13 06:46:49.200,40.728,-124.4475,3.59,2.89,NC.KHMB..HHZ,P,1.0,2010-01-13 06:47:03.020
nc71339731,2010-01-13 06:46:49.200,40.728,-124.4475,3.59,2.89,NC.KJJ..SHZ,P,1.0,2010-01-13 06:46:56.960
nc71339731,2010-01-13 06:46:49.200,40.728,-124.4475,3.59,2.89,NC.KMPB..HHZ,P,1.0,2010-01-13 06:46:58.090
nc71339731,2010-01-13 06:46:49.200,40.728,-124.4475,3.59,2.89,NC.KOM..SHZ,P,-1.0,2010-01-13 06:47:07.050
nc71339731,2010-01-13 06:46:49.200,40.728,-124.4475,3.59,2.89,NC.KSXB..HHZ,P,-1.0,2010-01-13 06:47:10.420
nc71339731,2010-01-13 06:46:49.200,40.728,-124.4475,3.59,2.89,NC.LBP..SHZ,P,-1.0,2010-01-13 06:47:11.780
nc71339731,2010-01-13 06:46:49.200,40.728,-124.4475,3.59,2.89,NC.LMC..HHZ,P,1.0,2010-01-13 06:47:22.110
nc71339731,2010-01-13 06:46:49.200,40.728,-124.4475,3.59,2.89,NC.LPG..SHZ,P,,2010-01-13 06:47:14.370
nc71339731,2010-01-13 06:46:49.200,40.728,-124.4475,3.59,2.89,NC.LSF..SHZ,P,-1.0,2010-01-13 06:47:15.520
nc71339731,2010-01-13 06:46:49.200,40.728,-124.4475,3.59,2.89,NC.LSH..SHZ,P,,2010-01-13 06:47:20.920
nc71339731,2010-01-13 06:46:49.200,40.728,-124.4475,3.59,2.89,NC.LVR..SHZ,P,-1.0,2010-01-13 06:47:15.380
nc71339731,2010-01-13 06:46:49.200,40.728,-124.4475,3.59,2.89,NC.LWH..SHZ,P,1.0,2010-01-13 06:47:21.570
nc71339731,2010-01-13 06:46:49.200,40.728,-124.4475,3.59,2.89,NC.OCR..EHZ,P,1.0,2010-01-13 06:47:24.760
nc71339731,2010-01-13 06:46:49.200,40.728,-124.4475,3.59,2.89,NC.OGO..EHZ,P,-1.0,2010-01-13 06:47:26.900
nc71339731,2010-01-13 06:46:49.200,40.728,-124.4475,3.59,2.89,NC.OSU..EHZ,P,1.0,2010-01-13 06:47:27.090
nc71340591,2010-01-15 07:03:24.750,40.62083333333333,-124.37616666666666,13.38,2.62,BK.JCC..HHZ,P,1.0,2010-01-15 07:03:32.140
nc71340591,2010-01-15 07:03:24.750,40.62083333333333,-124.37616666666666,13.38,2.62,BK.WDC..HHZ,P,-1.0,2010-01-15 07:03:48.320
nc71340591,2010-01-15 07:03:24.750,40.62083333333333,-124.37616666666666,13.38,2.62,NC.GBB..EHZ,P,-1.0,2010-01-15 07:03:53.860
nc71340591,2010-01-15 07:03:24.750,40.62083333333333,-124.37616666666666,13.38,2.62,NC.GRO..EHZ,P,-1.0,2010-01-15 07:03:49.780
nc71340591,2010-01-15 07:03:24.750,40.62083333333333,-124.37616666666666,13.38,2.62,NC.GTC..SHZ,P,,2010-01-15 07:03:44.970
nc71340591,2010-01-15 07:03:24.750,40.62083333333333,-124.37616666666666,13.38,2.62,NC.KCR..SHZ,P,1.0,2010-01-15 07:03:34.640
nc71340591,2010-01-15 07:03:24.750,40.62083333333333,-124.37616666666666,13.38,2.62,NC.KCS..SHZ,P,1.0,2010-01-15 07:03:38.050
nc71340591,2010-01-15 07:03:24.750,40.62083333333333,-124.37616666666666,13.38,2.62,NC.KCT..HHZ,P,1.0,2010-01-15 07:03:29.100
nc71340591,2010-01-15 07:03:24.750,40.62083333333333,-124.37616666666666,13.38,2.62,NC.KFP..SHZ,P,1.0,2010-01-15 07:03:43.780
nc71340591,2010-01-15 07:03:24.750,40.62083333333333,-124.37616666666666,13.38,2.62,NC.KHBB..HHZ,P,1.0,2010-01-15 07:03:40.900
nc71340591,2010-01-15 07:03:24.750,40.62083333333333,-124.37616666666666,13.38,2.62,NC.KHMB..HHZ,P,1.0,2010-01-15 07:03:36.140
nc71340591,2010-01-15 07:03:24.750,40.62083333333333,-124.37616666666666,13.38,2.62,NC.KIP..SHZ,P,-1.0,2010-01-15 07:03:42.330
nc71340591,2010-01-15 07:03:24.750,40.62083333333333,-124.37616666666666,13.38,2.62,NC.KJJ..SHZ,P,,2010-01-15 07:03:30.560
nc71340591,2010-01-15 07:03:24.750,40.62083333333333,-124.37616666666666,13.38,2.62,NC.KKP..SHZ,P,-1.0,2010-01-15 07:03:39.810
nc71340591,2010-01-15 07:03:24.750,40.62083333333333,-124.37616666666666,13.38,2.62,NC.KMPB..HHZ,P,1.0,2010-01-15 07:03:31.340
nc71340591,2010-01-15 07:03:24.750,40.62083333333333,-124.37616666666666,13.38,2.62,NC.KMR..HHZ,P,,2010-01-15 07:03:38.310
nc71340591,2010-01-15 07:03:24.750,40.62083333333333,-124.37616666666666,13.38,2.62,NC.KOM..SHZ,P,1.0,2010-01-15 07:03:41.390
nc71340591,2010-01-15 07:03:24.750,40.62083333333333,-124.37616666666666,13.38,2.62,NC.KRK..SHZ,P,,2010-01-15 07:03:46.940
nc71340591,2010-01-15 07:03:24.750,40.62083333333333,-124.37616666666666,13.38,2.62,NC.KRMB..HHZ,P,-1.0,2010-01-15 07:03:40.020
nc71340591,2010-01-15 07:03:24.750,40.62083333333333,-124.37616666666666,13.38,2.62,NC.KRP..HHZ,P,,2010-01-15 07:03:35.530
nc71340591,2010-01-15 07:03:24.750,40.62083333333333,-124.37616666666666,13.38,2.62,NC.KSM..SHZ,P,1.0,2010-01-15 07:03:32.240
nc71340591,2010-01-15 07:03:24.750,40.62083333333333,-124.37616666666666,13.38,2.62,NC.KSXB..HHZ,P,-1.0,2010-01-15 07:03:43.720
nc71340591,2010-01-15 07:03:24.750,40.62083333333333,-124.37616666666666,13.38,2.62,NC.KTR..SHZ,P,,2010-01-15 07:03:48.280
nc71340591,2010-01-15 07:03:24.750,40.62083333333333,-124.37616666666666,13.38,2.62,NC.LAM..SHZ,P,-1.0,2010-01-15 07:03:51.370
nc71340591,2010-01-15 07:03:24.750,40.62083333333333,-124.37616666666666,13.38,2.62,NC.LBC..SHZ,P,-1.0,2010-01-15 07:04:01.500
nc71340591,2010-01-15 07:03:24.750,40.62083333333333,-124.37616666666666,13.38,2.62,NC.LBF..SHZ,P,,2010-01-15 07:03:58.180
nc71340591,2010-01-15 07:03:24.750,40.62083333333333,-124.37616666666666,13.38,2.62,NC.LBK..SHZ,P,-1.0,2010-01-15 07:03:48.100
nc71340591,2010-01-15 07:03:24.750,40.62083333333333,-124.37616666666666,13.38,2.62,NC.LBP..SHZ,P,,2010-01-15 07:03:44.830
nc71340591,2010-01-15 07:03:24.750,40.62083333333333,-124.37616666666666,13.38,2.62,NC.LCSB..SHZ,P,-1.0,2010-01-15 07:03:53.100
nc71340591,2010-01-15 07:03:24.750,40.62083333333333,-124.37616666666666,13.38,2.62,NC.LDH..HHZ,P,-1.0,2010-01-15 07:03:58.750
nc71340591,2010-01-15 07:03:24.750,40.62083333333333,-124.37616666666666,13.38,2.62,NC.LEL..SHZ,P,-1.0,2010-01-15 07:03:59.560
nc71340591,2010-01-15 07:03:24.750,40.62083333333333,-124.37616666666666,13.38,2.62,NC.LGB..SHZ,P,1.0,2010-01-15 07:03:54.850
nc71340591,2010-01-15 07:03:24.750,40.62083333333333,-124.37616666666666,13.38,2.62,NC.LMC..HHZ,P,1.0,2010-01-15 07:03:55.150
nc71340591,2010-01-15 07:03:24.750,40.62083333333333,-124.37616666666666,13.38,2.62,NC.LMP..SHZ,P,1.0,2010-01-15 07:03:56.090
nc71340591,2010-01-15 07:03:24.750,40.62083333333333,-124.37616666666666,13.38,2.62,NC.LPG..SHZ,P,-1.0,2010-01-15 07:03:47.960
nc71340591,2010-01-15 07:03:24.750,40.62083333333333,-124.37616666666666,13.38,2.62,NC.LRB..SHZ,P,-1.0,2010-01-15 07:03:49.860
nc71340591,2010-01-15 07:03:24.750,40.62083333333333,-124.37616666666666,13.38,2.62,NC.LRD..SHZ,P,-1.0,2010-01-15 07:04:00.360
nc71340591,2010-01-15 07:03:24.750,40.62083333333333,-124.37616666666666,13.38,2.62,NC.LSF..SHZ,P,-1.0,2010-01-15 07:03:48.800
nc71340591,2010-01-15 07:03:24.750,40.62083333333333,-124.37616666666666,13.38,2.62,NC.LSH..SHZ,P,1.0,2010-01-15 07:03:54.060
nc71340591,2010-01-15 07:03:24.750,40.62083333333333,-124.37616666666666,13.38,2.62,NC.LSR..SHZ,P,1.0,2010-01-15 07:03:52.410
nc71340591,2010-01-15 07:03:24.750,40.62083333333333,-124.37616666666666,13.38,2.62,NC.LTC..SHZ,P,1.0,2010-01-15 07:03:53.670
nc71340591,2010-01-15 07:03:24.750,40.62083333333333,-124.37616666666666,13.38,2.62,NC.LVR..SHZ,P,-1.0,2010-01-15 07:03:48.580
nc71340591,2010-01-15 07:03:24.750,40.62083333333333,-124.37616666666666,13.38,2.62,NC.LWH..SHZ,P,-1.0,2010-01-15 07:03:54.640
nc71340591,2010-01-15 07:03:24.750,40.62083333333333,-124.37616666666666,13.38,2.62,NC.OGO..EHZ,P,-1.0,2010-01-15 07:04:00.160
nc71340591,2010-01-15 07:03:24.750,40.62083333333333,-124.37616666666666,13.38,2.62,NN.EUR..SHZ,P,1.0,2010-01-15 07:04:10.840
nc71341231,2010-01-16 06:02:27.360,40.7535,-124.62366666666667,7.54,2.51,BK.JCC..HHZ,P,1.0,2010-01-16 06:02:37.270
nc71341231,2010-01-16 06:02:27.360,40.7535,-124.62366666666667,7.54,2.51,BK.WDC..HHZ,P,1.0,2010-01-16 06:02:53.950
nc71341231,2010-01-16 06:02:27.360,40.7535,-124.62366666666667,7.54,2.51,NC.GBB..EHZ,P,1.0,2010-01-16 06:03:00.310
nc71341231,2010-01-16 06:02:27.360,40.7535,-124.62366666666667,7.54,2.51,NC.GRO..EHZ,P,1.0,2010-01-16 06:02:55.840
nc71341231,2010-01-16 06:02:27.360,40.7535,-124.62366666666667,7.54,2.51,NC.GVV..EHZ,P,1.0,2010-01-16 06:02:56.510
nc71341231,2010-01-16 06:02:27.360,40.7535,-124.62366666666667,7.54,2.51,NC.KCR..SHZ,P,1.0,2010-01-16 06:02:40.670
nc71341231,2010-01-16 06:02:27.360,40.7535,-124.62366666666667,7.54,2.51,NC.KCS..SHZ,P,1.0,2010-01-16 06:02:43.750
nc71341231,2010-01-16 06:02:27.360,40.7535,-124.62366666666667,7.54,2.51,NC.KCT..HHZ,P,1.0,2010-01-16 06:02:35.370
nc71341231,2010-01-16 06:02:27.360,40.7535,-124.62366666666667,7.54,2.51,NC.KHBB..HHZ,P,1.0,2010-01-16 06:02:46.420
nc71341231,2010-01-16 06:02:27.360,40.7535,-124.62366666666667,7.54,2.51,NC.KHMB..HHZ,P,1.0,2010-01-16 06:02:41.230
nc71341231,2010-01-16 06:02:27.360,40.7535,-124.62366666666667,7.54,2.51,NC.KJJ..SHZ,P,-1.0,2010-01-16 06:02:37.970
nc71341231,2010-01-16 06:02:27.360,40.7535,-124.62366666666667,7.54,2.51,NC.KKP..SHZ,P,,2010-01-16 06:02:46.070
nc71341231,2010-01-16 06:02:27.360,40.7535,-124.62366666666667,7.54,2.51,NC.KMPB..HHZ,P,1.0,2010-01-16 06:02:37.660
nc71341231,2010-01-16 06:02:27.360,40.7535,-124.62366666666667,7.54,2.51,NC.KMR..HHZ,P,-1.0,2010-01-16 06:02:44.190
nc71341231,2010-01-16 06:02:27.360,40.7535,-124.62366666666667,7.54,2.51,NC.KOM..SHZ,P,1.0,2010-01-16 06:02:46.330
nc71341231,2010-01-16 06:02:27.360,40.7535,-124.62366666666667,7.54,2.51,NC.KRMB..HHZ,P,1.0,2010-01-16 06:02:44.830
nc71341231,2010-01-16 06:02:27.360,40.7535,-124.62366666666667,7.54,2.51,NC.KRP..HHZ,P,,2010-01-16 06:02:40.000
nc71341231,2010-01-16 06:02:27.360,40.7535,-124.62366666666667,7.54,2.51,NC.KSM..SHZ,P,-1.0,2010-01-16 06:02:39.300
nc71341231,2010-01-16 06:02:27.360,40.7535,-124.62366666666667,7.54,2.51,NC.KSXB..HHZ,P,-1.0,2010-01-16 06:02:48.400
nc71341231,2010-01-16 06:02:27.360,40.7535,-124.62366666666667,7.54,2.51,NC.LAM..SHZ,P,1.0,2010-01-16 06:02:56.480
nc71341231,2010-01-16 06:02:27.360,40.7535,-124.62366666666667,7.54,2.51,NC.LBP..SHZ,P,1.0,2010-01-16 06:02:50.830
nc71341231,2010-01-16 06:02:27.360,40.7535,-124.62366666666667,7.54,2.51,NC.LGB..SHZ,P,1.0,2010-01-16 06:02:59.670
nc71341231,2010-01-16 06:02:27.360,40.7535,-124.62366666666667,7.54,2.51,NC.LMC..HHZ,P,-1.0,2010-01-16 06:03:00.530
nc71341231,2010-01-16 06:02:27.360,40.7535,-124.62366666666667,7.54,2.51,NC.LPG..SHZ,P,-1.0,2010-01-16 06:02:54.420
nc71341231,2010-01-16 06:02:27.360,40.7535,-124.62366666666667,7.54,2.51,NC.LSF..SHZ,P,-1.0,2010-01-16 06:02:54.560
nc71341231,2010-01-16 06:02:27.360,40.7535,-124.62366666666667,7.54,2.51,NC.LSH..SHZ,P,-1.0,2010-01-16 06:02:59.540
nc71341231,2010-01-16 06:02:27.360,40.7535,-124.62366666666667,7.54,2.51,NC.LSR..SHZ,P,-1.0,2010-01-16 06:02:58.060
nc71341231,2010-01-16 06:02:27.360,40.7535,-124.62366666666667,7.54,2.51,NC.LTC..SHZ,P,1.0,2010-01-16 06:02:59.750
nc71341231,2010-01-16 06:02:27.360,40.7535,-124.62366666666667,7.54,2.51,NC.LVR..SHZ,P,-1.0,2010-01-16 06:02:55.250
nc71341326,2010-01-16 09:39:11.190,40.7305,-124.58116666666666,9.65,2.61,BK.JCC..HHZ,P,1.0,2010-01-16 09:39:20.520
nc71341326,2010-01-16 09:39:11.190,40.7305,-124.58116666666666,9.65,2.61,NC.GBB..EHZ,P,-1.0,2010-01-16 09:39:43.800
nc71341326,2010-01-16 09:39:11.190,40.7305,-124.58116666666666,9.65,2.61,NC.GVV..EHZ,P,,2010-01-16 09:39:39.850
nc71341326,2010-01-16 09:39:11.190,40.7305,-124.58116666666666,9.65,2.61,NC.KCS..SHZ,P,1.0,2010-01-16 09:39:27.030
nc71341326,2010-01-16 09:39:11.190,40.7305,-124.58116666666666,9.65,2.61,NC.KCT..HHZ,P,1.0,2010-01-16 09:39:18.630
nc71341326,2010-01-16 09:39:11.190,40.7305,-124.58116666666666,9.65,2.61,NC.KHBB..HHZ,P,1.0,2010-01-16 09:39:29.690
nc71341326,2010-01-16 09:39:11.190,40.7305,-124.58116666666666,9.65,2.61,NC.KHMB..HHZ,P,1.0,2010-01-16 09:39:24.490
nc71341326,2010-01-16 09:39:11.190,40.7305,-124.58116666666666,9.65,2.61,NC.KMPB..HHZ,P,1.0,2010-01-16 09:39:20.980
nc71341326,2010-01-16 09:39:11.190,40.7305,-124.58116666666666,9.65,2.61,NC.KOM..SHZ,P,1.0,2010-01-16 09:39:29.580
nc71341326,2010-01-16 09:39:11.190,40.7305,-124.58116666666666,9.65,2.61,NC.KRMB..HHZ,P,,2010-01-16 09:39:28.010
nc71341326,2010-01-16 09:39:11.190,40.7305,-124.58116666666666,9.65,2.61,NC.KSM..SHZ,P,,2010-01-16 09:39:22.640
nc71341326,2010-01-16 09:39:11.190,40.7305,-124.58116666666666,9.65,2.61,NC.KSXB..HHZ,P,,2010-01-16 09:39:31.790
nc71341326,2010-01-16 09:39:11.190,40.7305,-124.58116666666666,9.65,2.61,NC.LAM..SHZ,P,1.0,2010-01-16 09:39:39.730
nc71341326,2010-01-16 09:39:11.190,40.7305,-124.58116666666666,9.65,2.61,NC.LBP..SHZ,P,1.0,2010-01-16 09:39:34.140
nc71341326,2010-01-16 09:39:11.190,40.7305,-124.58116666666666,9.65,2.61,NC.LPG..SHZ,P,1.0,2010-01-16 09:39:37.830
nc71341326,2010-01-16 09:39:11.190,40.7305,-124.58116666666666,9.65,2.61,NC.LSF..SHZ,P,1.0,2010-01-16 09:39:37.810
nc71341326,2010-01-16 09:39:11.190,40.7305,-124.58116666666666,9.65,2.61,NC.LSH..SHZ,P,1.0,2010-01-16 09:39:42.810
nc71341326,2010-01-16 09:39:11.190,40.7305,-124.58116666666666,9.65,2.61,NC.LTC..SHZ,P,-1.0,2010-01-16 09:39:43.170
nc71341326,2010-01-16 09:39:11.190,40.7305,-124.58116666666666,9.65,2.61,NC.LWH..SHZ,P,-1.0,2010-01-16 09:39:43.830
nc71346631,2010-01-31 06:13:35.090,40.2965,-123.54216666666667,27.87,1.9,BK.GASB..HHZ,P,1.0,2010-01-31 06:13:51.260
nc71346631,2010-01-31 06:13:35.090,40.2965,-123.54216666666667,27.87,1.9,BK.WDC..HHZ,P,1.0,2010-01-31 06:13:49.150
nc71346631,2010-01-31 06:13:35.090,40.2965,-123.54216666666667,27.87,1.9,NC.GRO..EHZ,P,1.0,2010-01-31 06:13:49.230
nc71346631,2010-01-31 06:13:35.090,40.2965,-123.54216666666667,27.87,1.9,NC.GTC..SHZ,P,-1.0,2010-01-31 06:13:50.080
nc71346631,2010-01-31 06:13:35.090,40.2965,-123.54216666666667,27.87,1.9,NC.GVV..EHZ,P,-1.0,2010-01-31 06:13:50.460
nc71346631,2010-01-31 06:13:35.090,40.2965,-123.54216666666667,27.87,1.9,NC.KCPB..HHZ,P,1.0,2010-01-31 06:13:46.730
nc71346631,2010-01-31 06:13:35.090,40.2965,-123.54216666666667,27.87,1.9,NC.KCR..SHZ,P,1.0,2010-01-31 06:13:41.800
nc71346631,2010-01-31 06:13:35.090,40.2965,-123.54216666666667,27.87,1.9,NC.KCS..SHZ,P,-1.0,2010-01-31 06:13:42.120
nc71346631,2010-01-31 06:13:35.090,40.2965,-123.54216666666667,27.87,1.9,NC.KIP..SHZ,P,-1.0,2010-01-31 06:13:45.160
nc71346631,2010-01-31 06:13:35.090,40.2965,-123.54216666666667,27.87,1.9,NC.KJJ..SHZ,P,1.0,2010-01-31 06:13:46.020
nc71346631,2010-01-31 06:13:35.090,40.2965,-123.54216666666667,27.87,1.9,NC.KKP..SHZ,P,1.0,2010-01-31 06:13:41.220
nc71346631,2010-01-31 06:13:35.090,40.2965,-123.54216666666667,27.87,1.9,NC.KMPB..HHZ,P,1.0,2010-01-31 06:13:44.340
nc71346631,2010-01-31 06:13:35.090,40.2965,-123.54216666666667,27.87,1.9,NC.KMR..HHZ,P,1.0,2010-01-31 06:13:40.900
nc71346631,2010-01-31 06:13:35.090,40.2965,-123.54216666666667,27.87,1.9,NC.KPP..SHZ,P,1.0,2010-01-31 06:13:41.180
nc71346631,2010-01-31 06:13:35.090,40.2965,-123.54216666666667,27.87,1.9,NC.KSM..SHZ,P,1.0,2010-01-31 06:13:44.900
nc71346631,2010-01-31 06:13:35.090,40.2965,-123.54216666666667,27.87,1.9,NC.LBP..SHZ,P,1.0,2010-01-31 06:13:45.150
nc71346631,2010-01-31 06:13:35.090,40.2965,-123.54216666666667,27.87,1.9,NC.LPG..SHZ,P,1.0,2010-01-31 06:13:47.650
nc71346631,2010-01-31 06:13:35.090,40.2965,-123.54216666666667,27.87,1.9,NC.LRB..SHZ,P,1.0,2010-01-31 06:13:49.390
nc71346631,2010-01-31 06:13:35.090,40.2965,-123.54216666666667,27.87,1.9,NC.LSF..SHZ,P,-1.0,2010-01-31 06:13:50.260
nc71346631,2010-01-31 06:13:35.090,40.2965,-123.54216666666667,27.87,1.9,NC.LSH..SHZ,P,1.0,2010-01-31 06:13:56.090
nc71346631,2010-01-31 06:13:35.090,40.2965,-123.54216666666667,27.87,1.9,NC.LVR..SHZ,P,1.0,2010-01-31 06:13:48.470
nc71346896,2010-01-31 23:26:22.020,40.30116666666667,-124.43416666666667,10.19,2.21,BK.JCC..HHZ,P,1.0,2010-01-31 23:26:34.190
nc71346896,2010-01-31 23:26:22.020,40.30116666666667,-124.43416666666667,10.19,2.21,NC.GGU..EHZ,P,1.0,2010-01-31 23:26:48.190
nc71346896,2010-01-31 23:26:22.020,40.30116666666667,-124.43416666666667,10.19,2.21,NC.GHL..EHZ,P,-1.0,2010-01-31 23:26:49.230
nc71346896,2010-01-31 23:26:22.020,40.30116666666667,-124.43416666666667,10.19,2.21,NC.GTC..SHZ,P,1.0,2010-01-31 23:26:41.740
nc71346896,2010-01-31 23:26:22.020,40.30116666666667,-124.43416666666667,10.19,2.21,NC.GWR..EHZ,P,1.0,2010-01-31 23:26:45.570
nc71346896,2010-01-31 23:26:22.020,40.30116666666667,-124.43416666666667,10.19,2.21,NC.KBN..SHZ,P,-1.0,2010-01-31 23:26:41.280
nc71346896,2010-01-31 23:26:22.020,40.30116666666667,-124.43416666666667,10.19,2.21,NC.KBS..SHZ,P,-1.0,2010-01-31 23:26:36.920
nc71346896,2010-01-31 23:26:22.020,40.30116666666667,-124.43416666666667,10.19,2.21,NC.KCPB..HHZ,P,-1.0,2010-01-31 23:26:38.740
nc71346896,2010-01-31 23:26:22.020,40.30116666666667,-124.43416666666667,10.19,2.21,NC.KCR..SHZ,P,1.0,2010-01-31 23:26:32.590
nc71346896,2010-01-31 23:26:22.020,40.30116666666667,-124.43416666666667,10.19,2.21,NC.KCS..SHZ,P,-1.0,2010-01-31 23:26:37.270
nc71346896,2010-01-31 23:26:22.020,40.30116666666667,-124.43416666666667,10.19,2.21,NC.KCT..HHZ,P,1.0,2010-01-31 23:26:26.830
nc71346896,2010-01-31 23:26:22.020,40.30116666666667,-124.43416666666667,10.19,2.21,NC.KFP..SHZ,P,-1.0,2010-01-31 23:26:40.420
nc71346896,2010-01-31 23:26:22.020,40.30116666666667,-124.43416666666667,10.19,2.21,NC.KIP..SHZ,P,1.0,2010-01-31 23:26:38.800
nc71346896,2010-01-31 23:26:22.020,40.30116666666667,-124.43416666666667,10.19,2.21,NC.KJJ..SHZ,P,-1.0,2010-01-31 23:26:25.170
nc71346896,2010-01-31 23:26:22.020,40.30116666666667,-124.43416666666667,10.19,2.21,NC.KKP..SHZ,P,-1.0,2010-01-31 23:26:37.760
nc71346896,2010-01-31 23:26:22.020,40.30116666666667,-124.43416666666667,10.19,2.21,NC.KMPB..HHZ,P,1.0,2010-01-31 23:26:28.020
nc71346896,2010-01-31 23:26:22.020,40.30116666666667,-124.43416666666667,10.19,2.21,NC.KMR..HHZ,P,-1.0,2010-01-31 23:26:33.880
nc71346896,2010-01-31 23:26:22.020,40.30116666666667,-124.43416666666667,10.19,2.21,NC.KPP..SHZ,P,,2010-01-31 23:26:38.560
