event_id,etime,elat,elon,edep,emag,station_id,phase_type,phase_polarity,phase_time
nc71417485,2010-06-30 07:01:55.480,39.891,-123.0605,3.62,1.77,NC.LVR..SHZ,P,1.0,2010-06-30 07:02:02.820
nc71417485,2010-06-30 07:01:55.480,39.891,-123.0605,3.62,1.77,PB.B045..EHZ,P,-1.0,2010-06-30 07:02:14.640
nc71417485,2010-06-30 07:01:55.480,39.891,-123.0605,3.62,1.77,PB.B046..EHZ,P,,2010-06-30 07:02:15.520
nc71417485,2010-06-30 07:01:55.480,39.891,-123.0605,3.62,1.77,PB.B047..EHZ,P,1.0,2010-06-30 07:02:14.530
nc71417485,2010-06-30 07:01:55.480,39.891,-123.0605,3.62,1.77,PB.B049..EHZ,P,-1.0,2010-06-30 07:02:10.080
nc71417485,2010-06-30 07:01:55.480,39.891,-123.0605,3.62,1.77,PB.B932..EHZ,P,1.0,2010-06-30 07:02:14.790
nc71417485,2010-06-30 07:01:55.480,39.891,-123.0605,3.62,1.77,PB.B933..EHZ,P,1.0,2010-06-30 07:02:10.860
nc71417485,2010-06-30 07:01:55.480,39.891,-123.0605,3.62,1.77,PB.B934..EHZ,P,1.0,2010-06-30 07:02:06.090
nc71417485,2010-06-30 07:01:55.480,39.891,-123.0605,3.62,1.77,PB.B935..EHZ,P,1.0,2010-06-30 07:02:10.000
nc71418180,2010-07-01 17:25:41.140,40.254,-123.62766666666667,26.9,2.15,NC.GRO..EHZ,P,1.0,2010-07-01 17:25:55.610
nc71418180,2010-07-01 17:25:41.140,40.254,-123.62766666666667,26.9,2.15,NC.GTC..SHZ,P,-1.0,2010-07-01 17:25:55.490
nc71418180,2010-07-01 17:25:41.140,40.254,-123.62766666666667,26.9,2.15,NC.KBN..SHZ,P,1.0,2010-07-01 17:25:51.480
nc71418180,2010-07-01 17:25:41.140,40.254,-123.62766666666667,26.9,2.15,NC.KCPB..HHZ,P,-1.0,2010-07-01 17:25:52.080
nc71418180,2010-07-01 17:25:41.140,40.254,-123.62766666666667,26.9,2.15,NC.KCR..SHZ,P,1.0,2010-07-01 17:25:47.520
nc71418180,2010-07-01 17:25:41.140,40.254,-123.62766666666667,26.9,2.15,NC.KCS..SHZ,P,-1.0,2010-07-01 17:25:48.760
nc71418180,2010-07-01 17:25:41.140,40.254,-123.62766666666667,26.9,2.15,NC.KFP..SHZ,P,-1.0,2010-07-01 17:25:52.810
nc71418180,2010-07-01 17:25:41.140,40.254,-123.62766666666667,26.9,2.15,NC.KHBB..HHZ,P,-1.0,2010-07-01 17:25:51.200
nc71418180,2010-07-01 17:25:41.140,40.254,-123.62766666666667,26.9,2.15,NC.KHMB..HHZ,P,-1.0,2010-07-01 17:25:52.950
nc71418180,2010-07-01 17:25:41.140,40.254,-123.62766666666667,26.9,2.15,NC.KIP..SHZ,P,-1.0,2010-07-01 17:25:50.730
nc71418180,2010-07-01 17:25:41.140,40.254,-123.62766666666667,26.9,2.15,NC.KJJ..SHZ,P,1.0,2010-07-01 17:25:51.160
nc71418180,2010-07-01 17:25:41.140,40.254,-123.62766666666667,26.9,2.15,NC.KKP..SHZ,P,-1.0,2010-07-01 17:25:47.160
nc71418180,2010-07-01 17:25:41.140,40.254,-123.62766666666667,26.9,2.15,NC.KMPB..HHZ,P,1.0,2010-07-01 17:25:49.830
nc71418180,2010-07-01 17:25:41.140,40.254,-123.62766666666667,26.9,2.15,NC.KMR..HHZ,P,-1.0,2010-07-01 17:25:46.370
nc71418180,2010-07-01 17:25:41.140,40.254,-123.62766666666667,26.9,2.15,NC.KOM..SHZ,P,-1.0,2010-07-01 17:25:58.370
nc71418180,2010-07-01 17:25:41.140,40.254,-123.62766666666667,26.9,2.15,NC.KPP..SHZ,P,1.0,2010-07-01 17:25:47.800
nc71418180,2010-07-01 17:25:41.140,40.254,-123.62766666666667,26.9,2.15,NC.KRK..SHZ,P,-1.0,2010-07-01 17:25:54.820
nc71418180,2010-07-01 17:25:41.140,40.254,-123.62766666666667,26.9,2.15,NC.KSM..SHZ,P,1.0,2010-07-01 17:25:50.020
nc71418180,2010-07-01 17:25:41.140,40.254,-123.62766666666667,26.9,2.15,NC.LAM..SHZ,P,1.0,2010-07-01 17:26:03.680
nc71418180,2010-07-01 17:25:41.140,40.254,-123.62766666666667,26.9,2.15,NC.LBP..SHZ,P,1.0,2010-07-01 17:25:52.000
nc71418180,2010-07-01 17:25:41.140,40.254,-123.62766666666667,26.9,2.15,NC.LPG..SHZ,P,1.0,2010-07-01 17:25:54.420
nc71418180,2010-07-01 17:25:41.140,40.254,-123.62766666666667,26.9,2.15,NC.LRB..SHZ,P,1.0,2010-07-01 17:25:56.350
nc71418180,2010-07-01 17:25:41.140,40.254,-123.62766666666667,26.9,2.15,NC.LSH..SHZ,P,-1.0,2010-07-01 17:26:03.020
nc71418180,2010-07-01 17:25:41.140,40.254,-123.62766666666667,26.9,2.15,NC.LVR..SHZ,P,-1.0,2010-07-01 17:25:55.010
nc71418180,2010-07-01 17:25:41.140,40.254,-123.62766666666667,26.9,2.15,PB.B046..EHZ,P,1.0,2010-07-01 17:25:50.980
nc71418180,2010-07-01 17:25:41.140,40.254,-123.62766666666667,26.9,2.15,PB.B049..EHZ,P,1.0,2010-07-01 17:25:46.550
nc71418180,2010-07-01 17:25:41.140,40.254,-123.62766666666667,26.9,2.15,PB.B932..EHZ,P,1.0,2010-07-01 17:25:50.180
nc71418180,2010-07-01 17:25:41.140,40.254,-123.62766666666667,26.9,2.15,PB.B933..EHZ,P,1.0,2010-07-01 17:25:48.740
nc71418180,2010-07-01 17:25:41.140,40.254,-123.62766666666667,26.9,2.15,PB.B934..EHZ,P,-1.0,2010-07-01 17:25:49.770
nc71418180,2010-07-01 17:25:41.140,40.254,-123.62766666666667,26.9,2.15,PB.B935..EHZ,P,-1.0,2010-07-01 17:25:47.610
nc71418340,2010-07-01 22:58:54.790,40.248666666666665,-124.17533333333333,11.46,2.21,BK.JCC..HHZ,P,-1.0,2010-07-01 22:59:06.640
nc71418340,2010-07-01 22:58:54.790,40.248666666666665,-124.17533333333333,11.46,2.21,NC.GVV..EHZ,P,1.0,2010-07-01 22:59:16.400
nc71418340,2010-07-01 22:58:54.790,40.248666666666665,-124.17533333333333,11.46,2.21,NC.KBN..SHZ,P,-1.0,2010-07-01 22:59:10.980
nc71418340,2010-07-01 22:58:54.790,40.248666666666665,-124.17533333333333,11.46,2.21,NC.KBS..SHZ,P,,2010-07-01 22:59:06.080
nc71418340,2010-07-01 22:58:54.790,40.248666666666665,-124.17533333333333,11.46,2.21,NC.KCR..SHZ,P,1.0,2010-07-01 22:59:02.350
nc71418340,2010-07-01 22:58:54.790,40.248666666666665,-124.17533333333333,11.46,2.21,NC.KCS..SHZ,P,1.0,2010-07-01 22:59:07.460
nc71418340,2010-07-01 22:58:54.790,40.248666666666665,-124.17533333333333,11.46,2.21,NC.KCT..HHZ,P,-1.0,2010-07-01 22:59:01.350
nc71418340,2010-07-01 22:58:54.790,40.248666666666665,-124.17533333333333,11.46,2.21,NC.KFP..SHZ,P,1.0,2010-07-01 22:59:10.000
nc71418340,2010-07-01 22:58:54.790,40.248666666666665,-124.17533333333333,11.46,2.21,NC.KHBB..HHZ,P,1.0,2010-07-01 22:59:10.810
nc71418340,2010-07-01 22:58:54.790,40.248666666666665,-124.17533333333333,11.46,2.21,NC.KIP..SHZ,P,1.0,2010-07-01 22:59:08.380
nc71418340,2010-07-01 22:58:54.790,40.248666666666665,-124.17533333333333,11.46,2.21,NC.KJJ..SHZ,P,1.0,2010-07-01 22:58:57.990
nc71418340,2010-07-01 22:58:54.790,40.248666666666665,-124.17533333333333,11.46,2.21,NC.KKP..SHZ,P,1.0,2010-07-01 22:59:06.860
nc71418340,2010-07-01 22:58:54.790,40.248666666666665,-124.17533333333333,11.46,2.21,NC.KMPB..HHZ,P,-1.0,2010-07-01 22:58:59.350
nc71418340,2010-07-01 22:58:54.790,40.248666666666665,-124.17533333333333,11.46,2.21,NC.KMR..HHZ,P,1.0,2010-07-01 22:59:02.910
nc71418340,2010-07-01 22:58:54.790,40.248666666666665,-124.17533333333333,11.46,2.21,NC.KOM..SHZ,P,1.0,2010-07-01 22:59:15.510
nc71418340,2010-07-01 22:58:54.790,40.248666666666665,-124.17533333333333,11.46,2.21,NC.KPP..SHZ,P,1.0,2010-07-01 22:59:08.380
nc71418340,2010-07-01 22:58:54.790,40.248666666666665,-124.17533333333333,11.46,2.21,NC.KRK..SHZ,P,-1.0,2010-07-01 22:59:13.020
nc71418340,2010-07-01 22:58:54.790,40.248666666666665,-124.17533333333333,11.46,2.21,NC.KSM..SHZ,P,1.0,2010-07-01 22:58:57.500
nc71418340,2010-07-01 22:58:54.790,40.248666666666665,-124.17533333333333,11.46,2.21,NC.LPG..SHZ,P,-1.0,2010-07-01 22:59:15.790
nc71418340,2010-07-01 22:58:54.790,40.248666666666665,-124.17533333333333,11.46,2.21,NC.LVR..SHZ,P,-1.0,2010-07-01 22:59:16.170
nc71418340,2010-07-01 22:58:54.790,40.248666666666665,-124.17533333333333,11.46,2.21,PB.B045..EHZ,P,1.0,2010-07-01 22:59:00.380
nc71418340,2010-07-01 22:58:54.790,40.248666666666665,-124.17533333333333,11.46,2.21,PB.B046..EHZ,P,-1.0,2010-07-01 22:58:58.190
nc71418340,2010-07-01 22:58:54.790,40.248666666666665,-124.17533333333333,11.46,2.21,PB.B047..EHZ,P,1.0,2010-07-01 22:58:57.160
nc71418340,2010-07-01 22:58:54.790,40.248666666666665,-124.17533333333333,11.46,2.21,PB.B049..EHZ,P,1.0,2010-07-01 22:59:01.070
nc71418340,2010-07-01 22:58:54.790,40.248666666666665,-124.17533333333333,11.46,2.21,PB.B932..EHZ,P,1.0,2010-07-01 22:58:57.210
nc71418340,2010-07-01 22:58:54.790,40.248666666666665,-124.17533333333333,11.46,2.21,PB.B933..EHZ,P,-1.0,2010-07-01 22:59:00.230
nc71418340,2010-07-01 22:58:54.790,40.248666666666665,-124.17533333333333,11.46,2.21,PB.B934..EHZ,P,-1.0,2010-07-01 22:59:05.760
nc71418340,2010-07-01 22:58:54.790,40.248666666666665,-124.17533333333333,11.46,2.21,PB.B935..EHZ,P,1.0,2010-07-01 22:59:06.200
nc71420890,2010-07-08 06:25:56.210,40.277833333333334,-123.45333333333333,25.65,1.94,NC.KCPB..HHZ,P,-1.0,2010-07-08 06:26:08.010
nc71420890,2010-07-08 06:25:56.210,40.277833333333334,-123.45333333333333,25.65,1.94,NC.KCR..SHZ,P,1.0,2010-07-08 06:26:03.750
nc71420890,2010-07-08 06:25:56.210,40.277833333333334,-123.45333333333333,25.65,1.94,NC.KCS..SHZ,P,1.0,2010-07-08 06:26:03.290
nc71420890,2010-07-08 06:25:56.210,40.277833333333334,-123.45333333333333,25.65,1.94,NC.KHBB..HHZ,P,1.0,2010-07-08 06:26:05.050
nc71420890,2010-07-08 06:25:56.210,40.277833333333334,-123.45333333333333,25.65,1.94,NC.KIP..SHZ,P,1.0,2010-07-08 06:26:06.120
nc71420890,2010-07-08 06:25:56.210,40.277833333333334,-123.45333333333333,25.65,1.94,NC.KJJ..SHZ,P,,2010-07-08 06:26:08.150
nc71420890,2010-07-08 06:25:56.210,40.277833333333334,-123.45333333333333,25.65,1.94,NC.KKP..SHZ,P,1.0,2010-07-08 06:26:01.970
nc71420890,2010-07-08 06:25:56.210,40.277833333333334,-123.45333333333333,25.65,1.94,NC.KMPB..HHZ,P,,2010-07-08 06:26:06.480
nc71420890,2010-07-08 06:25:56.210,40.277833333333334,-123.45333333333333,25.65,1.94,NC.KMR..HHZ,P,1.0,2010-07-08 06:26:02.500
nc71420890,2010-07-08 06:25:56.210,40.277833333333334,-123.45333333333333,25.65,1.94,NC.KPP..SHZ,P,-1.0,2010-07-08 06:26:01.590
nc71420890,2010-07-08 06:25:56.210,40.277833333333334,-123.45333333333333,25.65,1.94,NC.KRK..SHZ,P,-1.0,2010-07-08 06:26:10.840
nc71420890,2010-07-08 06:25:56.210,40.277833333333334,-123.45333333333333,25.65,1.94,NC.KSM..SHZ,P,,2010-07-08 06:26:07.150
nc71420890,2010-07-08 06:25:56.210,40.277833333333334,-123.45333333333333,25.65,1.94,NC.LBP..SHZ,P,1.0,2010-07-08 06:26:05.310
nc71420890,2010-07-08 06:25:56.210,40.277833333333334,-123.45333333333333,25.65,1.94,NC.LPG..SHZ,P,1.0,2010-07-08 06:26:07.860
nc71420890,2010-07-08 06:25:56.210,40.277833333333334,-123.45333333333333,25.65,1.94,NC.LSF..SHZ,P,-1.0,2010-07-08 06:26:10.710
nc71420890,2010-07-08 06:25:56.210,40.277833333333334,-123.45333333333333,25.65,1.94,NC.LVR..SHZ,P,-1.0,2010-07-08 06:26:08.630
nc71420890,2010-07-08 06:25:56.210,40.277833333333334,-123.45333333333333,25.65,1.94,PB.B045..EHZ,P,-1.0,2010-07-08 06:26:05.320
nc71420890,2010-07-08 06:25:56.210,40.277833333333334,-123.45333333333333,25.65,1.94,PB.B046..EHZ,P,-1.0,2010-07-08 06:26:07.810
nc71420890,2010-07-08 06:25:56.210,40.277833333333334,-123.45333333333333,25.65,1.94,PB.B047..EHZ,P,,2010-07-08 06:26:06.880
nc71420890,2010-07-08 06:25:56.210,40.277833333333334,-123.45333333333333,25.65,1.94,PB.B049..EHZ,P,1.0,2010-07-08 06:26:03.120
nc71420890,2010-07-08 06:25:56.210,40.277833333333334,-123.45333333333333,25.65,1.94,PB.B932..EHZ,P,-1.0,2010-07-08 06:26:07.130
nc71420890,2010-07-08 06:25:56.210,40.277833333333334,-123.45333333333333,25.65,1.94,PB.B933..EHZ,P,1.0,2010-07-08 06:26:05.630
nc71420890,2010-07-08 06:25:56.210,40.277833333333334,-123.45333333333333,25.65,1.94,PB.B934..EHZ,P,1.0,2010-07-08 06:26:06.010
nc71420890,2010-07-08 06:25:56.210,40.277833333333334,-123.45333333333333,25.65,1.94,PB.B935..EHZ,P,-1.0,2010-07-08 06:26:02.420
nc71420895,2010-07-08 06:29:36.290,40.285333333333334,-123.4545,25.03,1.92,NC.KCR..SHZ,P,-1.0,2010-07-08 06:29:43.760
nc71420895,2010-07-08 06:29:36.290,40.285333333333334,-123.4545,25.03,1.92,NC.KCS..SHZ,P,1.0,2010-07-08 06:29:43.290
nc71420895,2010-07-08 06:29:36.290,40.285333333333334,-123.4545,25.03,1.92,NC.KHBB..HHZ,P,1.0,2010-07-08 06:29:45.060
nc71420895,2010-07-08 06:29:36.290,40.285333333333334,-123.4545,25.03,1.92,NC.KIP..SHZ,P,1.0,2010-07-08 06:29:46.110
nc71420895,2010-07-08 06:29:36.290,40.285333333333334,-123.4545,25.03,1.92,NC.KKP..SHZ,P,1.0,2010-07-08 06:29:41.970
nc71420895,2010-07-08 06:29:36.290,40.285333333333334,-123.4545,25.03,1.92,NC.KMPB..HHZ,P,,2010-07-08 06:29:46.500
nc71420895,2010-07-08 06:29:36.290,40.285333333333334,-123.4545,25.03,1.92,NC.KMR..HHZ,P,1.0,2010-07-08 06:29:42.510
nc71420895,2010-07-08 06:29:36.290,40.285333333333334,-123.4545,25.03,1.92,NC.KPP..SHZ,P,1.0,2010-07-08 06:29:41.580
nc71420895,2010-07-08 06:29:36.290,40.285333333333334,-123.4545,25.03,1.92,NC.KSM..SHZ,P,-1.0,2010-07-08 06:29:47.040
nc71420895,2010-07-08 06:29:36.290,40.285333333333334,-123.4545,25.03,1.92,NC.LBK..SHZ,P,1.0,2010-07-08 06:29:53.540
nc71420895,2010-07-08 06:29:36.290,40.285333333333334,-123.4545,25.03,1.92,NC.LBP..SHZ,P,-1.0,2010-07-08 06:29:45.330
nc71420895,2010-07-08 06:29:36.290,40.285333333333334,-123.4545,25.03,1.92,NC.LPG..SHZ,P,-1.0,2010-07-08 06:29:47.840
nc71420895,2010-07-08 06:29:36.290,40.285333333333334,-123.4545,25.03,1.92,NC.LSF..SHZ,P,-1.0,2010-07-08 06:29:50.680
nc71420895,2010-07-08 06:29:36.290,40.285333333333334,-123.4545,25.03,1.92,NC.LVR..SHZ,P,-1.0,2010-07-08 06:29:48.620
nc71420895,2010-07-08 06:29:36.290,40.285333333333334,-123.4545,25.03,1.92,PB.B045..EHZ,P,-1.0,2010-07-08 06:29:45.290
nc71420895,2010-07-08 06:29:36.290,40.285333333333334,-123.4545,25.03,1.92,PB.B047..EHZ,P,1.0,2010-07-08 06:29:46.830
nc71420895,2010-07-08 06:29:36.290,40.285333333333334,-123.4545,25.03,1.92,PB.B049..EHZ,P,1.0,2010-07-08 06:29:43.130
nc71420895,2010-07-08 06:29:36.290,40.285333333333334,-123.4545,25.03,1.92,PB.B932..EHZ,P,-1.0,2010-07-08 06:29:47.120
nc71420895,2010-07-08 06:29:36.290,40.285333333333334,-123.4545,25.03,1.92,PB.B933..EHZ,P,-1.0,2010-07-08 06:29:45.640
nc71420895,2010-07-08 06:29:36.290,40.285333333333334,-123.4545,25.03,1.92,PB.B934..EHZ,P,1.0,2010-07-08 06:29:45.990
nc71420895,2010-07-08 06:29:36.290,40.285333333333334,-123.4545,25.03,1.92,PB.B935..EHZ,P,1.0,2010-07-08 06:29:42.450
nc71421065,2010-07-08 15:14:05.080,40.285666666666664,-123.44433333333333,22.16,1.72,BK.WDC..HHZ,P,,2010-07-08 15:14:18.250
nc71421065,2010-07-08 15:14:05.080,40.285666666666664,-123.44433333333333,22.16,1.72,NC.KCPB..HHZ,P,1.0,2010-07-08 15:14:16.440
nc71421065,2010-07-08 15:14:05.080,40.285666666666664,-123.44433333333333,22.16,1.72,NC.KCR..SHZ,P,-1.0,2010-07-08 15:14:12.540
nc71421065,2010-07-08 15:14:05.080,40.285666666666664,-123.44433333333333,22.16,1.72,NC.KCS..SHZ,P,1.0,2010-07-08 15:14:11.960
nc71421065,2010-07-08 15:14:05.080,40.285666666666664,-123.44433333333333,22.16,1.72,NC.KHBB..HHZ,P,1.0,2010-07-08 15:14:13.730
nc71421065,2010-07-08 15:14:05.080,40.285666666666664,-123.44433333333333,22.16,1.72,NC.KIP..SHZ,P,1.0,2010-07-08 15:14:14.790
nc71421065,2010-07-08 15:14:05.080,40.285666666666664,-123.44433333333333,22.16,1.72,NC.KKP..SHZ,P,-1.0,2010-07-08 15:14:10.630
nc71421065,2010-07-08 15:14:05.080,40.285666666666664,-123.44433333333333,22.16,1.72,NC.KMPB..HHZ,P,1.0,2010-07-08 15:14:15.360
nc71421065,2010-07-08 15:14:05.080,40.285666666666664,-123.44433333333333,22.16,1.72,NC.KMR..HHZ,P,1.0,2010-07-08 15:14:11.210
nc71421065,2010-07-08 15:14:05.080,40.285666666666664,-123.44433333333333,22.16,1.72,NC.KOM..SHZ,P,-1.0,2010-07-08 15:14:22.890
nc71421065,2010-07-08 15:14:05.080,40.285666666666664,-123.44433333333333,22.16,1.72,NC.KPP..SHZ,P,-1.0,2010-07-08 15:14:10.320
nc71421065,2010-07-08 15:14:05.080,40.285666666666664,-123.44433333333333,22.16,1.72,NC.KSM..SHZ,P,1.0,2010-07-08 15:14:16.080
nc71421065,2010-07-08 15:14:05.080,40.285666666666664,-123.44433333333333,22.16,1.72,NC.LBP..SHZ,P,1.0,2010-07-08 15:14:14.010
nc71421065,2010-07-08 15:14:05.080,40.285666666666664,-123.44433333333333,22.16,1.72,NC.LRB..SHZ,P,1.0,2010-07-08 15:14:18.230
nc71421065,2010-07-08 15:14:05.080,40.285666666666664,-123.44433333333333,22.16,1.72,NC.LSF..SHZ,P,-1.0,2010-07-08 15:14:19.300
nc71421065,2010-07-08 15:14:05.080,40.285666666666664,-123.44433333333333,22.16,1.72,NC.LVR..SHZ,P,1.0,2010-07-08 15:14:17.430
nc71421065,2010-07-08 15:14:05.080,40.285666666666664,-123.44433333333333,22.16,1.72,PB.B047..EHZ,P,1.0,2010-07-08 15:14:15.920
nc71421065,2010-07-08 15:14:05.080,40.285666666666664,-123.44433333333333,22.16,1.72,PB.B049..EHZ,P,1.0,2010-07-08 15:14:11.830
nc71421065,2010-07-08 15:14:05.080,40.285666666666664,-123.44433333333333,22.16,1.72,PB.B932..EHZ,P,,2010-07-08 15:14:16.250
nc71421065,2010-07-08 15:14:05.080,40.285666666666664,-123.44433333333333,22.16,1.72,PB.B933..EHZ,P,-1.0,2010-07-08 15:14:14.310
nc71421065,2010-07-08 15:14:05.080,40.285666666666664,-123.44433333333333,22.16,1.72,PB.B934..EHZ,P,,2010-07-08 15:14:14.710
nc71421065,2010-07-08 15:14:05.080,40.285666666666664,-123.44433333333333,22.16,1.72,PB.B935..EHZ,P,1.0,2010-07-08 15:14:11.220
nc71421860,2010-07-09 15:19:44.620,40.30883333333333,-124.32016666666667,6.63,1.38,BK.JCC..HHZ,P,,2010-07-09 15:19:56.310
nc71421860,2010-07-09 15:19:44.620,40.30883333333333,-124.32016666666667,6.63,1.38,NC.KCR..SHZ,P,1.0,2010-07-09 15:19:53.840
nc71421860,2010-07-09 15:19:44.620,40.30883333333333,-124.32016666666667,6.63,1.38,NC.KCS..SHZ,P,-1.0,2010-07-09 15:19:58.910
nc71421860,2010-07-09 15:19:44.620,40.30883333333333,-124.32016666666667,6.63,1.38,NC.KCT..HHZ,P,-1.0,2010-07-09 15:19:48.900
nc71421860,2010-07-09 15:19:44.620,40.30883333333333,-124.32016666666667,6.63,1.38,NC.KIP..SHZ,P,-1.0,2010-07-09 15:20:00.540
nc71421860,2010-07-09 15:19:44.620,40.30883333333333,-124.32016666666667,6.63,1.38,NC.KJJ..SHZ,P,-1.0,2010-07-09 15:19:46.670
nc71421860,2010-07-09 15:19:44.620,40.30883333333333,-124.32016666666667,6.63,1.38,NC.KMPB..HHZ,P,1.0,2010-07-09 15:19:49.340
nc71421860,2010-07-09 15:19:44.620,40.30883333333333,-124.32016666666667,6.63,1.38,NC.KMR..HHZ,P,1.0,2010-07-09 15:19:55.100
nc71421860,2010-07-09 15:19:44.620,40.30883333333333,-124.32016666666667,6.63,1.38,NC.KSM..SHZ,P,-1.0,2010-07-09 15:19:48.590
nc71421860,2010-07-09 15:19:44.620,40.30883333333333,-124.32016666666667,6.63,1.38,PB.B045..EHZ,P,,2010-07-09 15:19:51.020
nc71421860,2010-07-09 15:19:44.620,40.30883333333333,-124.32016666666667,6.63,1.38,PB.B046..EHZ,P,-1.0,2010-07-09 15:19:46.390
nc71421860,2010-07-09 15:19:44.620,40.30883333333333,-124.32016666666667,6.63,1.38,PB.B047..EHZ,P,-1.0,2010-07-09 15:19:48.060
nc71421860,2010-07-09 15:19:44.620,40.30883333333333,-124.32016666666667,6.63,1.38,PB.B049..EHZ,P,1.0,2010-07-09 15:19:53.230
nc71421860,2010-07-09 15:19:44.620,40.30883333333333,-124.32016666666667,6.63,1.38,PB.B932..EHZ,P,-1.0,2010-07-09 15:19:47.080
nc71421860,2010-07-09 15:19:44.620,40.30883333333333,-124.32016666666667,6.63,1.38,PB.B933..EHZ,P,-1.0,2010-07-09 15:19:52.050
nc71421860,2010-07-09 15:19:44.620,40.30883333333333,-124.32016666666667,6.63,1.38,PB.B935..EHZ,P,-1.0,2010-07-09 15:19:57.700
nc71421935,2010-07-09 18:12:04.040,40.329166666666666,-124.345,10.02,0.9,NC.KJJ..SHZ,P,-1.0,2010-07-09 18:12:06.810
nc71421935,2010-07-09 18:12:04.040,40.329166666666666,-124.345,10.02,0.9,NC.KMR..HHZ,P,1.0,2010-07-09 18:12:14.510
nc71421935,2010-07-09 18:12:04.040,40.329166666666666,-124.345,10.02,0.9,NC.KSM..SHZ,P,-1.0,2010-07-09 18:12:08.720
nc71421935,2010-07-09 18:12:04.040,40.329166666666666,-124.345,10.02,0.9,PB.B046..EHZ,P,-1.0,2010-07-09 18:12:06.520
nc71421935,2010-07-09 18:12:04.040,40.329166666666666,-124.345,10.02,0.9,PB.B047..EHZ,P,-1.0,2010-07-09 18:12:08.220
nc71421935,2010-07-09 18:12:04.040,40.329166666666666,-124.345,10.02,0.9,PB.B932..EHZ,P,-1.0,2010-07-09 18:12:07.210
nc71422000,2010-07-09 21:01:53.640,40.3035,-124.32766666666667,7.09,1.55,BK.JCC..HHZ,P,1.0,2010-07-09 21:02:05.210
nc71422000,2010-07-09 21:01:53.640,40.3035,-124.32766666666667,7.09,1.55,NC.KCPB..HHZ,P,1.0,2010-07-09 21:02:10.550
nc71422000,2010-07-09 21:01:53.640,40.3035,-124.32766666666667,7.09,1.55,NC.KCR..SHZ,P,1.0,2010-07-09 21:02:02.890
nc71422000,2010-07-09 21:01:53.640,40.3035,-124.32766666666667,7.09,1.55,NC.KCT..HHZ,P,-1.0,2010-07-09 21:01:57.940
nc71422000,2010-07-09 21:01:53.640,40.3035,-124.32766666666667,7.09,1.55,NC.KFP..SHZ,P,1.0,2010-07-09 21:02:11.130
nc71422000,2010-07-09 21:01:53.640,40.3035,-124.32766666666667,7.09,1.55,NC.KHBB..HHZ,P,,2010-07-09 21:02:12.550
nc71422000,2010-07-09 21:01:53.640,40.3035,-124.32766666666667,7.09,1.55,NC.KJJ..SHZ,P,-1.0,2010-07-09 21:01:55.710
