event_id,etime,elat,elon,edep,emag,station_id,phase_type,phase_polarity,phase_time
nc71358400,2010-03-04 19:04:28.900,40.30716666666667,-124.44516666666667,11.13,2.37,NC.LPG..SHZ,P,-1.0,2010-03-04 19:04:52.750
nc71358400,2010-03-04 19:04:28.900,40.30716666666667,-124.44516666666667,11.13,2.37,NC.LRB..SHZ,P,1.0,2010-03-04 19:04:54.900
nc71358400,2010-03-04 19:04:28.900,40.30716666666667,-124.44516666666667,11.13,2.37,NC.LSH..SHZ,P,-1.0,2010-03-04 19:05:00.270
nc71358400,2010-03-04 19:04:28.900,40.30716666666667,-124.44516666666667,11.13,2.37,NC.LVR..SHZ,P,,2010-03-04 19:04:53.210
nc71358400,2010-03-04 19:04:28.900,40.30716666666667,-124.44516666666667,11.13,2.37,NC.NHS..EHZ,P,1.0,2010-03-04 19:05:02.130
nc71358615,2010-03-05 02:11:01.960,40.897,-123.4795,17.6,2.43,BK.JCC..HHZ,P,1.0,2010-03-05 02:11:10.910
nc71358615,2010-03-05 02:11:01.960,40.897,-123.4795,17.6,2.43,BK.WDC..HHZ,P,1.0,2010-03-05 02:11:16.290
nc71358615,2010-03-05 02:11:01.960,40.897,-123.4795,17.6,2.43,NC.GRO..EHZ,P,1.0,2010-03-05 02:11:22.900
nc71358615,2010-03-05 02:11:01.960,40.897,-123.4795,17.6,2.43,NC.KBS..SHZ,P,1.0,2010-03-05 02:11:19.540
nc71358615,2010-03-05 02:11:01.960,40.897,-123.4795,17.6,2.43,NC.KCR..SHZ,P,-1.0,2010-03-05 02:11:12.820
nc71358615,2010-03-05 02:11:01.960,40.897,-123.4795,17.6,2.43,NC.KCS..SHZ,P,-1.0,2010-03-05 02:11:10.290
nc71358615,2010-03-05 02:11:01.960,40.897,-123.4795,17.6,2.43,NC.KCT..HHZ,P,1.0,2010-03-05 02:11:16.280
nc71358615,2010-03-05 02:11:01.960,40.897,-123.4795,17.6,2.43,NC.KHBB..HHZ,P,-1.0,2010-03-05 02:11:09.210
nc71358615,2010-03-05 02:11:01.960,40.897,-123.4795,17.6,2.43,NC.KHMB..HHZ,P,1.0,2010-03-05 02:11:07.900
nc71358615,2010-03-05 02:11:01.960,40.897,-123.4795,17.6,2.43,NC.KIP..SHZ,P,1.0,2010-03-05 02:11:20.570
nc71358615,2010-03-05 02:11:01.960,40.897,-123.4795,17.6,2.43,NC.KJJ..SHZ,P,-1.0,2010-03-05 02:11:17.560
nc71358615,2010-03-05 02:11:01.960,40.897,-123.4795,17.6,2.43,NC.KMPB..HHZ,P,1.0,2010-03-05 02:11:14.710
nc71358615,2010-03-05 02:11:01.960,40.897,-123.4795,17.6,2.43,NC.KOM..SHZ,P,-1.0,2010-03-05 02:11:10.100
nc71358615,2010-03-05 02:11:01.960,40.897,-123.4795,17.6,2.43,NC.KPP..SHZ,P,1.0,2010-03-05 02:11:13.240
nc71358615,2010-03-05 02:11:01.960,40.897,-123.4795,17.6,2.43,NC.KRP..HHZ,P,1.0,2010-03-05 02:11:11.870
nc71358615,2010-03-05 02:11:01.960,40.897,-123.4795,17.6,2.43,NC.KSM..SHZ,P,1.0,2010-03-05 02:11:17.460
nc71358615,2010-03-05 02:11:01.960,40.897,-123.4795,17.6,2.43,NC.KTR..SHZ,P,1.0,2010-03-05 02:11:19.690
nc71358615,2010-03-05 02:11:01.960,40.897,-123.4795,17.6,2.43,NC.LAM..SHZ,P,1.0,2010-03-05 02:11:18.850
nc71358615,2010-03-05 02:11:01.960,40.897,-123.4795,17.6,2.43,NC.LBF..SHZ,P,-1.0,2010-03-05 02:11:24.850
nc71358615,2010-03-05 02:11:01.960,40.897,-123.4795,17.6,2.43,NC.LBO..SHZ,P,1.0,2010-03-05 02:11:21.930
nc71358615,2010-03-05 02:11:01.960,40.897,-123.4795,17.6,2.43,NC.LBP..SHZ,P,1.0,2010-03-05 02:11:15.560
nc71358615,2010-03-05 02:11:01.960,40.897,-123.4795,17.6,2.43,NC.LGB..SHZ,P,1.0,2010-03-05 02:11:21.270
nc71358615,2010-03-05 02:11:01.960,40.897,-123.4795,17.6,2.43,NC.LMC..HHZ,P,1.0,2010-03-05 02:11:21.540
nc71358615,2010-03-05 02:11:01.960,40.897,-123.4795,17.6,2.43,NC.LMP..SHZ,P,1.0,2010-03-05 02:11:22.970
nc71358615,2010-03-05 02:11:01.960,40.897,-123.4795,17.6,2.43,NC.LPG..SHZ,P,-1.0,2010-03-05 02:11:19.330
nc71358615,2010-03-05 02:11:01.960,40.897,-123.4795,17.6,2.43,NC.LRB..SHZ,P,,2010-03-05 02:11:20.470
nc71358615,2010-03-05 02:11:01.960,40.897,-123.4795,17.6,2.43,NC.LSF..SHZ,P,1.0,2010-03-05 02:11:16.060
nc71358615,2010-03-05 02:11:01.960,40.897,-123.4795,17.6,2.43,NC.LSH..SHZ,P,1.0,2010-03-05 02:11:20.900
nc71358615,2010-03-05 02:11:01.960,40.897,-123.4795,17.6,2.43,NC.LSR..SHZ,P,,2010-03-05 02:11:18.560
nc71358690,2010-03-05 06:21:10.840,40.3105,-124.5625,9.2,1.97,BK.JCC..HHZ,P,1.0,2010-03-05 06:21:23.220
nc71358690,2010-03-05 06:21:10.840,40.3105,-124.5625,9.2,1.97,NC.GTC..SHZ,P,1.0,2010-03-05 06:21:31.530
nc71358690,2010-03-05 06:21:10.840,40.3105,-124.5625,9.2,1.97,NC.KBS..SHZ,P,1.0,2010-03-05 06:21:27.200
nc71358690,2010-03-05 06:21:10.840,40.3105,-124.5625,9.2,1.97,NC.KCPB..HHZ,P,-1.0,2010-03-05 06:21:29.840
nc71358690,2010-03-05 06:21:10.840,40.3105,-124.5625,9.2,1.97,NC.KCR..SHZ,P,1.0,2010-03-05 06:21:22.950
nc71358690,2010-03-05 06:21:10.840,40.3105,-124.5625,9.2,1.97,NC.KCS..SHZ,P,-1.0,2010-03-05 06:21:27.090
nc71358690,2010-03-05 06:21:10.840,40.3105,-124.5625,9.2,1.97,NC.KCT..HHZ,P,1.0,2010-03-05 06:21:16.680
nc71358690,2010-03-05 06:21:10.840,40.3105,-124.5625,9.2,1.97,NC.KFP..SHZ,P,-1.0,2010-03-05 06:21:30.260
nc71358690,2010-03-05 06:21:10.840,40.3105,-124.5625,9.2,1.97,NC.KHBB..HHZ,P,1.0,2010-03-05 06:21:30.150
nc71358690,2010-03-05 06:21:10.840,40.3105,-124.5625,9.2,1.97,NC.KHMB..HHZ,P,,2010-03-05 06:21:26.790
nc71358690,2010-03-05 06:21:10.840,40.3105,-124.5625,9.2,1.97,NC.KIP..SHZ,P,1.0,2010-03-05 06:21:29.770
nc71358690,2010-03-05 06:21:10.840,40.3105,-124.5625,9.2,1.97,NC.KJJ..SHZ,P,-1.0,2010-03-05 06:21:15.750
nc71358690,2010-03-05 06:21:10.840,40.3105,-124.5625,9.2,1.97,NC.KKP..SHZ,P,-1.0,2010-03-05 06:21:27.780
nc71358690,2010-03-05 06:21:10.840,40.3105,-124.5625,9.2,1.97,NC.KMPB..HHZ,P,-1.0,2010-03-05 06:21:18.460
nc71358690,2010-03-05 06:21:10.840,40.3105,-124.5625,9.2,1.97,NC.KMR..HHZ,P,1.0,2010-03-05 06:21:24.420
nc71358690,2010-03-05 06:21:10.840,40.3105,-124.5625,9.2,1.97,NC.KOM..SHZ,P,1.0,2010-03-05 06:21:32.770
nc71358690,2010-03-05 06:21:10.840,40.3105,-124.5625,9.2,1.97,NC.KRK..SHZ,P,,2010-03-05 06:21:33.440
nc71358690,2010-03-05 06:21:10.840,40.3105,-124.5625,9.2,1.97,NC.KSM..SHZ,P,1.0,2010-03-05 06:21:17.850
nc71358690,2010-03-05 06:21:10.840,40.3105,-124.5625,9.2,1.97,NC.KSXB..HHZ,P,1.0,2010-03-05 06:21:36.620
nc71359055,2010-03-05 22:16:10.230,40.17016666666667,-123.19416666666666,37.01,1.93,BK.GASB..HHZ,P,-1.0,2010-03-05 22:16:22.920
nc71359055,2010-03-05 22:16:10.230,40.17016666666667,-123.19416666666666,37.01,1.93,BK.WDC..HHZ,P,1.0,2010-03-05 22:16:22.310
nc71359055,2010-03-05 22:16:10.230,40.17016666666667,-123.19416666666666,37.01,1.93,NC.GRO..EHZ,P,1.0,2010-03-05 22:16:20.580
nc71359055,2010-03-05 22:16:10.230,40.17016666666667,-123.19416666666666,37.01,1.93,NC.GTC..SHZ,P,-1.0,2010-03-05 22:16:24.290
nc71359055,2010-03-05 22:16:10.230,40.17016666666667,-123.19416666666666,37.01,1.93,NC.GVV..EHZ,P,-1.0,2010-03-05 22:16:21.850
nc71359055,2010-03-05 22:16:10.230,40.17016666666667,-123.19416666666666,37.01,1.93,NC.KBN..SHZ,P,,2010-03-05 22:16:18.530
nc71359055,2010-03-05 22:16:10.230,40.17016666666667,-123.19416666666666,37.01,1.93,NC.KBS..SHZ,P,1.0,2010-03-05 22:16:19.460
nc71359055,2010-03-05 22:16:10.230,40.17016666666667,-123.19416666666666,37.01,1.93,NC.KCR..SHZ,P,1.0,2010-03-05 22:16:21.180
nc71359055,2010-03-05 22:16:10.230,40.17016666666667,-123.19416666666666,37.01,1.93,NC.KFP..SHZ,P,-1.0,2010-03-05 22:16:21.250
nc71359055,2010-03-05 22:16:10.230,40.17016666666667,-123.19416666666666,37.01,1.93,NC.KHBB..HHZ,P,-1.0,2010-03-05 22:16:20.540
nc71359055,2010-03-05 22:16:10.230,40.17016666666667,-123.19416666666666,37.01,1.93,NC.KIP..SHZ,P,1.0,2010-03-05 22:16:19.700
nc71359055,2010-03-05 22:16:10.230,40.17016666666667,-123.19416666666666,37.01,1.93,NC.KKP..SHZ,P,1.0,2010-03-05 22:16:17.850
nc71359055,2010-03-05 22:16:10.230,40.17016666666667,-123.19416666666666,37.01,1.93,NC.KMR..HHZ,P,1.0,2010-03-05 22:16:19.310
nc71359055,2010-03-05 22:16:10.230,40.17016666666667,-123.19416666666666,37.01,1.93,NC.KOM..SHZ,P,1.0,2010-03-05 22:16:29.260
nc71359055,2010-03-05 22:16:10.230,40.17016666666667,-123.19416666666666,37.01,1.93,NC.KPP..SHZ,P,-1.0,2010-03-05 22:16:17.780
nc71359055,2010-03-05 22:16:10.230,40.17016666666667,-123.19416666666666,37.01,1.93,NC.KRK..SHZ,P,1.0,2010-03-05 22:16:22.560
nc71359055,2010-03-05 22:16:10.230,40.17016666666667,-123.19416666666666,37.01,1.93,NC.KSM..SHZ,P,-1.0,2010-03-05 22:16:23.790
nc71359055,2010-03-05 22:16:10.230,40.17016666666667,-123.19416666666666,37.01,1.93,NC.LBP..SHZ,P,1.0,2010-03-05 22:16:17.990
nc71359055,2010-03-05 22:16:10.230,40.17016666666667,-123.19416666666666,37.01,1.93,NC.LPG..SHZ,P,-1.0,2010-03-05 22:16:19.490
nc71359055,2010-03-05 22:16:10.230,40.17016666666667,-123.19416666666666,37.01,1.93,NC.LRB..SHZ,P,-1.0,2010-03-05 22:16:21.200
nc71359055,2010-03-05 22:16:10.230,40.17016666666667,-123.19416666666666,37.01,1.93,NC.LSF..SHZ,P,1.0,2010-03-05 22:16:22.920
nc71359055,2010-03-05 22:16:10.230,40.17016666666667,-123.19416666666666,37.01,1.93,NC.LSH..SHZ,P,-1.0,2010-03-05 22:16:28.730
nc71359055,2010-03-05 22:16:10.230,40.17016666666667,-123.19416666666666,37.01,1.93,NC.LVR..SHZ,P,1.0,2010-03-05 22:16:19.860
nc71360785,2010-03-09 10:36:20.330,40.288666666666664,-124.403,-0.26,2.77,BK.GASB..HHZ,P,1.0,2010-03-09 10:36:46.000
nc71360785,2010-03-09 10:36:20.330,40.288666666666664,-124.403,-0.26,2.77,BK.JCC..HHZ,P,-1.0,2010-03-09 10:36:33.620
nc71360785,2010-03-09 10:36:20.330,40.288666666666664,-124.403,-0.26,2.77,BK.WDC..HHZ,P,1.0,2010-03-09 10:36:46.130
nc71360785,2010-03-09 10:36:20.330,40.288666666666664,-124.403,-0.26,2.77,NC.BPO..SHZ,P,-1.0,2010-03-09 10:37:28.730
nc71360785,2010-03-09 10:36:20.330,40.288666666666664,-124.403,-0.26,2.77,NC.BPR..EHZ,P,,2010-03-09 10:37:26.850
nc71360785,2010-03-09 10:36:20.330,40.288666666666664,-124.403,-0.26,2.77,NC.GBB..EHZ,P,,2010-03-09 10:36:50.270
nc71360785,2010-03-09 10:36:20.330,40.288666666666664,-124.403,-0.26,2.77,NC.GHL..EHZ,P,-1.0,2010-03-09 10:36:48.300
nc71360785,2010-03-09 10:36:20.330,40.288666666666664,-124.403,-0.26,2.77,NC.GHM..EHZ,P,-1.0,2010-03-09 10:36:44.850
nc71360785,2010-03-09 10:36:20.330,40.288666666666664,-124.403,-0.26,2.77,NC.GRO..EHZ,P,-1.0,2010-03-09 10:36:46.240
nc71360785,2010-03-09 10:36:20.330,40.288666666666664,-124.403,-0.26,2.77,NC.GRT..EHZ,P,1.0,2010-03-09 10:36:51.760
nc71360785,2010-03-09 10:36:20.330,40.288666666666664,-124.403,-0.26,2.77,NC.GTC..SHZ,P,-1.0,2010-03-09 10:36:40.770
nc71360785,2010-03-09 10:36:20.330,40.288666666666664,-124.403,-0.26,2.77,NC.GVV..EHZ,P,1.0,2010-03-09 10:36:45.870
nc71360785,2010-03-09 10:36:20.330,40.288666666666664,-124.403,-0.26,2.77,NC.GWR..EHZ,P,-1.0,2010-03-09 10:36:44.590
nc71360785,2010-03-09 10:36:20.330,40.288666666666664,-124.403,-0.26,2.77,NC.JGR..EHZ,P,1.0,2010-03-09 10:37:09.930
nc71360785,2010-03-09 10:36:20.330,40.288666666666664,-124.403,-0.26,2.77,NC.KCPB..HHZ,P,-1.0,2010-03-09 10:36:37.820
nc71360785,2010-03-09 10:36:20.330,40.288666666666664,-124.403,-0.26,2.77,NC.KHBB..HHZ,P,1.0,2010-03-09 10:36:39.490
nc71360785,2010-03-09 10:36:20.330,40.288666666666664,-124.403,-0.26,2.77,NC.KHMB..HHZ,P,1.0,2010-03-09 10:36:36.760
nc71360785,2010-03-09 10:36:20.330,40.288666666666664,-124.403,-0.26,2.77,NC.KIP..SHZ,P,1.0,2010-03-09 10:36:38.080
nc71360785,2010-03-09 10:36:20.330,40.288666666666664,-124.403,-0.26,2.77,NC.KOM..SHZ,P,-1.0,2010-03-09 10:36:43.010
nc71360785,2010-03-09 10:36:20.330,40.288666666666664,-124.403,-0.26,2.77,NC.KRP..HHZ,P,-1.0,2010-03-09 10:36:38.500
nc71360785,2010-03-09 10:36:20.330,40.288666666666664,-124.403,-0.26,2.77,NC.KSXB..HHZ,P,-1.0,2010-03-09 10:36:47.940
nc71360785,2010-03-09 10:36:20.330,40.288666666666664,-124.403,-0.26,2.77,NC.LBC..SHZ,P,1.0,2010-03-09 10:36:59.940
nc71360785,2010-03-09 10:36:20.330,40.288666666666664,-124.403,-0.26,2.77,NC.LBF..SHZ,P,1.0,2010-03-09 10:36:57.680
nc71360785,2010-03-09 10:36:20.330,40.288666666666664,-124.403,-0.26,2.77,NC.LBO..SHZ,P,-1.0,2010-03-09 10:36:55.880
nc71360785,2010-03-09 10:36:20.330,40.288666666666664,-124.403,-0.26,2.77,NC.LBP..SHZ,P,1.0,2010-03-09 10:36:42.300
nc71360785,2010-03-09 10:36:20.330,40.288666666666664,-124.403,-0.26,2.77,NC.LEL..SHZ,P,1.0,2010-03-09 10:36:57.460
nc71360785,2010-03-09 10:36:20.330,40.288666666666664,-124.403,-0.26,2.77,NC.LGM..SHZ,P,1.0,2010-03-09 10:36:59.680
nc71360785,2010-03-09 10:36:20.330,40.288666666666664,-124.403,-0.26,2.77,NC.LMC..HHZ,P,-1.0,2010-03-09 10:36:54.820
nc71360785,2010-03-09 10:36:20.330,40.288666666666664,-124.403,-0.26,2.77,NC.LMP..SHZ,P,-1.0,2010-03-09 10:36:56.390
nc71360785,2010-03-09 10:36:20.330,40.288666666666664,-124.403,-0.26,2.77,NC.LPG..SHZ,P,1.0,2010-03-09 10:36:44.900
nc71360785,2010-03-09 10:36:20.330,40.288666666666664,-124.403,-0.26,2.77,NC.LRB..SHZ,P,1.0,2010-03-09 10:36:46.610
nc71360785,2010-03-09 10:36:20.330,40.288666666666664,-124.403,-0.26,2.77,NC.LRD..SHZ,P,1.0,2010-03-09 10:36:58.320
nc71360785,2010-03-09 10:36:20.330,40.288666666666664,-124.403,-0.26,2.77,NC.LRR..SHZ,P,-1.0,2010-03-09 10:36:56.120
nc71360785,2010-03-09 10:36:20.330,40.288666666666664,-124.403,-0.26,2.77,NC.LSF..SHZ,P,-1.0,2010-03-09 10:36:46.910
nc71360785,2010-03-09 10:36:20.330,40.288666666666664,-124.403,-0.26,2.77,NC.LSH..SHZ,P,1.0,2010-03-09 10:36:52.400
nc71360785,2010-03-09 10:36:20.330,40.288666666666664,-124.403,-0.26,2.77,NC.LSR..SHZ,P,-1.0,2010-03-09 10:36:51.890
nc71360785,2010-03-09 10:36:20.330,40.288666666666664,-124.403,-0.26,2.77,NC.LTC..SHZ,P,-1.0,2010-03-09 10:36:50.740
nc71360785,2010-03-09 10:36:20.330,40.288666666666664,-124.403,-0.26,2.77,NC.LVR..SHZ,P,1.0,2010-03-09 10:36:45.490
nc71360785,2010-03-09 10:36:20.330,40.288666666666664,-124.403,-0.26,2.77,NC.LWH..SHZ,P,-1.0,2010-03-09 10:36:52.600
nc71360785,2010-03-09 10:36:20.330,40.288666666666664,-124.403,-0.26,2.77,NC.NCC..EHZ,P,,2010-03-09 10:37:03.210
nc71360785,2010-03-09 10:36:20.330,40.288666666666664,-124.403,-0.26,2.77,NC.OBHB..EHZ,P,1.0,2010-03-09 10:36:59.030
nc71360785,2010-03-09 10:36:20.330,40.288666666666664,-124.403,-0.26,2.77,NC.OCR..EHZ,P,-1.0,2010-03-09 10:36:54.770
nc71360785,2010-03-09 10:36:20.330,40.288666666666664,-124.403,-0.26,2.77,NC.OGO..EHZ,P,1.0,2010-03-09 10:36:57.170
nc71360785,2010-03-09 10:36:20.330,40.288666666666664,-124.403,-0.26,2.77,NC.ORA..EHZ,P,,2010-03-09 10:37:00.340
nc71360785,2010-03-09 10:36:20.330,40.288666666666664,-124.403,-0.26,2.77,NC.OSU..EHZ,P,1.0,2010-03-09 10:36:56.770
nc71360785,2010-03-09 10:36:20.330,40.288666666666664,-124.403,-0.26,2.77,NN.EUR..SHZ,P,1.0,2010-03-09 10:37:07.990
nc71360785,2010-03-09 10:36:20.330,40.288666666666664,-124.403,-0.26,2.77,NN.SAT..SHZ,P,1.0,2010-03-09 10:37:11.210
nc71360785,2010-03-09 10:36:20.330,40.288666666666664,-124.403,-0.26,2.77,NN.SBT..SHZ,P,1.0,2010-03-09 10:37:08.900
nc71364810,2010-03-17 23:15:49.700,40.74616666666667,-124.21,6.22,2.2,BK.JCC..HHZ,P,1.0,2010-03-17 23:15:53.550
nc71364810,2010-03-17 23:15:49.700,40.74616666666667,-124.21,6.22,2.2,BK.WDC..HHZ,P,,2010-03-17 23:16:12.650
nc71364810,2010-03-17 23:15:49.700,40.74616666666667,-124.21,6.22,2.2,NC.KBN..SHZ,P,,2010-03-17 23:16:11.180
nc71364810,2010-03-17 23:15:49.700,40.74616666666667,-124.21,6.22,2.2,NC.KBS..SHZ,P,,2010-03-17 23:16:07.710
nc71364810,2010-03-17 23:15:49.700,40.74616666666667,-124.21,6.22,2.2,NC.KCPB..HHZ,P,1.0,2010-03-17 23:16:10.650
nc71364810,2010-03-17 23:15:49.700,40.74616666666667,-124.21,6.22,2.2,NC.KCR..SHZ,P,-1.0,2010-03-17 23:15:59.300
nc71364810,2010-03-17 23:15:49.700,40.74616666666667,-124.21,6.22,2.2,NC.KCS..SHZ,P,1.0,2010-03-17 23:16:02.110
nc71364810,2010-03-17 23:15:49.700,40.74616666666667,-124.21,6.22,2.2,NC.KCT..HHZ,P,-1.0,2010-03-17 23:15:56.420
nc71364810,2010-03-17 23:15:49.700,40.74616666666667,-124.21,6.22,2.2,NC.KFP..SHZ,P,-1.0,2010-03-17 23:16:11.770
nc71364810,2010-03-17 23:15:49.700,40.74616666666667,-124.21,6.22,2.2,NC.KHBB..HHZ,P,1.0,2010-03-17 23:16:04.750
nc71364810,2010-03-17 23:15:49.700,40.74616666666667,-124.21,6.22,2.2,NC.KHMB..HHZ,P,1.0,2010-03-17 23:15:58.370
nc71364810,2010-03-17 23:15:49.700,40.74616666666667,-124.21,6.22,2.2,NC.KIP..SHZ,P,-1.0,2010-03-17 23:16:09.350
nc71364810,2010-03-17 23:15:49.700,40.74616666666667,-124.21,6.22,2.2,NC.KJJ..SHZ,P,1.0,2010-03-17 23:16:00.640
nc71364810,2010-03-17 23:15:49.700,40.74616666666667,-124.21,6.22,2.2,NC.KKP..SHZ,P,1.0,2010-03-17 23:16:06.460
nc71364810,2010-03-17 23:15:49.700,40.74616666666667,-124.21,6.22,2.2,NC.KMPB..HHZ,P,-1.0,2010-03-17 23:15:57.260
nc71364810,2010-03-17 23:15:49.700,40.74616666666667,-124.21,6.22,2.2,NC.KMR..HHZ,P,1.0,2010-03-17 23:16:03.630
nc71364810,2010-03-17 23:15:49.700,40.74616666666667,-124.21,6.22,2.2,NC.KOM..SHZ,P,1.0,2010-03-17 23:16:05.080
nc71364810,2010-03-17 23:15:49.700,40.74616666666667,-124.21,6.22,2.2,NC.KPP..SHZ,P,1.0,2010-03-17 23:16:05.450
nc71364810,2010-03-17 23:15:49.700,40.74616666666667,-124.21,6.22,2.2,NC.KRP..HHZ,P,-1.0,2010-03-17 23:15:59.170
nc71364810,2010-03-17 23:15:49.700,40.74616666666667,-124.21,6.22,2.2,NC.KSM..SHZ,P,-1.0,2010-03-17 23:16:01.440
nc71364810,2010-03-17 23:15:49.700,40.74616666666667,-124.21,6.22,2.2,NC.KSXB..HHZ,P,-1.0,2010-03-17 23:16:09.800
nc71364810,2010-03-17 23:15:49.700,40.74616666666667,-124.21,6.22,2.2,NC.KTR..SHZ,P,1.0,2010-03-17 23:16:12.750
nc71364810,2010-03-17 23:15:49.700,40.74616666666667,-124.21,6.22,2.2,NC.LBK..SHZ,P,1.0,2010-03-17 23:16:11.650
nc71364810,2010-03-17 23:15:49.700,40.74616666666667,-124.21,6.22,2.2,NC.LSR..SHZ,P,-1.0,2010-03-17 23:16:15.930
nc71365895,2010-03-20 02:42:15.620,40.86183333333334,-123.47833333333334,27.2,2.31,BK.JCC..HHZ,P,1.0,2010-03-20 02:42:24.340
nc71365895,2010-03-20 02:42:15.620,40.86183333333334,-123.47833333333334,27.2,2.31,BK.WDC..HHZ,P,1.0,2010-03-20 02:42:29.800
nc71365895,2010-03-20 02:42:15.620,40.86183333333334,-123.47833333333334,27.2,2.31,NC.KBS..SHZ,P,1.0,2010-03-20 02:42:32.600
nc71365895,2010-03-20 02:42:15.620,40.86183333333334,-123.47833333333334,27.2,2.31,NC.KCR..SHZ,P,1.0,2010-03-20 02:42:26.010
nc71365895,2010-03-20 02:42:15.620,40.86183333333334,-123.47833333333334,27.2,2.31,NC.KCS..SHZ,P,-1.0,2010-03-20 02:42:23.510
nc71365895,2010-03-20 02:42:15.620,40.86183333333334,-123.47833333333334,27.2,2.31,NC.KCT..HHZ,P,-1.0,2010-03-20 02:42:29.120
nc71365895,2010-03-20 02:42:15.620,40.86183333333334,-123.47833333333334,27.2,2.31,NC.KHBB..HHZ,P,1.0,2010-03-20 02:42:22.700
nc71365895,2010-03-20 02:42:15.620,40.86183333333334,-123.47833333333334,27.2,2.31,NC.KHMB..HHZ,P,-1.0,2010-03-20 02:42:21.600
nc71365895,2010-03-20 02:42:15.620,40.86183333333334,-123.47833333333334,27.2,2.31,NC.KJJ..SHZ,P,1.0,2010-03-20 02:42:30.770
nc71365895,2010-03-20 02:42:15.620,40.86183333333334,-123.47833333333334,27.2,2.31,NC.KKP..SHZ,P,-1.0,2010-03-20 02:42:29.250
nc71365895,2010-03-20 02:42:15.620,40.86183333333334,-123.47833333333334,27.2,2.31,NC.KMPB..HHZ,P,1.0,2010-03-20 02:42:27.920
nc71365895,2010-03-20 02:42:15.620,40.86183333333334,-123.47833333333334,27.2,2.31,NC.KMR..HHZ,P,-1.0,2010-03-20 02:42:28.420
nc71365895,2010-03-20 02:42:15.620,40.86183333333334,-123.47833333333334,27.2,2.31,NC.KOM..SHZ,P,-1.0,2010-03-20 02:42:24.310
nc71365895,2010-03-20 02:42:15.620,40.86183333333334,-123.47833333333334,27.2,2.31,NC.KPP..SHZ,P,1.0,2010-03-20 02:42:26.390
nc71365895,2010-03-20 02:42:15.620,40.86183333333334,-123.47833333333334,27.2,2.31,NC.KRP..HHZ,P,1.0,2010-03-20 02:42:25.680
nc71365895,2010-03-20 02:42:15.620,40.86183333333334,-123.47833333333334,27.2,2.31,NC.KSM..SHZ,P,-1.0,2010-03-20 02:42:30.680
nc71365895,2010-03-20 02:42:15.620,40.86183333333334,-123.47833333333334,27.2,2.31,NC.LBF..SHZ,P,-1.0,2010-03-20 02:42:39.220
nc71365895,2010-03-20 02:42:15.620,40.86183333333334,-123.47833333333334,27.2,2.31,NC.LBK..SHZ,P,,2010-03-20 02:42:27.870
nc71365895,2010-03-20 02:42:15.620,40.86183333333334,-123.47833333333334,27.2,2.31,NC.LGB..SHZ,P,,2010-03-20 02:42:35.130
nc71365895,2010-03-20 02:42:15.620,40.86183333333334,-123.47833333333334,27.2,2.31,NC.LGM..SHZ,P,,2010-03-20 02:42:41.780
nc71365895,2010-03-20 02:42:15.620,40.86183333333334,-123.47833333333334,27.2,2.31,NC.LRR..SHZ,P,-1.0,2010-03-20 02:42:40.160
nc71365895,2010-03-20 02:42:15.620,40.86183333333334,-123.47833333333334,27.2,2.31,NC.LSF..SHZ,P,1.0,2010-03-20 02:42:29.790
nc71365895,2010-03-20 02:42:15.620,40.86183333333334,-123.47833333333334,27.2,2.31,NC.LSH..SHZ,P,-1.0,2010-03-20 02:42:34.730
nc71365895,2010-03-20 02:42:15.620,40.86183333333334,-123.47833333333334,27.2,2.31,NC.LSR..SHZ,P,1.0,2010-03-20 02:42:32.490
