event_id,etime,elat,elon,edep,emag,station_id,phase_type,phase_polarity,phase_time
nc71541861,2011-03-12 08:59:16.810,40.353833333333334,-124.33466666666666,12.91,1.87,NC.LVR..SHZ,P,-1.0,2011-03-12 08:59:39.530
nc71541861,2011-03-12 08:59:16.810,40.353833333333334,-124.33466666666666,12.91,1.87,PB.B045..EHZ,P,-1.0,2011-03-12 08:59:22.910
nc71541861,2011-03-12 08:59:16.810,40.353833333333334,-124.33466666666666,12.91,1.87,PB.B046..EHZ,P,-1.0,2011-03-12 08:59:19.630
nc71541861,2011-03-12 08:59:16.810,40.353833333333334,-124.33466666666666,12.91,1.87,PB.B047..EHZ,P,-1.0,2011-03-12 08:59:21.230
nc71541861,2011-03-12 08:59:16.810,40.353833333333334,-124.33466666666666,12.91,1.87,PB.B049..EHZ,P,1.0,2011-03-12 08:59:25.740
nc71541861,2011-03-12 08:59:16.810,40.353833333333334,-124.33466666666666,12.91,1.87,PB.B932..EHZ,P,-1.0,2011-03-12 08:59:20.430
nc71541861,2011-03-12 08:59:16.810,40.353833333333334,-124.33466666666666,12.91,1.87,PB.B933..EHZ,P,-1.0,2011-03-12 08:59:25.130
nc71541861,2011-03-12 08:59:16.810,40.353833333333334,-124.33466666666666,12.91,1.87,PB.B935..EHZ,P,1.0,2011-03-12 08:59:28.390
nc71542261,2011-03-13 03:00:56.410,39.85783333333333,-123.21683333333333,14.13,1.71,BK.GASB..HHZ,P,1.0,2011-03-13 03:01:05.170
nc71542261,2011-03-13 03:00:56.410,39.85783333333333,-123.21683333333333,14.13,1.71,BK.HOPS..HHZ,P,,2011-03-13 03:01:13.210
nc71542261,2011-03-13 03:00:56.410,39.85783333333333,-123.21683333333333,14.13,1.71,BK.WDC..HHZ,P,-1.0,2011-03-13 03:01:13.060
nc71542261,2011-03-13 03:00:56.410,39.85783333333333,-123.21683333333333,14.13,1.71,NC.GCK..EHZ,P,1.0,2011-03-13 03:01:10.400
nc71542261,2011-03-13 03:00:56.410,39.85783333333333,-123.21683333333333,14.13,1.71,NC.GHL..EHZ,P,,2011-03-13 03:01:12.440
nc71542261,2011-03-13 03:00:56.410,39.85783333333333,-123.21683333333333,14.13,1.71,NC.GHM..EHZ,P,-1.0,2011-03-13 03:01:05.220
nc71542261,2011-03-13 03:00:56.410,39.85783333333333,-123.21683333333333,14.13,1.71,NC.GRO..EHZ,P,1.0,2011-03-13 03:01:05.070
nc71542261,2011-03-13 03:00:56.410,39.85783333333333,-123.21683333333333,14.13,1.71,NC.GTC..SHZ,P,1.0,2011-03-13 03:01:07.150
nc71542261,2011-03-13 03:00:56.410,39.85783333333333,-123.21683333333333,14.13,1.71,NC.GTS..EHZ,P,,2011-03-13 03:01:10.610
nc71542261,2011-03-13 03:00:56.410,39.85783333333333,-123.21683333333333,14.13,1.71,NC.GVV..EHZ,P,1.0,2011-03-13 03:01:05.040
nc71542261,2011-03-13 03:00:56.410,39.85783333333333,-123.21683333333333,14.13,1.71,NC.GWR..EHZ,P,,2011-03-13 03:01:09.800
nc71542261,2011-03-13 03:00:56.410,39.85783333333333,-123.21683333333333,14.13,1.71,NC.KCPB..HNZ,P,-1.0,2011-03-13 03:01:03.610
nc71542261,2011-03-13 03:00:56.410,39.85783333333333,-123.21683333333333,14.13,1.71,NC.KIP..SHZ,P,1.0,2011-03-13 03:01:01.040
nc71542261,2011-03-13 03:00:56.410,39.85783333333333,-123.21683333333333,14.13,1.71,NC.KKP..SHZ,P,1.0,2011-03-13 03:01:04.270
nc71542261,2011-03-13 03:00:56.410,39.85783333333333,-123.21683333333333,14.13,1.71,NC.KMR..HHZ,P,-1.0,2011-03-13 03:01:07.420
nc71542261,2011-03-13 03:00:56.410,39.85783333333333,-123.21683333333333,14.13,1.71,NC.KPP..SHZ,P,1.0,2011-03-13 03:01:06.810
nc71542261,2011-03-13 03:00:56.410,39.85783333333333,-123.21683333333333,14.13,1.71,NC.KRK..SHZ,P,-1.0,2011-03-13 03:01:02.740
nc71542261,2011-03-13 03:00:56.410,39.85783333333333,-123.21683333333333,14.13,1.71,NC.LBP..SHZ,P,-1.0,2011-03-13 03:01:07.010
nc71542261,2011-03-13 03:00:56.410,39.85783333333333,-123.21683333333333,14.13,1.71,NC.LPG..SHZ,P,1.0,2011-03-13 03:01:06.650
nc71542261,2011-03-13 03:00:56.410,39.85783333333333,-123.21683333333333,14.13,1.71,NC.LRB..SHZ,P,1.0,2011-03-13 03:01:08.650
nc71542261,2011-03-13 03:00:56.410,39.85783333333333,-123.21683333333333,14.13,1.71,NC.LSF..SHZ,P,1.0,2011-03-13 03:01:14.500
nc71542261,2011-03-13 03:00:56.410,39.85783333333333,-123.21683333333333,14.13,1.71,NC.LVR..SHZ,P,1.0,2011-03-13 03:01:05.610
nc71542261,2011-03-13 03:00:56.410,39.85783333333333,-123.21683333333333,14.13,1.71,PB.B933..EHZ,P,1.0,2011-03-13 03:01:08.910
nc71544046,2011-03-17 02:13:56.720,40.628166666666665,-124.70583333333333,9.1,3.35,BK.GASB..HHZ,P,,2011-03-17 02:14:26.810
nc71544046,2011-03-17 02:13:56.720,40.628166666666665,-124.70583333333333,9.1,3.35,BK.HOPS..HHZ,P,,2011-03-17 02:14:29.380
nc71544046,2011-03-17 02:13:56.720,40.628166666666665,-124.70583333333333,9.1,3.35,BK.HUMO..HHZ,P,1.0,2011-03-17 02:14:33.930
nc71544046,2011-03-17 02:13:56.720,40.628166666666665,-124.70583333333333,9.1,3.35,BK.JCC..HHZ,P,1.0,2011-03-17 02:14:08.100
nc71544046,2011-03-17 02:13:56.720,40.628166666666665,-124.70583333333333,9.1,3.35,BK.ORV..HHZ,P,,2011-03-17 02:14:38.180
nc71544046,2011-03-17 02:13:56.720,40.628166666666665,-124.70583333333333,9.1,3.35,BK.SUTB..HHZ,P,1.0,2011-03-17 02:14:37.210
nc71544046,2011-03-17 02:13:56.720,40.628166666666665,-124.70583333333333,9.1,3.35,BK.WDC..HHZ,P,1.0,2011-03-17 02:14:24.200
nc71544046,2011-03-17 02:13:56.720,40.628166666666665,-124.70583333333333,9.1,3.35,NC.GAC..EHZ,P,-1.0,2011-03-17 02:14:32.560
nc71544046,2011-03-17 02:13:56.720,40.628166666666665,-124.70583333333333,9.1,3.35,NC.GAR..EHZ,P,,2011-03-17 02:14:37.510
nc71544046,2011-03-17 02:13:56.720,40.628166666666665,-124.70583333333333,9.1,3.35,NC.GBB..EHZ,P,1.0,2011-03-17 02:14:30.060
nc71544046,2011-03-17 02:13:56.720,40.628166666666665,-124.70583333333333,9.1,3.35,NC.GCK..EHZ,P,1.0,2011-03-17 02:14:30.690
nc71544046,2011-03-17 02:13:56.720,40.628166666666665,-124.70583333333333,9.1,3.35,NC.GCW..EHZ,P,1.0,2011-03-17 02:14:27.910
nc71544046,2011-03-17 02:13:56.720,40.628166666666665,-124.70583333333333,9.1,3.35,NC.GFC..EHZ,P,,2011-03-17 02:14:33.200
nc71544046,2011-03-17 02:13:56.720,40.628166666666665,-124.70583333333333,9.1,3.35,NC.GHC..EHZ,P,,2011-03-17 02:14:33.130
nc71544046,2011-03-17 02:13:56.720,40.628166666666665,-124.70583333333333,9.1,3.35,NC.GHG..EHZ,P,-1.0,2011-03-17 02:14:30.340
nc71544046,2011-03-17 02:13:56.720,40.628166666666665,-124.70583333333333,9.1,3.35,NC.GHL..EHZ,P,1.0,2011-03-17 02:14:29.400
nc71544046,2011-03-17 02:13:56.720,40.628166666666665,-124.70583333333333,9.1,3.35,NC.GHM..EHZ,P,1.0,2011-03-17 02:14:25.750
nc71544046,2011-03-17 02:13:56.720,40.628166666666665,-124.70583333333333,9.1,3.35,NC.GMK..EHZ,P,,2011-03-17 02:14:32.710
nc71544046,2011-03-17 02:13:56.720,40.628166666666665,-124.70583333333333,9.1,3.35,NC.GPM..EHZ,P,-1.0,2011-03-17 02:14:32.200
nc71544046,2011-03-17 02:13:56.720,40.628166666666665,-124.70583333333333,9.1,3.35,NC.GRO..EHZ,P,1.0,2011-03-17 02:14:25.590
nc71544046,2011-03-17 02:13:56.720,40.628166666666665,-124.70583333333333,9.1,3.35,NC.GSN..EHZ,P,-1.0,2011-03-17 02:14:29.150
nc71544046,2011-03-17 02:13:56.720,40.628166666666665,-124.70583333333333,9.1,3.35,NC.GTC..SHZ,P,1.0,2011-03-17 02:14:21.700
nc71544046,2011-03-17 02:13:56.720,40.628166666666665,-124.70583333333333,9.1,3.35,NC.GTS..EHZ,P,-1.0,2011-03-17 02:14:30.390
nc71544046,2011-03-17 02:13:56.720,40.628166666666665,-124.70583333333333,9.1,3.35,NC.GVV..EHZ,P,1.0,2011-03-17 02:14:26.460
nc71544046,2011-03-17 02:13:56.720,40.628166666666665,-124.70583333333333,9.1,3.35,NC.GWR..EHZ,P,-1.0,2011-03-17 02:14:25.450
nc71544046,2011-03-17 02:13:56.720,40.628166666666665,-124.70583333333333,9.1,3.35,NC.KBO..HHZ,P,-1.0,2011-03-17 02:14:22.460
nc71544046,2011-03-17 02:13:56.720,40.628166666666665,-124.70583333333333,9.1,3.35,NC.KCPB..HNZ,P,-1.0,2011-03-17 02:14:18.940
nc71544046,2011-03-17 02:13:56.720,40.628166666666665,-124.70583333333333,9.1,3.35,NC.KCR..SHZ,P,1.0,2011-03-17 02:14:10.960
nc71544046,2011-03-17 02:13:56.720,40.628166666666665,-124.70583333333333,9.1,3.35,NC.KCS..SHZ,P,1.0,2011-03-17 02:14:14.220
nc71544046,2011-03-17 02:13:56.720,40.628166666666665,-124.70583333333333,9.1,3.35,NC.KHBB..HHZ,P,1.0,2011-03-17 02:14:17.040
nc71544046,2011-03-17 02:13:56.720,40.628166666666665,-124.70583333333333,9.1,3.35,NC.KHMB..HHZ,P,1.0,2011-03-17 02:14:12.010
nc71544046,2011-03-17 02:13:56.720,40.628166666666665,-124.70583333333333,9.1,3.35,NC.KIP..SHZ,P,1.0,2011-03-17 02:14:18.640
nc71544046,2011-03-17 02:13:56.720,40.628166666666665,-124.70583333333333,9.1,3.35,NC.KJJ..SHZ,P,-1.0,2011-03-17 02:14:07.150
nc71544046,2011-03-17 02:13:56.720,40.628166666666665,-124.70583333333333,9.1,3.35,NC.KKP..SHZ,P,1.0,2011-03-17 02:14:16.300
nc71544046,2011-03-17 02:13:56.720,40.628166666666665,-124.70583333333333,9.1,3.35,NC.KMPB..HHZ,P,1.0,2011-03-17 02:14:07.760
nc71544046,2011-03-17 02:13:56.720,40.628166666666665,-124.70583333333333,9.1,3.35,NC.KMR..HHZ,P,1.0,2011-03-17 02:14:13.420
nc71544046,2011-03-17 02:13:56.720,40.628166666666665,-124.70583333333333,9.1,3.35,NC.KPP..SHZ,P,1.0,2011-03-17 02:14:16.380
nc71544046,2011-03-17 02:13:56.720,40.628166666666665,-124.70583333333333,9.1,3.35,NC.KRK..SHZ,P,1.0,2011-03-17 02:14:23.150
nc71544046,2011-03-17 02:13:56.720,40.628166666666665,-124.70583333333333,9.1,3.35,NC.KRP..HHZ,P,-1.0,2011-03-17 02:14:10.980
nc71544046,2011-03-17 02:13:56.720,40.628166666666665,-124.70583333333333,9.1,3.35,NC.KSXB..HHZ,P,-1.0,2011-03-17 02:14:19.100
nc71544046,2011-03-17 02:13:56.720,40.628166666666665,-124.70583333333333,9.1,3.35,NC.KTR..SHZ,P,1.0,2011-03-17 02:14:23.330
nc71544046,2011-03-17 02:13:56.720,40.628166666666665,-124.70583333333333,9.1,3.35,NC.LBF..SHZ,P,-1.0,2011-03-17 02:14:33.930
nc71544046,2011-03-17 02:13:56.720,40.628166666666665,-124.70583333333333,9.1,3.35,NC.LBK..SHZ,P,1.0,2011-03-17 02:14:23.590
nc71544046,2011-03-17 02:13:56.720,40.628166666666665,-124.70583333333333,9.1,3.35,NC.LBO..SHZ,P,1.0,2011-03-17 02:14:30.750
nc71544046,2011-03-17 02:13:56.720,40.628166666666665,-124.70583333333333,9.1,3.35,NC.LBP..SHZ,P,1.0,2011-03-17 02:14:21.150
nc71544046,2011-03-17 02:13:56.720,40.628166666666665,-124.70583333333333,9.1,3.35,NC.LCM..SHZ,P,1.0,2011-03-17 02:14:36.220
nc71544046,2011-03-17 02:13:56.720,40.628166666666665,-124.70583333333333,9.1,3.35,NC.LCSB..SHZ,P,-1.0,2011-03-17 02:14:28.470
nc71544046,2011-03-17 02:13:56.720,40.628166666666665,-124.70583333333333,9.1,3.35,NC.LDB..SHZ,P,1.0,2011-03-17 02:14:32.390
nc71544046,2011-03-17 02:13:56.720,40.628166666666665,-124.70583333333333,9.1,3.35,NC.LDH..HHZ,P,1.0,2011-03-17 02:14:34.770
nc71544046,2011-03-17 02:13:56.720,40.628166666666665,-124.70583333333333,9.1,3.35,NC.LEL..SHZ,P,1.0,2011-03-17 02:14:35.440
nc71544046,2011-03-17 02:13:56.720,40.628166666666665,-124.70583333333333,9.1,3.35,NC.LGB..SHZ,P,1.0,2011-03-17 02:14:30.160
nc71544046,2011-03-17 02:13:56.720,40.628166666666665,-124.70583333333333,9.1,3.35,NC.LGM..SHZ,P,,2011-03-17 02:14:33.440
nc71544046,2011-03-17 02:13:56.720,40.628166666666665,-124.70583333333333,9.1,3.35,NC.LHE..SHZ,P,1.0,2011-03-17 02:14:31.690
nc71544046,2011-03-17 02:13:56.720,40.628166666666665,-124.70583333333333,9.1,3.35,NC.LMC..HHZ,P,1.0,2011-03-17 02:14:30.850
nc71544046,2011-03-17 02:13:56.720,40.628166666666665,-124.70583333333333,9.1,3.35,NC.LME..SHZ,P,-1.0,2011-03-17 02:14:34.950
nc71544046,2011-03-17 02:13:56.720,40.628166666666665,-124.70583333333333,9.1,3.35,NC.LMI..SHZ,P,,2011-03-17 02:14:28.810
nc71544046,2011-03-17 02:13:56.720,40.628166666666665,-124.70583333333333,9.1,3.35,NC.LMP..SHZ,P,1.0,2011-03-17 02:14:31.810
nc71544046,2011-03-17 02:13:56.720,40.628166666666665,-124.70583333333333,9.1,3.35,NC.LPG..SHZ,P,1.0,2011-03-17 02:14:23.900
nc71544046,2011-03-17 02:13:56.720,40.628166666666665,-124.70583333333333,9.1,3.35,NC.LPK..SHZ,P,1.0,2011-03-17 02:14:26.500
nc71544046,2011-03-17 02:13:56.720,40.628166666666665,-124.70583333333333,9.1,3.35,NC.LRB..SHZ,P,1.0,2011-03-17 02:14:25.730
nc71544046,2011-03-17 02:13:56.720,40.628166666666665,-124.70583333333333,9.1,3.35,NC.LRD..SHZ,P,1.0,2011-03-17 02:14:36.920
nc71544046,2011-03-17 02:13:56.720,40.628166666666665,-124.70583333333333,9.1,3.35,NC.LSF..SHZ,P,1.0,2011-03-17 02:14:24.680
nc71544046,2011-03-17 02:13:56.720,40.628166666666665,-124.70583333333333,9.1,3.35,NC.LSH..SHZ,P,1.0,2011-03-17 02:14:29.900
nc71544046,2011-03-17 02:13:56.720,40.628166666666665,-124.70583333333333,9.1,3.35,NC.LSI..SHZ,P,-1.0,2011-03-17 02:14:36.740
nc71544046,2011-03-17 02:13:56.720,40.628166666666665,-124.70583333333333,9.1,3.35,NC.LSR..SHZ,P,1.0,2011-03-17 02:14:28.090
nc71544046,2011-03-17 02:13:56.720,40.628166666666665,-124.70583333333333,9.1,3.35,NC.LTC..SHZ,P,1.0,2011-03-17 02:14:29.740
nc71544046,2011-03-17 02:13:56.720,40.628166666666665,-124.70583333333333,9.1,3.35,NC.LVR..SHZ,P,1.0,2011-03-17 02:14:24.720
nc71544046,2011-03-17 02:13:56.720,40.628166666666665,-124.70583333333333,9.1,3.35,NC.LWH..SHZ,P,1.0,2011-03-17 02:14:30.660
nc71544046,2011-03-17 02:13:56.720,40.628166666666665,-124.70583333333333,9.1,3.35,NC.NFR..EHZ,P,1.0,2011-03-17 02:14:34.870
nc71544046,2011-03-17 02:13:56.720,40.628166666666665,-124.70583333333333,9.1,3.35,NC.NMC..EHZ,P,-1.0,2011-03-17 02:14:34.110
nc71544046,2011-03-17 02:13:56.720,40.628166666666665,-124.70583333333333,9.1,3.35,NC.NMT..EHZ,P,1.0,2011-03-17 02:14:36.830
nc71544046,2011-03-17 02:13:56.720,40.628166666666665,-124.70583333333333,9.1,3.35,NC.NPV..EHZ,P,-1.0,2011-03-17 02:14:38.360
nc71544046,2011-03-17 02:13:56.720,40.628166666666665,-124.70583333333333,9.1,3.35,NC.OCR..EHZ,P,1.0,2011-03-17 02:14:33.980
nc71544046,2011-03-17 02:13:56.720,40.628166666666665,-124.70583333333333,9.1,3.35,NC.OGO..EHZ,P,1.0,2011-03-17 02:14:36.500
nc71544046,2011-03-17 02:13:56.720,40.628166666666665,-124.70583333333333,9.1,3.35,NC.OSU..EHZ,P,-1.0,2011-03-17 02:14:36.670
nc71544046,2011-03-17 02:13:56.720,40.628166666666665,-124.70583333333333,9.1,3.35,PB.B035..EHZ,P,-1.0,2011-03-17 02:14:30.080
nc71544046,2011-03-17 02:13:56.720,40.628166666666665,-124.70583333333333,9.1,3.35,PB.B036..EHZ,P,1.0,2011-03-17 02:14:30.160
nc71544046,2011-03-17 02:13:56.720,40.628166666666665,-124.70583333333333,9.1,3.35,PB.B039..EHZ,P,-1.0,2011-03-17 02:14:27.120
nc71544046,2011-03-17 02:13:56.720,40.628166666666665,-124.70583333333333,9.1,3.35,PB.B040..EHZ,P,,2011-03-17 02:14:30.780
nc71544046,2011-03-17 02:13:56.720,40.628166666666665,-124.70583333333333,9.1,3.35,PB.B045..EHZ,P,1.0,2011-03-17 02:14:08.840
nc71544046,2011-03-17 02:13:56.720,40.628166666666665,-124.70583333333333,9.1,3.35,PB.B046..EHZ,P,-1.0,2011-03-17 02:14:06.690
nc71544046,2011-03-17 02:13:56.720,40.628166666666665,-124.70583333333333,9.1,3.35,PB.B047..EHZ,P,1.0,2011-03-17 02:14:08.280
nc71544046,2011-03-17 02:13:56.720,40.628166666666665,-124.70583333333333,9.1,3.35,PB.B049..EHZ,P,1.0,2011-03-17 02:14:11.830
nc71544046,2011-03-17 02:13:56.720,40.628166666666665,-124.70583333333333,9.1,3.35,PB.B932..EHZ,P,-1.0,2011-03-17 02:14:07.390
nc71544046,2011-03-17 02:13:56.720,40.628166666666665,-124.70583333333333,9.1,3.35,PB.B933..EHZ,P,-1.0,2011-03-17 02:14:11.840
nc71544046,2011-03-17 02:13:56.720,40.628166666666665,-124.70583333333333,9.1,3.35,PB.B935..EHZ,P,1.0,2011-03-17 02:14:13.400
nc71544046,2011-03-17 02:13:56.720,40.628166666666665,-124.70583333333333,9.1,3.35,UW.BUO..EHZ,P,-1.0,2011-03-17 02:14:37.920
nc71544046,2011-03-17 02:13:56.720,40.628166666666665,-124.70583333333333,9.1,3.35,WR.MGL..EHZ,P,-1.0,2011-03-17 02:14:36.440
nc71544046,2011-03-17 02:13:56.720,40.628166666666665,-124.70583333333333,9.1,3.35,WR.ORV..EHZ,P,1.0,2011-03-17 02:14:39.580
nc71541725,2011-03-23 23:35:33.160,40.340666666666664,-124.33133333333333,14.52,2.15,BK.JCC..HHZ,P,-1.0,2011-03-23 23:35:43.350
nc71541725,2011-03-23 23:35:33.160,40.340666666666664,-124.33133333333333,14.52,2.15,NC.KCR..SHZ,P,-1.0,2011-03-23 23:35:42.200
nc71541725,2011-03-23 23:35:33.160,40.340666666666664,-124.33133333333333,14.52,2.15,NC.KFP..SHZ,P,-1.0,2011-03-23 23:35:50.290
nc71541725,2011-03-23 23:35:33.160,40.340666666666664,-124.33133333333333,14.52,2.15,NC.KHBB..HHZ,P,,2011-03-23 23:35:49.670
nc71541725,2011-03-23 23:35:33.160,40.340666666666664,-124.33133333333333,14.52,2.15,NC.KHMB..HHZ,P,1.0,2011-03-23 23:35:46.470
nc71541725,2011-03-23 23:35:33.160,40.340666666666664,-124.33133333333333,14.52,2.15,NC.KJJ..SHZ,P,1.0,2011-03-23 23:35:36.640
nc71541725,2011-03-23 23:35:33.160,40.340666666666664,-124.33133333333333,14.52,2.15,NC.KMPB..HHZ,P,-1.0,2011-03-23 23:35:37.950
nc71541725,2011-03-23 23:35:33.160,40.340666666666664,-124.33133333333333,14.52,2.15,NC.KMR..HHZ,P,1.0,2011-03-23 23:35:43.770
nc71541725,2011-03-23 23:35:33.160,40.340666666666664,-124.33133333333333,14.52,2.15,NC.KOM..SHZ,P,1.0,2011-03-23 23:35:52.620
nc71541725,2011-03-23 23:35:33.160,40.340666666666664,-124.33133333333333,14.52,2.15,NC.KSM..SHZ,P,1.0,2011-03-23 23:35:38.130
nc71541725,2011-03-23 23:35:33.160,40.340666666666664,-124.33133333333333,14.52,2.15,NC.LBP..SHZ,P,,2011-03-23 23:35:52.670
nc71541725,2011-03-23 23:35:33.160,40.340666666666664,-124.33133333333333,14.52,2.15,NC.LSH..SHZ,P,1.0,2011-03-23 23:36:02.980
nc71541725,2011-03-23 23:35:33.160,40.340666666666664,-124.33133333333333,14.52,2.15,PB.B045..EHZ,P,-1.0,2011-03-23 23:35:39.480
nc71541725,2011-03-23 23:35:33.160,40.340666666666664,-124.33133333333333,14.52,2.15,PB.B046..EHZ,P,-1.0,2011-03-23 23:35:36.110
nc71541725,2011-03-23 23:35:33.160,40.340666666666664,-124.33133333333333,14.52,2.15,PB.B047..EHZ,P,1.0,2011-03-23 23:35:37.480
nc71541725,2011-03-23 23:35:33.160,40.340666666666664,-124.33133333333333,14.52,2.15,PB.B049..EHZ,P,1.0,2011-03-23 23:35:41.900
nc71541725,2011-03-23 23:35:33.160,40.340666666666664,-124.33133333333333,14.52,2.15,PB.B932..EHZ,P,-1.0,2011-03-23 23:35:36.680
nc71541725,2011-03-23 23:35:33.160,40.340666666666664,-124.33133333333333,14.52,2.15,PB.B933..EHZ,P,1.0,2011-03-23 23:35:41.350
nc71541725,2011-03-23 23:35:33.160,40.340666666666664,-124.33133333333333,14.52,2.15,PB.B935..EHZ,P,1.0,2011-03-23 23:35:45.140
nc71546480,2011-04-02 18:48:25.630,40.645833333333336,-124.64933333333333,10.08,2.54,BK.GASB..HHZ,P,,2011-04-02 18:48:55.180
nc71546480,2011-04-02 18:48:25.630,40.645833333333336,-124.64933333333333,10.08,2.54,BK.JCC..HHZ,P,1.0,2011-04-02 18:48:36.120
nc71546480,2011-04-02 18:48:25.630,40.645833333333336,-124.64933333333333,10.08,2.54,BK.WDC..HHZ,P,-1.0,2011-04-02 18:48:52.520
nc71546480,2011-04-02 18:48:25.630,40.645833333333336,-124.64933333333333,10.08,2.54,NC.GCK..EHZ,P,,2011-04-02 18:48:59.560
nc71546480,2011-04-02 18:48:25.630,40.645833333333336,-124.64933333333333,10.08,2.54,NC.GHM..EHZ,P,1.0,2011-04-02 18:48:54.620
nc71546480,2011-04-02 18:48:25.630,40.645833333333336,-124.64933333333333,10.08,2.54,NC.GRO..EHZ,P,-1.0,2011-04-02 18:48:54.110
nc71546480,2011-04-02 18:48:25.630,40.645833333333336,-124.64933333333333,10.08,2.54,NC.GVV..EHZ,P,-1.0,2011-04-02 18:48:55.030
nc71546480,2011-04-02 18:48:25.630,40.645833333333336,-124.64933333333333,10.08,2.54,NC.KCR..SHZ,P,1.0,2011-04-02 18:48:39.110
nc71546480,2011-04-02 18:48:25.630,40.645833333333336,-124.64933333333333,10.08,2.54,NC.KCS..SHZ,P,1.0,2011-04-02 18:48:42.300
nc71546480,2011-04-02 18:48:25.630,40.645833333333336,-124.64933333333333,10.08,2.54,NC.KFP..SHZ,P,1.0,2011-04-02 18:48:48.790
nc71546480,2011-04-02 18:48:25.630,40.645833333333336,-124.64933333333333,10.08,2.54,NC.KHBB..HHZ,P,1.0,2011-04-02 18:48:45.090
nc71546480,2011-04-02 18:48:25.630,40.645833333333336,-124.64933333333333,10.08,2.54,NC.KHMB..HHZ,P,1.0,2011-04-02 18:48:40.110
nc71546480,2011-04-02 18:48:25.630,40.645833333333336,-124.64933333333333,10.08,2.54,NC.KJJ..SHZ,P,1.0,2011-04-02 18:48:35.950
nc71546480,2011-04-02 18:48:25.630,40.645833333333336,-124.64933333333333,10.08,2.54,NC.KMPB..HHZ,P,1.0,2011-04-02 18:48:36.090
nc71546480,2011-04-02 18:48:25.630,40.645833333333336,-124.64933333333333,10.08,2.54,NC.KOM..SHZ,P,-1.0,2011-04-02 18:48:45.280
nc71546480,2011-04-02 18:48:25.630,40.645833333333336,-124.64933333333333,10.08,2.54,NC.KRP..HHZ,P,-1.0,2011-04-02 18:48:39.420
nc71546480,2011-04-02 18:48:25.630,40.645833333333336,-124.64933333333333,10.08,2.54,NC.KSM..SHZ,P,1.0,2011-04-02 18:48:37.450
nc71546480,2011-04-02 18:48:25.630,40.645833333333336,-124.64933333333333,10.08,2.54,NC.KSXB..HHZ,P,-1.0,2011-04-02 18:48:47.690
nc71546480,2011-04-02 18:48:25.630,40.645833333333336,-124.64933333333333,10.08,2.54,NC.KTR..SHZ,P,1.0,2011-04-02 18:48:52.060
