event_id,etime,elat,elon,edep,emag,station_id,phase_type,phase_polarity,phase_time
nc71590175,2011-06-25 17:24:29.050,40.93533333333333,-123.46,22.66,2.01,PB.B045..EHZ,P,-1.0,2011-06-25 17:24:41.040
nc71590175,2011-06-25 17:24:29.050,40.93533333333333,-123.46,22.66,2.01,PB.B047..EHZ,P,1.0,2011-06-25 17:24:44.010
nc71590175,2011-06-25 17:24:29.050,40.93533333333333,-123.46,22.66,2.01,PB.B935..EHZ,P,1.0,2011-06-25 17:24:38.570
nc71590175,2011-06-25 17:24:29.050,40.93533333333333,-123.46,22.66,2.01,TA.M02C..HHZ,P,-1.0,2011-06-25 17:24:41.160
nc71590175,2011-06-25 17:24:29.050,40.93533333333333,-123.46,22.66,2.01,TA.N02D..HHZ,P,-1.0,2011-06-25 17:24:40.150
nc71592110,2011-06-29 06:44:04.310,40.53366666666667,-124.76983333333334,8.5,2.55,BK.GASB..HHZ,P,-1.0,2011-06-29 06:44:34.300
nc71592110,2011-06-29 06:44:04.310,40.53366666666667,-124.76983333333334,8.5,2.55,BK.JCC..HHZ,P,1.0,2011-06-29 06:44:16.880
nc71592110,2011-06-29 06:44:04.310,40.53366666666667,-124.76983333333334,8.5,2.55,BK.SUTB..HHZ,P,-1.0,2011-06-29 06:44:44.850
nc71592110,2011-06-29 06:44:04.310,40.53366666666667,-124.76983333333334,8.5,2.55,BK.WDC..HHZ,P,1.0,2011-06-29 06:44:32.460
nc71592110,2011-06-29 06:44:04.310,40.53366666666667,-124.76983333333334,8.5,2.55,NC.GRO..EHZ,P,-1.0,2011-06-29 06:44:33.510
nc71592110,2011-06-29 06:44:04.310,40.53366666666667,-124.76983333333334,8.5,2.55,NC.GTC..SHZ,P,-1.0,2011-06-29 06:44:28.640
nc71592110,2011-06-29 06:44:04.310,40.53366666666667,-124.76983333333334,8.5,2.55,NC.GVV..EHZ,P,-1.0,2011-06-29 06:44:34.180
nc71592110,2011-06-29 06:44:04.310,40.53366666666667,-124.76983333333334,8.5,2.55,NC.KCR..SHZ,P,1.0,2011-06-29 06:44:18.930
nc71592110,2011-06-29 06:44:04.310,40.53366666666667,-124.76983333333334,8.5,2.55,NC.KCS..SHZ,P,1.0,2011-06-29 06:44:22.390
nc71592110,2011-06-29 06:44:04.310,40.53366666666667,-124.76983333333334,8.5,2.55,NC.KHBB..HHZ,P,1.0,2011-06-29 06:44:25.360
nc71592110,2011-06-29 06:44:04.310,40.53366666666667,-124.76983333333334,8.5,2.55,NC.KHMB..HHZ,P,1.0,2011-06-29 06:44:20.800
nc71592110,2011-06-29 06:44:04.310,40.53366666666667,-124.76983333333334,8.5,2.55,NC.KJJ..SHZ,P,-1.0,2011-06-29 06:44:14.370
nc71592110,2011-06-29 06:44:04.310,40.53366666666667,-124.76983333333334,8.5,2.55,NC.KKP..SHZ,P,-1.0,2011-06-29 06:44:24.300
nc71592110,2011-06-29 06:44:04.310,40.53366666666667,-124.76983333333334,8.5,2.55,NC.KMR..HHZ,P,,2011-06-29 06:44:21.390
nc71592110,2011-06-29 06:44:04.310,40.53366666666667,-124.76983333333334,8.5,2.55,NC.KOM..SHZ,P,1.0,2011-06-29 06:44:26.020
nc71592110,2011-06-29 06:44:04.310,40.53366666666667,-124.76983333333334,8.5,2.55,NC.KRK..SHZ,P,,2011-06-29 06:44:30.470
nc71592110,2011-06-29 06:44:04.310,40.53366666666667,-124.76983333333334,8.5,2.55,NC.KRP..HHZ,P,,2011-06-29 06:44:20.260
nc71592110,2011-06-29 06:44:04.310,40.53366666666667,-124.76983333333334,8.5,2.55,NC.KSM..SHZ,P,1.0,2011-06-29 06:44:16.140
nc71592110,2011-06-29 06:44:04.310,40.53366666666667,-124.76983333333334,8.5,2.55,NC.KSXB..HHZ,P,-1.0,2011-06-29 06:44:28.470
nc71592110,2011-06-29 06:44:04.310,40.53366666666667,-124.76983333333334,8.5,2.55,NC.LBK..SHZ,P,1.0,2011-06-29 06:44:32.440
nc71592110,2011-06-29 06:44:04.310,40.53366666666667,-124.76983333333334,8.5,2.55,NC.LBP..SHZ,P,-1.0,2011-06-29 06:44:29.280
nc71592110,2011-06-29 06:44:04.310,40.53366666666667,-124.76983333333334,8.5,2.55,NC.LDB..SHZ,P,1.0,2011-06-29 06:44:40.570
nc71592110,2011-06-29 06:44:04.310,40.53366666666667,-124.76983333333334,8.5,2.55,NC.LDH..HHZ,P,-1.0,2011-06-29 06:44:43.210
nc71592110,2011-06-29 06:44:04.310,40.53366666666667,-124.76983333333334,8.5,2.55,NC.LHE..SHZ,P,-1.0,2011-06-29 06:44:40.870
nc71592110,2011-06-29 06:44:04.310,40.53366666666667,-124.76983333333334,8.5,2.55,NC.LMP..SHZ,P,-1.0,2011-06-29 06:44:40.890
nc71592110,2011-06-29 06:44:04.310,40.53366666666667,-124.76983333333334,8.5,2.55,NC.LPG..SHZ,P,,2011-06-29 06:44:32.270
nc71592110,2011-06-29 06:44:04.310,40.53366666666667,-124.76983333333334,8.5,2.55,NC.LRB..SHZ,P,-1.0,2011-06-29 06:44:33.920
nc71592110,2011-06-29 06:44:04.310,40.53366666666667,-124.76983333333334,8.5,2.55,NC.LRR..SHZ,P,1.0,2011-06-29 06:44:42.620
nc71592110,2011-06-29 06:44:04.310,40.53366666666667,-124.76983333333334,8.5,2.55,NC.LSF..SHZ,P,-1.0,2011-06-29 06:44:33.070
nc71592110,2011-06-29 06:44:04.310,40.53366666666667,-124.76983333333334,8.5,2.55,NC.LSH..SHZ,P,1.0,2011-06-29 06:44:38.380
nc71592110,2011-06-29 06:44:04.310,40.53366666666667,-124.76983333333334,8.5,2.55,NC.LSI..SHZ,P,-1.0,2011-06-29 06:44:45.090
nc71592110,2011-06-29 06:44:04.310,40.53366666666667,-124.76983333333334,8.5,2.55,NC.LSR..SHZ,P,-1.0,2011-06-29 06:44:37.070
nc71592110,2011-06-29 06:44:04.310,40.53366666666667,-124.76983333333334,8.5,2.55,NC.LVR..SHZ,P,-1.0,2011-06-29 06:44:32.720
nc71592110,2011-06-29 06:44:04.310,40.53366666666667,-124.76983333333334,8.5,2.55,NC.LWH..SHZ,P,-1.0,2011-06-29 06:44:39.170
nc71592110,2011-06-29 06:44:04.310,40.53366666666667,-124.76983333333334,8.5,2.55,NC.OCR..EHZ,P,-1.0,2011-06-29 06:44:42.000
nc71592110,2011-06-29 06:44:04.310,40.53366666666667,-124.76983333333334,8.5,2.55,PB.B045..EHZ,P,1.0,2011-06-29 06:44:16.750
nc71592110,2011-06-29 06:44:04.310,40.53366666666667,-124.76983333333334,8.5,2.55,PB.B046..EHZ,P,1.0,2011-06-29 06:44:13.990
nc71592110,2011-06-29 06:44:04.310,40.53366666666667,-124.76983333333334,8.5,2.55,PB.B047..EHZ,P,1.0,2011-06-29 06:44:15.560
nc71592110,2011-06-29 06:44:04.310,40.53366666666667,-124.76983333333334,8.5,2.55,PB.B049..EHZ,P,1.0,2011-06-29 06:44:19.450
nc71592110,2011-06-29 06:44:04.310,40.53366666666667,-124.76983333333334,8.5,2.55,PB.B932..EHZ,P,1.0,2011-06-29 06:44:14.690
nc71592110,2011-06-29 06:44:04.310,40.53366666666667,-124.76983333333334,8.5,2.55,PB.B933..EHZ,P,-1.0,2011-06-29 06:44:18.940
nc71592110,2011-06-29 06:44:04.310,40.53366666666667,-124.76983333333334,8.5,2.55,PB.B935..EHZ,P,1.0,2011-06-29 06:44:21.460
nc71592110,2011-06-29 06:44:04.310,40.53366666666667,-124.76983333333334,8.5,2.55,TA.M02C..HHZ,P,-1.0,2011-06-29 06:44:32.170
nc71592110,2011-06-29 06:44:04.310,40.53366666666667,-124.76983333333334,8.5,2.55,TA.N02D..HHZ,P,1.0,2011-06-29 06:44:31.420
nc71593615,2011-07-01 13:27:38.810,40.13733333333333,-123.80166666666666,22.74,2.05,NC.KCR..SHZ,P,1.0,2011-07-01 13:27:45.830
nc71593615,2011-07-01 13:27:38.810,40.13733333333333,-123.80166666666666,22.74,2.05,NC.KCS..SHZ,P,1.0,2011-07-01 13:27:48.810
nc71593615,2011-07-01 13:27:38.810,40.13733333333333,-123.80166666666666,22.74,2.05,NC.KHBB..HHZ,P,,2011-07-01 13:27:51.770
nc71593615,2011-07-01 13:27:38.810,40.13733333333333,-123.80166666666666,22.74,2.05,NC.KJJ..SHZ,P,1.0,2011-07-01 13:27:47.430
nc71593615,2011-07-01 13:27:38.810,40.13733333333333,-123.80166666666666,22.74,2.05,NC.KKP..SHZ,P,1.0,2011-07-01 13:27:45.730
nc71593615,2011-07-01 13:27:38.810,40.13733333333333,-123.80166666666666,22.74,2.05,NC.KMR..HHZ,P,-1.0,2011-07-01 13:27:43.610
nc71593615,2011-07-01 13:27:38.810,40.13733333333333,-123.80166666666666,22.74,2.05,NC.KPP..SHZ,P,1.0,2011-07-01 13:27:47.760
nc71593615,2011-07-01 13:27:38.810,40.13733333333333,-123.80166666666666,22.74,2.05,NC.KRK..SHZ,P,,2011-07-01 13:27:52.350
nc71593615,2011-07-01 13:27:38.810,40.13733333333333,-123.80166666666666,22.74,2.05,NC.KSM..SHZ,P,1.0,2011-07-01 13:27:45.720
nc71593615,2011-07-01 13:27:38.810,40.13733333333333,-123.80166666666666,22.74,2.05,NC.LBP..SHZ,P,1.0,2011-07-01 13:27:52.310
nc71593615,2011-07-01 13:27:38.810,40.13733333333333,-123.80166666666666,22.74,2.05,NC.LPG..SHZ,P,-1.0,2011-07-01 13:27:54.740
nc71593615,2011-07-01 13:27:38.810,40.13733333333333,-123.80166666666666,22.74,2.05,PB.B045..EHZ,P,1.0,2011-07-01 13:27:46.460
nc71593615,2011-07-01 13:27:38.810,40.13733333333333,-123.80166666666666,22.74,2.05,PB.B046..EHZ,P,1.0,2011-07-01 13:27:47.430
nc71593615,2011-07-01 13:27:38.810,40.13733333333333,-123.80166666666666,22.74,2.05,PB.B049..EHZ,P,-1.0,2011-07-01 13:27:43.400
nc71593615,2011-07-01 13:27:38.810,40.13733333333333,-123.80166666666666,22.74,2.05,PB.B932..EHZ,P,1.0,2011-07-01 13:27:46.420
nc71593615,2011-07-01 13:27:38.810,40.13733333333333,-123.80166666666666,22.74,2.05,PB.B933..EHZ,P,1.0,2011-07-01 13:27:43.950
nc71593615,2011-07-01 13:27:38.810,40.13733333333333,-123.80166666666666,22.74,2.05,PB.B935..EHZ,P,1.0,2011-07-01 13:27:47.400
nc71595020,2011-07-04 06:22:32.700,40.690666666666665,-123.52433333333333,25.2,2.05,BK.JCC..HHZ,P,-1.0,2011-07-04 06:22:41.060
nc71595020,2011-07-04 06:22:32.700,40.690666666666665,-123.52433333333333,25.2,2.05,BK.WDC..HHZ,P,-1.0,2011-07-04 06:22:46.200
nc71595020,2011-07-04 06:22:32.700,40.690666666666665,-123.52433333333333,25.2,2.05,NC.KCR..SHZ,P,1.0,2011-07-04 06:22:40.810
nc71595020,2011-07-04 06:22:32.700,40.690666666666665,-123.52433333333333,25.2,2.05,NC.KCS..SHZ,P,1.0,2011-07-04 06:22:38.570
nc71595020,2011-07-04 06:22:32.700,40.690666666666665,-123.52433333333333,25.2,2.05,NC.KHBB..HHZ,P,-1.0,2011-07-04 06:22:38.970
nc71595020,2011-07-04 06:22:32.700,40.690666666666665,-123.52433333333333,25.2,2.05,NC.KJJ..SHZ,P,,2011-07-04 06:22:45.920
nc71595020,2011-07-04 06:22:32.700,40.690666666666665,-123.52433333333333,25.2,2.05,NC.KKP..SHZ,P,1.0,2011-07-04 06:22:43.790
nc71595020,2011-07-04 06:22:32.700,40.690666666666665,-123.52433333333333,25.2,2.05,NC.KMR..HHZ,P,1.0,2011-07-04 06:22:42.940
nc71595020,2011-07-04 06:22:32.700,40.690666666666665,-123.52433333333333,25.2,2.05,NC.KOM..SHZ,P,1.0,2011-07-04 06:22:43.680
nc71595020,2011-07-04 06:22:32.700,40.690666666666665,-123.52433333333333,25.2,2.05,NC.KPP..SHZ,P,-1.0,2011-07-04 06:22:41.110
nc71595020,2011-07-04 06:22:32.700,40.690666666666665,-123.52433333333333,25.2,2.05,NC.KSM..SHZ,P,-1.0,2011-07-04 06:22:45.550
nc71595020,2011-07-04 06:22:32.700,40.690666666666665,-123.52433333333333,25.2,2.05,NC.LBK..SHZ,P,-1.0,2011-07-04 06:22:46.160
nc71595020,2011-07-04 06:22:32.700,40.690666666666665,-123.52433333333333,25.2,2.05,NC.LBP..SHZ,P,1.0,2011-07-04 06:22:44.470
nc71595020,2011-07-04 06:22:32.700,40.690666666666665,-123.52433333333333,25.2,2.05,NC.LGB..SHZ,P,1.0,2011-07-04 06:22:53.840
nc71595020,2011-07-04 06:22:32.700,40.690666666666665,-123.52433333333333,25.2,2.05,NC.LPK..SHZ,P,1.0,2011-07-04 06:22:51.000
nc71595020,2011-07-04 06:22:32.700,40.690666666666665,-123.52433333333333,25.2,2.05,NC.LSF..SHZ,P,,2011-07-04 06:22:46.450
nc71595020,2011-07-04 06:22:32.700,40.690666666666665,-123.52433333333333,25.2,2.05,NC.LSR..SHZ,P,,2011-07-04 06:22:50.800
nc71595020,2011-07-04 06:22:32.700,40.690666666666665,-123.52433333333333,25.2,2.05,PB.B039..EHZ,P,1.0,2011-07-04 06:22:51.490
nc71595020,2011-07-04 06:22:32.700,40.690666666666665,-123.52433333333333,25.2,2.05,PB.B045..EHZ,P,1.0,2011-07-04 06:22:41.930
nc71595020,2011-07-04 06:22:32.700,40.690666666666665,-123.52433333333333,25.2,2.05,PB.B046..EHZ,P,1.0,2011-07-04 06:22:45.150
nc71595020,2011-07-04 06:22:32.700,40.690666666666665,-123.52433333333333,25.2,2.05,PB.B047..EHZ,P,1.0,2011-07-04 06:22:44.730
nc71595020,2011-07-04 06:22:32.700,40.690666666666665,-123.52433333333333,25.2,2.05,PB.B049..EHZ,P,1.0,2011-07-04 06:22:42.680
nc71595020,2011-07-04 06:22:32.700,40.690666666666665,-123.52433333333333,25.2,2.05,PB.B932..EHZ,P,1.0,2011-07-04 06:22:44.790
nc71595020,2011-07-04 06:22:32.700,40.690666666666665,-123.52433333333333,25.2,2.05,PB.B935..EHZ,P,1.0,2011-07-04 06:22:38.990
nc71595020,2011-07-04 06:22:32.700,40.690666666666665,-123.52433333333333,25.2,2.05,TA.N02D..HHZ,P,1.0,2011-07-04 06:22:45.070
nc71596070,2011-07-05 20:17:09.580,40.25083333333333,-124.18083333333334,9.85,2.15,BK.JCC..HHZ,P,1.0,2011-07-05 20:17:21.520
nc71596070,2011-07-05 20:17:09.580,40.25083333333333,-124.18083333333334,9.85,2.15,NC.GVV..EHZ,P,-1.0,2011-07-05 20:17:31.340
nc71596070,2011-07-05 20:17:09.580,40.25083333333333,-124.18083333333334,9.85,2.15,NC.KCR..SHZ,P,1.0,2011-07-05 20:17:17.060
nc71596070,2011-07-05 20:17:09.580,40.25083333333333,-124.18083333333334,9.85,2.15,NC.KCS..SHZ,P,1.0,2011-07-05 20:17:22.330
nc71596070,2011-07-05 20:17:09.580,40.25083333333333,-124.18083333333334,9.85,2.15,NC.KFP..SHZ,P,1.0,2011-07-05 20:17:24.820
nc71596070,2011-07-05 20:17:09.580,40.25083333333333,-124.18083333333334,9.85,2.15,NC.KHMB..HHZ,P,1.0,2011-07-05 20:17:23.900
nc71596070,2011-07-05 20:17:09.580,40.25083333333333,-124.18083333333334,9.85,2.15,NC.KIP..SHZ,P,1.0,2011-07-05 20:17:23.230
nc71596070,2011-07-05 20:17:09.580,40.25083333333333,-124.18083333333334,9.85,2.15,NC.KJJ..SHZ,P,1.0,2011-07-05 20:17:12.520
nc71596070,2011-07-05 20:17:09.580,40.25083333333333,-124.18083333333334,9.85,2.15,NC.KKP..SHZ,P,1.0,2011-07-05 20:17:21.730
nc71596070,2011-07-05 20:17:09.580,40.25083333333333,-124.18083333333334,9.85,2.15,NC.KMR..HHZ,P,,2011-07-05 20:17:17.630
nc71596070,2011-07-05 20:17:09.580,40.25083333333333,-124.18083333333334,9.85,2.15,NC.KPP..SHZ,P,1.0,2011-07-05 20:17:23.150
nc71596070,2011-07-05 20:17:09.580,40.25083333333333,-124.18083333333334,9.85,2.15,NC.KSM..SHZ,P,1.0,2011-07-05 20:17:12.140
nc71596070,2011-07-05 20:17:09.580,40.25083333333333,-124.18083333333334,9.85,2.15,NC.LBP..SHZ,P,1.0,2011-07-05 20:17:27.910
nc71596070,2011-07-05 20:17:09.580,40.25083333333333,-124.18083333333334,9.85,2.15,NC.LVR..SHZ,P,-1.0,2011-07-05 20:17:31.040
nc71596070,2011-07-05 20:17:09.580,40.25083333333333,-124.18083333333334,9.85,2.15,PB.B045..EHZ,P,,2011-07-05 20:17:15.070
nc71596070,2011-07-05 20:17:09.580,40.25083333333333,-124.18083333333334,9.85,2.15,PB.B046..EHZ,P,1.0,2011-07-05 20:17:12.720
nc71596070,2011-07-05 20:17:09.580,40.25083333333333,-124.18083333333334,9.85,2.15,PB.B047..EHZ,P,1.0,2011-07-05 20:17:11.770
nc71596070,2011-07-05 20:17:09.580,40.25083333333333,-124.18083333333334,9.85,2.15,PB.B049..EHZ,P,-1.0,2011-07-05 20:17:15.830
nc71596070,2011-07-05 20:17:09.580,40.25083333333333,-124.18083333333334,9.85,2.15,PB.B932..EHZ,P,1.0,2011-07-05 20:17:11.740
nc71596070,2011-07-05 20:17:09.580,40.25083333333333,-124.18083333333334,9.85,2.15,PB.B933..EHZ,P,-1.0,2011-07-05 20:17:15.000
nc71596070,2011-07-05 20:17:09.580,40.25083333333333,-124.18083333333334,9.85,2.15,PB.B935..EHZ,P,1.0,2011-07-05 20:17:20.990
nc71596070,2011-07-05 20:17:09.580,40.25083333333333,-124.18083333333334,9.85,2.15,TA.M02C..HHZ,P,1.0,2011-07-05 20:17:35.470
nc71599480,2011-07-12 00:32:42.410,40.73083333333334,-124.305,6.73,1.91,BK.JCC..HHZ,P,-1.0,2011-07-12 00:32:47.800
nc71599480,2011-07-12 00:32:42.410,40.73083333333334,-124.305,6.73,1.91,NC.KCR..SHZ,P,1.0,2011-07-12 00:32:53.030
nc71599480,2011-07-12 00:32:42.410,40.73083333333334,-124.305,6.73,1.91,NC.KCS..SHZ,P,1.0,2011-07-12 00:32:55.840
nc71599480,2011-07-12 00:32:42.410,40.73083333333334,-124.305,6.73,1.91,NC.KHBB..HHZ,P,1.0,2011-07-12 00:32:58.340
nc71599480,2011-07-12 00:32:42.410,40.73083333333334,-124.305,6.73,1.91,NC.KHMB..HHZ,P,-1.0,2011-07-12 00:32:52.740
nc71599480,2011-07-12 00:32:42.410,40.73083333333334,-124.305,6.73,1.91,NC.KJJ..SHZ,P,1.0,2011-07-12 00:32:53.000
nc71599480,2011-07-12 00:32:42.410,40.73083333333334,-124.305,6.73,1.91,NC.KMR..HHZ,P,1.0,2011-07-12 00:32:56.780
nc71599480,2011-07-12 00:32:42.410,40.73083333333334,-124.305,6.73,1.91,NC.KOM..SHZ,P,1.0,2011-07-12 00:32:58.820
nc71599480,2011-07-12 00:32:42.410,40.73083333333334,-124.305,6.73,1.91,NC.KPP..SHZ,P,1.0,2011-07-12 00:32:58.940
nc71599480,2011-07-12 00:32:42.410,40.73083333333334,-124.305,6.73,1.91,NC.KRP..HHZ,P,,2011-07-12 00:32:53.110
nc71599480,2011-07-12 00:32:42.410,40.73083333333334,-124.305,6.73,1.91,NC.KSM..SHZ,P,-1.0,2011-07-12 00:32:54.090
nc71599480,2011-07-12 00:32:42.410,40.73083333333334,-124.305,6.73,1.91,NC.KSXB..HHZ,P,1.0,2011-07-12 00:33:03.110
nc71599480,2011-07-12 00:32:42.410,40.73083333333334,-124.305,6.73,1.91,NC.LBK..SHZ,P,,2011-07-12 00:33:05.410
nc71599480,2011-07-12 00:32:42.410,40.73083333333334,-124.305,6.73,1.91,NC.LSH..SHZ,P,-1.0,2011-07-12 00:33:11.660
nc71599480,2011-07-12 00:32:42.410,40.73083333333334,-124.305,6.73,1.91,PB.B045..EHZ,P,-1.0,2011-07-12 00:32:50.850
nc71599480,2011-07-12 00:32:42.410,40.73083333333334,-124.305,6.73,1.91,PB.B046..EHZ,P,-1.0,2011-07-12 00:32:51.670
nc71599480,2011-07-12 00:32:42.410,40.73083333333334,-124.305,6.73,1.91,PB.B047..EHZ,P,-1.0,2011-07-12 00:32:53.080
nc71599480,2011-07-12 00:32:42.410,40.73083333333334,-124.305,6.73,1.91,PB.B049..EHZ,P,,2011-07-12 00:32:55.220
nc71599480,2011-07-12 00:32:42.410,40.73083333333334,-124.305,6.73,1.91,PB.B932..EHZ,P,-1.0,2011-07-12 00:32:52.340
nc71599480,2011-07-12 00:32:42.410,40.73083333333334,-124.305,6.73,1.91,PB.B933..EHZ,P,1.0,2011-07-12 00:32:56.670
nc71599480,2011-07-12 00:32:42.410,40.73083333333334,-124.305,6.73,1.91,PB.B935..EHZ,P,1.0,2011-07-12 00:32:55.190
nc71600135,2011-07-13 05:57:52.640,40.596833333333336,-123.752,22.08,1.81,BK.JCC..HHZ,P,1.0,2011-07-13 05:57:59.440
nc71600135,2011-07-13 05:57:52.640,40.596833333333336,-123.752,22.08,1.81,BK.WDC..HHZ,P,,2011-07-13 05:58:09.370
nc71600135,2011-07-13 05:57:52.640,40.596833333333336,-123.752,22.08,1.81,NC.KCR..SHZ,P,-1.0,2011-07-13 05:57:58.090
nc71600135,2011-07-13 05:57:52.640,40.596833333333336,-123.752,22.08,1.81,NC.KCS..SHZ,P,1.0,2011-07-13 05:57:58.440
nc71600135,2011-07-13 05:57:52.640,40.596833333333336,-123.752,22.08,1.81,NC.KHBB..HHZ,P,1.0,2011-07-13 05:58:01.280
nc71600135,2011-07-13 05:57:52.640,40.596833333333336,-123.752,22.08,1.81,NC.KHMB..HHZ,P,-1.0,2011-07-13 05:57:59.330
nc71600135,2011-07-13 05:57:52.640,40.596833333333336,-123.752,22.08,1.81,NC.KIP..SHZ,P,-1.0,2011-07-13 05:58:07.480
nc71600135,2011-07-13 05:57:52.640,40.596833333333336,-123.752,22.08,1.81,NC.KJJ..SHZ,P,1.0,2011-07-13 05:58:03.210
nc71600135,2011-07-13 05:57:52.640,40.596833333333336,-123.752,22.08,1.81,NC.KKP..SHZ,P,-1.0,2011-07-13 05:58:03.110
nc71600135,2011-07-13 05:57:52.640,40.596833333333336,-123.752,22.08,1.81,NC.KMR..HHZ,P,-1.0,2011-07-13 05:58:01.320
nc71600135,2011-07-13 05:57:52.640,40.596833333333336,-123.752,22.08,1.81,NC.KOM..SHZ,P,1.0,2011-07-13 05:58:05.700
nc71600135,2011-07-13 05:57:52.640,40.596833333333336,-123.752,22.08,1.81,NC.KPP..SHZ,P,1.0,2011-07-13 05:58:01.400
nc71600135,2011-07-13 05:57:52.640,40.596833333333336,-123.752,22.08,1.81,NC.KSM..SHZ,P,1.0,2011-07-13 05:58:03.040
nc71600135,2011-07-13 05:57:52.640,40.596833333333336,-123.752,22.08,1.81,NC.LBK..SHZ,P,1.0,2011-07-13 05:58:09.440
nc71600135,2011-07-13 05:57:52.640,40.596833333333336,-123.752,22.08,1.81,NC.LBP..SHZ,P,-1.0,2011-07-13 05:58:06.240
nc71600135,2011-07-13 05:57:52.640,40.596833333333336,-123.752,22.08,1.81,NC.LPG..SHZ,P,1.0,2011-07-13 05:58:09.910
nc71600135,2011-07-13 05:57:52.640,40.596833333333336,-123.752,22.08,1.81,NC.LSF..SHZ,P,-1.0,2011-07-13 05:58:09.650
nc71600135,2011-07-13 05:57:52.640,40.596833333333336,-123.752,22.08,1.81,NC.LSH..SHZ,P,1.0,2011-07-13 05:58:15.900
nc71600135,2011-07-13 05:57:52.640,40.596833333333336,-123.752,22.08,1.81,NC.LVR..SHZ,P,-1.0,2011-07-13 05:58:11.180
nc71600135,2011-07-13 05:57:52.640,40.596833333333336,-123.752,22.08,1.81,PB.B045..EHZ,P,1.0,2011-07-13 05:57:58.870
nc71600135,2011-07-13 05:57:52.640,40.596833333333336,-123.752,22.08,1.81,PB.B046..EHZ,P,1.0,2011-07-13 05:58:02.390
nc71600135,2011-07-13 05:57:52.640,40.596833333333336,-123.752,22.08,1.81,PB.B047..EHZ,P,1.0,2011-07-13 05:58:02.220
nc71600135,2011-07-13 05:57:52.640,40.596833333333336,-123.752,22.08,1.81,PB.B049..EHZ,P,-1.0,2011-07-13 05:58:00.560
nc71600135,2011-07-13 05:57:52.640,40.596833333333336,-123.752,22.08,1.81,PB.B932..EHZ,P,1.0,2011-07-13 05:58:02.180
nc71600135,2011-07-13 05:57:52.640,40.596833333333336,-123.752,22.08,1.81,PB.B933..EHZ,P,-1.0,2011-07-13 05:58:03.570
nc71600135,2011-07-13 05:57:52.640,40.596833333333336,-123.752,22.08,1.81,PB.B935..EHZ,P,1.0,2011-07-13 05:57:58.000
nc71600135,2011-07-13 05:57:52.640,40.596833333333336,-123.752,22.08,1.81,TA.N02D..HHZ,P,1.0,2011-07-13 05:58:08.270
nc71602920,2011-07-18 10:58:40.050,40.671,-124.21233333333333,13.67,1.9,BK.JCC..HHZ,P,-1.0,2011-07-18 10:58:44.940
nc71602920,2011-07-18 10:58:40.050,40.671,-124.21233333333333,13.67,1.9,BK.WDC..HHZ,P,1.0,2011-07-18 10:59:01.790
