event_id,etime,elat,elon,edep,emag,station_id,phase_type,phase_polarity,phase_time
nc71602920,2011-07-18 10:58:40.050,40.671,-124.21233333333333,13.67,1.9,NC.KCR..SHZ,P,1.0,2011-07-18 10:58:48.570
nc71602920,2011-07-18 10:58:40.050,40.671,-124.21233333333333,13.67,1.9,NC.KCS..SHZ,P,-1.0,2011-07-18 10:58:51.590
nc71602920,2011-07-18 10:58:40.050,40.671,-124.21233333333333,13.67,1.9,NC.KCT..HHZ,P,-1.0,2011-07-18 10:58:45.620
nc71602920,2011-07-18 10:58:40.050,40.671,-124.21233333333333,13.67,1.9,NC.KHBB..HHZ,P,1.0,2011-07-18 10:58:54.220
nc71602920,2011-07-18 10:58:40.050,40.671,-124.21233333333333,13.67,1.9,NC.KHMB..HHZ,P,1.0,2011-07-18 10:58:49.170
nc71602920,2011-07-18 10:58:40.050,40.671,-124.21233333333333,13.67,1.9,NC.KIP..SHZ,P,1.0,2011-07-18 10:58:58.220
nc71602920,2011-07-18 10:58:40.050,40.671,-124.21233333333333,13.67,1.9,NC.KJJ..SHZ,P,1.0,2011-07-18 10:58:49.190
nc71602920,2011-07-18 10:58:40.050,40.671,-124.21233333333333,13.67,1.9,NC.KKP..SHZ,P,1.0,2011-07-18 10:58:55.170
nc71602920,2011-07-18 10:58:40.050,40.671,-124.21233333333333,13.67,1.9,NC.KMPB..HHZ,P,1.0,2011-07-18 10:58:46.360
nc71602920,2011-07-18 10:58:40.050,40.671,-124.21233333333333,13.67,1.9,NC.KMR..HHZ,P,1.0,2011-07-18 10:58:52.130
nc71602920,2011-07-18 10:58:40.050,40.671,-124.21233333333333,13.67,1.9,NC.KOM..SHZ,P,-1.0,2011-07-18 10:58:55.450
nc71602920,2011-07-18 10:58:40.050,40.671,-124.21233333333333,13.67,1.9,NC.KPP..SHZ,P,1.0,2011-07-18 10:58:54.540
nc71602920,2011-07-18 10:58:40.050,40.671,-124.21233333333333,13.67,1.9,NC.KRMB..HHZ,P,1.0,2011-07-18 10:58:55.680
nc71602920,2011-07-18 10:58:40.050,40.671,-124.21233333333333,13.67,1.9,NC.KRP..HHZ,P,-1.0,2011-07-18 10:58:50.320
nc71602920,2011-07-18 10:58:40.050,40.671,-124.21233333333333,13.67,1.9,NC.KSM..SHZ,P,1.0,2011-07-18 10:58:50.030
nc71602920,2011-07-18 10:58:40.050,40.671,-124.21233333333333,13.67,1.9,NC.KSXB..HHZ,P,-1.0,2011-07-18 10:59:00.210
nc71602920,2011-07-18 10:58:40.050,40.671,-124.21233333333333,13.67,1.9,NC.LBK..SHZ,P,1.0,2011-07-18 10:59:01.370
nc71602920,2011-07-18 10:58:40.050,40.671,-124.21233333333333,13.67,1.9,NC.LBP..SHZ,P,1.0,2011-07-18 10:58:58.700
nc71602920,2011-07-18 10:58:40.050,40.671,-124.21233333333333,13.67,1.9,NC.LSH..SHZ,P,1.0,2011-07-18 10:59:07.640
nc71602920,2011-07-18 10:58:40.050,40.671,-124.21233333333333,13.67,1.9,NC.LSR..SHZ,P,,2011-07-18 10:59:06.060
nc71602920,2011-07-18 10:58:40.050,40.671,-124.21233333333333,13.67,1.9,PB.B045..EHZ,P,1.0,2011-07-18 10:58:46.790
nc71602920,2011-07-18 10:58:40.050,40.671,-124.21233333333333,13.67,1.9,PB.B046..EHZ,P,1.0,2011-07-18 10:58:47.920
nc71602920,2011-07-18 10:58:40.050,40.671,-124.21233333333333,13.67,1.9,PB.B047..EHZ,P,1.0,2011-07-18 10:58:48.980
nc71602920,2011-07-18 10:58:40.050,40.671,-124.21233333333333,13.67,1.9,PB.B049..EHZ,P,1.0,2011-07-18 10:58:50.740
nc71602920,2011-07-18 10:58:40.050,40.671,-124.21233333333333,13.67,1.9,PB.B932..EHZ,P,1.0,2011-07-18 10:58:48.440
nc71602920,2011-07-18 10:58:40.050,40.671,-124.21233333333333,13.67,1.9,PB.B933..EHZ,P,1.0,2011-07-18 10:58:52.340
nc71602920,2011-07-18 10:58:40.050,40.671,-124.21233333333333,13.67,1.9,PB.B935..EHZ,P,1.0,2011-07-18 10:58:50.880
nc71602920,2011-07-18 10:58:40.050,40.671,-124.21233333333333,13.67,1.9,TA.L02D..HHZ,P,-1.0,2011-07-18 10:59:05.540
nc71602920,2011-07-18 10:58:40.050,40.671,-124.21233333333333,13.67,1.9,TA.N02D..HHZ,P,,2011-07-18 10:59:00.370
nc71606905,2011-07-25 03:08:10.740,40.988,-123.8775,11.99,1.86,BK.JCC..HHZ,P,-1.0,2011-07-25 03:08:14.350
nc71606905,2011-07-25 03:08:10.740,40.988,-123.8775,11.99,1.86,BK.YBH..HHZ,P,-1.0,2011-07-25 03:08:32.900
nc71606905,2011-07-25 03:08:10.740,40.988,-123.8775,11.99,1.86,NC.KCR..SHZ,P,1.0,2011-07-25 03:08:22.690
nc71606905,2011-07-25 03:08:10.740,40.988,-123.8775,11.99,1.86,NC.KCS..SHZ,P,-1.0,2011-07-25 03:08:22.010
nc71606905,2011-07-25 03:08:10.740,40.988,-123.8775,11.99,1.86,NC.KCT..HHZ,P,1.0,2011-07-25 03:08:23.420
nc71606905,2011-07-25 03:08:10.740,40.988,-123.8775,11.99,1.86,NC.KHBB..HHZ,P,1.0,2011-07-25 03:08:22.690
nc71606905,2011-07-25 03:08:10.740,40.988,-123.8775,11.99,1.86,NC.KHMB..HHZ,P,1.0,2011-07-25 03:08:14.820
nc71606905,2011-07-25 03:08:10.740,40.988,-123.8775,11.99,1.86,NC.KJJ..SHZ,P,1.0,2011-07-25 03:08:26.330
nc71606905,2011-07-25 03:08:10.740,40.988,-123.8775,11.99,1.86,NC.KKP..SHZ,P,-1.0,2011-07-25 03:08:29.120
nc71606905,2011-07-25 03:08:10.740,40.988,-123.8775,11.99,1.86,NC.KMPB..HHZ,P,-1.0,2011-07-25 03:08:23.020
nc71606905,2011-07-25 03:08:10.740,40.988,-123.8775,11.99,1.86,NC.KMR..HHZ,P,-1.0,2011-07-25 03:08:26.940
nc71606905,2011-07-25 03:08:10.740,40.988,-123.8775,11.99,1.86,NC.KOM..SHZ,P,-1.0,2011-07-25 03:08:20.090
nc71606905,2011-07-25 03:08:10.740,40.988,-123.8775,11.99,1.86,NC.KPP..SHZ,P,,2011-07-25 03:08:26.160
nc71606905,2011-07-25 03:08:10.740,40.988,-123.8775,11.99,1.86,NC.KRMB..HHZ,P,1.0,2011-07-25 03:08:21.850
nc71606905,2011-07-25 03:08:10.740,40.988,-123.8775,11.99,1.86,NC.KRP..HHZ,P,-1.0,2011-07-25 03:08:15.010
nc71606905,2011-07-25 03:08:10.740,40.988,-123.8775,11.99,1.86,NC.KSM..SHZ,P,-1.0,2011-07-25 03:08:27.000
nc71606905,2011-07-25 03:08:10.740,40.988,-123.8775,11.99,1.86,NC.KSXB..HHZ,P,-1.0,2011-07-25 03:08:27.290
nc71606905,2011-07-25 03:08:10.740,40.988,-123.8775,11.99,1.86,NC.LBK..SHZ,P,-1.0,2011-07-25 03:08:28.680
nc71606905,2011-07-25 03:08:10.740,40.988,-123.8775,11.99,1.86,NC.LBP..SHZ,P,,2011-07-25 03:08:29.860
nc71606905,2011-07-25 03:08:10.740,40.988,-123.8775,11.99,1.86,NC.LPG..SHZ,P,,2011-07-25 03:08:34.950
nc71606905,2011-07-25 03:08:10.740,40.988,-123.8775,11.99,1.86,NC.LPK..SHZ,P,,2011-07-25 03:08:31.920
nc71606905,2011-07-25 03:08:10.740,40.988,-123.8775,11.99,1.86,PB.B045..EHZ,P,1.0,2011-07-25 03:08:22.270
nc71606905,2011-07-25 03:08:10.740,40.988,-123.8775,11.99,1.86,PB.B046..EHZ,P,1.0,2011-07-25 03:08:25.230
nc71606905,2011-07-25 03:08:10.740,40.988,-123.8775,11.99,1.86,PB.B047..EHZ,P,1.0,2011-07-25 03:08:25.900
nc71606905,2011-07-25 03:08:10.740,40.988,-123.8775,11.99,1.86,PB.B049..EHZ,P,-1.0,2011-07-25 03:08:25.940
nc71606905,2011-07-25 03:08:10.740,40.988,-123.8775,11.99,1.86,PB.B932..EHZ,P,-1.0,2011-07-25 03:08:25.490
nc71606905,2011-07-25 03:08:10.740,40.988,-123.8775,11.99,1.86,PB.B935..EHZ,P,1.0,2011-07-25 03:08:22.450
nc71606905,2011-07-25 03:08:10.740,40.988,-123.8775,11.99,1.86,TA.M02C..HHZ,P,-1.0,2011-07-25 03:08:27.630
nc71609390,2011-07-29 01:31:05.970,40.5105,-124.25783333333334,4.98,1.86,BK.JCC..HHZ,P,1.0,2011-07-29 01:31:13.710
nc71609390,2011-07-29 01:31:05.970,40.5105,-124.25783333333334,4.98,1.86,NC.KCR..SHZ,P,1.0,2011-07-29 01:31:13.930
nc71609390,2011-07-29 01:31:05.970,40.5105,-124.25783333333334,4.98,1.86,NC.KCT..HHZ,P,1.0,2011-07-29 01:31:08.220
nc71609390,2011-07-29 01:31:05.970,40.5105,-124.25783333333334,4.98,1.86,NC.KHMB..HHZ,P,1.0,2011-07-29 01:31:17.820
nc71609390,2011-07-29 01:31:05.970,40.5105,-124.25783333333334,4.98,1.86,NC.KMPB..HHZ,P,-1.0,2011-07-29 01:31:09.640
nc71609390,2011-07-29 01:31:05.970,40.5105,-124.25783333333334,4.98,1.86,NC.KMR..HHZ,P,,2011-07-29 01:31:17.590
nc71609390,2011-07-29 01:31:05.970,40.5105,-124.25783333333334,4.98,1.86,NC.KOM..SHZ,P,1.0,2011-07-29 01:31:24.070
nc71609390,2011-07-29 01:31:05.970,40.5105,-124.25783333333334,4.98,1.86,NC.KPP..SHZ,P,-1.0,2011-07-29 01:31:21.000
nc71609390,2011-07-29 01:31:05.970,40.5105,-124.25783333333334,4.98,1.86,NC.KSM..SHZ,P,-1.0,2011-07-29 01:31:13.440
nc71609390,2011-07-29 01:31:05.970,40.5105,-124.25783333333334,4.98,1.86,NC.LBK..SHZ,P,-1.0,2011-07-29 01:31:29.630
nc71609390,2011-07-29 01:31:05.970,40.5105,-124.25783333333334,4.98,1.86,NC.LSH..SHZ,P,,2011-07-29 01:31:35.410
nc71609390,2011-07-29 01:31:05.970,40.5105,-124.25783333333334,4.98,1.86,NC.LSR..SHZ,P,1.0,2011-07-29 01:31:34.260
nc71609390,2011-07-29 01:31:05.970,40.5105,-124.25783333333334,4.98,1.86,PB.B045..EHZ,P,-1.0,2011-07-29 01:31:11.000
nc71609390,2011-07-29 01:31:05.970,40.5105,-124.25783333333334,4.98,1.86,PB.B046..EHZ,P,-1.0,2011-07-29 01:31:10.690
nc71609390,2011-07-29 01:31:05.970,40.5105,-124.25783333333334,4.98,1.86,PB.B047..EHZ,P,-1.0,2011-07-29 01:31:12.150
nc71609390,2011-07-29 01:31:05.970,40.5105,-124.25783333333334,4.98,1.86,PB.B049..EHZ,P,1.0,2011-07-29 01:31:15.240
nc71609390,2011-07-29 01:31:05.970,40.5105,-124.25783333333334,4.98,1.86,PB.B932..EHZ,P,-1.0,2011-07-29 01:31:11.340
nc71609390,2011-07-29 01:31:05.970,40.5105,-124.25783333333334,4.98,1.86,PB.B933..EHZ,P,-1.0,2011-07-29 01:31:16.660
nc71609390,2011-07-29 01:31:05.970,40.5105,-124.25783333333334,4.98,1.86,PB.B935..EHZ,P,-1.0,2011-07-29 01:31:17.600
nc71612070,2011-08-02 02:06:43.220,40.683,-124.2195,12.66,1.62,BK.JCC..HHZ,P,1.0,2011-08-02 02:06:48.110
nc71612070,2011-08-02 02:06:43.220,40.683,-124.2195,12.66,1.62,NC.KCR..SHZ,P,-1.0,2011-08-02 02:06:51.890
nc71612070,2011-08-02 02:06:43.220,40.683,-124.2195,12.66,1.62,NC.KCT..HHZ,P,-1.0,2011-08-02 02:06:48.950
nc71612070,2011-08-02 02:06:43.220,40.683,-124.2195,12.66,1.62,NC.KHMB..HHZ,P,1.0,2011-08-02 02:06:52.350
nc71612070,2011-08-02 02:06:43.220,40.683,-124.2195,12.66,1.62,NC.KJJ..SHZ,P,-1.0,2011-08-02 02:06:52.490
nc71612070,2011-08-02 02:06:43.220,40.683,-124.2195,12.66,1.62,NC.KMPB..HHZ,P,-1.0,2011-08-02 02:06:49.610
nc71612070,2011-08-02 02:06:43.220,40.683,-124.2195,12.66,1.62,NC.KPP..SHZ,P,,2011-08-02 02:06:57.800
nc71612070,2011-08-02 02:06:43.220,40.683,-124.2195,12.66,1.62,NC.KSM..SHZ,P,-1.0,2011-08-02 02:06:53.340
nc71612070,2011-08-02 02:06:43.220,40.683,-124.2195,12.66,1.62,NC.LBK..SHZ,P,,2011-08-02 02:07:04.570
nc71612070,2011-08-02 02:06:43.220,40.683,-124.2195,12.66,1.62,PB.B045..EHZ,P,-1.0,2011-08-02 02:06:50.080
nc71612070,2011-08-02 02:06:43.220,40.683,-124.2195,12.66,1.62,PB.B046..EHZ,P,-1.0,2011-08-02 02:06:51.270
nc71612070,2011-08-02 02:06:43.220,40.683,-124.2195,12.66,1.62,PB.B047..EHZ,P,-1.0,2011-08-02 02:06:52.310
nc71612070,2011-08-02 02:06:43.220,40.683,-124.2195,12.66,1.62,PB.B932..EHZ,P,-1.0,2011-08-02 02:06:51.770
nc71613835,2011-08-04 23:26:02.180,40.94016666666667,-123.3405,17.4,1.62,BK.WDC..HHZ,P,,2011-08-04 23:26:15.420
nc71613835,2011-08-04 23:26:02.180,40.94016666666667,-123.3405,17.4,1.62,NC.KHBB..HHZ,P,1.0,2011-08-04 23:26:08.900
nc71613835,2011-08-04 23:26:02.180,40.94016666666667,-123.3405,17.4,1.62,NC.KHMB..HHZ,P,-1.0,2011-08-04 23:26:09.390
nc71613835,2011-08-04 23:26:02.180,40.94016666666667,-123.3405,17.4,1.62,NC.KOM..SHZ,P,,2011-08-04 23:26:09.620
nc71613835,2011-08-04 23:26:02.180,40.94016666666667,-123.3405,17.4,1.62,NC.KRMB..HHZ,P,1.0,2011-08-04 23:26:15.170
nc71613835,2011-08-04 23:26:02.180,40.94016666666667,-123.3405,17.4,1.62,NC.LBK..SHZ,P,,2011-08-04 23:26:12.360
nc71613835,2011-08-04 23:26:02.180,40.94016666666667,-123.3405,17.4,1.62,NC.LBP..SHZ,P,-1.0,2011-08-04 23:26:15.340
nc71613835,2011-08-04 23:26:02.180,40.94016666666667,-123.3405,17.4,1.62,NC.LSF..SHZ,P,-1.0,2011-08-04 23:26:15.470
nc71613835,2011-08-04 23:26:02.180,40.94016666666667,-123.3405,17.4,1.62,PB.B935..EHZ,P,1.0,2011-08-04 23:26:11.500
nc71613835,2011-08-04 23:26:02.180,40.94016666666667,-123.3405,17.4,1.62,TA.M02C..HHZ,P,,2011-08-04 23:26:13.560
nc71616455,2011-08-09 21:38:40.840,40.042833333333334,-123.78233333333333,15.4,2.09,NC.GTC..SHZ,P,-1.0,2011-08-09 21:38:52.970
nc71616455,2011-08-09 21:38:40.840,40.042833333333334,-123.78233333333333,15.4,2.09,NC.KBN..SHZ,P,1.0,2011-08-09 21:38:51.120
nc71616455,2011-08-09 21:38:40.840,40.042833333333334,-123.78233333333333,15.4,2.09,NC.KCR..SHZ,P,-1.0,2011-08-09 21:38:49.320
nc71616455,2011-08-09 21:38:40.840,40.042833333333334,-123.78233333333333,15.4,2.09,NC.KCS..SHZ,P,1.0,2011-08-09 21:38:52.410
nc71616455,2011-08-09 21:38:40.840,40.042833333333334,-123.78233333333333,15.4,2.09,NC.KCT..HHZ,P,1.0,2011-08-09 21:38:53.310
nc71616455,2011-08-09 21:38:40.840,40.042833333333334,-123.78233333333333,15.4,2.09,NC.KFP..SHZ,P,-1.0,2011-08-09 21:38:50.810
nc71616455,2011-08-09 21:38:40.840,40.042833333333334,-123.78233333333333,15.4,2.09,NC.KHBB..HHZ,P,1.0,2011-08-09 21:38:55.290
nc71616455,2011-08-09 21:38:40.840,40.042833333333334,-123.78233333333333,15.4,2.09,NC.KIP..SHZ,P,1.0,2011-08-09 21:38:48.290
nc71616455,2011-08-09 21:38:40.840,40.042833333333334,-123.78233333333333,15.4,2.09,NC.KJJ..SHZ,P,1.0,2011-08-09 21:38:50.080
nc71616455,2011-08-09 21:38:40.840,40.042833333333334,-123.78233333333333,15.4,2.09,NC.KKP..SHZ,P,1.0,2011-08-09 21:38:47.260
nc71616455,2011-08-09 21:38:40.840,40.042833333333334,-123.78233333333333,15.4,2.09,NC.KMPB..HHZ,P,-1.0,2011-08-09 21:38:50.580
nc71616455,2011-08-09 21:38:40.840,40.042833333333334,-123.78233333333333,15.4,2.09,NC.KMR..HHZ,P,-1.0,2011-08-09 21:38:45.780
nc71616455,2011-08-09 21:38:40.840,40.042833333333334,-123.78233333333333,15.4,2.09,NC.KPP..SHZ,P,1.0,2011-08-09 21:38:50.520
nc71616455,2011-08-09 21:38:40.840,40.042833333333334,-123.78233333333333,15.4,2.09,NC.KRK..SHZ,P,-1.0,2011-08-09 21:38:53.680
nc71616455,2011-08-09 21:38:40.840,40.042833333333334,-123.78233333333333,15.4,2.09,NC.KSM..SHZ,P,1.0,2011-08-09 21:38:48.230
nc71616455,2011-08-09 21:38:40.840,40.042833333333334,-123.78233333333333,15.4,2.09,NC.LBP..SHZ,P,1.0,2011-08-09 21:38:55.030
nc71616455,2011-08-09 21:38:40.840,40.042833333333334,-123.78233333333333,15.4,2.09,NC.LPG..SHZ,P,1.0,2011-08-09 21:38:56.760
nc71616455,2011-08-09 21:38:40.840,40.042833333333334,-123.78233333333333,15.4,2.09,NC.LRB..SHZ,P,-1.0,2011-08-09 21:38:58.770
nc71616455,2011-08-09 21:38:40.840,40.042833333333334,-123.78233333333333,15.4,2.09,PB.B045..EHZ,P,1.0,2011-08-09 21:38:50.110
nc71616455,2011-08-09 21:38:40.840,40.042833333333334,-123.78233333333333,15.4,2.09,PB.B046..EHZ,P,1.0,2011-08-09 21:38:50.500
nc71616455,2011-08-09 21:38:40.840,40.042833333333334,-123.78233333333333,15.4,2.09,PB.B047..EHZ,P,1.0,2011-08-09 21:38:48.880
nc71616455,2011-08-09 21:38:40.840,40.042833333333334,-123.78233333333333,15.4,2.09,PB.B049..EHZ,P,-1.0,2011-08-09 21:38:45.970
nc71616455,2011-08-09 21:38:40.840,40.042833333333334,-123.78233333333333,15.4,2.09,PB.B932..EHZ,P,1.0,2011-08-09 21:38:49.310
nc71616455,2011-08-09 21:38:40.840,40.042833333333334,-123.78233333333333,15.4,2.09,PB.B933..EHZ,P,1.0,2011-08-09 21:38:45.480
nc71616450,2011-08-09 21:39:03.620,40.04416666666667,-123.78033333333333,16.49,2.84,BK.WDC..HHZ,P,-1.0,2011-08-09 21:39:23.130
nc71616450,2011-08-09 21:39:03.620,40.04416666666667,-123.78033333333333,16.49,2.84,NC.GGU..EHZ,P,1.0,2011-08-09 21:39:23.010
nc71616450,2011-08-09 21:39:03.620,40.04416666666667,-123.78033333333333,16.49,2.84,NC.GHL..EHZ,P,1.0,2011-08-09 21:39:22.990
nc71616450,2011-08-09 21:39:03.620,40.04416666666667,-123.78033333333333,16.49,2.84,NC.GHO..EHZ,P,-1.0,2011-08-09 21:39:20.510
nc71616450,2011-08-09 21:39:03.620,40.04416666666667,-123.78033333333333,16.49,2.84,NC.GTC..SHZ,P,-1.0,2011-08-09 21:39:15.830
nc71616450,2011-08-09 21:39:03.620,40.04416666666667,-123.78033333333333,16.49,2.84,NC.GWR..EHZ,P,-1.0,2011-08-09 21:39:19.370
nc71616450,2011-08-09 21:39:03.620,40.04416666666667,-123.78033333333333,16.49,2.84,NC.KBN..SHZ,P,-1.0,2011-08-09 21:39:13.860
nc71616450,2011-08-09 21:39:03.620,40.04416666666667,-123.78033333333333,16.49,2.84,NC.KCPB..HNZ,P,-1.0,2011-08-09 21:39:12.160
nc71616450,2011-08-09 21:39:03.620,40.04416666666667,-123.78033333333333,16.49,2.84,NC.KCR..SHZ,P,-1.0,2011-08-09 21:39:12.160
nc71616450,2011-08-09 21:39:03.620,40.04416666666667,-123.78033333333333,16.49,2.84,NC.KCS..SHZ,P,1.0,2011-08-09 21:39:15.230
nc71616450,2011-08-09 21:39:03.620,40.04416666666667,-123.78033333333333,16.49,2.84,NC.KCT..HHZ,P,-1.0,2011-08-09 21:39:16.350
nc71616450,2011-08-09 21:39:03.620,40.04416666666667,-123.78033333333333,16.49,2.84,NC.KFP..SHZ,P,-1.0,2011-08-09 21:39:13.730
nc71616450,2011-08-09 21:39:03.620,40.04416666666667,-123.78033333333333,16.49,2.84,NC.KHBB..HHZ,P,1.0,2011-08-09 21:39:18.050
nc71616450,2011-08-09 21:39:03.620,40.04416666666667,-123.78033333333333,16.49,2.84,NC.KIP..SHZ,P,1.0,2011-08-09 21:39:11.110
nc71616450,2011-08-09 21:39:03.620,40.04416666666667,-123.78033333333333,16.49,2.84,NC.KJJ..SHZ,P,1.0,2011-08-09 21:39:12.960
nc71616450,2011-08-09 21:39:03.620,40.04416666666667,-123.78033333333333,16.49,2.84,NC.KKP..SHZ,P,1.0,2011-08-09 21:39:10.120
nc71616450,2011-08-09 21:39:03.620,40.04416666666667,-123.78033333333333,16.49,2.84,NC.KMPB..HHZ,P,-1.0,2011-08-09 21:39:13.530
nc71616450,2011-08-09 21:39:03.620,40.04416666666667,-123.78033333333333,16.49,2.84,NC.KMR..HHZ,P,-1.0,2011-08-09 21:39:08.640
nc71616450,2011-08-09 21:39:03.620,40.04416666666667,-123.78033333333333,16.49,2.84,NC.KOM..SHZ,P,1.0,2011-08-09 21:39:25.130
nc71616450,2011-08-09 21:39:03.620,40.04416666666667,-123.78033333333333,16.49,2.84,NC.KPP..SHZ,P,1.0,2011-08-09 21:39:13.420
nc71616450,2011-08-09 21:39:03.620,40.04416666666667,-123.78033333333333,16.49,2.84,NC.KRK..SHZ,P,-1.0,2011-08-09 21:39:16.560
nc71616450,2011-08-09 21:39:03.620,40.04416666666667,-123.78033333333333,16.49,2.84,NC.KRMB..HHZ,P,,2011-08-09 21:39:28.050
nc71616450,2011-08-09 21:39:03.620,40.04416666666667,-123.78033333333333,16.49,2.84,NC.KSM..SHZ,P,1.0,2011-08-09 21:39:11.100
nc71616450,2011-08-09 21:39:03.620,40.04416666666667,-123.78033333333333,16.49,2.84,NC.LBP..SHZ,P,1.0,2011-08-09 21:39:17.890
nc71616450,2011-08-09 21:39:03.620,40.04416666666667,-123.78033333333333,16.49,2.84,NC.LPG..SHZ,P,1.0,2011-08-09 21:39:19.670
nc71616450,2011-08-09 21:39:03.620,40.04416666666667,-123.78033333333333,16.49,2.84,NC.LPK..SHZ,P,1.0,2011-08-09 21:39:31.910
nc71616450,2011-08-09 21:39:03.620,40.04416666666667,-123.78033333333333,16.49,2.84,NC.LSF..SHZ,P,-1.0,2011-08-09 21:39:23.480
nc71616450,2011-08-09 21:39:03.620,40.04416666666667,-123.78033333333333,16.49,2.84,NC.LSH..SHZ,P,-1.0,2011-08-09 21:39:29.180
nc71616450,2011-08-09 21:39:03.620,40.04416666666667,-123.78033333333333,16.49,2.84,NC.LVR..SHZ,P,-1.0,2011-08-09 21:39:19.840
nc71616450,2011-08-09 21:39:03.620,40.04416666666667,-123.78033333333333,16.49,2.84,PB.B045..EHZ,P,,2011-08-09 21:39:13.020
nc71616450,2011-08-09 21:39:03.620,40.04416666666667,-123.78033333333333,16.49,2.84,PB.B046..EHZ,P,1.0,2011-08-09 21:39:13.370
nc71616450,2011-08-09 21:39:03.620,40.04416666666667,-123.78033333333333,16.49,2.84,PB.B047..EHZ,P,1.0,2011-08-09 21:39:11.760
nc71616450,2011-08-09 21:39:03.620,40.04416666666667,-123.78033333333333,16.49,2.84,PB.B049..EHZ,P,-1.0,2011-08-09 21:39:08.840
nc71616450,2011-08-09 21:39:03.620,40.04416666666667,-123.78033333333333,16.49,2.84,PB.B932..EHZ,P,1.0,2011-08-09 21:39:12.180
nc71616450,2011-08-09 21:39:03.620,40.04416666666667,-123.78033333333333,16.49,2.84,PB.B933..EHZ,P,1.0,2011-08-09 21:39:08.330
nc71616450,2011-08-09 21:39:03.620,40.04416666666667,-123.78033333333333,16.49,2.84,PB.B935..EHZ,P,1.0,2011-08-09 21:39:13.800
nc71616450,2011-08-09 21:39:03.620,40.04416666666667,-123.78033333333333,16.49,2.84,TA.N02D..HHZ,P,-1.0,2011-08-09 21:39:25.340
nc71616460,2011-08-09 21:40:43.090,40.0475,-123.77133333333333,17.56,1.76,NC.GTC..SHZ,P,1.0,2011-08-09 21:40:55.360
nc71616460,2011-08-09 21:40:43.090,40.0475,-123.77133333333333,17.56,1.76,NC.KBN..SHZ,P,1.0,2011-08-09 21:40:53.400
nc71616460,2011-08-09 21:40:43.090,40.0475,-123.77133333333333,17.56,1.76,NC.KCR..SHZ,P,-1.0,2011-08-09 21:40:51.590
nc71616460,2011-08-09 21:40:43.090,40.0475,-123.77133333333333,17.56,1.76,NC.KCS..SHZ,P,1.0,2011-08-09 21:40:54.710
nc71616460,2011-08-09 21:40:43.090,40.0475,-123.77133333333333,17.56,1.76,NC.KFP..SHZ,P,-1.0,2011-08-09 21:40:53.140
nc71616460,2011-08-09 21:40:43.090,40.0475,-123.77133333333333,17.56,1.76,NC.KIP..SHZ,P,-1.0,2011-08-09 21:40:50.520
nc71616460,2011-08-09 21:40:43.090,40.0475,-123.77133333333333,17.56,1.76,NC.KJJ..SHZ,P,-1.0,2011-08-09 21:40:52.390
nc71616460,2011-08-09 21:40:43.090,40.0475,-123.77133333333333,17.56,1.76,NC.KKP..SHZ,P,1.0,2011-08-09 21:40:49.590
nc71616460,2011-08-09 21:40:43.090,40.0475,-123.77133333333333,17.56,1.76,NC.KMR..HHZ,P,-1.0,2011-08-09 21:40:48.110
nc71616460,2011-08-09 21:40:43.090,40.0475,-123.77133333333333,17.56,1.76,NC.KPP..SHZ,P,-1.0,2011-08-09 21:40:52.940
