event_id,etime,elat,elon,edep,emag,station_id,phase_type,phase_polarity,phase_time
nc71575830,2011-05-26 20:24:30.240,40.291666666666664,-124.3415,12.54,2.08,NC.KSM..SHZ,P,-1.0,2011-05-26 20:24:34.600
nc71575830,2011-05-26 20:24:30.240,40.291666666666664,-124.3415,12.54,2.08,NC.KSXB..HHZ,P,1.0,2011-05-26 20:24:55.790
nc71575830,2011-05-26 20:24:30.240,40.291666666666664,-124.3415,12.54,2.08,NC.LBK..SHZ,P,,2011-05-26 20:24:55.150
nc71575830,2011-05-26 20:24:30.240,40.291666666666664,-124.3415,12.54,2.08,NC.LPK..SHZ,P,,2011-05-26 20:24:59.470
nc71575830,2011-05-26 20:24:30.240,40.291666666666664,-124.3415,12.54,2.08,PB.B045..EHZ,P,1.0,2011-05-26 20:24:37.030
nc71575830,2011-05-26 20:24:30.240,40.291666666666664,-124.3415,12.54,2.08,PB.B046..EHZ,P,1.0,2011-05-26 20:24:32.920
nc71575830,2011-05-26 20:24:30.240,40.291666666666664,-124.3415,12.54,2.08,PB.B047..EHZ,P,1.0,2011-05-26 20:24:34.170
nc71575830,2011-05-26 20:24:30.240,40.291666666666664,-124.3415,12.54,2.08,PB.B049..EHZ,P,1.0,2011-05-26 20:24:39.120
nc71575830,2011-05-26 20:24:30.240,40.291666666666664,-124.3415,12.54,2.08,PB.B932..EHZ,P,1.0,2011-05-26 20:24:33.350
nc71575830,2011-05-26 20:24:30.240,40.291666666666664,-124.3415,12.54,2.08,PB.B933..EHZ,P,-1.0,2011-05-26 20:24:37.880
nc71575830,2011-05-26 20:24:30.240,40.291666666666664,-124.3415,12.54,2.08,PB.B935..EHZ,P,,2011-05-26 20:24:42.640
nc71577335,2011-05-29 19:08:29.900,40.48683333333334,-123.558,22.83,1.63,BK.JCC..HHZ,P,-1.0,2011-05-29 19:08:39.500
nc71577335,2011-05-29 19:08:29.900,40.48683333333334,-123.558,22.83,1.63,NC.KCR..SHZ,P,-1.0,2011-05-29 19:08:35.890
nc71577335,2011-05-29 19:08:29.900,40.48683333333334,-123.558,22.83,1.63,NC.KCS..SHZ,P,-1.0,2011-05-29 19:08:34.620
nc71577335,2011-05-29 19:08:29.900,40.48683333333334,-123.558,22.83,1.63,NC.KHBB..HHZ,P,-1.0,2011-05-29 19:08:37.150
nc71577335,2011-05-29 19:08:29.900,40.48683333333334,-123.558,22.83,1.63,NC.KHMB..HHZ,P,1.0,2011-05-29 19:08:38.680
nc71577335,2011-05-29 19:08:29.900,40.48683333333334,-123.558,22.83,1.63,NC.KKP..SHZ,P,1.0,2011-05-29 19:08:38.260
nc71577335,2011-05-29 19:08:29.900,40.48683333333334,-123.558,22.83,1.63,NC.LBK..SHZ,P,1.0,2011-05-29 19:08:46.100
nc71577335,2011-05-29 19:08:29.900,40.48683333333334,-123.558,22.83,1.63,NC.LBP..SHZ,P,1.0,2011-05-29 19:08:40.860
nc71577335,2011-05-29 19:08:29.900,40.48683333333334,-123.558,22.83,1.63,NC.LVR..SHZ,P,-1.0,2011-05-29 19:08:45.280
nc71577335,2011-05-29 19:08:29.900,40.48683333333334,-123.558,22.83,1.63,PB.B045..EHZ,P,-1.0,2011-05-29 19:08:37.510
nc71577335,2011-05-29 19:08:29.900,40.48683333333334,-123.558,22.83,1.63,PB.B049..EHZ,P,-1.0,2011-05-29 19:08:37.220
nc71577335,2011-05-29 19:08:29.900,40.48683333333334,-123.558,22.83,1.63,PB.B935..EHZ,P,-1.0,2011-05-29 19:08:34.370
nc71578320,2011-05-31 23:09:30.250,40.62533333333333,-123.6995,22.48,1.64,BK.JCC..HHZ,P,1.0,2011-05-31 23:09:37.160
nc71578320,2011-05-31 23:09:30.250,40.62533333333333,-123.6995,22.48,1.64,NC.KCR..SHZ,P,1.0,2011-05-31 23:09:36.200
nc71578320,2011-05-31 23:09:30.250,40.62533333333333,-123.6995,22.48,1.64,NC.KCS..SHZ,P,1.0,2011-05-31 23:09:35.910
nc71578320,2011-05-31 23:09:30.250,40.62533333333333,-123.6995,22.48,1.64,NC.KHBB..HHZ,P,1.0,2011-05-31 23:09:38.300
nc71578320,2011-05-31 23:09:30.250,40.62533333333333,-123.6995,22.48,1.64,NC.KHMB..HHZ,P,-1.0,2011-05-31 23:09:36.630
nc71578320,2011-05-31 23:09:30.250,40.62533333333333,-123.6995,22.48,1.64,NC.KJJ..SHZ,P,,2011-05-31 23:09:41.210
nc71578320,2011-05-31 23:09:30.250,40.62533333333333,-123.6995,22.48,1.64,NC.KKP..SHZ,P,-1.0,2011-05-31 23:09:40.850
nc71578320,2011-05-31 23:09:30.250,40.62533333333333,-123.6995,22.48,1.64,NC.KMPB..HHZ,P,1.0,2011-05-31 23:09:38.510
nc71578320,2011-05-31 23:09:30.250,40.62533333333333,-123.6995,22.48,1.64,NC.KPP..SHZ,P,1.0,2011-05-31 23:09:38.800
nc71578320,2011-05-31 23:09:30.250,40.62533333333333,-123.6995,22.48,1.64,NC.KSM..SHZ,P,1.0,2011-05-31 23:09:41.120
nc71578320,2011-05-31 23:09:30.250,40.62533333333333,-123.6995,22.48,1.64,NC.LBK..SHZ,P,-1.0,2011-05-31 23:09:46.470
nc71578320,2011-05-31 23:09:30.250,40.62533333333333,-123.6995,22.48,1.64,PB.B045..EHZ,P,1.0,2011-05-31 23:09:37.160
nc71578320,2011-05-31 23:09:30.250,40.62533333333333,-123.6995,22.48,1.64,PB.B935..EHZ,P,-1.0,2011-05-31 23:09:35.730
nc71587015,2011-06-19 02:27:12.740,40.18266666666667,-124.20583333333333,4.94,2.26,BK.GASB..HHZ,P,1.0,2011-06-19 02:27:35.560
nc71587015,2011-06-19 02:27:12.740,40.18266666666667,-124.20583333333333,4.94,2.26,BK.JCC..HHZ,P,-1.0,2011-06-19 02:27:26.910
nc71587015,2011-06-19 02:27:12.740,40.18266666666667,-124.20583333333333,4.94,2.26,BK.WDC..HHZ,P,1.0,2011-06-19 02:27:37.580
nc71587015,2011-06-19 02:27:12.740,40.18266666666667,-124.20583333333333,4.94,2.26,NC.GHM..EHZ,P,,2011-06-19 02:27:35.730
nc71587015,2011-06-19 02:27:12.740,40.18266666666667,-124.20583333333333,4.94,2.26,NC.GRO..EHZ,P,1.0,2011-06-19 02:27:35.350
nc71587015,2011-06-19 02:27:12.740,40.18266666666667,-124.20583333333333,4.94,2.26,NC.GTC..SHZ,P,1.0,2011-06-19 02:27:30.930
nc71587015,2011-06-19 02:27:12.740,40.18266666666667,-124.20583333333333,4.94,2.26,NC.GVV..EHZ,P,-1.0,2011-06-19 02:27:35.680
nc71587015,2011-06-19 02:27:12.740,40.18266666666667,-124.20583333333333,4.94,2.26,NC.GWR..EHZ,P,-1.0,2011-06-19 02:27:35.650
nc71587015,2011-06-19 02:27:12.740,40.18266666666667,-124.20583333333333,4.94,2.26,NC.KCR..SHZ,P,-1.0,2011-06-19 02:27:21.630
nc71587015,2011-06-19 02:27:12.740,40.18266666666667,-124.20583333333333,4.94,2.26,NC.KCS..SHZ,P,-1.0,2011-06-19 02:27:27.150
nc71587015,2011-06-19 02:27:12.740,40.18266666666667,-124.20583333333333,4.94,2.26,NC.KHBB..HHZ,P,1.0,2011-06-19 02:27:31.360
nc71587015,2011-06-19 02:27:12.740,40.18266666666667,-124.20583333333333,4.94,2.26,NC.KHMB..HHZ,P,1.0,2011-06-19 02:27:29.470
nc71587015,2011-06-19 02:27:12.740,40.18266666666667,-124.20583333333333,4.94,2.26,NC.KIP..SHZ,P,-1.0,2011-06-19 02:27:27.050
nc71587015,2011-06-19 02:27:12.740,40.18266666666667,-124.20583333333333,4.94,2.26,NC.KJJ..SHZ,P,-1.0,2011-06-19 02:27:15.470
nc71587015,2011-06-19 02:27:12.740,40.18266666666667,-124.20583333333333,4.94,2.26,NC.KKP..SHZ,P,1.0,2011-06-19 02:27:25.650
nc71587015,2011-06-19 02:27:12.740,40.18266666666667,-124.20583333333333,4.94,2.26,NC.KMR..HHZ,P,1.0,2011-06-19 02:27:21.780
nc71587015,2011-06-19 02:27:12.740,40.18266666666667,-124.20583333333333,4.94,2.26,NC.KOM..SHZ,P,,2011-06-19 02:27:35.570
nc71587015,2011-06-19 02:27:12.740,40.18266666666667,-124.20583333333333,4.94,2.26,NC.KPP..SHZ,P,-1.0,2011-06-19 02:27:27.860
nc71587015,2011-06-19 02:27:12.740,40.18266666666667,-124.20583333333333,4.94,2.26,NC.KRK..SHZ,P,-1.0,2011-06-19 02:27:33.040
nc71587015,2011-06-19 02:27:12.740,40.18266666666667,-124.20583333333333,4.94,2.26,NC.KSM..SHZ,P,1.0,2011-06-19 02:27:14.040
nc71587015,2011-06-19 02:27:12.740,40.18266666666667,-124.20583333333333,4.94,2.26,NC.KSXB..HHZ,P,1.0,2011-06-19 02:27:41.370
nc71587015,2011-06-19 02:27:12.740,40.18266666666667,-124.20583333333333,4.94,2.26,NC.LBK..SHZ,P,1.0,2011-06-19 02:27:39.790
nc71587015,2011-06-19 02:27:12.740,40.18266666666667,-124.20583333333333,4.94,2.26,NC.LBP..SHZ,P,-1.0,2011-06-19 02:27:33.100
nc71587015,2011-06-19 02:27:12.740,40.18266666666667,-124.20583333333333,4.94,2.26,NC.LPG..SHZ,P,-1.0,2011-06-19 02:27:35.290
nc71587015,2011-06-19 02:27:12.740,40.18266666666667,-124.20583333333333,4.94,2.26,NC.LPK..SHZ,P,,2011-06-19 02:27:44.360
nc71587015,2011-06-19 02:27:12.740,40.18266666666667,-124.20583333333333,4.94,2.26,NC.LRB..SHZ,P,-1.0,2011-06-19 02:27:37.460
nc71587015,2011-06-19 02:27:12.740,40.18266666666667,-124.20583333333333,4.94,2.26,NC.LSH..SHZ,P,1.0,2011-06-19 02:27:44.100
nc71587015,2011-06-19 02:27:12.740,40.18266666666667,-124.20583333333333,4.94,2.26,NC.LVR..SHZ,P,-1.0,2011-06-19 02:27:35.290
nc71587015,2011-06-19 02:27:12.740,40.18266666666667,-124.20583333333333,4.94,2.26,PB.B045..EHZ,P,-1.0,2011-06-19 02:27:19.760
nc71587015,2011-06-19 02:27:12.740,40.18266666666667,-124.20583333333333,4.94,2.26,PB.B046..EHZ,P,-1.0,2011-06-19 02:27:16.670
nc71587015,2011-06-19 02:27:12.740,40.18266666666667,-124.20583333333333,4.94,2.26,PB.B047..EHZ,P,-1.0,2011-06-19 02:27:14.830
nc71587015,2011-06-19 02:27:12.740,40.18266666666667,-124.20583333333333,4.94,2.26,PB.B049..EHZ,P,-1.0,2011-06-19 02:27:19.820
nc71587015,2011-06-19 02:27:12.740,40.18266666666667,-124.20583333333333,4.94,2.26,PB.B932..EHZ,P,-1.0,2011-06-19 02:27:15.130
nc71587015,2011-06-19 02:27:12.740,40.18266666666667,-124.20583333333333,4.94,2.26,PB.B933..EHZ,P,-1.0,2011-06-19 02:27:17.540
nc71587015,2011-06-19 02:27:12.740,40.18266666666667,-124.20583333333333,4.94,2.26,PB.B935..EHZ,P,-1.0,2011-06-19 02:27:25.540
nc71587015,2011-06-19 02:27:12.740,40.18266666666667,-124.20583333333333,4.94,2.26,TA.M02C..HHZ,P,,2011-06-19 02:27:41.340
nc71587015,2011-06-19 02:27:12.740,40.18266666666667,-124.20583333333333,4.94,2.26,TA.N02D..HHZ,P,1.0,2011-06-19 02:27:38.660
nc71587020,2011-06-19 02:29:54.820,40.18066666666667,-124.20266666666667,4.99,2.31,BK.GASB..HHZ,P,1.0,2011-06-19 02:30:17.630
nc71587020,2011-06-19 02:29:54.820,40.18066666666667,-124.20266666666667,4.99,2.31,BK.JCC..HHZ,P,-1.0,2011-06-19 02:30:08.970
nc71587020,2011-06-19 02:29:54.820,40.18066666666667,-124.20266666666667,4.99,2.31,BK.WDC..HHZ,P,,2011-06-19 02:30:19.430
nc71587020,2011-06-19 02:29:54.820,40.18066666666667,-124.20266666666667,4.99,2.31,NC.GCK..EHZ,P,,2011-06-19 02:30:21.720
nc71587020,2011-06-19 02:29:54.820,40.18066666666667,-124.20266666666667,4.99,2.31,NC.GHM..EHZ,P,,2011-06-19 02:30:17.630
nc71587020,2011-06-19 02:29:54.820,40.18066666666667,-124.20266666666667,4.99,2.31,NC.GRO..EHZ,P,1.0,2011-06-19 02:30:17.290
nc71587020,2011-06-19 02:29:54.820,40.18066666666667,-124.20266666666667,4.99,2.31,NC.GTC..SHZ,P,-1.0,2011-06-19 02:30:12.090
nc71587020,2011-06-19 02:29:54.820,40.18066666666667,-124.20266666666667,4.99,2.31,NC.GVV..EHZ,P,1.0,2011-06-19 02:30:17.580
nc71587020,2011-06-19 02:29:54.820,40.18066666666667,-124.20266666666667,4.99,2.31,NC.KCR..SHZ,P,-1.0,2011-06-19 02:30:03.690
nc71587020,2011-06-19 02:29:54.820,40.18066666666667,-124.20266666666667,4.99,2.31,NC.KCS..SHZ,P,-1.0,2011-06-19 02:30:09.150
nc71587020,2011-06-19 02:29:54.820,40.18066666666667,-124.20266666666667,4.99,2.31,NC.KHBB..HHZ,P,-1.0,2011-06-19 02:30:13.330
nc71587020,2011-06-19 02:29:54.820,40.18066666666667,-124.20266666666667,4.99,2.31,NC.KHMB..HHZ,P,-1.0,2011-06-19 02:30:11.510
nc71587020,2011-06-19 02:29:54.820,40.18066666666667,-124.20266666666667,4.99,2.31,NC.KIP..SHZ,P,-1.0,2011-06-19 02:30:09.090
nc71587020,2011-06-19 02:29:54.820,40.18066666666667,-124.20266666666667,4.99,2.31,NC.KJJ..SHZ,P,-1.0,2011-06-19 02:29:57.580
nc71587020,2011-06-19 02:29:54.820,40.18066666666667,-124.20266666666667,4.99,2.31,NC.KKP..SHZ,P,-1.0,2011-06-19 02:30:07.660
nc71587020,2011-06-19 02:29:54.820,40.18066666666667,-124.20266666666667,4.99,2.31,NC.KMR..HHZ,P,-1.0,2011-06-19 02:30:03.650
nc71587020,2011-06-19 02:29:54.820,40.18066666666667,-124.20266666666667,4.99,2.31,NC.KOM..SHZ,P,1.0,2011-06-19 02:30:17.660
nc71587020,2011-06-19 02:29:54.820,40.18066666666667,-124.20266666666667,4.99,2.31,NC.KPP..SHZ,P,,2011-06-19 02:30:09.450
nc71587020,2011-06-19 02:29:54.820,40.18066666666667,-124.20266666666667,4.99,2.31,NC.KRK..SHZ,P,1.0,2011-06-19 02:30:13.600
nc71587020,2011-06-19 02:29:54.820,40.18066666666667,-124.20266666666667,4.99,2.31,NC.KSM..SHZ,P,1.0,2011-06-19 02:29:56.130
nc71587020,2011-06-19 02:29:54.820,40.18066666666667,-124.20266666666667,4.99,2.31,NC.KSXB..HHZ,P,,2011-06-19 02:30:23.540
nc71587020,2011-06-19 02:29:54.820,40.18066666666667,-124.20266666666667,4.99,2.31,NC.LBK..SHZ,P,-1.0,2011-06-19 02:30:21.890
nc71587020,2011-06-19 02:29:54.820,40.18066666666667,-124.20266666666667,4.99,2.31,NC.LBP..SHZ,P,1.0,2011-06-19 02:30:15.040
nc71587020,2011-06-19 02:29:54.820,40.18066666666667,-124.20266666666667,4.99,2.31,NC.LGB..SHZ,P,-1.0,2011-06-19 02:30:28.910
nc71587020,2011-06-19 02:29:54.820,40.18066666666667,-124.20266666666667,4.99,2.31,NC.LMC..HHZ,P,-1.0,2011-06-19 02:30:28.640
nc71587020,2011-06-19 02:29:54.820,40.18066666666667,-124.20266666666667,4.99,2.31,NC.LPG..SHZ,P,1.0,2011-06-19 02:30:17.360
nc71587020,2011-06-19 02:29:54.820,40.18066666666667,-124.20266666666667,4.99,2.31,NC.LPK..SHZ,P,1.0,2011-06-19 02:30:26.360
nc71587020,2011-06-19 02:29:54.820,40.18066666666667,-124.20266666666667,4.99,2.31,NC.LRB..SHZ,P,,2011-06-19 02:30:19.780
nc71587020,2011-06-19 02:29:54.820,40.18066666666667,-124.20266666666667,4.99,2.31,NC.LRR..SHZ,P,,2011-06-19 02:30:28.900
nc71587020,2011-06-19 02:29:54.820,40.18066666666667,-124.20266666666667,4.99,2.31,NC.LSH..SHZ,P,-1.0,2011-06-19 02:30:25.650
nc71587020,2011-06-19 02:29:54.820,40.18066666666667,-124.20266666666667,4.99,2.31,NC.LSR..SHZ,P,1.0,2011-06-19 02:30:25.940
nc71587020,2011-06-19 02:29:54.820,40.18066666666667,-124.20266666666667,4.99,2.31,NC.LVR..SHZ,P,,2011-06-19 02:30:17.190
nc71587020,2011-06-19 02:29:54.820,40.18066666666667,-124.20266666666667,4.99,2.31,NC.LWH..SHZ,P,,2011-06-19 02:30:25.810
nc71587020,2011-06-19 02:29:54.820,40.18066666666667,-124.20266666666667,4.99,2.31,PB.B045..EHZ,P,-1.0,2011-06-19 02:30:01.830
nc71587020,2011-06-19 02:29:54.820,40.18066666666667,-124.20266666666667,4.99,2.31,PB.B046..EHZ,P,-1.0,2011-06-19 02:29:58.750
nc71587020,2011-06-19 02:29:54.820,40.18066666666667,-124.20266666666667,4.99,2.31,PB.B047..EHZ,P,-1.0,2011-06-19 02:29:56.880
nc71587020,2011-06-19 02:29:54.820,40.18066666666667,-124.20266666666667,4.99,2.31,PB.B049..EHZ,P,-1.0,2011-06-19 02:30:01.890
nc71587020,2011-06-19 02:29:54.820,40.18066666666667,-124.20266666666667,4.99,2.31,PB.B932..EHZ,P,-1.0,2011-06-19 02:29:57.200
nc71587020,2011-06-19 02:29:54.820,40.18066666666667,-124.20266666666667,4.99,2.31,PB.B933..EHZ,P,-1.0,2011-06-19 02:29:59.600
nc71587020,2011-06-19 02:29:54.820,40.18066666666667,-124.20266666666667,4.99,2.31,PB.B935..EHZ,P,-1.0,2011-06-19 02:30:07.580
nc71587020,2011-06-19 02:29:54.820,40.18066666666667,-124.20266666666667,4.99,2.31,TA.L02D..HHZ,P,,2011-06-19 02:30:26.810
nc71587020,2011-06-19 02:29:54.820,40.18066666666667,-124.20266666666667,4.99,2.31,TA.N02D..HHZ,P,-1.0,2011-06-19 02:30:20.680
nc71587870,2011-06-20 23:31:15.970,39.946333333333335,-123.26466666666667,6.19,1.87,BK.GASB..HHZ,P,1.0,2011-06-20 23:31:26.940
nc71587870,2011-06-20 23:31:15.970,39.946333333333335,-123.26466666666667,6.19,1.87,NC.GHM..EHZ,P,1.0,2011-06-20 23:31:27.360
nc71587870,2011-06-20 23:31:15.970,39.946333333333335,-123.26466666666667,6.19,1.87,NC.GRO..EHZ,P,1.0,2011-06-20 23:31:25.990
nc71587870,2011-06-20 23:31:15.970,39.946333333333335,-123.26466666666667,6.19,1.87,NC.GTC..SHZ,P,1.0,2011-06-20 23:31:28.460
nc71587870,2011-06-20 23:31:15.970,39.946333333333335,-123.26466666666667,6.19,1.87,NC.GVV..EHZ,P,1.0,2011-06-20 23:31:26.480
nc71587870,2011-06-20 23:31:15.970,39.946333333333335,-123.26466666666667,6.19,1.87,NC.KBN..SHZ,P,1.0,2011-06-20 23:31:18.940
nc71587870,2011-06-20 23:31:15.970,39.946333333333335,-123.26466666666667,6.19,1.87,NC.KCS..SHZ,P,-1.0,2011-06-20 23:31:29.360
nc71587870,2011-06-20 23:31:15.970,39.946333333333335,-123.26466666666667,6.19,1.87,NC.KFP..SHZ,P,1.0,2011-06-20 23:31:23.100
nc71587870,2011-06-20 23:31:15.970,39.946333333333335,-123.26466666666667,6.19,1.87,NC.KIP..SHZ,P,1.0,2011-06-20 23:31:20.980
nc71587870,2011-06-20 23:31:15.970,39.946333333333335,-123.26466666666667,6.19,1.87,NC.KKP..SHZ,P,1.0,2011-06-20 23:31:22.450
nc71587870,2011-06-20 23:31:15.970,39.946333333333335,-123.26466666666667,6.19,1.87,NC.KMR..HHZ,P,1.0,2011-06-20 23:31:25.450
nc71587870,2011-06-20 23:31:15.970,39.946333333333335,-123.26466666666667,6.19,1.87,NC.KPP..SHZ,P,-1.0,2011-06-20 23:31:25.260
nc71587870,2011-06-20 23:31:15.970,39.946333333333335,-123.26466666666667,6.19,1.87,NC.KSM..SHZ,P,1.0,2011-06-20 23:31:31.250
nc71587870,2011-06-20 23:31:15.970,39.946333333333335,-123.26466666666667,6.19,1.87,NC.LBK..SHZ,P,1.0,2011-06-20 23:31:40.210
nc71587870,2011-06-20 23:31:15.970,39.946333333333335,-123.26466666666667,6.19,1.87,NC.LBP..SHZ,P,1.0,2011-06-20 23:31:26.260
nc71587870,2011-06-20 23:31:15.970,39.946333333333335,-123.26466666666667,6.19,1.87,NC.LPG..SHZ,P,1.0,2011-06-20 23:31:26.630
nc71587870,2011-06-20 23:31:15.970,39.946333333333335,-123.26466666666667,6.19,1.87,NC.LRB..SHZ,P,1.0,2011-06-20 23:31:28.880
nc71587870,2011-06-20 23:31:15.970,39.946333333333335,-123.26466666666667,6.19,1.87,NC.LVR..SHZ,P,1.0,2011-06-20 23:31:26.060
nc71587870,2011-06-20 23:31:15.970,39.946333333333335,-123.26466666666667,6.19,1.87,PB.B049..EHZ,P,1.0,2011-06-20 23:31:27.110
nc71587870,2011-06-20 23:31:15.970,39.946333333333335,-123.26466666666667,6.19,1.87,PB.B935..EHZ,P,1.0,2011-06-20 23:31:28.810
nc71588690,2011-06-22 14:09:54.280,40.304833333333335,-124.27483333333333,10.45,0.67,NC.KJJ..SHZ,P,1.0,2011-06-22 14:09:56.710
nc71588690,2011-06-22 14:09:54.280,40.304833333333335,-124.27483333333333,10.45,0.67,NC.KSM..SHZ,P,-1.0,2011-06-22 14:09:57.980
nc71588690,2011-06-22 14:09:54.280,40.304833333333335,-124.27483333333333,10.45,0.67,PB.B046..EHZ,P,1.0,2011-06-22 14:09:56.490
nc71588690,2011-06-22 14:09:54.280,40.304833333333335,-124.27483333333333,10.45,0.67,PB.B047..EHZ,P,,2011-06-22 14:09:57.340
nc71588690,2011-06-22 14:09:54.280,40.304833333333335,-124.27483333333333,10.45,0.67,PB.B932..EHZ,P,1.0,2011-06-22 14:09:56.550
nc71588690,2011-06-22 14:09:54.280,40.304833333333335,-124.27483333333333,10.45,0.67,PB.B933..EHZ,P,-1.0,2011-06-22 14:10:01.390
nc71590175,2011-06-25 17:24:29.050,40.93533333333333,-123.46,22.66,2.01,BK.JCC..HHZ,P,1.0,2011-06-25 17:24:38.090
nc71590175,2011-06-25 17:24:29.050,40.93533333333333,-123.46,22.66,2.01,BK.WDC..HHZ,P,1.0,2011-06-25 17:24:43.660
nc71590175,2011-06-25 17:24:29.050,40.93533333333333,-123.46,22.66,2.01,NC.KCR..SHZ,P,1.0,2011-06-25 17:24:40.190
nc71590175,2011-06-25 17:24:29.050,40.93533333333333,-123.46,22.66,2.01,NC.KCS..SHZ,P,-1.0,2011-06-25 17:24:37.800
nc71590175,2011-06-25 17:24:29.050,40.93533333333333,-123.46,22.66,2.01,NC.KHBB..HHZ,P,-1.0,2011-06-25 17:24:36.520
nc71590175,2011-06-25 17:24:29.050,40.93533333333333,-123.46,22.66,2.01,NC.KHMB..HHZ,P,1.0,2011-06-25 17:24:35.050
nc71590175,2011-06-25 17:24:29.050,40.93533333333333,-123.46,22.66,2.01,NC.KIP..SHZ,P,1.0,2011-06-25 17:24:48.050
nc71590175,2011-06-25 17:24:29.050,40.93533333333333,-123.46,22.66,2.01,NC.KJJ..SHZ,P,1.0,2011-06-25 17:24:44.910
nc71590175,2011-06-25 17:24:29.050,40.93533333333333,-123.46,22.66,2.01,NC.KKP..SHZ,P,,2011-06-25 17:24:43.610
nc71590175,2011-06-25 17:24:29.050,40.93533333333333,-123.46,22.66,2.01,NC.KMR..HHZ,P,1.0,2011-06-25 17:24:42.740
nc71590175,2011-06-25 17:24:29.050,40.93533333333333,-123.46,22.66,2.01,NC.KOM..SHZ,P,1.0,2011-06-25 17:24:36.670
nc71590175,2011-06-25 17:24:29.050,40.93533333333333,-123.46,22.66,2.01,NC.KPP..SHZ,P,1.0,2011-06-25 17:24:40.730
nc71590175,2011-06-25 17:24:29.050,40.93533333333333,-123.46,22.66,2.01,NC.KRP..HHZ,P,1.0,2011-06-25 17:24:38.880
nc71590175,2011-06-25 17:24:29.050,40.93533333333333,-123.46,22.66,2.01,NC.KSM..SHZ,P,1.0,2011-06-25 17:24:44.810
nc71590175,2011-06-25 17:24:29.050,40.93533333333333,-123.46,22.66,2.01,NC.KTR..SHZ,P,,2011-06-25 17:24:46.240
nc71590175,2011-06-25 17:24:29.050,40.93533333333333,-123.46,22.66,2.01,NC.LBK..SHZ,P,1.0,2011-06-25 17:24:40.690
nc71590175,2011-06-25 17:24:29.050,40.93533333333333,-123.46,22.66,2.01,NC.LBP..SHZ,P,-1.0,2011-06-25 17:24:43.200
nc71590175,2011-06-25 17:24:29.050,40.93533333333333,-123.46,22.66,2.01,NC.LGM..SHZ,P,,2011-06-25 17:24:54.400
nc71590175,2011-06-25 17:24:29.050,40.93533333333333,-123.46,22.66,2.01,NC.LPG..SHZ,P,,2011-06-25 17:24:47.190
nc71590175,2011-06-25 17:24:29.050,40.93533333333333,-123.46,22.66,2.01,NC.LPK..SHZ,P,1.0,2011-06-25 17:24:44.800
nc71590175,2011-06-25 17:24:29.050,40.93533333333333,-123.46,22.66,2.01,NC.LSF..SHZ,P,-1.0,2011-06-25 17:24:43.670
nc71590175,2011-06-25 17:24:29.050,40.93533333333333,-123.46,22.66,2.01,NC.LSR..SHZ,P,,2011-06-25 17:24:44.950
