event_id,etime,elat,elon,edep,emag,station_id,phase_type,phase_polarity,phase_time
nc71775065,2012-05-03 13:40:12.380,40.46783333333333,-123.49466666666666,6.42,2.21,NC.KMR..HHZ,P,-1.0,2012-05-03 13:40:19.750
nc71775065,2012-05-03 13:40:12.380,40.46783333333333,-123.49466666666666,6.42,2.21,NC.KOM..EHZ,P,1.0,2012-05-03 13:40:27.740
nc71775065,2012-05-03 13:40:12.380,40.46783333333333,-123.49466666666666,6.42,2.21,NC.KSM..EHZ,P,-1.0,2012-05-03 13:40:25.290
nc71775065,2012-05-03 13:40:12.380,40.46783333333333,-123.49466666666666,6.42,2.21,NC.LBP..EHZ,P,1.0,2012-05-03 13:40:22.730
nc71775065,2012-05-03 13:40:12.380,40.46783333333333,-123.49466666666666,6.42,2.21,NC.LGP..EHZ,P,-1.0,2012-05-03 13:40:25.580
nc71775065,2012-05-03 13:40:12.380,40.46783333333333,-123.49466666666666,6.42,2.21,NC.LMI..EHZ,P,,2012-05-03 13:40:32.440
nc71775065,2012-05-03 13:40:12.380,40.46783333333333,-123.49466666666666,6.42,2.21,NC.LRB..EHZ,P,-1.0,2012-05-03 13:40:28.850
nc71775065,2012-05-03 13:40:12.380,40.46783333333333,-123.49466666666666,6.42,2.21,NC.LSF..EHZ,P,,2012-05-03 13:40:27.280
nc71775065,2012-05-03 13:40:12.380,40.46783333333333,-123.49466666666666,6.42,2.21,NC.LSH..EHZ,P,1.0,2012-05-03 13:40:34.160
nc71775065,2012-05-03 13:40:12.380,40.46783333333333,-123.49466666666666,6.42,2.21,NC.LVR..EHZ,P,-1.0,2012-05-03 13:40:27.840
nc71775065,2012-05-03 13:40:12.380,40.46783333333333,-123.49466666666666,6.42,2.21,PB.B045..EHZ,P,-1.0,2012-05-03 13:40:21.300
nc71775065,2012-05-03 13:40:12.380,40.46783333333333,-123.49466666666666,6.42,2.21,PB.B046..EHZ,P,,2012-05-03 13:40:25.660
nc71775065,2012-05-03 13:40:12.380,40.46783333333333,-123.49466666666666,6.42,2.21,PB.B047..EHZ,P,-1.0,2012-05-03 13:40:24.500
nc71775065,2012-05-03 13:40:12.380,40.46783333333333,-123.49466666666666,6.42,2.21,PB.B049..EHZ,P,-1.0,2012-05-03 13:40:20.090
nc71775065,2012-05-03 13:40:12.380,40.46783333333333,-123.49466666666666,6.42,2.21,PB.B932..EHZ,P,-1.0,2012-05-03 13:40:24.910
nc71775065,2012-05-03 13:40:12.380,40.46783333333333,-123.49466666666666,6.42,2.21,PB.B933..EHZ,P,-1.0,2012-05-03 13:40:24.220
nc71775065,2012-05-03 13:40:12.380,40.46783333333333,-123.49466666666666,6.42,2.21,PB.B935..EHZ,P,1.0,2012-05-03 13:40:14.980
nc71775065,2012-05-03 13:40:12.380,40.46783333333333,-123.49466666666666,6.42,2.21,TA.M02C..HHZ,P,1.0,2012-05-03 13:40:31.810
nc71775065,2012-05-03 13:40:12.380,40.46783333333333,-123.49466666666666,6.42,2.21,TA.N02D..HHZ,P,-1.0,2012-05-03 13:40:27.460
nc71062519,2012-05-03 13:40:21.250,40.44766666666666,-123.46183333333333,5.55,2.05,NC.KCR..EHZ,P,1.0,2012-05-03 13:40:27.610
nc71062519,2012-05-03 13:40:21.250,40.44766666666666,-123.46183333333333,5.55,2.05,NC.KCS..EHZ,P,-1.0,2012-05-03 13:40:24.410
nc71062519,2012-05-03 13:40:21.250,40.44766666666666,-123.46183333333333,5.55,2.05,NC.KFP..EHZ,P,1.0,2012-05-03 13:40:38.540
nc71062519,2012-05-03 13:40:21.250,40.44766666666666,-123.46183333333333,5.55,2.05,NC.KHBB..HHZ,P,-1.0,2012-05-03 13:40:27.780
nc71062519,2012-05-03 13:40:21.250,40.44766666666666,-123.46183333333333,5.55,2.05,NC.KJJ..EHZ,P,1.0,2012-05-03 13:40:35.360
nc71062519,2012-05-03 13:40:21.250,40.44766666666666,-123.46183333333333,5.55,2.05,NC.KMR..HHZ,P,1.0,2012-05-03 13:40:28.710
nc71062519,2012-05-03 13:40:21.250,40.44766666666666,-123.46183333333333,5.55,2.05,NC.KOM..EHZ,P,1.0,2012-05-03 13:40:36.620
nc71062519,2012-05-03 13:40:21.250,40.44766666666666,-123.46183333333333,5.55,2.05,NC.KSM..EHZ,P,-1.0,2012-05-03 13:40:34.450
nc71062519,2012-05-03 13:40:21.250,40.44766666666666,-123.46183333333333,5.55,2.05,NC.LBK..EHZ,P,-1.0,2012-05-03 13:40:37.930
nc71062519,2012-05-03 13:40:21.250,40.44766666666666,-123.46183333333333,5.55,2.05,NC.LGP..EHZ,P,1.0,2012-05-03 13:40:34.650
nc71062519,2012-05-03 13:40:21.250,40.44766666666666,-123.46183333333333,5.55,2.05,PB.B046..EHZ,P,-1.0,2012-05-03 13:40:34.650
nc71062519,2012-05-03 13:40:21.250,40.44766666666666,-123.46183333333333,5.55,2.05,PB.B047..EHZ,P,1.0,2012-05-03 13:40:33.470
nc71062519,2012-05-03 13:40:21.250,40.44766666666666,-123.46183333333333,5.55,2.05,PB.B932..EHZ,P,-1.0,2012-05-03 13:40:34.020
nc71062519,2012-05-03 13:40:21.250,40.44766666666666,-123.46183333333333,5.55,2.05,PB.B933..EHZ,P,1.0,2012-05-03 13:40:33.160
nc71062519,2012-05-03 13:40:21.250,40.44766666666666,-123.46183333333333,5.55,2.05,PB.B935..EHZ,P,1.0,2012-05-03 13:40:23.860
nc71776985,2012-05-06 15:58:33.910,40.462,-123.48266666666666,7.79,1.97,BK.JCC..HHZ,P,1.0,2012-05-06 15:58:45.380
nc71776985,2012-05-06 15:58:33.910,40.462,-123.48266666666666,7.79,1.97,NC.KBN..EHZ,P,1.0,2012-05-06 15:58:47.130
nc71776985,2012-05-06 15:58:33.910,40.462,-123.48266666666666,7.79,1.97,NC.KCR..EHZ,P,-1.0,2012-05-06 15:58:40.000
nc71776985,2012-05-06 15:58:33.910,40.462,-123.48266666666666,7.79,1.97,NC.KCS..EHZ,P,-1.0,2012-05-06 15:58:36.960
nc71776985,2012-05-06 15:58:33.910,40.462,-123.48266666666666,7.79,1.97,NC.KHBB..HHZ,P,-1.0,2012-05-06 15:58:40.370
nc71776985,2012-05-06 15:58:33.910,40.462,-123.48266666666666,7.79,1.97,NC.KHMB..HHZ,P,-1.0,2012-05-06 15:58:43.100
nc71776985,2012-05-06 15:58:33.910,40.462,-123.48266666666666,7.79,1.97,NC.KIP..EHZ,P,,2012-05-06 15:58:47.690
nc71776985,2012-05-06 15:58:33.910,40.462,-123.48266666666666,7.79,1.97,NC.KJJ..EHZ,P,1.0,2012-05-06 15:58:47.910
nc71776985,2012-05-06 15:58:33.910,40.462,-123.48266666666666,7.79,1.97,NC.KKP..EHZ,P,-1.0,2012-05-06 15:58:41.730
nc71776985,2012-05-06 15:58:33.910,40.462,-123.48266666666666,7.79,1.97,NC.KMPB..HHZ,P,,2012-05-06 15:58:44.470
nc71776985,2012-05-06 15:58:33.910,40.462,-123.48266666666666,7.79,1.97,NC.KMR..HHZ,P,-1.0,2012-05-06 15:58:41.170
nc71776985,2012-05-06 15:58:33.910,40.462,-123.48266666666666,7.79,1.97,NC.KOM..EHZ,P,1.0,2012-05-06 15:58:49.220
nc71776985,2012-05-06 15:58:33.910,40.462,-123.48266666666666,7.79,1.97,NC.KSM..EHZ,P,-1.0,2012-05-06 15:58:46.700
nc71776985,2012-05-06 15:58:33.910,40.462,-123.48266666666666,7.79,1.97,NC.LBK..EHZ,P,1.0,2012-05-06 15:58:50.560
nc71776985,2012-05-06 15:58:33.910,40.462,-123.48266666666666,7.79,1.97,NC.LBP..EHZ,P,-1.0,2012-05-06 15:58:44.170
nc71776985,2012-05-06 15:58:33.910,40.462,-123.48266666666666,7.79,1.97,NC.LGP..EHZ,P,1.0,2012-05-06 15:58:47.130
nc71776985,2012-05-06 15:58:33.910,40.462,-123.48266666666666,7.79,1.97,NC.LPG..EHZ,P,,2012-05-06 15:58:48.570
nc71776985,2012-05-06 15:58:33.910,40.462,-123.48266666666666,7.79,1.97,NC.LSH..EHZ,P,-1.0,2012-05-06 15:58:55.700
nc71776985,2012-05-06 15:58:33.910,40.462,-123.48266666666666,7.79,1.97,NC.LVR..EHZ,P,1.0,2012-05-06 15:58:49.360
nc71776985,2012-05-06 15:58:33.910,40.462,-123.48266666666666,7.79,1.97,PB.B045..EHZ,P,-1.0,2012-05-06 15:58:42.360
nc71776985,2012-05-06 15:58:33.910,40.462,-123.48266666666666,7.79,1.97,PB.B046..EHZ,P,-1.0,2012-05-06 15:58:47.220
nc71776985,2012-05-06 15:58:33.910,40.462,-123.48266666666666,7.79,1.97,PB.B047..EHZ,P,-1.0,2012-05-06 15:58:45.910
nc71776985,2012-05-06 15:58:33.910,40.462,-123.48266666666666,7.79,1.97,PB.B049..EHZ,P,-1.0,2012-05-06 15:58:41.520
nc71776985,2012-05-06 15:58:33.910,40.462,-123.48266666666666,7.79,1.97,PB.B932..EHZ,P,-1.0,2012-05-06 15:58:46.350
nc71776985,2012-05-06 15:58:33.910,40.462,-123.48266666666666,7.79,1.97,PB.B933..EHZ,P,-1.0,2012-05-06 15:58:45.690
nc71776985,2012-05-06 15:58:33.910,40.462,-123.48266666666666,7.79,1.97,PB.B935..EHZ,P,1.0,2012-05-06 15:58:36.440
nc71776985,2012-05-06 15:58:33.910,40.462,-123.48266666666666,7.79,1.97,TA.N02D..HHZ,P,1.0,2012-05-06 15:58:48.990
nc71777080,2012-05-06 19:13:08.050,40.4765,-123.4975,2.59,1.44,BK.JCC..HHZ,P,,2012-05-06 19:13:19.720
nc71777080,2012-05-06 19:13:08.050,40.4765,-123.4975,2.59,1.44,NC.KCR..EHZ,P,-1.0,2012-05-06 19:13:14.620
nc71777080,2012-05-06 19:13:08.050,40.4765,-123.4975,2.59,1.44,NC.KCS..EHZ,P,-1.0,2012-05-06 19:13:11.510
nc71777080,2012-05-06 19:13:08.050,40.4765,-123.4975,2.59,1.44,NC.KHBB..HHZ,P,-1.0,2012-05-06 19:13:14.900
nc71777080,2012-05-06 19:13:08.050,40.4765,-123.4975,2.59,1.44,NC.KHMB..HHZ,P,-1.0,2012-05-06 19:13:17.770
nc71777080,2012-05-06 19:13:08.050,40.4765,-123.4975,2.59,1.44,NC.KIP..EHZ,P,1.0,2012-05-06 19:13:22.500
nc71777080,2012-05-06 19:13:08.050,40.4765,-123.4975,2.59,1.44,NC.KJJ..EHZ,P,1.0,2012-05-06 19:13:22.400
nc71777080,2012-05-06 19:13:08.050,40.4765,-123.4975,2.59,1.44,NC.KKP..EHZ,P,-1.0,2012-05-06 19:13:16.330
nc71777080,2012-05-06 19:13:08.050,40.4765,-123.4975,2.59,1.44,NC.KMR..HHZ,P,-1.0,2012-05-06 19:13:15.740
nc71777080,2012-05-06 19:13:08.050,40.4765,-123.4975,2.59,1.44,NC.KSM..EHZ,P,1.0,2012-05-06 19:13:21.320
nc71777080,2012-05-06 19:13:08.050,40.4765,-123.4975,2.59,1.44,NC.LBP..EHZ,P,-1.0,2012-05-06 19:13:18.860
nc71777080,2012-05-06 19:13:08.050,40.4765,-123.4975,2.59,1.44,NC.LGP..EHZ,P,1.0,2012-05-06 19:13:21.750
nc71777080,2012-05-06 19:13:08.050,40.4765,-123.4975,2.59,1.44,PB.B045..EHZ,P,,2012-05-06 19:13:16.980
nc71777080,2012-05-06 19:13:08.050,40.4765,-123.4975,2.59,1.44,PB.B046..EHZ,P,-1.0,2012-05-06 19:13:21.730
nc71777080,2012-05-06 19:13:08.050,40.4765,-123.4975,2.59,1.44,PB.B047..EHZ,P,1.0,2012-05-06 19:13:20.530
nc71777080,2012-05-06 19:13:08.050,40.4765,-123.4975,2.59,1.44,PB.B049..EHZ,P,-1.0,2012-05-06 19:13:16.040
nc71777080,2012-05-06 19:13:08.050,40.4765,-123.4975,2.59,1.44,PB.B932..EHZ,P,1.0,2012-05-06 19:13:20.930
nc71777080,2012-05-06 19:13:08.050,40.4765,-123.4975,2.59,1.44,PB.B933..EHZ,P,1.0,2012-05-06 19:13:20.260
nc71777080,2012-05-06 19:13:08.050,40.4765,-123.4975,2.59,1.44,PB.B935..EHZ,P,1.0,2012-05-06 19:13:10.960
nc71777080,2012-05-06 19:13:08.050,40.4765,-123.4975,2.59,1.44,TA.N02D..HHZ,P,1.0,2012-05-06 19:13:23.670
nc71777240,2012-05-07 04:24:09.690,40.253166666666665,-124.13183333333333,12.12,2.05,BK.JCC..HHZ,P,-1.0,2012-05-07 04:24:21.300
nc71777240,2012-05-07 04:24:09.690,40.253166666666665,-124.13183333333333,12.12,2.05,NC.GTC..EHZ,P,-1.0,2012-05-07 04:24:26.010
nc71777240,2012-05-07 04:24:09.690,40.253166666666665,-124.13183333333333,12.12,2.05,NC.KBN..EHZ,P,,2012-05-07 04:24:25.010
nc71777240,2012-05-07 04:24:09.690,40.253166666666665,-124.13183333333333,12.12,2.05,NC.KCR..EHZ,P,-1.0,2012-05-07 04:24:16.650
nc71777240,2012-05-07 04:24:09.690,40.253166666666665,-124.13183333333333,12.12,2.05,NC.KCS..EHZ,P,1.0,2012-05-07 04:24:21.860
nc71777240,2012-05-07 04:24:09.690,40.253166666666665,-124.13183333333333,12.12,2.05,NC.KCT..HHZ,P,1.0,2012-05-07 04:24:16.510
nc71777240,2012-05-07 04:24:09.690,40.253166666666665,-124.13183333333333,12.12,2.05,NC.KFP..EHZ,P,1.0,2012-05-07 04:24:24.410
nc71777240,2012-05-07 04:24:09.690,40.253166666666665,-124.13183333333333,12.12,2.05,NC.KHBB..HHZ,P,1.0,2012-05-07 04:24:25.120
nc71777240,2012-05-07 04:24:09.690,40.253166666666665,-124.13183333333333,12.12,2.05,NC.KHMB..HHZ,P,-1.0,2012-05-07 04:24:23.710
nc71777240,2012-05-07 04:24:09.690,40.253166666666665,-124.13183333333333,12.12,2.05,NC.KIP..EHZ,P,1.0,2012-05-07 04:24:22.820
nc71777240,2012-05-07 04:24:09.690,40.253166666666665,-124.13183333333333,12.12,2.05,NC.KJJ..EHZ,P,-1.0,2012-05-07 04:24:13.470
nc71777240,2012-05-07 04:24:09.690,40.253166666666665,-124.13183333333333,12.12,2.05,NC.KKP..EHZ,P,1.0,2012-05-07 04:24:21.150
nc71777240,2012-05-07 04:24:09.690,40.253166666666665,-124.13183333333333,12.12,2.05,NC.KMPB..HHZ,P,-1.0,2012-05-07 04:24:14.120
nc71777240,2012-05-07 04:24:09.690,40.253166666666665,-124.13183333333333,12.12,2.05,NC.KMR..HHZ,P,-1.0,2012-05-07 04:24:17.090
nc71777240,2012-05-07 04:24:09.690,40.253166666666665,-124.13183333333333,12.12,2.05,NC.KOM..EHZ,P,-1.0,2012-05-07 04:24:30.020
nc71777240,2012-05-07 04:24:09.690,40.253166666666665,-124.13183333333333,12.12,2.05,NC.KSM..EHZ,P,1.0,2012-05-07 04:24:12.630
nc71777240,2012-05-07 04:24:09.690,40.253166666666665,-124.13183333333333,12.12,2.05,NC.LVR..EHZ,P,1.0,2012-05-07 04:24:30.520
nc71777240,2012-05-07 04:24:09.690,40.253166666666665,-124.13183333333333,12.12,2.05,PB.B045..EHZ,P,-1.0,2012-05-07 04:24:14.870
nc71777240,2012-05-07 04:24:09.690,40.253166666666665,-124.13183333333333,12.12,2.05,PB.B046..EHZ,P,1.0,2012-05-07 04:24:13.530
nc71777240,2012-05-07 04:24:09.690,40.253166666666665,-124.13183333333333,12.12,2.05,PB.B047..EHZ,P,1.0,2012-05-07 04:24:12.260
nc71777240,2012-05-07 04:24:09.690,40.253166666666665,-124.13183333333333,12.12,2.05,PB.B049..EHZ,P,-1.0,2012-05-07 04:24:15.270
nc71777240,2012-05-07 04:24:09.690,40.253166666666665,-124.13183333333333,12.12,2.05,PB.B932..EHZ,P,1.0,2012-05-07 04:24:12.440
nc71777240,2012-05-07 04:24:09.690,40.253166666666665,-124.13183333333333,12.12,2.05,PB.B933..EHZ,P,-1.0,2012-05-07 04:24:14.840
nc71777240,2012-05-07 04:24:09.690,40.253166666666665,-124.13183333333333,12.12,2.05,PB.B935..EHZ,P,-1.0,2012-05-07 04:24:20.410
nc71778485,2012-05-09 15:09:48.640,40.13666666666666,-123.08883333333333,33.75,2.05,BK.GASB..HHZ,P,1.0,2012-05-09 15:10:00.000
nc71778485,2012-05-09 15:09:48.640,40.13666666666666,-123.08883333333333,33.75,2.05,BK.WDC..HHZ,P,1.0,2012-05-09 15:10:00.060
nc71778485,2012-05-09 15:09:48.640,40.13666666666666,-123.08883333333333,33.75,2.05,NC.GNA..EHZ,P,-1.0,2012-05-09 15:10:05.240
nc71778485,2012-05-09 15:09:48.640,40.13666666666666,-123.08883333333333,33.75,2.05,NC.GRO..EHZ,P,1.0,2012-05-09 15:09:57.590
nc71778485,2012-05-09 15:09:48.640,40.13666666666666,-123.08883333333333,33.75,2.05,NC.GTC..EHZ,P,-1.0,2012-05-09 15:10:02.530
nc71778485,2012-05-09 15:09:48.640,40.13666666666666,-123.08883333333333,33.75,2.05,NC.GVV..EHZ,P,1.0,2012-05-09 15:09:58.750
nc71778485,2012-05-09 15:09:48.640,40.13666666666666,-123.08883333333333,33.75,2.05,NC.KBN..EHZ,P,-1.0,2012-05-09 15:09:56.220
nc71778485,2012-05-09 15:09:48.640,40.13666666666666,-123.08883333333333,33.75,2.05,NC.KCPB..HHZ,P,-1.0,2012-05-09 15:09:59.830
nc71778485,2012-05-09 15:09:48.640,40.13666666666666,-123.08883333333333,33.75,2.05,NC.KCR..EHZ,P,1.0,2012-05-09 15:10:00.590
nc71778485,2012-05-09 15:09:48.640,40.13666666666666,-123.08883333333333,33.75,2.05,NC.KCS..EHZ,P,1.0,2012-05-09 15:09:59.400
nc71778485,2012-05-09 15:09:48.640,40.13666666666666,-123.08883333333333,33.75,2.05,NC.KFP..EHZ,P,1.0,2012-05-09 15:09:59.480
nc71778485,2012-05-09 15:09:48.640,40.13666666666666,-123.08883333333333,33.75,2.05,NC.KHBB..HHZ,P,-1.0,2012-05-09 15:09:59.220
nc71778485,2012-05-09 15:09:48.640,40.13666666666666,-123.08883333333333,33.75,2.05,NC.KIP..EHZ,P,-1.0,2012-05-09 15:09:58.170
nc71778485,2012-05-09 15:09:48.640,40.13666666666666,-123.08883333333333,33.75,2.05,NC.KJJ..EHZ,P,,2012-05-09 15:10:04.490
nc71778485,2012-05-09 15:09:48.640,40.13666666666666,-123.08883333333333,33.75,2.05,NC.KKP..EHZ,P,-1.0,2012-05-09 15:09:57.040
nc71778485,2012-05-09 15:09:48.640,40.13666666666666,-123.08883333333333,33.75,2.05,NC.KMR..HHZ,P,1.0,2012-05-09 15:09:58.740
nc71778485,2012-05-09 15:09:48.640,40.13666666666666,-123.08883333333333,33.75,2.05,NC.KRK..EHZ,P,-1.0,2012-05-09 15:09:59.980
nc71778485,2012-05-09 15:09:48.640,40.13666666666666,-123.08883333333333,33.75,2.05,NC.KSM..EHZ,P,-1.0,2012-05-09 15:10:03.220
nc71778485,2012-05-09 15:09:48.640,40.13666666666666,-123.08883333333333,33.75,2.05,NC.LBK..EHZ,P,1.0,2012-05-09 15:10:05.910
nc71778485,2012-05-09 15:09:48.640,40.13666666666666,-123.08883333333333,33.75,2.05,NC.LBP..EHZ,P,-1.0,2012-05-09 15:09:55.730
nc71778485,2012-05-09 15:09:48.640,40.13666666666666,-123.08883333333333,33.75,2.05,NC.LGP..EHZ,P,-1.0,2012-05-09 15:10:03.110
nc71778485,2012-05-09 15:09:48.640,40.13666666666666,-123.08883333333333,33.75,2.05,NC.LPG..EHZ,P,1.0,2012-05-09 15:09:56.530
nc71778485,2012-05-09 15:09:48.640,40.13666666666666,-123.08883333333333,33.75,2.05,NC.LRB..EHZ,P,-1.0,2012-05-09 15:09:58.120
nc71778485,2012-05-09 15:09:48.640,40.13666666666666,-123.08883333333333,33.75,2.05,NC.LSF..EHZ,P,1.0,2012-05-09 15:10:01.050
nc71778485,2012-05-09 15:09:48.640,40.13666666666666,-123.08883333333333,33.75,2.05,NC.LSH..EHZ,P,-1.0,2012-05-09 15:10:05.690
nc71778485,2012-05-09 15:09:48.640,40.13666666666666,-123.08883333333333,33.75,2.05,NC.LVR..EHZ,P,1.0,2012-05-09 15:09:56.910
nc71778485,2012-05-09 15:09:48.640,40.13666666666666,-123.08883333333333,33.75,2.05,NC.LWH..EHZ,P,,2012-05-09 15:10:05.650
nc71778485,2012-05-09 15:09:48.640,40.13666666666666,-123.08883333333333,33.75,2.05,PB.B046..EHZ,P,-1.0,2012-05-09 15:10:04.470
nc71778485,2012-05-09 15:09:48.640,40.13666666666666,-123.08883333333333,33.75,2.05,PB.B047..EHZ,P,-1.0,2012-05-09 15:10:03.230
nc71778485,2012-05-09 15:09:48.640,40.13666666666666,-123.08883333333333,33.75,2.05,PB.B049..EHZ,P,1.0,2012-05-09 15:09:59.540
nc71778485,2012-05-09 15:09:48.640,40.13666666666666,-123.08883333333333,33.75,2.05,PB.B932..EHZ,P,-1.0,2012-05-09 15:10:03.640
nc71778485,2012-05-09 15:09:48.640,40.13666666666666,-123.08883333333333,33.75,2.05,PB.B935..EHZ,P,1.0,2012-05-09 15:09:59.150
nc71778485,2012-05-09 15:09:48.640,40.13666666666666,-123.08883333333333,33.75,2.05,TA.N02D..HHZ,P,1.0,2012-05-09 15:10:04.390
nc71787656,2012-05-18 18:12:32.350,40.25866666666667,-123.4065,23.18,1.88,NC.KBN..EHZ,P,-1.0,2012-05-18 18:12:41.100
nc71787656,2012-05-18 18:12:32.350,40.25866666666667,-123.4065,23.18,1.88,NC.KCPB..HHZ,P,1.0,2012-05-18 18:12:43.420
nc71787656,2012-05-18 18:12:32.350,40.25866666666667,-123.4065,23.18,1.88,NC.KCR..EHZ,P,1.0,2012-05-18 18:12:40.280
nc71787656,2012-05-18 18:12:32.350,40.25866666666667,-123.4065,23.18,1.88,NC.KCS..EHZ,P,1.0,2012-05-18 18:12:39.730
nc71787656,2012-05-18 18:12:32.350,40.25866666666667,-123.4065,23.18,1.88,NC.KFP..EHZ,P,1.0,2012-05-18 18:12:43.780
nc71787656,2012-05-18 18:12:32.350,40.25866666666667,-123.4065,23.18,1.88,NC.KIP..EHZ,P,-1.0,2012-05-18 18:12:41.610
nc71787656,2012-05-18 18:12:32.350,40.25866666666667,-123.4065,23.18,1.88,NC.KKP..EHZ,P,-1.0,2012-05-18 18:12:37.820
nc71787656,2012-05-18 18:12:32.350,40.25866666666667,-123.4065,23.18,1.88,NC.KMR..HHZ,P,-1.0,2012-05-18 18:12:38.720
nc71787656,2012-05-18 18:12:32.350,40.25866666666667,-123.4065,23.18,1.88,NC.KSM..EHZ,P,-1.0,2012-05-18 18:12:43.390
nc71787656,2012-05-18 18:12:32.350,40.25866666666667,-123.4065,23.18,1.88,NC.LBK..EHZ,P,-1.0,2012-05-18 18:12:49.770
nc71787656,2012-05-18 18:12:32.350,40.25866666666667,-123.4065,23.18,1.88,NC.LBP..EHZ,P,1.0,2012-05-18 18:12:40.790
nc71787656,2012-05-18 18:12:32.350,40.25866666666667,-123.4065,23.18,1.88,NC.LGP..EHZ,P,1.0,2012-05-18 18:12:46.300
nc71787656,2012-05-18 18:12:32.350,40.25866666666667,-123.4065,23.18,1.88,NC.LPG..EHZ,P,1.0,2012-05-18 18:12:43.210
nc71787656,2012-05-18 18:12:32.350,40.25866666666667,-123.4065,23.18,1.88,NC.LRB..EHZ,P,-1.0,2012-05-18 18:12:44.510
nc71787656,2012-05-18 18:12:32.350,40.25866666666667,-123.4065,23.18,1.88,NC.LSF..EHZ,P,1.0,2012-05-18 18:12:46.330
nc71787656,2012-05-18 18:12:32.350,40.25866666666667,-123.4065,23.18,1.88,NC.LVR..EHZ,P,1.0,2012-05-18 18:12:43.990
nc71787656,2012-05-18 18:12:32.350,40.25866666666667,-123.4065,23.18,1.88,PB.B045..EHZ,P,-1.0,2012-05-18 18:12:42.180
nc71787656,2012-05-18 18:12:32.350,40.25866666666667,-123.4065,23.18,1.88,PB.B047..EHZ,P,-1.0,2012-05-18 18:12:43.660
nc71787656,2012-05-18 18:12:32.350,40.25866666666667,-123.4065,23.18,1.88,PB.B049..EHZ,P,-1.0,2012-05-18 18:12:39.470
nc71787656,2012-05-18 18:12:32.350,40.25866666666667,-123.4065,23.18,1.88,PB.B935..EHZ,P,1.0,2012-05-18 18:12:38.940
nc71787996,2012-05-19 12:43:46.740,40.355333333333334,-123.461,24.64,1.87,BK.WDC..HHZ,P,-1.0,2012-05-19 12:44:00.020
nc71787996,2012-05-19 12:43:46.740,40.355333333333334,-123.461,24.64,1.87,NC.KCR..EHZ,P,1.0,2012-05-19 12:43:53.760
nc71787996,2012-05-19 12:43:46.740,40.355333333333334,-123.461,24.64,1.87,NC.KCS..EHZ,P,-1.0,2012-05-19 12:43:52.890
nc71787996,2012-05-19 12:43:46.740,40.355333333333334,-123.461,24.64,1.87,NC.KFP..EHZ,P,1.0,2012-05-19 12:43:59.400
nc71787996,2012-05-19 12:43:46.740,40.355333333333334,-123.461,24.64,1.87,NC.KHBB..HHZ,P,-1.0,2012-05-19 12:43:54.580
nc71787996,2012-05-19 12:43:46.740,40.355333333333334,-123.461,24.64,1.87,NC.KKP..EHZ,P,1.0,2012-05-19 12:43:53.190
nc71787996,2012-05-19 12:43:46.740,40.355333333333334,-123.461,24.64,1.87,NC.KOM..EHZ,P,1.0,2012-05-19 12:44:02.660
