event_id,etime,elat,elon,edep,emag,station_id,phase_type,phase_polarity,phase_time
nc71801936,2012-06-16 09:43:53.760,40.339666666666666,-123.69666666666667,20.86,1.84,NC.KFP..EHZ,P,,2012-06-16 09:44:07.110
nc71801936,2012-06-16 09:43:53.760,40.339666666666666,-123.69666666666667,20.86,1.84,NC.KIP..EHZ,P,1.0,2012-06-16 09:44:04.770
nc71801936,2012-06-16 09:43:53.760,40.339666666666666,-123.69666666666667,20.86,1.84,NC.KKP..EHZ,P,1.0,2012-06-16 09:44:00.260
nc71801936,2012-06-16 09:43:53.760,40.339666666666666,-123.69666666666667,20.86,1.84,NC.KMPB..HHZ,P,1.0,2012-06-16 09:44:01.400
nc71801936,2012-06-16 09:43:53.760,40.339666666666666,-123.69666666666667,20.86,1.84,NC.KMR..HHZ,P,-1.0,2012-06-16 09:43:58.660
nc71801936,2012-06-16 09:43:53.760,40.339666666666666,-123.69666666666667,20.86,1.84,NC.KRK..EHZ,P,-1.0,2012-06-16 09:44:09.640
nc71801936,2012-06-16 09:43:53.760,40.339666666666666,-123.69666666666667,20.86,1.84,NC.KSM..EHZ,P,1.0,2012-06-16 09:44:02.360
nc71801936,2012-06-16 09:43:53.760,40.339666666666666,-123.69666666666667,20.86,1.84,NC.LBP..EHZ,P,1.0,2012-06-16 09:44:05.550
nc71801936,2012-06-16 09:43:53.760,40.339666666666666,-123.69666666666667,20.86,1.84,NC.LPG..EHZ,P,-1.0,2012-06-16 09:44:08.310
nc71801936,2012-06-16 09:43:53.760,40.339666666666666,-123.69666666666667,20.86,1.84,NC.LVR..EHZ,P,1.0,2012-06-16 09:44:08.800
nc71801936,2012-06-16 09:43:53.760,40.339666666666666,-123.69666666666667,20.86,1.84,PB.B045..EHZ,P,1.0,2012-06-16 09:44:00.040
nc71801936,2012-06-16 09:43:53.760,40.339666666666666,-123.69666666666667,20.86,1.84,PB.B046..EHZ,P,1.0,2012-06-16 09:44:02.850
nc71801936,2012-06-16 09:43:53.760,40.339666666666666,-123.69666666666667,20.86,1.84,PB.B047..EHZ,P,1.0,2012-06-16 09:44:01.990
nc71801936,2012-06-16 09:43:53.760,40.339666666666666,-123.69666666666667,20.86,1.84,PB.B049..EHZ,P,-1.0,2012-06-16 09:43:58.490
nc71801936,2012-06-16 09:43:53.760,40.339666666666666,-123.69666666666667,20.86,1.84,PB.B933..EHZ,P,1.0,2012-06-16 09:44:01.540
nc71801936,2012-06-16 09:43:53.760,40.339666666666666,-123.69666666666667,20.86,1.84,PB.B935..EHZ,P,-1.0,2012-06-16 09:43:59.000
nc71801936,2012-06-16 09:43:53.760,40.339666666666666,-123.69666666666667,20.86,1.84,TA.N02D..HHZ,P,1.0,2012-06-16 09:44:10.920
nc71803220,2012-06-28 03:42:54.630,39.93,-123.52916666666667,6.27,1.68,BK.GASB..HHZ,P,,2012-06-28 03:43:08.840
nc71803220,2012-06-28 03:42:54.630,39.93,-123.52916666666667,6.27,1.68,BK.WDC..HHZ,P,-1.0,2012-06-28 03:43:13.170
nc71803220,2012-06-28 03:42:54.630,39.93,-123.52916666666667,6.27,1.68,NC.GNA..EHZ,P,-1.0,2012-06-28 03:43:10.020
nc71803220,2012-06-28 03:42:54.630,39.93,-123.52916666666667,6.27,1.68,NC.GTC..EHZ,P,-1.0,2012-06-28 03:43:05.990
nc71803220,2012-06-28 03:42:54.630,39.93,-123.52916666666667,6.27,1.68,NC.GVV..EHZ,P,1.0,2012-06-28 03:43:08.910
nc71803220,2012-06-28 03:42:54.630,39.93,-123.52916666666667,6.27,1.68,NC.KBN..EHZ,P,1.0,2012-06-28 03:43:01.060
nc71803220,2012-06-28 03:42:54.630,39.93,-123.52916666666667,6.27,1.68,NC.KCPB..HHZ,P,-1.0,2012-06-28 03:43:00.630
nc71803220,2012-06-28 03:42:54.630,39.93,-123.52916666666667,6.27,1.68,NC.KCR..EHZ,P,-1.0,2012-06-28 03:43:07.180
nc71803220,2012-06-28 03:42:54.630,39.93,-123.52916666666667,6.27,1.68,NC.KCS..EHZ,P,1.0,2012-06-28 03:43:09.570
nc71803220,2012-06-28 03:42:54.630,39.93,-123.52916666666667,6.27,1.68,NC.KFP..EHZ,P,-1.0,2012-06-28 03:43:01.300
nc71803220,2012-06-28 03:42:54.630,39.93,-123.52916666666667,6.27,1.68,NC.KIP..EHZ,P,1.0,2012-06-28 03:42:58.000
nc71803220,2012-06-28 03:42:54.630,39.93,-123.52916666666667,6.27,1.68,NC.KJJ..EHZ,P,-1.0,2012-06-28 03:43:09.640
nc71803220,2012-06-28 03:42:54.630,39.93,-123.52916666666667,6.27,1.68,NC.KKP..EHZ,P,-1.0,2012-06-28 03:43:00.510
nc71803220,2012-06-28 03:42:54.630,39.93,-123.52916666666667,6.27,1.68,NC.KMR..HHZ,P,-1.0,2012-06-28 03:43:02.860
nc71803220,2012-06-28 03:42:54.630,39.93,-123.52916666666667,6.27,1.68,NC.KRK..EHZ,P,1.0,2012-06-28 03:43:04.590
nc71803220,2012-06-28 03:42:54.630,39.93,-123.52916666666667,6.27,1.68,NC.KSM..EHZ,P,1.0,2012-06-28 03:43:07.460
nc71803220,2012-06-28 03:42:54.630,39.93,-123.52916666666667,6.27,1.68,NC.LPG..EHZ,P,1.0,2012-06-28 03:43:09.200
nc71803220,2012-06-28 03:42:54.630,39.93,-123.52916666666667,6.27,1.68,NC.LRB..EHZ,P,1.0,2012-06-28 03:43:11.470
nc71803220,2012-06-28 03:42:54.630,39.93,-123.52916666666667,6.27,1.68,NC.LVR..EHZ,P,1.0,2012-06-28 03:43:08.740
nc71803220,2012-06-28 03:42:54.630,39.93,-123.52916666666667,6.27,1.68,PB.B045..EHZ,P,-1.0,2012-06-28 03:43:08.830
nc71803220,2012-06-28 03:42:54.630,39.93,-123.52916666666667,6.27,1.68,PB.B046..EHZ,P,-1.0,2012-06-28 03:43:10.600
nc71803220,2012-06-28 03:42:54.630,39.93,-123.52916666666667,6.27,1.68,PB.B047..EHZ,P,-1.0,2012-06-28 03:43:08.230
nc71803220,2012-06-28 03:42:54.630,39.93,-123.52916666666667,6.27,1.68,PB.B049..EHZ,P,1.0,2012-06-28 03:43:03.480
nc71803220,2012-06-28 03:42:54.630,39.93,-123.52916666666667,6.27,1.68,PB.B932..EHZ,P,-1.0,2012-06-28 03:43:08.900
nc71803220,2012-06-28 03:42:54.630,39.93,-123.52916666666667,6.27,1.68,PB.B933..EHZ,P,1.0,2012-06-28 03:43:03.220
nc71810766,2012-07-04 10:21:21.300,40.76883333333333,-124.88583333333334,-0.28,2.62,BK.GASB..HHZ,P,-1.0,2012-07-04 10:21:55.830
nc71810766,2012-07-04 10:21:21.300,40.76883333333333,-124.88583333333334,-0.28,2.62,BK.JCC..HHZ,P,1.0,2012-07-04 10:21:35.720
nc71810766,2012-07-04 10:21:21.300,40.76883333333333,-124.88583333333334,-0.28,2.62,BK.WDC..HHZ,P,-1.0,2012-07-04 10:21:52.660
nc71810766,2012-07-04 10:21:21.300,40.76883333333333,-124.88583333333334,-0.28,2.62,NC.GBB..EHZ,P,,2012-07-04 10:21:59.030
nc71810766,2012-07-04 10:21:21.300,40.76883333333333,-124.88583333333334,-0.28,2.62,NC.GHO..EHZ,P,1.0,2012-07-04 10:21:54.400
nc71810766,2012-07-04 10:21:21.300,40.76883333333333,-124.88583333333334,-0.28,2.62,NC.GNA..EHZ,P,,2012-07-04 10:21:52.120
nc71810766,2012-07-04 10:21:21.300,40.76883333333333,-124.88583333333334,-0.28,2.62,NC.GTC..EHZ,P,1.0,2012-07-04 10:21:50.720
nc71810766,2012-07-04 10:21:21.300,40.76883333333333,-124.88583333333334,-0.28,2.62,NC.GVV..EHZ,P,1.0,2012-07-04 10:21:55.520
nc71810766,2012-07-04 10:21:21.300,40.76883333333333,-124.88583333333334,-0.28,2.62,NC.KBN..EHZ,P,1.0,2012-07-04 10:21:49.990
nc71810766,2012-07-04 10:21:21.300,40.76883333333333,-124.88583333333334,-0.28,2.62,NC.KCR..EHZ,P,1.0,2012-07-04 10:21:39.730
nc71810766,2012-07-04 10:21:21.300,40.76883333333333,-124.88583333333334,-0.28,2.62,NC.KCS..EHZ,P,1.0,2012-07-04 10:21:42.630
nc71810766,2012-07-04 10:21:21.300,40.76883333333333,-124.88583333333334,-0.28,2.62,NC.KCT..HHZ,P,1.0,2012-07-04 10:21:34.530
nc71810766,2012-07-04 10:21:21.300,40.76883333333333,-124.88583333333334,-0.28,2.62,NC.KHBB..HHZ,P,1.0,2012-07-04 10:21:45.060
nc71810766,2012-07-04 10:21:21.300,40.76883333333333,-124.88583333333334,-0.28,2.62,NC.KHMB..HHZ,P,1.0,2012-07-04 10:21:39.450
nc71810766,2012-07-04 10:21:21.300,40.76883333333333,-124.88583333333334,-0.28,2.62,NC.KIP..EHZ,P,-1.0,2012-07-04 10:21:47.800
nc71810766,2012-07-04 10:21:21.300,40.76883333333333,-124.88583333333334,-0.28,2.62,NC.KKP..EHZ,P,1.0,2012-07-04 10:21:45.280
nc71810766,2012-07-04 10:21:21.300,40.76883333333333,-124.88583333333334,-0.28,2.62,NC.KMPB..HHZ,P,1.0,2012-07-04 10:21:36.760
nc71810766,2012-07-04 10:21:21.300,40.76883333333333,-124.88583333333334,-0.28,2.62,NC.KMR..HHZ,P,1.0,2012-07-04 10:21:42.430
nc71810766,2012-07-04 10:21:21.300,40.76883333333333,-124.88583333333334,-0.28,2.62,NC.KOM..EHZ,P,1.0,2012-07-04 10:21:43.500
nc71810766,2012-07-04 10:21:21.300,40.76883333333333,-124.88583333333334,-0.28,2.62,NC.KRK..EHZ,P,,2012-07-04 10:21:52.320
nc71810766,2012-07-04 10:21:21.300,40.76883333333333,-124.88583333333334,-0.28,2.62,NC.KRP..HHZ,P,1.0,2012-07-04 10:21:36.920
nc71810766,2012-07-04 10:21:21.300,40.76883333333333,-124.88583333333334,-0.28,2.62,NC.KSM..EHZ,P,1.0,2012-07-04 10:21:37.860
nc71810766,2012-07-04 10:21:21.300,40.76883333333333,-124.88583333333334,-0.28,2.62,NC.KSXB..HHZ,P,1.0,2012-07-04 10:21:43.740
nc71810766,2012-07-04 10:21:21.300,40.76883333333333,-124.88583333333334,-0.28,2.62,NC.LBP..EHZ,P,-1.0,2012-07-04 10:21:49.980
nc71810766,2012-07-04 10:21:21.300,40.76883333333333,-124.88583333333334,-0.28,2.62,NC.LGP..EHZ,P,-1.0,2012-07-04 10:21:49.030
nc71810766,2012-07-04 10:21:21.300,40.76883333333333,-124.88583333333334,-0.28,2.62,NC.LMI..EHZ,P,-1.0,2012-07-04 10:21:57.270
nc71810766,2012-07-04 10:21:21.300,40.76883333333333,-124.88583333333334,-0.28,2.62,NC.LPG..EHZ,P,-1.0,2012-07-04 10:21:53.040
nc71810766,2012-07-04 10:21:21.300,40.76883333333333,-124.88583333333334,-0.28,2.62,NC.LRB..EHZ,P,,2012-07-04 10:21:54.560
nc71810766,2012-07-04 10:21:21.300,40.76883333333333,-124.88583333333334,-0.28,2.62,NC.LRR..EHZ,P,-1.0,2012-07-04 10:22:02.840
nc71810766,2012-07-04 10:21:21.300,40.76883333333333,-124.88583333333334,-0.28,2.62,NC.LSF..EHZ,P,-1.0,2012-07-04 10:21:53.150
nc71810766,2012-07-04 10:21:21.300,40.76883333333333,-124.88583333333334,-0.28,2.62,NC.LSH..EHZ,P,-1.0,2012-07-04 10:21:58.240
nc71810766,2012-07-04 10:21:21.300,40.76883333333333,-124.88583333333334,-0.28,2.62,NC.LTC..EHZ,P,1.0,2012-07-04 10:21:58.280
nc71810766,2012-07-04 10:21:21.300,40.76883333333333,-124.88583333333334,-0.28,2.62,NC.LVR..EHZ,P,-1.0,2012-07-04 10:21:53.770
nc71810766,2012-07-04 10:21:21.300,40.76883333333333,-124.88583333333334,-0.28,2.62,NC.LWH..EHZ,P,-1.0,2012-07-04 10:21:59.000
nc71810766,2012-07-04 10:21:21.300,40.76883333333333,-124.88583333333334,-0.28,2.62,PB.B036..EHZ,P,,2012-07-04 10:21:55.720
nc71810766,2012-07-04 10:21:21.300,40.76883333333333,-124.88583333333334,-0.28,2.62,PB.B045..EHZ,P,1.0,2012-07-04 10:21:37.700
nc71810766,2012-07-04 10:21:21.300,40.76883333333333,-124.88583333333334,-0.28,2.62,PB.B046..EHZ,P,1.0,2012-07-04 10:21:35.720
nc71810766,2012-07-04 10:21:21.300,40.76883333333333,-124.88583333333334,-0.28,2.62,PB.B047..EHZ,P,1.0,2012-07-04 10:21:37.240
nc71810766,2012-07-04 10:21:21.300,40.76883333333333,-124.88583333333334,-0.28,2.62,PB.B049..EHZ,P,1.0,2012-07-04 10:21:40.850
nc71810766,2012-07-04 10:21:21.300,40.76883333333333,-124.88583333333334,-0.28,2.62,PB.B932..EHZ,P,1.0,2012-07-04 10:21:36.410
nc71810766,2012-07-04 10:21:21.300,40.76883333333333,-124.88583333333334,-0.28,2.62,PB.B933..EHZ,P,1.0,2012-07-04 10:21:40.800
nc71810766,2012-07-04 10:21:21.300,40.76883333333333,-124.88583333333334,-0.28,2.62,PB.B935..EHZ,P,1.0,2012-07-04 10:21:41.960
nc71811741,2012-07-06 02:20:50.970,39.81066666666667,-123.17733333333334,6.67,1.91,BK.GASB..HHZ,P,-1.0,2012-07-06 02:20:58.980
nc71811741,2012-07-06 02:20:50.970,39.81066666666667,-123.17733333333334,6.67,1.91,NC.GBB..EHZ,P,-1.0,2012-07-06 02:21:05.030
nc71811741,2012-07-06 02:20:50.970,39.81066666666667,-123.17733333333334,6.67,1.91,NC.GCK..EHZ,P,-1.0,2012-07-06 02:21:04.250
nc71811741,2012-07-06 02:20:50.970,39.81066666666667,-123.17733333333334,6.67,1.91,NC.GHL..EHZ,P,-1.0,2012-07-06 02:21:06.350
nc71811741,2012-07-06 02:20:50.970,39.81066666666667,-123.17733333333334,6.67,1.91,NC.GMK..EHZ,P,-1.0,2012-07-06 02:21:09.480
nc71811741,2012-07-06 02:20:50.970,39.81066666666667,-123.17733333333334,6.67,1.91,NC.GNA..EHZ,P,1.0,2012-07-06 02:21:05.290
nc71811741,2012-07-06 02:20:50.970,39.81066666666667,-123.17733333333334,6.67,1.91,NC.GTC..EHZ,P,1.0,2012-07-06 02:21:01.140
nc71811741,2012-07-06 02:20:50.970,39.81066666666667,-123.17733333333334,6.67,1.91,NC.GVV..EHZ,P,-1.0,2012-07-06 02:20:59.110
nc71811741,2012-07-06 02:20:50.970,39.81066666666667,-123.17733333333334,6.67,1.91,NC.GWR..EHZ,P,,2012-07-06 02:21:03.360
nc71811741,2012-07-06 02:20:50.970,39.81066666666667,-123.17733333333334,6.67,1.91,NC.KBN..EHZ,P,1.0,2012-07-06 02:20:53.460
nc71811741,2012-07-06 02:20:50.970,39.81066666666667,-123.17733333333334,6.67,1.91,NC.KCPB..HHZ,P,1.0,2012-07-06 02:20:57.950
nc71811741,2012-07-06 02:20:50.970,39.81066666666667,-123.17733333333334,6.67,1.91,NC.KCR..EHZ,P,-1.0,2012-07-06 02:21:06.610
nc71811741,2012-07-06 02:20:50.970,39.81066666666667,-123.17733333333334,6.67,1.91,NC.KFP..EHZ,P,1.0,2012-07-06 02:20:56.230
nc71811741,2012-07-06 02:20:50.970,39.81066666666667,-123.17733333333334,6.67,1.91,NC.KIP..EHZ,P,-1.0,2012-07-06 02:20:55.700
nc71811741,2012-07-06 02:20:50.970,39.81066666666667,-123.17733333333334,6.67,1.91,NC.KKP..EHZ,P,-1.0,2012-07-06 02:20:59.650
nc71811741,2012-07-06 02:20:50.970,39.81066666666667,-123.17733333333334,6.67,1.91,NC.KMR..HHZ,P,1.0,2012-07-06 02:21:02.170
nc71811741,2012-07-06 02:20:50.970,39.81066666666667,-123.17733333333334,6.67,1.91,NC.KRK..EHZ,P,-1.0,2012-07-06 02:20:56.270
nc71811741,2012-07-06 02:20:50.970,39.81066666666667,-123.17733333333334,6.67,1.91,NC.KSM..EHZ,P,1.0,2012-07-06 02:21:06.770
nc71811741,2012-07-06 02:20:50.970,39.81066666666667,-123.17733333333334,6.67,1.91,NC.LBP..EHZ,P,1.0,2012-07-06 02:21:02.020
nc71811741,2012-07-06 02:20:50.970,39.81066666666667,-123.17733333333334,6.67,1.91,NC.LPG..EHZ,P,1.0,2012-07-06 02:21:01.270
nc71811741,2012-07-06 02:20:50.970,39.81066666666667,-123.17733333333334,6.67,1.91,NC.LRB..EHZ,P,1.0,2012-07-06 02:21:03.170
nc71811741,2012-07-06 02:20:50.970,39.81066666666667,-123.17733333333334,6.67,1.91,NC.LVR..EHZ,P,1.0,2012-07-06 02:21:00.060
nc71811741,2012-07-06 02:20:50.970,39.81066666666667,-123.17733333333334,6.67,1.91,PB.B049..EHZ,P,-1.0,2012-07-06 02:21:03.900
nc71811761,2012-07-06 03:18:06.060,39.81016666666667,-123.17733333333334,6.98,1.72,BK.GASB..HHZ,P,-1.0,2012-07-06 03:18:14.050
nc71811761,2012-07-06 03:18:06.060,39.81016666666667,-123.17733333333334,6.98,1.72,NC.GNA..EHZ,P,,2012-07-06 03:18:20.340
nc71811761,2012-07-06 03:18:06.060,39.81016666666667,-123.17733333333334,6.98,1.72,NC.GTC..EHZ,P,1.0,2012-07-06 03:18:16.190
nc71811761,2012-07-06 03:18:06.060,39.81016666666667,-123.17733333333334,6.98,1.72,NC.GVV..EHZ,P,1.0,2012-07-06 03:18:14.170
nc71811761,2012-07-06 03:18:06.060,39.81016666666667,-123.17733333333334,6.98,1.72,NC.KBN..EHZ,P,1.0,2012-07-06 03:18:08.580
nc71811761,2012-07-06 03:18:06.060,39.81016666666667,-123.17733333333334,6.98,1.72,NC.KCPB..HHZ,P,1.0,2012-07-06 03:18:13.060
nc71811761,2012-07-06 03:18:06.060,39.81016666666667,-123.17733333333334,6.98,1.72,NC.KFP..EHZ,P,1.0,2012-07-06 03:18:11.290
nc71811761,2012-07-06 03:18:06.060,39.81016666666667,-123.17733333333334,6.98,1.72,NC.KIP..EHZ,P,,2012-07-06 03:18:10.830
nc71811761,2012-07-06 03:18:06.060,39.81016666666667,-123.17733333333334,6.98,1.72,NC.KKP..EHZ,P,-1.0,2012-07-06 03:18:14.740
nc71811761,2012-07-06 03:18:06.060,39.81016666666667,-123.17733333333334,6.98,1.72,NC.KMR..HHZ,P,-1.0,2012-07-06 03:18:17.500
nc71811761,2012-07-06 03:18:06.060,39.81016666666667,-123.17733333333334,6.98,1.72,NC.KRK..EHZ,P,-1.0,2012-07-06 03:18:11.330
nc71811761,2012-07-06 03:18:06.060,39.81016666666667,-123.17733333333334,6.98,1.72,NC.KSM..EHZ,P,1.0,2012-07-06 03:18:22.020
nc71811761,2012-07-06 03:18:06.060,39.81016666666667,-123.17733333333334,6.98,1.72,NC.LBP..EHZ,P,1.0,2012-07-06 03:18:17.160
nc71811761,2012-07-06 03:18:06.060,39.81016666666667,-123.17733333333334,6.98,1.72,NC.LGP..EHZ,P,1.0,2012-07-06 03:18:27.590
nc71811761,2012-07-06 03:18:06.060,39.81016666666667,-123.17733333333334,6.98,1.72,NC.LPG..EHZ,P,1.0,2012-07-06 03:18:16.380
nc71811761,2012-07-06 03:18:06.060,39.81016666666667,-123.17733333333334,6.98,1.72,NC.LVR..EHZ,P,1.0,2012-07-06 03:18:15.200
nc71812821,2012-07-08 09:06:26.700,40.675666666666665,-123.6165,21.85,1.56,BK.JCC..HHZ,P,1.0,2012-07-08 09:06:34.000
nc71812821,2012-07-08 09:06:26.700,40.675666666666665,-123.6165,21.85,1.56,BK.WDC..HHZ,P,-1.0,2012-07-08 09:06:41.700
nc71812821,2012-07-08 09:06:26.700,40.675666666666665,-123.6165,21.85,1.56,NC.KCR..EHZ,P,-1.0,2012-07-08 09:06:33.830
nc71812821,2012-07-08 09:06:26.700,40.675666666666665,-123.6165,21.85,1.56,NC.KCS..EHZ,P,-1.0,2012-07-08 09:06:32.310
nc71812821,2012-07-08 09:06:26.700,40.675666666666665,-123.6165,21.85,1.56,NC.KHBB..HHZ,P,1.0,2012-07-08 09:06:33.810
nc71812821,2012-07-08 09:06:26.700,40.675666666666665,-123.6165,21.85,1.56,NC.KHMB..HHZ,P,1.0,2012-07-08 09:06:32.620
nc71812821,2012-07-08 09:06:26.700,40.675666666666665,-123.6165,21.85,1.56,NC.KKP..EHZ,P,-1.0,2012-07-08 09:06:37.750
nc71812821,2012-07-08 09:06:26.700,40.675666666666665,-123.6165,21.85,1.56,NC.KMR..HHZ,P,-1.0,2012-07-08 09:06:36.550
nc71812821,2012-07-08 09:06:26.700,40.675666666666665,-123.6165,21.85,1.56,NC.KOM..EHZ,P,1.0,2012-07-08 09:06:38.090
nc71812821,2012-07-08 09:06:26.700,40.675666666666665,-123.6165,21.85,1.56,NC.LBP..EHZ,P,-1.0,2012-07-08 09:06:39.420
nc71812821,2012-07-08 09:06:26.700,40.675666666666665,-123.6165,21.85,1.56,NC.LGP..EHZ,P,1.0,2012-07-08 09:06:38.750
nc71812821,2012-07-08 09:06:26.700,40.675666666666665,-123.6165,21.85,1.56,PB.B045..EHZ,P,1.0,2012-07-08 09:06:34.810
nc71812821,2012-07-08 09:06:26.700,40.675666666666665,-123.6165,21.85,1.56,PB.B935..EHZ,P,-1.0,2012-07-08 09:06:32.530
nc71812821,2012-07-08 09:06:26.700,40.675666666666665,-123.6165,21.85,1.56,TA.N02D..HHZ,P,,2012-07-08 09:06:40.460
nc71814421,2012-07-10 08:22:30.500,41.019,-123.68066666666667,22.91,1.95,BK.JCC..HHZ,P,1.0,2012-07-10 08:22:37.490
nc71814421,2012-07-10 08:22:30.500,41.019,-123.68066666666667,22.91,1.95,BK.WDC..HHZ,P,-1.0,2012-07-10 08:22:47.720
nc71814421,2012-07-10 08:22:30.500,41.019,-123.68066666666667,22.91,1.95,NC.KCR..EHZ,P,-1.0,2012-07-10 08:22:42.000
nc71814421,2012-07-10 08:22:30.500,41.019,-123.68066666666667,22.91,1.95,NC.KCS..EHZ,P,1.0,2012-07-10 08:22:40.720
nc71814421,2012-07-10 08:22:30.500,41.019,-123.68066666666667,22.91,1.95,NC.KHBB..HHZ,P,1.0,2012-07-10 08:22:40.280
nc71814421,2012-07-10 08:22:30.500,41.019,-123.68066666666667,22.91,1.95,NC.KHMB..HHZ,P,-1.0,2012-07-10 08:22:35.660
nc71814421,2012-07-10 08:22:30.500,41.019,-123.68066666666667,22.91,1.95,NC.KOM..EHZ,P,1.0,2012-07-10 08:22:37.590
nc71814421,2012-07-10 08:22:30.500,41.019,-123.68066666666667,22.91,1.95,NC.KRP..HHZ,P,1.0,2012-07-10 08:22:37.170
nc71814421,2012-07-10 08:22:30.500,41.019,-123.68066666666667,22.91,1.95,NC.KSM..EHZ,P,,2012-07-10 08:22:46.220
nc71814421,2012-07-10 08:22:30.500,41.019,-123.68066666666667,22.91,1.95,NC.KSXB..HHZ,P,-1.0,2012-07-10 08:22:45.000
nc71814421,2012-07-10 08:22:30.500,41.019,-123.68066666666667,22.91,1.95,NC.LBK..EHZ,P,,2012-07-10 08:22:44.400
nc71814421,2012-07-10 08:22:30.500,41.019,-123.68066666666667,22.91,1.95,NC.LBP..EHZ,P,,2012-07-10 08:22:47.570
nc71814421,2012-07-10 08:22:30.500,41.019,-123.68066666666667,22.91,1.95,NC.LGP..EHZ,P,1.0,2012-07-10 08:22:42.680
nc71814421,2012-07-10 08:22:30.500,41.019,-123.68066666666667,22.91,1.95,NC.LSF..EHZ,P,-1.0,2012-07-10 08:22:47.550
nc71814421,2012-07-10 08:22:30.500,41.019,-123.68066666666667,22.91,1.95,NC.LSH..EHZ,P,-1.0,2012-07-10 08:22:52.620
nc71814421,2012-07-10 08:22:30.500,41.019,-123.68066666666667,22.91,1.95,NC.LSR..EHZ,P,-1.0,2012-07-10 08:22:49.680
nc71814421,2012-07-10 08:22:30.500,41.019,-123.68066666666667,22.91,1.95,PB.B045..EHZ,P,1.0,2012-07-10 08:22:42.150
nc71814421,2012-07-10 08:22:30.500,41.019,-123.68066666666667,22.91,1.95,PB.B046..EHZ,P,1.0,2012-07-10 08:22:44.780
nc71814421,2012-07-10 08:22:30.500,41.019,-123.68066666666667,22.91,1.95,PB.B047..EHZ,P,1.0,2012-07-10 08:22:45.130
nc71814421,2012-07-10 08:22:30.500,41.019,-123.68066666666667,22.91,1.95,PB.B932..EHZ,P,,2012-07-10 08:22:44.850
nc71814421,2012-07-10 08:22:30.500,41.019,-123.68066666666667,22.91,1.95,PB.B933..EHZ,P,,2012-07-10 08:22:47.150
nc71814421,2012-07-10 08:22:30.500,41.019,-123.68066666666667,22.91,1.95,PB.B935..EHZ,P,1.0,2012-07-10 08:22:41.240
nc71814421,2012-07-10 08:22:30.500,41.019,-123.68066666666667,22.91,1.95,TA.M02C..HHZ,P,1.0,2012-07-10 08:22:43.780
nc71814421,2012-07-10 08:22:30.500,41.019,-123.68066666666667,22.91,1.95,TA.N02D..HHZ,P,1.0,2012-07-10 08:22:43.870
nc71815591,2012-07-12 12:27:09.970,40.245666666666665,-124.17283333333333,9.35,2.46,BK.JCC..HHZ,P,1.0,2012-07-12 12:27:21.710
nc71815591,2012-07-12 12:27:09.970,40.245666666666665,-124.17283333333333,9.35,2.46,NC.GNA..EHZ,P,1.0,2012-07-12 12:27:30.760
