event_id,etime,elat,elon,edep,emag,station_id,phase_type,phase_polarity,phase_time
nc71800566,2012-06-13 13:25:03.460,40.870666666666665,-123.46833333333333,22.31,3.4,NC.GNA..EHZ,P,,2012-06-13 13:25:29.290
nc71800566,2012-06-13 13:25:03.460,40.870666666666665,-123.46833333333333,22.31,3.4,NC.GTC..EHZ,P,-1.0,2012-06-13 13:25:26.600
nc71800566,2012-06-13 13:25:03.460,40.870666666666665,-123.46833333333333,22.31,3.4,NC.GVV..EHZ,P,-1.0,2012-06-13 13:25:24.730
nc71800566,2012-06-13 13:25:03.460,40.870666666666665,-123.46833333333333,22.31,3.4,NC.KBN..EHZ,P,-1.0,2012-06-13 13:25:20.880
nc71800566,2012-06-13 13:25:03.460,40.870666666666665,-123.46833333333333,22.31,3.4,NC.KBO..HHZ,P,-1.0,2012-06-13 13:25:27.310
nc71800566,2012-06-13 13:25:03.460,40.870666666666665,-123.46833333333333,22.31,3.4,NC.KCR..EHZ,P,1.0,2012-06-13 13:25:13.820
nc71800566,2012-06-13 13:25:03.460,40.870666666666665,-123.46833333333333,22.31,3.4,NC.KCS..EHZ,P,-1.0,2012-06-13 13:25:11.150
nc71800566,2012-06-13 13:25:03.460,40.870666666666665,-123.46833333333333,22.31,3.4,NC.KCT..HHZ,P,-1.0,2012-06-13 13:25:17.050
nc71800566,2012-06-13 13:25:03.460,40.870666666666665,-123.46833333333333,22.31,3.4,NC.KFP..EHZ,P,1.0,2012-06-13 13:25:23.690
nc71800566,2012-06-13 13:25:03.460,40.870666666666665,-123.46833333333333,22.31,3.4,NC.KHBB..HHZ,P,-1.0,2012-06-13 13:25:10.190
nc71800566,2012-06-13 13:25:03.460,40.870666666666665,-123.46833333333333,22.31,3.4,NC.KHMB..HHZ,P,1.0,2012-06-13 13:25:09.100
nc71800566,2012-06-13 13:25:03.460,40.870666666666665,-123.46833333333333,22.31,3.4,NC.KIP..EHZ,P,1.0,2012-06-13 13:25:21.520
nc71800566,2012-06-13 13:25:03.460,40.870666666666665,-123.46833333333333,22.31,3.4,NC.KKP..EHZ,P,1.0,2012-06-13 13:25:17.080
nc71800566,2012-06-13 13:25:03.460,40.870666666666665,-123.46833333333333,22.31,3.4,NC.KMPB..HHZ,P,1.0,2012-06-13 13:25:15.790
nc71800566,2012-06-13 13:25:03.460,40.870666666666665,-123.46833333333333,22.31,3.4,NC.KMR..HHZ,P,1.0,2012-06-13 13:25:16.200
nc71800566,2012-06-13 13:25:03.460,40.870666666666665,-123.46833333333333,22.31,3.4,NC.KOM..EHZ,P,1.0,2012-06-13 13:25:11.680
nc71800566,2012-06-13 13:25:03.460,40.870666666666665,-123.46833333333333,22.31,3.4,NC.KRK..EHZ,P,,2012-06-13 13:25:24.990
nc71800566,2012-06-13 13:25:03.460,40.870666666666665,-123.46833333333333,22.31,3.4,NC.KRP..HHZ,P,1.0,2012-06-13 13:25:13.410
nc71800566,2012-06-13 13:25:03.460,40.870666666666665,-123.46833333333333,22.31,3.4,NC.KSM..EHZ,P,1.0,2012-06-13 13:25:18.450
nc71800566,2012-06-13 13:25:03.460,40.870666666666665,-123.46833333333333,22.31,3.4,NC.KSXB..HHZ,P,1.0,2012-06-13 13:25:20.690
nc71800566,2012-06-13 13:25:03.460,40.870666666666665,-123.46833333333333,22.31,3.4,NC.KTR..EHZ,P,-1.0,2012-06-13 13:25:21.200
nc71800566,2012-06-13 13:25:03.460,40.870666666666665,-123.46833333333333,22.31,3.4,NC.LAMB..EHZ,P,-1.0,2012-06-13 13:25:20.590
nc71800566,2012-06-13 13:25:03.460,40.870666666666665,-123.46833333333333,22.31,3.4,NC.LAS..EHZ,P,,2012-06-13 13:25:30.390
nc71800566,2012-06-13 13:25:03.460,40.870666666666665,-123.46833333333333,22.31,3.4,NC.LBC..EHZ,P,,2012-06-13 13:25:29.790
nc71800566,2012-06-13 13:25:03.460,40.870666666666665,-123.46833333333333,22.31,3.4,NC.LBF..EHZ,P,1.0,2012-06-13 13:25:26.370
nc71800566,2012-06-13 13:25:03.460,40.870666666666665,-123.46833333333333,22.31,3.4,NC.LBK..EHZ,P,1.0,2012-06-13 13:25:15.310
nc71800566,2012-06-13 13:25:03.460,40.870666666666665,-123.46833333333333,22.31,3.4,NC.LBO..EHZ,P,1.0,2012-06-13 13:25:23.170
nc71800566,2012-06-13 13:25:03.460,40.870666666666665,-123.46833333333333,22.31,3.4,NC.LBP..EHZ,P,1.0,2012-06-13 13:25:16.600
nc71800566,2012-06-13 13:25:03.460,40.870666666666665,-123.46833333333333,22.31,3.4,NC.LCM..EHZ,P,,2012-06-13 13:25:30.110
nc71800566,2012-06-13 13:25:03.460,40.870666666666665,-123.46833333333333,22.31,3.4,NC.LCSB..EHZ,P,1.0,2012-06-13 13:25:20.830
nc71800566,2012-06-13 13:25:03.460,40.870666666666665,-123.46833333333333,22.31,3.4,NC.LDB..EHZ,P,-1.0,2012-06-13 13:25:25.900
nc71800566,2012-06-13 13:25:03.460,40.870666666666665,-123.46833333333333,22.31,3.4,NC.LDH..HHZ,P,1.0,2012-06-13 13:25:27.820
nc71800566,2012-06-13 13:25:03.460,40.870666666666665,-123.46833333333333,22.31,3.4,NC.LEL..EHZ,P,1.0,2012-06-13 13:25:28.530
nc71800566,2012-06-13 13:25:03.460,40.870666666666665,-123.46833333333333,22.31,3.4,NC.LGB..EHZ,P,1.0,2012-06-13 13:25:22.500
nc71800566,2012-06-13 13:25:03.460,40.870666666666665,-123.46833333333333,22.31,3.4,NC.LGM..EHZ,P,,2012-06-13 13:25:28.010
nc71800566,2012-06-13 13:25:03.460,40.870666666666665,-123.46833333333333,22.31,3.4,NC.LGP..EHZ,P,1.0,2012-06-13 13:25:12.890
nc71800566,2012-06-13 13:25:03.460,40.870666666666665,-123.46833333333333,22.31,3.4,NC.LMC..HHZ,P,1.0,2012-06-13 13:25:22.700
nc71800566,2012-06-13 13:25:03.460,40.870666666666665,-123.46833333333333,22.31,3.4,NC.LME..EHZ,P,-1.0,2012-06-13 13:25:28.650
nc71800566,2012-06-13 13:25:03.460,40.870666666666665,-123.46833333333333,22.31,3.4,NC.LMH..EHZ,P,,2012-06-13 13:25:30.510
nc71800566,2012-06-13 13:25:03.460,40.870666666666665,-123.46833333333333,22.31,3.4,NC.LMI..EHZ,P,1.0,2012-06-13 13:25:22.040
nc71800566,2012-06-13 13:25:03.460,40.870666666666665,-123.46833333333333,22.31,3.4,NC.LMP..EHZ,P,-1.0,2012-06-13 13:25:24.620
nc71800566,2012-06-13 13:25:03.460,40.870666666666665,-123.46833333333333,22.31,3.4,NC.LPG..EHZ,P,1.0,2012-06-13 13:25:20.060
nc71800566,2012-06-13 13:25:03.460,40.870666666666665,-123.46833333333333,22.31,3.4,NC.LRB..EHZ,P,1.0,2012-06-13 13:25:21.520
nc71800566,2012-06-13 13:25:03.460,40.870666666666665,-123.46833333333333,22.31,3.4,NC.LRD..EHZ,P,1.0,2012-06-13 13:25:29.650
nc71800566,2012-06-13 13:25:03.460,40.870666666666665,-123.46833333333333,22.31,3.4,NC.LRR..EHZ,P,-1.0,2012-06-13 13:25:27.640
nc71800566,2012-06-13 13:25:03.460,40.870666666666665,-123.46833333333333,22.31,3.4,NC.LSF..EHZ,P,1.0,2012-06-13 13:25:17.250
nc71800566,2012-06-13 13:25:03.460,40.870666666666665,-123.46833333333333,22.31,3.4,NC.LSH..EHZ,P,1.0,2012-06-13 13:25:22.240
nc71800566,2012-06-13 13:25:03.460,40.870666666666665,-123.46833333333333,22.31,3.4,NC.LSI..EHZ,P,-1.0,2012-06-13 13:25:30.240
nc71800566,2012-06-13 13:25:03.460,40.870666666666665,-123.46833333333333,22.31,3.4,NC.LSR..EHZ,P,1.0,2012-06-13 13:25:19.980
nc71800566,2012-06-13 13:25:03.460,40.870666666666665,-123.46833333333333,22.31,3.4,NC.LTC..EHZ,P,1.0,2012-06-13 13:25:23.820
nc71800566,2012-06-13 13:25:03.460,40.870666666666665,-123.46833333333333,22.31,3.4,NC.LTI..EHZ,P,1.0,2012-06-13 13:25:28.620
nc71800566,2012-06-13 13:25:03.460,40.870666666666665,-123.46833333333333,22.31,3.4,NC.LVR..EHZ,P,1.0,2012-06-13 13:25:21.290
nc71800566,2012-06-13 13:25:03.460,40.870666666666665,-123.46833333333333,22.31,3.4,NC.LWH..EHZ,P,1.0,2012-06-13 13:25:23.460
nc71800566,2012-06-13 13:25:03.460,40.870666666666665,-123.46833333333333,22.31,3.4,NC.OCR..EHZ,P,,2012-06-13 13:25:29.190
nc71800566,2012-06-13 13:25:03.460,40.870666666666665,-123.46833333333333,22.31,3.4,NC.OGO..EHZ,P,,2012-06-13 13:25:33.250
nc71800566,2012-06-13 13:25:03.460,40.870666666666665,-123.46833333333333,22.31,3.4,NC.OWY..EHZ,P,,2012-06-13 13:25:35.860
nc71800566,2012-06-13 13:25:03.460,40.870666666666665,-123.46833333333333,22.31,3.4,NN.GZY..EHZ,P,1.0,2012-06-13 13:25:39.960
nc71800566,2012-06-13 13:25:03.460,40.870666666666665,-123.46833333333333,22.31,3.4,PB.B035..EHZ,P,-1.0,2012-06-13 13:25:29.530
nc71800566,2012-06-13 13:25:03.460,40.870666666666665,-123.46833333333333,22.31,3.4,PB.B036..EHZ,P,,2012-06-13 13:25:29.610
nc71800566,2012-06-13 13:25:03.460,40.870666666666665,-123.46833333333333,22.31,3.4,PB.B039..EHZ,P,1.0,2012-06-13 13:25:19.970
nc71800566,2012-06-13 13:25:03.460,40.870666666666665,-123.46833333333333,22.31,3.4,PB.B040..EHZ,P,-1.0,2012-06-13 13:25:24.690
nc71800566,2012-06-13 13:25:03.460,40.870666666666665,-123.46833333333333,22.31,3.4,PB.B045..EHZ,P,1.0,2012-06-13 13:25:14.660
nc71800566,2012-06-13 13:25:03.460,40.870666666666665,-123.46833333333333,22.31,3.4,PB.B046..EHZ,P,1.0,2012-06-13 13:25:17.760
nc71800566,2012-06-13 13:25:03.460,40.870666666666665,-123.46833333333333,22.31,3.4,PB.B047..EHZ,P,1.0,2012-06-13 13:25:17.680
nc71800566,2012-06-13 13:25:03.460,40.870666666666665,-123.46833333333333,22.31,3.4,PB.B049..EHZ,P,-1.0,2012-06-13 13:25:15.990
nc71800566,2012-06-13 13:25:03.460,40.870666666666665,-123.46833333333333,22.31,3.4,PB.B932..EHZ,P,1.0,2012-06-13 13:25:17.650
nc71800566,2012-06-13 13:25:03.460,40.870666666666665,-123.46833333333333,22.31,3.4,PB.B933..EHZ,P,1.0,2012-06-13 13:25:18.900
nc71800566,2012-06-13 13:25:03.460,40.870666666666665,-123.46833333333333,22.31,3.4,PB.B935..EHZ,P,-1.0,2012-06-13 13:25:12.010
nc71800566,2012-06-13 13:25:03.460,40.870666666666665,-123.46833333333333,22.31,3.4,TA.L02D..HHZ,P,1.0,2012-06-13 13:25:24.660
nc71800566,2012-06-13 13:25:03.460,40.870666666666665,-123.46833333333333,22.31,3.4,TA.M02C..HHZ,P,1.0,2012-06-13 13:25:15.880
nc71800566,2012-06-13 13:25:03.460,40.870666666666665,-123.46833333333333,22.31,3.4,TA.M04C..HHZ,P,-1.0,2012-06-13 13:25:29.130
nc71800566,2012-06-13 13:25:03.460,40.870666666666665,-123.46833333333333,22.31,3.4,TA.N02D..HHZ,P,1.0,2012-06-13 13:25:14.340
nc71800566,2012-06-13 13:25:03.460,40.870666666666665,-123.46833333333333,22.31,3.4,WR.ORV..EHZ,P,1.0,2012-06-13 13:25:33.770
nc71800566,2012-06-13 13:25:03.460,40.870666666666665,-123.46833333333333,22.31,3.4,WR.PAM..EHZ,P,-1.0,2012-06-13 13:25:35.920
nc71800606,2012-06-13 15:47:16.310,40.870333333333335,-123.4735,22.12,2.56,BK.JCC..HHZ,P,1.0,2012-06-13 15:47:25.110
nc71800606,2012-06-13 15:47:16.310,40.870333333333335,-123.4735,22.12,2.56,BK.WDC..HHZ,P,1.0,2012-06-13 15:47:30.260
nc71800606,2012-06-13 15:47:16.310,40.870333333333335,-123.4735,22.12,2.56,BK.YBH..HHZ,P,,2012-06-13 15:47:34.330
nc71800606,2012-06-13 15:47:16.310,40.870333333333335,-123.4735,22.12,2.56,NC.GVV..EHZ,P,,2012-06-13 15:47:38.880
nc71800606,2012-06-13 15:47:16.310,40.870333333333335,-123.4735,22.12,2.56,NC.KCR..EHZ,P,1.0,2012-06-13 15:47:26.760
nc71800606,2012-06-13 15:47:16.310,40.870333333333335,-123.4735,22.12,2.56,NC.KCS..EHZ,P,-1.0,2012-06-13 15:47:24.110
nc71800606,2012-06-13 15:47:16.310,40.870333333333335,-123.4735,22.12,2.56,NC.KHBB..HHZ,P,1.0,2012-06-13 15:47:23.120
nc71800606,2012-06-13 15:47:16.310,40.870333333333335,-123.4735,22.12,2.56,NC.KHMB..HHZ,P,-1.0,2012-06-13 15:47:22.070
nc71800606,2012-06-13 15:47:16.310,40.870333333333335,-123.4735,22.12,2.56,NC.KIP..EHZ,P,-1.0,2012-06-13 15:47:34.460
nc71800606,2012-06-13 15:47:16.310,40.870333333333335,-123.4735,22.12,2.56,NC.KMPB..HHZ,P,1.0,2012-06-13 15:47:28.740
nc71800606,2012-06-13 15:47:16.310,40.870333333333335,-123.4735,22.12,2.56,NC.KOM..EHZ,P,-1.0,2012-06-13 15:47:24.640
nc71800606,2012-06-13 15:47:16.310,40.870333333333335,-123.4735,22.12,2.56,NC.KRP..HHZ,P,1.0,2012-06-13 15:47:26.340
nc71800606,2012-06-13 15:47:16.310,40.870333333333335,-123.4735,22.12,2.56,NC.KSM..EHZ,P,-1.0,2012-06-13 15:47:31.480
nc71800606,2012-06-13 15:47:16.310,40.870333333333335,-123.4735,22.12,2.56,NC.KSXB..HHZ,P,,2012-06-13 15:47:33.590
nc71800606,2012-06-13 15:47:16.310,40.870333333333335,-123.4735,22.12,2.56,NC.LAMB..EHZ,P,-1.0,2012-06-13 15:47:33.500
nc71800606,2012-06-13 15:47:16.310,40.870333333333335,-123.4735,22.12,2.56,NC.LBF..EHZ,P,-1.0,2012-06-13 15:47:39.650
nc71800606,2012-06-13 15:47:16.310,40.870333333333335,-123.4735,22.12,2.56,NC.LBO..EHZ,P,1.0,2012-06-13 15:47:36.420
nc71800606,2012-06-13 15:47:16.310,40.870333333333335,-123.4735,22.12,2.56,NC.LBP..EHZ,P,,2012-06-13 15:47:29.570
nc71800606,2012-06-13 15:47:16.310,40.870333333333335,-123.4735,22.12,2.56,NC.LGB..EHZ,P,-1.0,2012-06-13 15:47:35.560
nc71800606,2012-06-13 15:47:16.310,40.870333333333335,-123.4735,22.12,2.56,NC.LGM..EHZ,P,-1.0,2012-06-13 15:47:42.090
nc71800606,2012-06-13 15:47:16.310,40.870333333333335,-123.4735,22.12,2.56,NC.LGP..EHZ,P,1.0,2012-06-13 15:47:25.850
nc71800606,2012-06-13 15:47:16.310,40.870333333333335,-123.4735,22.12,2.56,NC.LMC..HHZ,P,1.0,2012-06-13 15:47:35.890
nc71800606,2012-06-13 15:47:16.310,40.870333333333335,-123.4735,22.12,2.56,NC.LMI..EHZ,P,1.0,2012-06-13 15:47:35.580
nc71800606,2012-06-13 15:47:16.310,40.870333333333335,-123.4735,22.12,2.56,NC.LMP..EHZ,P,-1.0,2012-06-13 15:47:37.600
nc71800606,2012-06-13 15:47:16.310,40.870333333333335,-123.4735,22.12,2.56,NC.LPG..EHZ,P,-1.0,2012-06-13 15:47:33.530
nc71800606,2012-06-13 15:47:16.310,40.870333333333335,-123.4735,22.12,2.56,NC.LRB..EHZ,P,-1.0,2012-06-13 15:47:35.040
nc71800606,2012-06-13 15:47:16.310,40.870333333333335,-123.4735,22.12,2.56,NC.LSF..EHZ,P,1.0,2012-06-13 15:47:30.200
nc71800606,2012-06-13 15:47:16.310,40.870333333333335,-123.4735,22.12,2.56,NC.LSH..EHZ,P,,2012-06-13 15:47:35.480
nc71800606,2012-06-13 15:47:16.310,40.870333333333335,-123.4735,22.12,2.56,NC.LSR..EHZ,P,-1.0,2012-06-13 15:47:33.020
nc71800606,2012-06-13 15:47:16.310,40.870333333333335,-123.4735,22.12,2.56,NC.LWH..EHZ,P,-1.0,2012-06-13 15:47:36.960
nc71800606,2012-06-13 15:47:16.310,40.870333333333335,-123.4735,22.12,2.56,PB.B039..EHZ,P,-1.0,2012-06-13 15:47:32.960
nc71800606,2012-06-13 15:47:16.310,40.870333333333335,-123.4735,22.12,2.56,PB.B040..EHZ,P,1.0,2012-06-13 15:47:37.920
nc71800606,2012-06-13 15:47:16.310,40.870333333333335,-123.4735,22.12,2.56,PB.B045..EHZ,P,1.0,2012-06-13 15:47:27.600
nc71800606,2012-06-13 15:47:16.310,40.870333333333335,-123.4735,22.12,2.56,PB.B046..EHZ,P,1.0,2012-06-13 15:47:30.720
nc71800606,2012-06-13 15:47:16.310,40.870333333333335,-123.4735,22.12,2.56,PB.B047..EHZ,P,1.0,2012-06-13 15:47:30.630
nc71800606,2012-06-13 15:47:16.310,40.870333333333335,-123.4735,22.12,2.56,PB.B049..EHZ,P,-1.0,2012-06-13 15:47:28.990
nc71800606,2012-06-13 15:47:16.310,40.870333333333335,-123.4735,22.12,2.56,PB.B932..EHZ,P,1.0,2012-06-13 15:47:30.570
nc71800606,2012-06-13 15:47:16.310,40.870333333333335,-123.4735,22.12,2.56,PB.B933..EHZ,P,1.0,2012-06-13 15:47:31.860
nc71800606,2012-06-13 15:47:16.310,40.870333333333335,-123.4735,22.12,2.56,PB.B935..EHZ,P,-1.0,2012-06-13 15:47:24.950
nc71800606,2012-06-13 15:47:16.310,40.870333333333335,-123.4735,22.12,2.56,TA.M02C..HHZ,P,1.0,2012-06-13 15:47:28.870
nc71800606,2012-06-13 15:47:16.310,40.870333333333335,-123.4735,22.12,2.56,TA.N02D..HHZ,P,1.0,2012-06-13 15:47:27.240
nc71800621,2012-06-13 16:22:57.470,40.87733333333333,-123.46216666666666,22.37,2.02,BK.JCC..HHZ,P,1.0,2012-06-13 16:23:06.350
nc71800621,2012-06-13 16:22:57.470,40.87733333333333,-123.46216666666666,22.37,2.02,BK.WDC..HHZ,P,1.0,2012-06-13 16:23:11.650
nc71800621,2012-06-13 16:22:57.470,40.87733333333333,-123.46216666666666,22.37,2.02,BK.YBH..HHZ,P,-1.0,2012-06-13 16:23:15.560
nc71800621,2012-06-13 16:22:57.470,40.87733333333333,-123.46216666666666,22.37,2.02,NC.KCR..EHZ,P,-1.0,2012-06-13 16:23:08.150
nc71800621,2012-06-13 16:22:57.470,40.87733333333333,-123.46216666666666,22.37,2.02,NC.KCS..EHZ,P,1.0,2012-06-13 16:23:05.410
nc71800621,2012-06-13 16:22:57.470,40.87733333333333,-123.46216666666666,22.37,2.02,NC.KHBB..HHZ,P,1.0,2012-06-13 16:23:04.330
nc71800621,2012-06-13 16:22:57.470,40.87733333333333,-123.46216666666666,22.37,2.02,NC.KHMB..HHZ,P,-1.0,2012-06-13 16:23:03.290
nc71800621,2012-06-13 16:22:57.470,40.87733333333333,-123.46216666666666,22.37,2.02,NC.KOM..EHZ,P,-1.0,2012-06-13 16:23:05.870
nc71800621,2012-06-13 16:22:57.470,40.87733333333333,-123.46216666666666,22.37,2.02,NC.KRP..HHZ,P,,2012-06-13 16:23:07.580
nc71800621,2012-06-13 16:22:57.470,40.87733333333333,-123.46216666666666,22.37,2.02,NC.KSM..EHZ,P,-1.0,2012-06-13 16:23:12.700
nc71800621,2012-06-13 16:22:57.470,40.87733333333333,-123.46216666666666,22.37,2.02,NC.LBK..EHZ,P,1.0,2012-06-13 16:23:09.500
nc71800621,2012-06-13 16:22:57.470,40.87733333333333,-123.46216666666666,22.37,2.02,NC.LBP..EHZ,P,-1.0,2012-06-13 16:23:11.130
nc71800621,2012-06-13 16:22:57.470,40.87733333333333,-123.46216666666666,22.37,2.02,NC.LGP..EHZ,P,-1.0,2012-06-13 16:23:07.050
nc71800621,2012-06-13 16:22:57.470,40.87733333333333,-123.46216666666666,22.37,2.02,NC.LPG..EHZ,P,-1.0,2012-06-13 16:23:14.910
nc71800621,2012-06-13 16:22:57.470,40.87733333333333,-123.46216666666666,22.37,2.02,NC.LSF..EHZ,P,-1.0,2012-06-13 16:23:11.600
nc71800621,2012-06-13 16:22:57.470,40.87733333333333,-123.46216666666666,22.37,2.02,NC.LSR..EHZ,P,-1.0,2012-06-13 16:23:14.050
nc71800621,2012-06-13 16:22:57.470,40.87733333333333,-123.46216666666666,22.37,2.02,NC.LWH..EHZ,P,-1.0,2012-06-13 16:23:18.380
nc71800621,2012-06-13 16:22:57.470,40.87733333333333,-123.46216666666666,22.37,2.02,PB.B045..EHZ,P,-1.0,2012-06-13 16:23:08.910
nc71800621,2012-06-13 16:22:57.470,40.87733333333333,-123.46216666666666,22.37,2.02,PB.B046..EHZ,P,1.0,2012-06-13 16:23:11.930
nc71800621,2012-06-13 16:22:57.470,40.87733333333333,-123.46216666666666,22.37,2.02,PB.B047..EHZ,P,1.0,2012-06-13 16:23:11.850
nc71800621,2012-06-13 16:22:57.470,40.87733333333333,-123.46216666666666,22.37,2.02,PB.B932..EHZ,P,1.0,2012-06-13 16:23:11.790
nc71800621,2012-06-13 16:22:57.470,40.87733333333333,-123.46216666666666,22.37,2.02,PB.B935..EHZ,P,-1.0,2012-06-13 16:23:06.260
nc71800621,2012-06-13 16:22:57.470,40.87733333333333,-123.46216666666666,22.37,2.02,TA.M02C..HHZ,P,-1.0,2012-06-13 16:23:10.160
nc71800621,2012-06-13 16:22:57.470,40.87733333333333,-123.46216666666666,22.37,2.02,TA.N02D..HHZ,P,1.0,2012-06-13 16:23:08.460
nc71801171,2012-06-15 00:14:20.380,40.87833333333333,-123.4995,17.59,1.83,BK.JCC..HHZ,P,1.0,2012-06-15 00:14:29.400
nc71801171,2012-06-15 00:14:20.380,40.87833333333333,-123.4995,17.59,1.83,BK.WDC..HHZ,P,,2012-06-15 00:14:34.780
nc71801171,2012-06-15 00:14:20.380,40.87833333333333,-123.4995,17.59,1.83,NC.KCS..EHZ,P,-1.0,2012-06-15 00:14:28.380
nc71801171,2012-06-15 00:14:20.380,40.87833333333333,-123.4995,17.59,1.83,NC.KHBB..HHZ,P,1.0,2012-06-15 00:14:27.470
nc71801171,2012-06-15 00:14:20.380,40.87833333333333,-123.4995,17.59,1.83,NC.KOM..EHZ,P,1.0,2012-06-15 00:14:28.930
nc71801171,2012-06-15 00:14:20.380,40.87833333333333,-123.4995,17.59,1.83,NC.LBK..EHZ,P,1.0,2012-06-15 00:14:32.530
nc71801171,2012-06-15 00:14:20.380,40.87833333333333,-123.4995,17.59,1.83,NC.LBP..EHZ,P,-1.0,2012-06-15 00:14:34.210
nc71801171,2012-06-15 00:14:20.380,40.87833333333333,-123.4995,17.59,1.83,NC.LGP..EHZ,P,1.0,2012-06-15 00:14:30.140
nc71801171,2012-06-15 00:14:20.380,40.87833333333333,-123.4995,17.59,1.83,NC.LMI..EHZ,P,,2012-06-15 00:14:40.020
nc71801171,2012-06-15 00:14:20.380,40.87833333333333,-123.4995,17.59,1.83,NC.LSF..EHZ,P,1.0,2012-06-15 00:14:34.880
nc71801171,2012-06-15 00:14:20.380,40.87833333333333,-123.4995,17.59,1.83,NC.LSH..EHZ,P,1.0,2012-06-15 00:14:40.010
nc71801171,2012-06-15 00:14:20.380,40.87833333333333,-123.4995,17.59,1.83,PB.B046..EHZ,P,-1.0,2012-06-15 00:14:34.890
nc71801171,2012-06-15 00:14:20.380,40.87833333333333,-123.4995,17.59,1.83,PB.B047..EHZ,P,1.0,2012-06-15 00:14:34.890
nc71801171,2012-06-15 00:14:20.380,40.87833333333333,-123.4995,17.59,1.83,PB.B935..EHZ,P,-1.0,2012-06-15 00:14:29.230
nc71801171,2012-06-15 00:14:20.380,40.87833333333333,-123.4995,17.59,1.83,TA.M02C..HHZ,P,1.0,2012-06-15 00:14:33.780
nc71801171,2012-06-15 00:14:20.380,40.87833333333333,-123.4995,17.59,1.83,TA.N02D..HHZ,P,-1.0,2012-06-15 00:14:31.670
nc71801936,2012-06-16 09:43:53.760,40.339666666666666,-123.69666666666667,20.86,1.84,BK.JCC..HHZ,P,1.0,2012-06-16 09:44:04.310
nc71801936,2012-06-16 09:43:53.760,40.339666666666666,-123.69666666666667,20.86,1.84,NC.GTC..EHZ,P,1.0,2012-06-16 09:44:09.600
nc71801936,2012-06-16 09:43:53.760,40.339666666666666,-123.69666666666667,20.86,1.84,NC.GVV..EHZ,P,-1.0,2012-06-16 09:44:11.040
nc71801936,2012-06-16 09:43:53.760,40.339666666666666,-123.69666666666667,20.86,1.84,NC.KBN..EHZ,P,1.0,2012-06-16 09:44:05.490
nc71801936,2012-06-16 09:43:53.760,40.339666666666666,-123.69666666666667,20.86,1.84,NC.KCR..EHZ,P,1.0,2012-06-16 09:43:58.590
nc71801936,2012-06-16 09:43:53.760,40.339666666666666,-123.69666666666667,20.86,1.84,NC.KCS..EHZ,P,1.0,2012-06-16 09:44:00.240
