event_id,etime,elat,elon,edep,emag,station_id,phase_type,phase_polarity,phase_time
nc71787996,2012-05-19 12:43:46.740,40.355333333333334,-123.461,24.64,1.87,NC.LBK..EHZ,P,-1.0,2012-05-19 12:44:03.450
nc71787996,2012-05-19 12:43:46.740,40.355333333333334,-123.461,24.64,1.87,NC.LBP..EHZ,P,1.0,2012-05-19 12:43:55.930
nc71787996,2012-05-19 12:43:46.740,40.355333333333334,-123.461,24.64,1.87,NC.LGP..EHZ,P,-1.0,2012-05-19 12:44:00.120
nc71787996,2012-05-19 12:43:46.740,40.355333333333334,-123.461,24.64,1.87,NC.LPG..EHZ,P,-1.0,2012-05-19 12:43:58.850
nc71787996,2012-05-19 12:43:46.740,40.355333333333334,-123.461,24.64,1.87,NC.LSF..EHZ,P,,2012-05-19 12:44:00.760
nc71787996,2012-05-19 12:43:46.740,40.355333333333334,-123.461,24.64,1.87,NC.LVR..EHZ,P,1.0,2012-05-19 12:43:59.680
nc71787996,2012-05-19 12:43:46.740,40.355333333333334,-123.461,24.64,1.87,PB.B045..EHZ,P,1.0,2012-05-19 12:43:55.330
nc71787996,2012-05-19 12:43:46.740,40.355333333333334,-123.461,24.64,1.87,PB.B049..EHZ,P,1.0,2012-05-19 12:43:53.820
nc71787996,2012-05-19 12:43:46.740,40.355333333333334,-123.461,24.64,1.87,PB.B935..EHZ,P,-1.0,2012-05-19 12:43:52.160
nc71787996,2012-05-19 12:43:46.740,40.355333333333334,-123.461,24.64,1.87,TA.N02D..HHZ,P,1.0,2012-05-19 12:44:01.880
nc71788691,2012-05-20 11:16:21.110,40.24666666666667,-124.15916666666666,11.03,2.79,BK.GASB..HHZ,P,1.0,2012-05-20 11:16:42.470
nc71788691,2012-05-20 11:16:21.110,40.24666666666667,-124.15916666666666,11.03,2.79,BK.HOPS..HHZ,P,,2012-05-20 11:16:45.360
nc71788691,2012-05-20 11:16:21.110,40.24666666666667,-124.15916666666666,11.03,2.79,BK.JCC..HHZ,P,1.0,2012-05-20 11:16:32.770
nc71788691,2012-05-20 11:16:21.110,40.24666666666667,-124.15916666666666,11.03,2.79,BK.WDC..HHZ,P,1.0,2012-05-20 11:16:43.110
nc71788691,2012-05-20 11:16:21.110,40.24666666666667,-124.15916666666666,11.03,2.79,NC.GBB..EHZ,P,1.0,2012-05-20 11:16:46.260
nc71788691,2012-05-20 11:16:21.110,40.24666666666667,-124.15916666666666,11.03,2.79,NC.GCK..EHZ,P,-1.0,2012-05-20 11:16:46.540
nc71788691,2012-05-20 11:16:21.110,40.24666666666667,-124.15916666666666,11.03,2.79,NC.GHL..EHZ,P,-1.0,2012-05-20 11:16:45.250
nc71788691,2012-05-20 11:16:21.110,40.24666666666667,-124.15916666666666,11.03,2.79,NC.GHO..EHZ,P,,2012-05-20 11:16:41.980
nc71788691,2012-05-20 11:16:21.110,40.24666666666667,-124.15916666666666,11.03,2.79,NC.GNA..EHZ,P,-1.0,2012-05-20 11:16:42.330
nc71788691,2012-05-20 11:16:21.110,40.24666666666667,-124.15916666666666,11.03,2.79,NC.GSN..EHZ,P,,2012-05-20 11:16:45.460
nc71788691,2012-05-20 11:16:21.110,40.24666666666667,-124.15916666666666,11.03,2.79,NC.GTC..EHZ,P,1.0,2012-05-20 11:16:37.670
nc71788691,2012-05-20 11:16:21.110,40.24666666666667,-124.15916666666666,11.03,2.79,NC.GVV..EHZ,P,1.0,2012-05-20 11:16:42.380
nc71788691,2012-05-20 11:16:21.110,40.24666666666667,-124.15916666666666,11.03,2.79,NC.GWR..EHZ,P,-1.0,2012-05-20 11:16:41.450
nc71788691,2012-05-20 11:16:21.110,40.24666666666667,-124.15916666666666,11.03,2.79,NC.KBN..EHZ,P,,2012-05-20 11:16:36.840
nc71788691,2012-05-20 11:16:21.110,40.24666666666667,-124.15916666666666,11.03,2.79,NC.KCPB..HHZ,P,1.0,2012-05-20 11:16:34.480
nc71788691,2012-05-20 11:16:21.110,40.24666666666667,-124.15916666666666,11.03,2.79,NC.KCR..EHZ,P,-1.0,2012-05-20 11:16:28.360
nc71788691,2012-05-20 11:16:21.110,40.24666666666667,-124.15916666666666,11.03,2.79,NC.KCS..EHZ,P,1.0,2012-05-20 11:16:33.680
nc71788691,2012-05-20 11:16:21.110,40.24666666666667,-124.15916666666666,11.03,2.79,NC.KCT..HHZ,P,-1.0,2012-05-20 11:16:27.670
nc71788691,2012-05-20 11:16:21.110,40.24666666666667,-124.15916666666666,11.03,2.79,NC.KFP..EHZ,P,,2012-05-20 11:16:36.080
nc71788691,2012-05-20 11:16:21.110,40.24666666666667,-124.15916666666666,11.03,2.79,NC.KHBB..HHZ,P,1.0,2012-05-20 11:16:36.870
nc71788691,2012-05-20 11:16:21.110,40.24666666666667,-124.15916666666666,11.03,2.79,NC.KHMB..HHZ,P,1.0,2012-05-20 11:16:35.340
nc71788691,2012-05-20 11:16:21.110,40.24666666666667,-124.15916666666666,11.03,2.79,NC.KIP..EHZ,P,1.0,2012-05-20 11:16:34.500
nc71788691,2012-05-20 11:16:21.110,40.24666666666667,-124.15916666666666,11.03,2.79,NC.KJJ..EHZ,P,1.0,2012-05-20 11:16:24.450
nc71788691,2012-05-20 11:16:21.110,40.24666666666667,-124.15916666666666,11.03,2.79,NC.KKP..EHZ,P,1.0,2012-05-20 11:16:33.000
nc71788691,2012-05-20 11:16:21.110,40.24666666666667,-124.15916666666666,11.03,2.79,NC.KMPB..HHZ,P,1.0,2012-05-20 11:16:25.540
nc71788691,2012-05-20 11:16:21.110,40.24666666666667,-124.15916666666666,11.03,2.79,NC.KMR..HHZ,P,-1.0,2012-05-20 11:16:28.860
nc71788691,2012-05-20 11:16:21.110,40.24666666666667,-124.15916666666666,11.03,2.79,NC.KOM..EHZ,P,1.0,2012-05-20 11:16:41.600
nc71788691,2012-05-20 11:16:21.110,40.24666666666667,-124.15916666666666,11.03,2.79,NC.KRK..EHZ,P,1.0,2012-05-20 11:16:38.960
nc71788691,2012-05-20 11:16:21.110,40.24666666666667,-124.15916666666666,11.03,2.79,NC.KRP..HHZ,P,1.0,2012-05-20 11:16:37.790
nc71788691,2012-05-20 11:16:21.110,40.24666666666667,-124.15916666666666,11.03,2.79,NC.KSM..EHZ,P,1.0,2012-05-20 11:16:23.770
nc71788691,2012-05-20 11:16:21.110,40.24666666666667,-124.15916666666666,11.03,2.79,NC.KSXB..HHZ,P,1.0,2012-05-20 11:16:47.450
nc71788691,2012-05-20 11:16:21.110,40.24666666666667,-124.15916666666666,11.03,2.79,NC.LBK..EHZ,P,1.0,2012-05-20 11:16:45.290
nc71788691,2012-05-20 11:16:21.110,40.24666666666667,-124.15916666666666,11.03,2.79,NC.LBP..EHZ,P,1.0,2012-05-20 11:16:39.140
nc71788691,2012-05-20 11:16:21.110,40.24666666666667,-124.15916666666666,11.03,2.79,NC.LGP..EHZ,P,-1.0,2012-05-20 11:16:42.390
nc71788691,2012-05-20 11:16:21.110,40.24666666666667,-124.15916666666666,11.03,2.79,NC.LMI..EHZ,P,-1.0,2012-05-20 11:16:47.290
nc71788691,2012-05-20 11:16:21.110,40.24666666666667,-124.15916666666666,11.03,2.79,NC.LPG..EHZ,P,-1.0,2012-05-20 11:16:41.470
nc71788691,2012-05-20 11:16:21.110,40.24666666666667,-124.15916666666666,11.03,2.79,NC.LRB..EHZ,P,1.0,2012-05-20 11:16:43.290
nc71788691,2012-05-20 11:16:21.110,40.24666666666667,-124.15916666666666,11.03,2.79,NC.LRD..EHZ,P,1.0,2012-05-20 11:16:55.140
nc71788691,2012-05-20 11:16:21.110,40.24666666666667,-124.15916666666666,11.03,2.79,NC.LTC..EHZ,P,1.0,2012-05-20 11:16:47.300
nc71788691,2012-05-20 11:16:21.110,40.24666666666667,-124.15916666666666,11.03,2.79,NC.LVR..EHZ,P,1.0,2012-05-20 11:16:41.970
nc71788691,2012-05-20 11:16:21.110,40.24666666666667,-124.15916666666666,11.03,2.79,PB.B045..EHZ,P,-1.0,2012-05-20 11:16:26.450
nc71788691,2012-05-20 11:16:21.110,40.24666666666667,-124.15916666666666,11.03,2.79,PB.B046..EHZ,P,-1.0,2012-05-20 11:16:24.570
nc71788691,2012-05-20 11:16:21.110,40.24666666666667,-124.15916666666666,11.03,2.79,PB.B047..EHZ,P,1.0,2012-05-20 11:16:23.400
nc71788691,2012-05-20 11:16:21.110,40.24666666666667,-124.15916666666666,11.03,2.79,PB.B049..EHZ,P,-1.0,2012-05-20 11:16:27.040
nc71788691,2012-05-20 11:16:21.110,40.24666666666667,-124.15916666666666,11.03,2.79,PB.B932..EHZ,P,1.0,2012-05-20 11:16:23.550
nc71788691,2012-05-20 11:16:21.110,40.24666666666667,-124.15916666666666,11.03,2.79,PB.B933..EHZ,P,-1.0,2012-05-20 11:16:26.420
nc71788691,2012-05-20 11:16:21.110,40.24666666666667,-124.15916666666666,11.03,2.79,PB.B935..EHZ,P,-1.0,2012-05-20 11:16:32.270
nc71788691,2012-05-20 11:16:21.110,40.24666666666667,-124.15916666666666,11.03,2.79,TA.M02C..HHZ,P,1.0,2012-05-20 11:16:46.840
nc71788691,2012-05-20 11:16:21.110,40.24666666666667,-124.15916666666666,11.03,2.79,TA.N02D..HHZ,P,1.0,2012-05-20 11:16:44.000
nc71788691,2012-05-20 11:16:21.110,40.24666666666667,-124.15916666666666,11.03,2.79,WR.MGL..EHZ,P,1.0,2012-05-20 11:16:53.850
nc71789026,2012-05-20 21:50:56.520,39.93983333333333,-123.5695,3.71,1.7,NC.GNA..EHZ,P,,2012-05-20 21:51:12.350
nc71789026,2012-05-20 21:50:56.520,39.93983333333333,-123.5695,3.71,1.7,NC.GTC..EHZ,P,,2012-05-20 21:51:08.200
nc71789026,2012-05-20 21:50:56.520,39.93983333333333,-123.5695,3.71,1.7,NC.GVV..EHZ,P,1.0,2012-05-20 21:51:12.130
nc71789026,2012-05-20 21:50:56.520,39.93983333333333,-123.5695,3.71,1.7,NC.GWR..EHZ,P,,2012-05-20 21:51:12.800
nc71789026,2012-05-20 21:50:56.520,39.93983333333333,-123.5695,3.71,1.7,NC.KBN..EHZ,P,,2012-05-20 21:51:03.820
nc71789026,2012-05-20 21:50:56.520,39.93983333333333,-123.5695,3.71,1.7,NC.KCPB..HHZ,P,-1.0,2012-05-20 21:51:02.470
nc71789026,2012-05-20 21:50:56.520,39.93983333333333,-123.5695,3.71,1.7,NC.KCR..EHZ,P,1.0,2012-05-20 21:51:08.960
nc71789026,2012-05-20 21:50:56.520,39.93983333333333,-123.5695,3.71,1.7,NC.KCS..EHZ,P,1.0,2012-05-20 21:51:10.430
nc71789026,2012-05-20 21:50:56.520,39.93983333333333,-123.5695,3.71,1.7,NC.KFP..EHZ,P,1.0,2012-05-20 21:51:03.910
nc71789026,2012-05-20 21:50:56.520,39.93983333333333,-123.5695,3.71,1.7,NC.KIP..EHZ,P,1.0,2012-05-20 21:51:00.190
nc71789026,2012-05-20 21:50:56.520,39.93983333333333,-123.5695,3.71,1.7,NC.KJJ..EHZ,P,-1.0,2012-05-20 21:51:11.180
nc71789026,2012-05-20 21:50:56.520,39.93983333333333,-123.5695,3.71,1.7,NC.KKP..EHZ,P,-1.0,2012-05-20 21:51:02.480
nc71789026,2012-05-20 21:50:56.520,39.93983333333333,-123.5695,3.71,1.7,NC.KMR..HHZ,P,-1.0,2012-05-20 21:51:04.110
nc71789026,2012-05-20 21:50:56.520,39.93983333333333,-123.5695,3.71,1.7,NC.KSM..EHZ,P,1.0,2012-05-20 21:51:08.820
nc71789026,2012-05-20 21:50:56.520,39.93983333333333,-123.5695,3.71,1.7,PB.B049..EHZ,P,1.0,2012-05-20 21:51:05.160
nc71789026,2012-05-20 21:50:56.520,39.93983333333333,-123.5695,3.71,1.7,PB.B933..EHZ,P,-1.0,2012-05-20 21:51:04.460
nc71789026,2012-05-20 21:50:56.520,39.93983333333333,-123.5695,3.71,1.7,PB.B935..EHZ,P,,2012-05-20 21:51:08.820
nc71789026,2012-05-20 21:50:56.520,39.93983333333333,-123.5695,3.71,1.7,NC.KRK..EHZ,P,,2012-05-20 21:50:56.520
nc71789026,2012-05-20 21:50:56.520,39.93983333333333,-123.5695,3.71,1.7,NC.GHL..EHZ,P,,2012-05-20 21:50:56.520
nc71791321,2012-05-25 17:32:48.840,40.44433333333333,-123.81916666666666,21.38,1.45,NC.KCR..EHZ,P,-1.0,2012-05-25 17:32:52.900
nc71791321,2012-05-25 17:32:48.840,40.44433333333333,-123.81916666666666,21.38,1.45,NC.KCS..EHZ,P,1.0,2012-05-25 17:32:55.470
nc71791321,2012-05-25 17:32:48.840,40.44433333333333,-123.81916666666666,21.38,1.45,NC.KJJ..EHZ,P,1.0,2012-05-25 17:32:57.740
nc71791321,2012-05-25 17:32:48.840,40.44433333333333,-123.81916666666666,21.38,1.45,NC.KKP..EHZ,P,1.0,2012-05-25 17:32:57.970
nc71791321,2012-05-25 17:32:48.840,40.44433333333333,-123.81916666666666,21.38,1.45,NC.KMPB..HHZ,P,1.0,2012-05-25 17:32:54.840
nc71791321,2012-05-25 17:32:48.840,40.44433333333333,-123.81916666666666,21.38,1.45,NC.KSM..EHZ,P,1.0,2012-05-25 17:32:57.190
nc71791321,2012-05-25 17:32:48.840,40.44433333333333,-123.81916666666666,21.38,1.45,PB.B045..EHZ,P,1.0,2012-05-25 17:32:53.550
nc71791321,2012-05-25 17:32:48.840,40.44433333333333,-123.81916666666666,21.38,1.45,PB.B047..EHZ,P,1.0,2012-05-25 17:32:56.370
nc71791321,2012-05-25 17:32:48.840,40.44433333333333,-123.81916666666666,21.38,1.45,PB.B049..EHZ,P,-1.0,2012-05-25 17:32:54.550
nc71791321,2012-05-25 17:32:48.840,40.44433333333333,-123.81916666666666,21.38,1.45,PB.B932..EHZ,P,1.0,2012-05-25 17:32:56.480
nc71791321,2012-05-25 17:32:48.840,40.44433333333333,-123.81916666666666,21.38,1.45,PB.B933..EHZ,P,-1.0,2012-05-25 17:32:57.680
nc71791321,2012-05-25 17:32:48.840,40.44433333333333,-123.81916666666666,21.38,1.45,PB.B935..EHZ,P,1.0,2012-05-25 17:32:54.360
nc71793601,2012-05-30 15:25:40.010,40.5225,-123.6155,24.21,2.13,BK.JCC..HHZ,P,1.0,2012-05-30 15:25:48.370
nc71793601,2012-05-30 15:25:40.010,40.5225,-123.6155,24.21,2.13,NC.KBN..EHZ,P,1.0,2012-05-30 15:25:53.570
nc71793601,2012-05-30 15:25:40.010,40.5225,-123.6155,24.21,2.13,NC.KCR..EHZ,P,1.0,2012-05-30 15:25:45.670
nc71793601,2012-05-30 15:25:40.010,40.5225,-123.6155,24.21,2.13,NC.KCS..EHZ,P,-1.0,2012-05-30 15:25:44.940
nc71793601,2012-05-30 15:25:40.010,40.5225,-123.6155,24.21,2.13,NC.KFP..EHZ,P,,2012-05-30 15:25:55.740
nc71793601,2012-05-30 15:25:40.010,40.5225,-123.6155,24.21,2.13,NC.KHBB..HHZ,P,1.0,2012-05-30 15:25:47.560
nc71793601,2012-05-30 15:25:40.010,40.5225,-123.6155,24.21,2.13,NC.KHMB..HHZ,P,1.0,2012-05-30 15:25:48.020
nc71793601,2012-05-30 15:25:40.010,40.5225,-123.6155,24.21,2.13,NC.KIP..EHZ,P,-1.0,2012-05-30 15:25:53.620
nc71793601,2012-05-30 15:25:40.010,40.5225,-123.6155,24.21,2.13,NC.KKP..EHZ,P,1.0,2012-05-30 15:25:48.970
nc71793601,2012-05-30 15:25:40.010,40.5225,-123.6155,24.21,2.13,NC.KMPB..HHZ,P,1.0,2012-05-30 15:25:48.490
nc71793601,2012-05-30 15:25:40.010,40.5225,-123.6155,24.21,2.13,NC.KMR..HHZ,P,1.0,2012-05-30 15:25:47.610
nc71793601,2012-05-30 15:25:40.010,40.5225,-123.6155,24.21,2.13,NC.KSM..EHZ,P,-1.0,2012-05-30 15:25:50.420
nc71793601,2012-05-30 15:25:40.010,40.5225,-123.6155,24.21,2.13,NC.LBP..EHZ,P,1.0,2012-05-30 15:25:51.500
nc71793601,2012-05-30 15:25:40.010,40.5225,-123.6155,24.21,2.13,NC.LGP..EHZ,P,-1.0,2012-05-30 15:25:53.150
nc71793601,2012-05-30 15:25:40.010,40.5225,-123.6155,24.21,2.13,NC.LPG..EHZ,P,,2012-05-30 15:25:54.800
nc71793601,2012-05-30 15:25:40.010,40.5225,-123.6155,24.21,2.13,NC.LRB..EHZ,P,1.0,2012-05-30 15:25:56.910
nc71793601,2012-05-30 15:25:40.010,40.5225,-123.6155,24.21,2.13,NC.LSF..EHZ,P,1.0,2012-05-30 15:25:55.030
nc71793601,2012-05-30 15:25:40.010,40.5225,-123.6155,24.21,2.13,NC.LVR..EHZ,P,-1.0,2012-05-30 15:25:56.110
nc71793601,2012-05-30 15:25:40.010,40.5225,-123.6155,24.21,2.13,PB.B045..EHZ,P,1.0,2012-05-30 15:25:47.080
nc71793601,2012-05-30 15:25:40.010,40.5225,-123.6155,24.21,2.13,PB.B049..EHZ,P,-1.0,2012-05-30 15:25:47.400
nc71793601,2012-05-30 15:25:40.010,40.5225,-123.6155,24.21,2.13,PB.B932..EHZ,P,,2012-05-30 15:25:49.750
nc71793601,2012-05-30 15:25:40.010,40.5225,-123.6155,24.21,2.13,PB.B933..EHZ,P,-1.0,2012-05-30 15:25:50.460
nc71793601,2012-05-30 15:25:40.010,40.5225,-123.6155,24.21,2.13,PB.B935..EHZ,P,-1.0,2012-05-30 15:25:44.650
nc71793601,2012-05-30 15:25:40.010,40.5225,-123.6155,24.21,2.13,TA.N02D..HHZ,P,1.0,2012-05-30 15:25:54.790
nc71794686,2012-06-01 14:38:39.810,40.91016666666667,-123.59683333333334,25.65,1.67,BK.JCC..HHZ,P,1.0,2012-06-01 14:38:47.550
nc71794686,2012-06-01 14:38:39.810,40.91016666666667,-123.59683333333334,25.65,1.67,BK.YBH..HHZ,P,,2012-06-01 14:38:58.380
nc71794686,2012-06-01 14:38:39.810,40.91016666666667,-123.59683333333334,25.65,1.67,NC.KCR..EHZ,P,1.0,2012-06-01 14:38:50.370
nc71794686,2012-06-01 14:38:39.810,40.91016666666667,-123.59683333333334,25.65,1.67,NC.KCS..EHZ,P,1.0,2012-06-01 14:38:48.390
nc71794686,2012-06-01 14:38:39.810,40.91016666666667,-123.59683333333334,25.65,1.67,NC.KHBB..HHZ,P,-1.0,2012-06-01 14:38:47.980
nc71794686,2012-06-01 14:38:39.810,40.91016666666667,-123.59683333333334,25.65,1.67,NC.KHMB..HHZ,P,-1.0,2012-06-01 14:38:44.870
nc71794686,2012-06-01 14:38:39.810,40.91016666666667,-123.59683333333334,25.65,1.67,NC.KOM..EHZ,P,1.0,2012-06-01 14:38:47.900
nc71794686,2012-06-01 14:38:39.810,40.91016666666667,-123.59683333333334,25.65,1.67,NC.LBK..EHZ,P,1.0,2012-06-01 14:38:53.170
nc71794686,2012-06-01 14:38:39.810,40.91016666666667,-123.59683333333334,25.65,1.67,NC.LGP..EHZ,P,-1.0,2012-06-01 14:38:50.930
nc71794686,2012-06-01 14:38:39.810,40.91016666666667,-123.59683333333334,25.65,1.67,PB.B045..EHZ,P,-1.0,2012-06-01 14:38:50.970
nc71794686,2012-06-01 14:38:39.810,40.91016666666667,-123.59683333333334,25.65,1.67,PB.B046..EHZ,P,1.0,2012-06-01 14:38:53.890
nc71794686,2012-06-01 14:38:39.810,40.91016666666667,-123.59683333333334,25.65,1.67,PB.B047..EHZ,P,-1.0,2012-06-01 14:38:54.080
nc71794686,2012-06-01 14:38:39.810,40.91016666666667,-123.59683333333334,25.65,1.67,PB.B932..EHZ,P,1.0,2012-06-01 14:38:53.850
nc71794686,2012-06-01 14:38:39.810,40.91016666666667,-123.59683333333334,25.65,1.67,PB.B935..EHZ,P,-1.0,2012-06-01 14:38:49.190
nc71794686,2012-06-01 14:38:39.810,40.91016666666667,-123.59683333333334,25.65,1.67,TA.M02C..HHZ,P,1.0,2012-06-01 14:38:53.360
nc71794686,2012-06-01 14:38:39.810,40.91016666666667,-123.59683333333334,25.65,1.67,TA.N02D..HHZ,P,,2012-06-01 14:38:52.520
nc71795061,2012-06-02 10:47:02.700,40.761,-124.72883333333333,2.68,2.12,BK.JCC..HHZ,P,1.0,2012-06-02 10:47:14.740
nc71795061,2012-06-02 10:47:02.700,40.761,-124.72883333333333,2.68,2.12,BK.WDC..HHZ,P,1.0,2012-06-02 10:47:31.280
nc71795061,2012-06-02 10:47:02.700,40.761,-124.72883333333333,2.68,2.12,NC.KCR..EHZ,P,1.0,2012-06-02 10:47:18.160
nc71795061,2012-06-02 10:47:02.700,40.761,-124.72883333333333,2.68,2.12,NC.KCS..EHZ,P,-1.0,2012-06-02 10:47:21.240
nc71795061,2012-06-02 10:47:02.700,40.761,-124.72883333333333,2.68,2.12,NC.KCT..HHZ,P,1.0,2012-06-02 10:47:12.590
nc71795061,2012-06-02 10:47:02.700,40.761,-124.72883333333333,2.68,2.12,NC.KHBB..HHZ,P,1.0,2012-06-02 10:47:23.890
nc71795061,2012-06-02 10:47:02.700,40.761,-124.72883333333333,2.68,2.12,NC.KHMB..HHZ,P,1.0,2012-06-02 10:47:18.650
nc71795061,2012-06-02 10:47:02.700,40.761,-124.72883333333333,2.68,2.12,NC.KMPB..HHZ,P,,2012-06-02 10:47:14.740
nc71795061,2012-06-02 10:47:02.700,40.761,-124.72883333333333,2.68,2.12,NC.KOM..EHZ,P,1.0,2012-06-02 10:47:23.330
nc71795061,2012-06-02 10:47:02.700,40.761,-124.72883333333333,2.68,2.12,NC.KRP..HHZ,P,1.0,2012-06-02 10:47:16.940
nc71795061,2012-06-02 10:47:02.700,40.761,-124.72883333333333,2.68,2.12,NC.KSM..EHZ,P,-1.0,2012-06-02 10:47:16.230
nc71795061,2012-06-02 10:47:02.700,40.761,-124.72883333333333,2.68,2.12,NC.LBK..EHZ,P,1.0,2012-06-02 10:47:29.620
nc71795061,2012-06-02 10:47:02.700,40.761,-124.72883333333333,2.68,2.12,NC.LGP..EHZ,P,1.0,2012-06-02 10:47:28.120
nc71795061,2012-06-02 10:47:02.700,40.761,-124.72883333333333,2.68,2.12,NC.LSH..EHZ,P,,2012-06-02 10:47:36.830
nc71795061,2012-06-02 10:47:02.700,40.761,-124.72883333333333,2.68,2.12,NC.LSR..EHZ,P,,2012-06-02 10:47:35.150
nc71795061,2012-06-02 10:47:02.700,40.761,-124.72883333333333,2.68,2.12,PB.B045..EHZ,P,1.0,2012-06-02 10:47:15.890
nc71795061,2012-06-02 10:47:02.700,40.761,-124.72883333333333,2.68,2.12,PB.B046..EHZ,P,-1.0,2012-06-02 10:47:13.760
nc71795061,2012-06-02 10:47:02.700,40.761,-124.72883333333333,2.68,2.12,PB.B047..EHZ,P,-1.0,2012-06-02 10:47:15.130
nc71795061,2012-06-02 10:47:02.700,40.761,-124.72883333333333,2.68,2.12,PB.B049..EHZ,P,,2012-06-02 10:47:19.190
nc71795061,2012-06-02 10:47:02.700,40.761,-124.72883333333333,2.68,2.12,PB.B932..EHZ,P,-1.0,2012-06-02 10:47:14.780
nc71795061,2012-06-02 10:47:02.700,40.761,-124.72883333333333,2.68,2.12,PB.B933..EHZ,P,,2012-06-02 10:47:19.060
nc71795061,2012-06-02 10:47:02.700,40.761,-124.72883333333333,2.68,2.12,PB.B935..EHZ,P,1.0,2012-06-02 10:47:20.420
nc71795061,2012-06-02 10:47:02.700,40.761,-124.72883333333333,2.68,2.12,TA.M02C..HHZ,P,1.0,2012-06-02 10:47:29.710
nc71795061,2012-06-02 10:47:02.700,40.761,-124.72883333333333,2.68,2.12,TA.N02D..HHZ,P,1.0,2012-06-02 10:47:29.540
nc71800566,2012-06-13 13:25:03.460,40.870666666666665,-123.46833333333333,22.31,3.4,BK.GASB..HHZ,P,1.0,2012-06-13 13:25:26.110
nc71800566,2012-06-13 13:25:03.460,40.870666666666665,-123.46833333333333,22.31,3.4,BK.HATC..HHZ,P,1.0,2012-06-13 13:25:28.720
nc71800566,2012-06-13 13:25:03.460,40.870666666666665,-123.46833333333333,22.31,3.4,BK.HUMO..HHZ,P,,2012-06-13 13:25:32.010
nc71800566,2012-06-13 13:25:03.460,40.870666666666665,-123.46833333333333,22.31,3.4,BK.JCC..HHZ,P,1.0,2012-06-13 13:25:12.200
nc71800566,2012-06-13 13:25:03.460,40.870666666666665,-123.46833333333333,22.31,3.4,BK.ORV..HHZ,P,1.0,2012-06-13 13:25:35.600
nc71800566,2012-06-13 13:25:03.460,40.870666666666665,-123.46833333333333,22.31,3.4,BK.WDC..HHZ,P,1.0,2012-06-13 13:25:17.370
nc71800566,2012-06-13 13:25:03.460,40.870666666666665,-123.46833333333333,22.31,3.4,BK.YBH..HHZ,P,-1.0,2012-06-13 13:25:21.230
nc71800566,2012-06-13 13:25:03.460,40.870666666666665,-123.46833333333333,22.31,3.4,NC.AOH..EHZ,P,,2012-06-13 13:25:38.160
nc71800566,2012-06-13 13:25:03.460,40.870666666666665,-123.46833333333333,22.31,3.4,NC.GBB..EHZ,P,1.0,2012-06-13 13:25:26.280
nc71800566,2012-06-13 13:25:03.460,40.870666666666665,-123.46833333333333,22.31,3.4,NC.GCK..EHZ,P,,2012-06-13 13:25:29.330
nc71800566,2012-06-13 13:25:03.460,40.870666666666665,-123.46833333333333,22.31,3.4,NC.GFC..EHZ,P,-1.0,2012-06-13 13:25:32.270
