event_id,etime,elat,elon,edep,emag,station_id,phase_type,phase_polarity,phase_time
nc71764775,2012-04-15 01:21:47.510,41.08866666666667,-123.2575,34.87,2.31,NC.LGP..EHZ,P,-1.0,2012-04-15 01:21:56.400
nc71764775,2012-04-15 01:21:47.510,41.08866666666667,-123.2575,34.87,2.31,NC.LMC..HHZ,P,,2012-04-15 01:22:04.520
nc71764775,2012-04-15 01:21:47.510,41.08866666666667,-123.2575,34.87,2.31,NC.LMI..EHZ,P,1.0,2012-04-15 01:22:06.300
nc71764775,2012-04-15 01:21:47.510,41.08866666666667,-123.2575,34.87,2.31,NC.LSF..EHZ,P,-1.0,2012-04-15 01:22:01.450
nc71764775,2012-04-15 01:21:47.510,41.08866666666667,-123.2575,34.87,2.31,NC.LSH..EHZ,P,,2012-04-15 01:22:05.220
nc71764775,2012-04-15 01:21:47.510,41.08866666666667,-123.2575,34.87,2.31,NC.LSR..EHZ,P,-1.0,2012-04-15 01:22:02.300
nc71764775,2012-04-15 01:21:47.510,41.08866666666667,-123.2575,34.87,2.31,NC.LWH..EHZ,P,-1.0,2012-04-15 01:22:07.490
nc71764775,2012-04-15 01:21:47.510,41.08866666666667,-123.2575,34.87,2.31,PB.B039..EHZ,P,-1.0,2012-04-15 01:22:00.680
nc71764775,2012-04-15 01:21:47.510,41.08866666666667,-123.2575,34.87,2.31,PB.B935..EHZ,P,-1.0,2012-04-15 01:22:00.580
nc71764775,2012-04-15 01:21:47.510,41.08866666666667,-123.2575,34.87,2.31,TA.M02C..HHZ,P,-1.0,2012-04-15 01:21:56.980
nc71764775,2012-04-15 01:21:47.510,41.08866666666667,-123.2575,34.87,2.31,TA.N02D..HHZ,P,-1.0,2012-04-15 01:21:57.170
nc71765835,2012-04-16 23:25:50.960,41.04183333333334,-123.43433333333333,31.39,2.45,BK.JCC..HHZ,P,1.0,2012-04-16 23:26:00.950
nc71765835,2012-04-16 23:25:50.960,41.04183333333334,-123.43433333333333,31.39,2.45,BK.WDC..HHZ,P,1.0,2012-04-16 23:26:05.340
nc71765835,2012-04-16 23:25:50.960,41.04183333333334,-123.43433333333333,31.39,2.45,BK.YBH..HHZ,P,-1.0,2012-04-16 23:26:06.700
nc71765835,2012-04-16 23:25:50.960,41.04183333333334,-123.43433333333333,31.39,2.45,NC.KCS..EHZ,P,1.0,2012-04-16 23:26:01.830
nc71765835,2012-04-16 23:25:50.960,41.04183333333334,-123.43433333333333,31.39,2.45,NC.KHBB..HHZ,P,-1.0,2012-04-16 23:26:00.140
nc71765835,2012-04-16 23:25:50.960,41.04183333333334,-123.43433333333333,31.39,2.45,NC.KHMB..HHZ,P,1.0,2012-04-16 23:25:58.410
nc71765835,2012-04-16 23:25:50.960,41.04183333333334,-123.43433333333333,31.39,2.45,NC.KJJ..EHZ,P,-1.0,2012-04-16 23:26:08.350
nc71765835,2012-04-16 23:25:50.960,41.04183333333334,-123.43433333333333,31.39,2.45,NC.KMPB..HHZ,P,1.0,2012-04-16 23:26:05.560
nc71765835,2012-04-16 23:25:50.960,41.04183333333334,-123.43433333333333,31.39,2.45,NC.KOM..EHZ,P,-1.0,2012-04-16 23:25:57.690
nc71765835,2012-04-16 23:25:50.960,41.04183333333334,-123.43433333333333,31.39,2.45,NC.KRP..HHZ,P,1.0,2012-04-16 23:26:00.630
nc71765835,2012-04-16 23:25:50.960,41.04183333333334,-123.43433333333333,31.39,2.45,NC.KSM..EHZ,P,-1.0,2012-04-16 23:26:08.480
nc71765835,2012-04-16 23:25:50.960,41.04183333333334,-123.43433333333333,31.39,2.45,NC.KSXB..HHZ,P,1.0,2012-04-16 23:26:05.850
nc71765835,2012-04-16 23:25:50.960,41.04183333333334,-123.43433333333333,31.39,2.45,NC.KTR..EHZ,P,,2012-04-16 23:26:06.610
nc71765835,2012-04-16 23:25:50.960,41.04183333333334,-123.43433333333333,31.39,2.45,NC.LAMB..EHZ,P,-1.0,2012-04-16 23:26:06.240
nc71765835,2012-04-16 23:25:50.960,41.04183333333334,-123.43433333333333,31.39,2.45,NC.LBF..EHZ,P,1.0,2012-04-16 23:26:13.150
nc71765835,2012-04-16 23:25:50.960,41.04183333333334,-123.43433333333333,31.39,2.45,NC.LBK..EHZ,P,1.0,2012-04-16 23:26:02.250
nc71765835,2012-04-16 23:25:50.960,41.04183333333334,-123.43433333333333,31.39,2.45,NC.LGB..EHZ,P,-1.0,2012-04-16 23:26:09.290
nc71765835,2012-04-16 23:25:50.960,41.04183333333334,-123.43433333333333,31.39,2.45,NC.LGM..EHZ,P,1.0,2012-04-16 23:26:15.530
nc71765835,2012-04-16 23:25:50.960,41.04183333333334,-123.43433333333333,31.39,2.45,NC.LGP..EHZ,P,1.0,2012-04-16 23:26:00.700
nc71765835,2012-04-16 23:25:50.960,41.04183333333334,-123.43433333333333,31.39,2.45,NC.LHE..EHZ,P,,2012-04-16 23:26:08.940
nc71765835,2012-04-16 23:25:50.960,41.04183333333334,-123.43433333333333,31.39,2.45,NC.LMI..EHZ,P,1.0,2012-04-16 23:26:10.250
nc71765835,2012-04-16 23:25:50.960,41.04183333333334,-123.43433333333333,31.39,2.45,NC.LMP..EHZ,P,-1.0,2012-04-16 23:26:10.700
nc71765835,2012-04-16 23:25:50.960,41.04183333333334,-123.43433333333333,31.39,2.45,NC.LPG..EHZ,P,,2012-04-16 23:26:09.890
nc71765835,2012-04-16 23:25:50.960,41.04183333333334,-123.43433333333333,31.39,2.45,NC.LRB..EHZ,P,-1.0,2012-04-16 23:26:13.660
nc71765835,2012-04-16 23:25:50.960,41.04183333333334,-123.43433333333333,31.39,2.45,NC.LSH..EHZ,P,,2012-04-16 23:26:10.090
nc71765835,2012-04-16 23:25:50.960,41.04183333333334,-123.43433333333333,31.39,2.45,NC.LSR..EHZ,P,,2012-04-16 23:26:07.210
nc71765835,2012-04-16 23:25:50.960,41.04183333333334,-123.43433333333333,31.39,2.45,NC.LWH..EHZ,P,-1.0,2012-04-16 23:26:12.040
nc71765835,2012-04-16 23:25:50.960,41.04183333333334,-123.43433333333333,31.39,2.45,PB.B039..EHZ,P,1.0,2012-04-16 23:26:06.030
nc71765835,2012-04-16 23:25:50.960,41.04183333333334,-123.43433333333333,31.39,2.45,PB.B040..EHZ,P,-1.0,2012-04-16 23:26:10.240
nc71765835,2012-04-16 23:25:50.960,41.04183333333334,-123.43433333333333,31.39,2.45,PB.B045..EHZ,P,-1.0,2012-04-16 23:26:04.370
nc71765835,2012-04-16 23:25:50.960,41.04183333333334,-123.43433333333333,31.39,2.45,PB.B046..EHZ,P,1.0,2012-04-16 23:26:07.480
nc71765835,2012-04-16 23:25:50.960,41.04183333333334,-123.43433333333333,31.39,2.45,PB.B049..EHZ,P,1.0,2012-04-16 23:26:06.170
nc71765835,2012-04-16 23:25:50.960,41.04183333333334,-123.43433333333333,31.39,2.45,PB.B932..EHZ,P,-1.0,2012-04-16 23:26:07.290
nc71765835,2012-04-16 23:25:50.960,41.04183333333334,-123.43433333333333,31.39,2.45,PB.B935..EHZ,P,1.0,2012-04-16 23:26:02.540
nc71765835,2012-04-16 23:25:50.960,41.04183333333334,-123.43433333333333,31.39,2.45,TA.M02C..HHZ,P,-1.0,2012-04-16 23:26:01.990
nc71765835,2012-04-16 23:25:50.960,41.04183333333334,-123.43433333333333,31.39,2.45,TA.N02D..HHZ,P,-1.0,2012-04-16 23:26:01.840
nc71766385,2012-04-17 23:46:42.590,40.2905,-123.32983333333334,29.24,2.35,BK.GASB..HHZ,P,,2012-04-17 23:46:57.390
nc71766385,2012-04-17 23:46:42.590,40.2905,-123.32983333333334,29.24,2.35,BK.WDC..HHZ,P,1.0,2012-04-17 23:46:54.660
nc71766385,2012-04-17 23:46:42.590,40.2905,-123.32983333333334,29.24,2.35,NC.GRO..EHZ,P,1.0,2012-04-17 23:46:54.760
nc71766385,2012-04-17 23:46:42.590,40.2905,-123.32983333333334,29.24,2.35,NC.GTC..EHZ,P,,2012-04-17 23:46:57.740
nc71766385,2012-04-17 23:46:42.590,40.2905,-123.32983333333334,29.24,2.35,NC.GVV..EHZ,P,1.0,2012-04-17 23:46:56.160
nc71766385,2012-04-17 23:46:42.590,40.2905,-123.32983333333334,29.24,2.35,NC.KBN..EHZ,P,1.0,2012-04-17 23:46:51.860
nc71766385,2012-04-17 23:46:42.590,40.2905,-123.32983333333334,29.24,2.35,NC.KCPB..HHZ,P,,2012-04-17 23:46:54.750
nc71766385,2012-04-17 23:46:42.590,40.2905,-123.32983333333334,29.24,2.35,NC.KCR..EHZ,P,1.0,2012-04-17 23:46:51.400
nc71766385,2012-04-17 23:46:42.590,40.2905,-123.32983333333334,29.24,2.35,NC.KCS..EHZ,P,1.0,2012-04-17 23:46:50.180
nc71766385,2012-04-17 23:46:42.590,40.2905,-123.32983333333334,29.24,2.35,NC.KCT..HHZ,P,,2012-04-17 23:46:57.710
nc71766385,2012-04-17 23:46:42.590,40.2905,-123.32983333333334,29.24,2.35,NC.KFP..EHZ,P,-1.0,2012-04-17 23:46:54.690
nc71766385,2012-04-17 23:46:42.590,40.2905,-123.32983333333334,29.24,2.35,NC.KHBB..HHZ,P,-1.0,2012-04-17 23:46:51.070
nc71766385,2012-04-17 23:46:42.590,40.2905,-123.32983333333334,29.24,2.35,NC.KHMB..HHZ,P,-1.0,2012-04-17 23:46:55.410
nc71766385,2012-04-17 23:46:42.590,40.2905,-123.32983333333334,29.24,2.35,NC.KIP..EHZ,P,1.0,2012-04-17 23:46:52.780
nc71766385,2012-04-17 23:46:42.590,40.2905,-123.32983333333334,29.24,2.35,NC.KJJ..EHZ,P,1.0,2012-04-17 23:46:56.110
nc71766385,2012-04-17 23:46:42.590,40.2905,-123.32983333333334,29.24,2.35,NC.KKP..EHZ,P,1.0,2012-04-17 23:46:49.130
nc71766385,2012-04-17 23:46:42.590,40.2905,-123.32983333333334,29.24,2.35,NC.KMPB..HHZ,P,,2012-04-17 23:46:54.060
nc71766385,2012-04-17 23:46:42.590,40.2905,-123.32983333333334,29.24,2.35,NC.KMR..HHZ,P,1.0,2012-04-17 23:46:50.210
nc71766385,2012-04-17 23:46:42.590,40.2905,-123.32983333333334,29.24,2.35,NC.KSM..EHZ,P,1.0,2012-04-17 23:46:54.680
nc71766385,2012-04-17 23:46:42.590,40.2905,-123.32983333333334,29.24,2.35,NC.LBK..EHZ,P,-1.0,2012-04-17 23:46:59.380
nc71766385,2012-04-17 23:46:42.590,40.2905,-123.32983333333334,29.24,2.35,NC.LBP..EHZ,P,-1.0,2012-04-17 23:46:50.440
nc71766385,2012-04-17 23:46:42.590,40.2905,-123.32983333333334,29.24,2.35,NC.LGP..EHZ,P,1.0,2012-04-17 23:46:55.850
nc71766385,2012-04-17 23:46:42.590,40.2905,-123.32983333333334,29.24,2.35,NC.LMI..EHZ,P,-1.0,2012-04-17 23:46:59.380
nc71766385,2012-04-17 23:46:42.590,40.2905,-123.32983333333334,29.24,2.35,NC.LPG..EHZ,P,1.0,2012-04-17 23:46:52.970
nc71766385,2012-04-17 23:46:42.590,40.2905,-123.32983333333334,29.24,2.35,NC.LRB..EHZ,P,1.0,2012-04-17 23:46:54.710
nc71766385,2012-04-17 23:46:42.590,40.2905,-123.32983333333334,29.24,2.35,NC.LSF..EHZ,P,1.0,2012-04-17 23:46:55.750
nc71766385,2012-04-17 23:46:42.590,40.2905,-123.32983333333334,29.24,2.35,NC.LSH..EHZ,P,-1.0,2012-04-17 23:47:01.430
nc71766385,2012-04-17 23:46:42.590,40.2905,-123.32983333333334,29.24,2.35,NC.LSR..EHZ,P,,2012-04-17 23:47:02.170
nc71766385,2012-04-17 23:46:42.590,40.2905,-123.32983333333334,29.24,2.35,NC.LVR..EHZ,P,-1.0,2012-04-17 23:46:53.840
nc71766385,2012-04-17 23:46:42.590,40.2905,-123.32983333333334,29.24,2.35,NC.LWH..EHZ,P,1.0,2012-04-17 23:47:01.450
nc71766385,2012-04-17 23:46:42.590,40.2905,-123.32983333333334,29.24,2.35,PB.B045..EHZ,P,-1.0,2012-04-17 23:46:53.300
nc71766385,2012-04-17 23:46:42.590,40.2905,-123.32983333333334,29.24,2.35,PB.B046..EHZ,P,1.0,2012-04-17 23:46:55.500
nc71766385,2012-04-17 23:46:42.590,40.2905,-123.32983333333334,29.24,2.35,PB.B047..EHZ,P,1.0,2012-04-17 23:46:54.470
nc71766385,2012-04-17 23:46:42.590,40.2905,-123.32983333333334,29.24,2.35,PB.B049..EHZ,P,-1.0,2012-04-17 23:46:50.820
nc71766385,2012-04-17 23:46:42.590,40.2905,-123.32983333333334,29.24,2.35,PB.B932..EHZ,P,-1.0,2012-04-17 23:46:54.690
nc71766385,2012-04-17 23:46:42.590,40.2905,-123.32983333333334,29.24,2.35,PB.B933..EHZ,P,1.0,2012-04-17 23:46:53.100
nc71766385,2012-04-17 23:46:42.590,40.2905,-123.32983333333334,29.24,2.35,TA.N02D..HHZ,P,1.0,2012-04-17 23:46:57.620
nc71767465,2012-04-19 16:57:46.660,40.29416666666667,-124.39816666666667,12.98,1.83,BK.JCC..HHZ,P,-1.0,2012-04-19 16:57:57.860
nc71767465,2012-04-19 16:57:46.660,40.29416666666667,-124.39816666666667,12.98,1.83,NC.GNA..EHZ,P,1.0,2012-04-19 16:58:07.480
nc71767465,2012-04-19 16:57:46.660,40.29416666666667,-124.39816666666667,12.98,1.83,NC.GTC..EHZ,P,1.0,2012-04-19 16:58:05.910
nc71767465,2012-04-19 16:57:46.660,40.29416666666667,-124.39816666666667,12.98,1.83,NC.KCPB..HHZ,P,1.0,2012-04-19 16:58:03.970
nc71767465,2012-04-19 16:57:46.660,40.29416666666667,-124.39816666666667,12.98,1.83,NC.KCR..EHZ,P,1.0,2012-04-19 16:57:56.810
nc71767465,2012-04-19 16:57:46.660,40.29416666666667,-124.39816666666667,12.98,1.83,NC.KCT..HHZ,P,1.0,2012-04-19 16:57:51.330
nc71767465,2012-04-19 16:57:46.660,40.29416666666667,-124.39816666666667,12.98,1.83,NC.KFP..EHZ,P,1.0,2012-04-19 16:58:04.220
nc71767465,2012-04-19 16:57:46.660,40.29416666666667,-124.39816666666667,12.98,1.83,NC.KHBB..HHZ,P,1.0,2012-04-19 16:58:04.440
nc71767465,2012-04-19 16:57:46.660,40.29416666666667,-124.39816666666667,12.98,1.83,NC.KHMB..HHZ,P,1.0,2012-04-19 16:58:01.220
nc71767465,2012-04-19 16:57:46.660,40.29416666666667,-124.39816666666667,12.98,1.83,NC.KIP..EHZ,P,1.0,2012-04-19 16:58:02.690
nc71767465,2012-04-19 16:57:46.660,40.29416666666667,-124.39816666666667,12.98,1.83,NC.KJJ..EHZ,P,1.0,2012-04-19 16:57:49.930
nc71767465,2012-04-19 16:57:46.660,40.29416666666667,-124.39816666666667,12.98,1.83,NC.KKP..EHZ,P,1.0,2012-04-19 16:58:01.910
nc71767465,2012-04-19 16:57:46.660,40.29416666666667,-124.39816666666667,12.98,1.83,NC.KMPB..HHZ,P,1.0,2012-04-19 16:57:52.450
nc71767465,2012-04-19 16:57:46.660,40.29416666666667,-124.39816666666667,12.98,1.83,NC.KMR..HHZ,P,-1.0,2012-04-19 16:57:58.010
nc71767465,2012-04-19 16:57:46.660,40.29416666666667,-124.39816666666667,12.98,1.83,NC.KSM..EHZ,P,-1.0,2012-04-19 16:57:51.810
nc71767465,2012-04-19 16:57:46.660,40.29416666666667,-124.39816666666667,12.98,1.83,NC.LGP..EHZ,P,,2012-04-19 16:58:10.020
nc71767465,2012-04-19 16:57:46.660,40.29416666666667,-124.39816666666667,12.98,1.83,PB.B045..EHZ,P,1.0,2012-04-19 16:57:54.180
nc71767465,2012-04-19 16:57:46.660,40.29416666666667,-124.39816666666667,12.98,1.83,PB.B046..EHZ,P,1.0,2012-04-19 16:57:49.740
nc71767465,2012-04-19 16:57:46.660,40.29416666666667,-124.39816666666667,12.98,1.83,PB.B047..EHZ,P,1.0,2012-04-19 16:57:51.370
nc71767465,2012-04-19 16:57:46.660,40.29416666666667,-124.39816666666667,12.98,1.83,PB.B049..EHZ,P,,2012-04-19 16:57:56.210
nc71767465,2012-04-19 16:57:46.660,40.29416666666667,-124.39816666666667,12.98,1.83,PB.B932..EHZ,P,1.0,2012-04-19 16:57:50.460
nc71767465,2012-04-19 16:57:46.660,40.29416666666667,-124.39816666666667,12.98,1.83,PB.B933..EHZ,P,-1.0,2012-04-19 16:57:55.100
nc71767465,2012-04-19 16:57:46.660,40.29416666666667,-124.39816666666667,12.98,1.83,PB.B935..EHZ,P,,2012-04-19 16:58:00.160
nc71773775,2012-05-01 06:31:39.240,40.91916666666667,-123.48733333333334,27.35,2.06,BK.JCC..HHZ,P,1.0,2012-05-01 06:31:48.010
nc71773775,2012-05-01 06:31:39.240,40.91916666666667,-123.48733333333334,27.35,2.06,NC.KCR..EHZ,P,-1.0,2012-05-01 06:31:50.470
nc71773775,2012-05-01 06:31:39.240,40.91916666666667,-123.48733333333334,27.35,2.06,NC.KCS..EHZ,P,1.0,2012-05-01 06:31:47.870
nc71773775,2012-05-01 06:31:39.240,40.91916666666667,-123.48733333333334,27.35,2.06,NC.KHBB..HHZ,P,1.0,2012-05-01 06:31:46.950
nc71773775,2012-05-01 06:31:39.240,40.91916666666667,-123.48733333333334,27.35,2.06,NC.KHMB..HHZ,P,1.0,2012-05-01 06:31:45.210
nc71773775,2012-05-01 06:31:39.240,40.91916666666667,-123.48733333333334,27.35,2.06,NC.KOM..EHZ,P,-1.0,2012-05-01 06:31:47.200
nc71773775,2012-05-01 06:31:39.240,40.91916666666667,-123.48733333333334,27.35,2.06,NC.LBK..EHZ,P,1.0,2012-05-01 06:31:51.260
nc71773775,2012-05-01 06:31:39.240,40.91916666666667,-123.48733333333334,27.35,2.06,NC.LBO..EHZ,P,1.0,2012-05-01 06:31:58.690
nc71773775,2012-05-01 06:31:39.240,40.91916666666667,-123.48733333333334,27.35,2.06,NC.LGB..EHZ,P,1.0,2012-05-01 06:31:58.530
nc71773775,2012-05-01 06:31:39.240,40.91916666666667,-123.48733333333334,27.35,2.06,NC.LGM..EHZ,P,-1.0,2012-05-01 06:32:05.060
nc71773775,2012-05-01 06:31:39.240,40.91916666666667,-123.48733333333334,27.35,2.06,NC.LGP..EHZ,P,1.0,2012-05-01 06:31:49.150
nc71773775,2012-05-01 06:31:39.240,40.91916666666667,-123.48733333333334,27.35,2.06,NC.LMI..EHZ,P,1.0,2012-05-01 06:31:57.630
nc71773775,2012-05-01 06:31:39.240,40.91916666666667,-123.48733333333334,27.35,2.06,NC.LMP..EHZ,P,-1.0,2012-05-01 06:32:00.370
nc71773775,2012-05-01 06:31:39.240,40.91916666666667,-123.48733333333334,27.35,2.06,NC.LSF..EHZ,P,-1.0,2012-05-01 06:31:53.850
nc71773775,2012-05-01 06:31:39.240,40.91916666666667,-123.48733333333334,27.35,2.06,PB.B045..EHZ,P,1.0,2012-05-01 06:31:51.090
nc71773775,2012-05-01 06:31:39.240,40.91916666666667,-123.48733333333334,27.35,2.06,PB.B935..EHZ,P,1.0,2012-05-01 06:31:48.690
nc71773775,2012-05-01 06:31:39.240,40.91916666666667,-123.48733333333334,27.35,2.06,TA.M02C..HHZ,P,-1.0,2012-05-01 06:31:51.730
nc71773775,2012-05-01 06:31:39.240,40.91916666666667,-123.48733333333334,27.35,2.06,TA.N02D..HHZ,P,1.0,2012-05-01 06:31:50.450
nc71774710,2012-05-02 23:54:01.050,40.14483333333333,-123.82766666666667,21.74,2.08,NC.GTC..EHZ,P,,2012-05-02 23:54:14.530
nc71774710,2012-05-02 23:54:01.050,40.14483333333333,-123.82766666666667,21.74,2.08,NC.KBN..EHZ,P,-1.0,2012-05-02 23:54:12.200
nc71774710,2012-05-02 23:54:01.050,40.14483333333333,-123.82766666666667,21.74,2.08,NC.KCPB..HHZ,P,1.0,2012-05-02 23:54:10.960
nc71774710,2012-05-02 23:54:01.050,40.14483333333333,-123.82766666666667,21.74,2.08,NC.KCR..EHZ,P,-1.0,2012-05-02 23:54:08.050
nc71774710,2012-05-02 23:54:01.050,40.14483333333333,-123.82766666666667,21.74,2.08,NC.KCS..EHZ,P,-1.0,2012-05-02 23:54:10.940
nc71774710,2012-05-02 23:54:01.050,40.14483333333333,-123.82766666666667,21.74,2.08,NC.KFP..EHZ,P,-1.0,2012-05-02 23:54:12.160
nc71774710,2012-05-02 23:54:01.050,40.14483333333333,-123.82766666666667,21.74,2.08,NC.KHMB..HHZ,P,-1.0,2012-05-02 23:54:14.440
nc71774710,2012-05-02 23:54:01.050,40.14483333333333,-123.82766666666667,21.74,2.08,NC.KIP..EHZ,P,1.0,2012-05-02 23:54:10.030
nc71774710,2012-05-02 23:54:01.050,40.14483333333333,-123.82766666666667,21.74,2.08,NC.KJJ..EHZ,P,1.0,2012-05-02 23:54:09.190
nc71774710,2012-05-02 23:54:01.050,40.14483333333333,-123.82766666666667,21.74,2.08,NC.KKP..EHZ,P,1.0,2012-05-02 23:54:08.070
nc71774710,2012-05-02 23:54:01.050,40.14483333333333,-123.82766666666667,21.74,2.08,NC.KMPB..HHZ,P,1.0,2012-05-02 23:54:08.980
nc71774710,2012-05-02 23:54:01.050,40.14483333333333,-123.82766666666667,21.74,2.08,NC.KMR..HHZ,P,-1.0,2012-05-02 23:54:05.840
nc71774710,2012-05-02 23:54:01.050,40.14483333333333,-123.82766666666667,21.74,2.08,NC.KRK..EHZ,P,,2012-05-02 23:54:14.670
nc71774710,2012-05-02 23:54:01.050,40.14483333333333,-123.82766666666667,21.74,2.08,NC.KSM..EHZ,P,1.0,2012-05-02 23:54:07.640
nc71774710,2012-05-02 23:54:01.050,40.14483333333333,-123.82766666666667,21.74,2.08,NC.LBP..EHZ,P,-1.0,2012-05-02 23:54:14.650
nc71774710,2012-05-02 23:54:01.050,40.14483333333333,-123.82766666666667,21.74,2.08,NC.LGP..EHZ,P,,2012-05-02 23:54:19.640
nc71774710,2012-05-02 23:54:01.050,40.14483333333333,-123.82766666666667,21.74,2.08,NC.LRB..EHZ,P,-1.0,2012-05-02 23:54:18.800
nc71774710,2012-05-02 23:54:01.050,40.14483333333333,-123.82766666666667,21.74,2.08,NC.LSH..EHZ,P,,2012-05-02 23:54:25.490
nc71774710,2012-05-02 23:54:01.050,40.14483333333333,-123.82766666666667,21.74,2.08,PB.B045..EHZ,P,1.0,2012-05-02 23:54:08.340
nc71774710,2012-05-02 23:54:01.050,40.14483333333333,-123.82766666666667,21.74,2.08,PB.B046..EHZ,P,1.0,2012-05-02 23:54:09.290
nc71774710,2012-05-02 23:54:01.050,40.14483333333333,-123.82766666666667,21.74,2.08,PB.B047..EHZ,P,1.0,2012-05-02 23:54:07.910
nc71774710,2012-05-02 23:54:01.050,40.14483333333333,-123.82766666666667,21.74,2.08,PB.B049..EHZ,P,-1.0,2012-05-02 23:54:05.480
nc71774710,2012-05-02 23:54:01.050,40.14483333333333,-123.82766666666667,21.74,2.08,PB.B932..EHZ,P,1.0,2012-05-02 23:54:08.260
nc71774710,2012-05-02 23:54:01.050,40.14483333333333,-123.82766666666667,21.74,2.08,PB.B933..EHZ,P,1.0,2012-05-02 23:54:06.010
nc71774710,2012-05-02 23:54:01.050,40.14483333333333,-123.82766666666667,21.74,2.08,PB.B935..EHZ,P,1.0,2012-05-02 23:54:09.500
nc71775065,2012-05-03 13:40:12.380,40.46783333333333,-123.49466666666666,6.42,2.21,BK.JCC..HHZ,P,1.0,2012-05-03 13:40:23.910
nc71775065,2012-05-03 13:40:12.380,40.46783333333333,-123.49466666666666,6.42,2.21,BK.WDC..HHZ,P,1.0,2012-05-03 13:40:26.670
nc71775065,2012-05-03 13:40:12.380,40.46783333333333,-123.49466666666666,6.42,2.21,NC.GRO..EHZ,P,-1.0,2012-05-03 13:40:29.300
nc71775065,2012-05-03 13:40:12.380,40.46783333333333,-123.49466666666666,6.42,2.21,NC.KCR..EHZ,P,-1.0,2012-05-03 13:40:18.660
nc71775065,2012-05-03 13:40:12.380,40.46783333333333,-123.49466666666666,6.42,2.21,NC.KCS..EHZ,P,-1.0,2012-05-03 13:40:15.520
nc71775065,2012-05-03 13:40:12.380,40.46783333333333,-123.49466666666666,6.42,2.21,NC.KFP..EHZ,P,1.0,2012-05-03 13:40:29.530
nc71775065,2012-05-03 13:40:12.380,40.46783333333333,-123.49466666666666,6.42,2.21,NC.KHBB..HHZ,P,-1.0,2012-05-03 13:40:18.880
nc71775065,2012-05-03 13:40:12.380,40.46783333333333,-123.49466666666666,6.42,2.21,NC.KHMB..HHZ,P,1.0,2012-05-03 13:40:21.600
nc71775065,2012-05-03 13:40:12.380,40.46783333333333,-123.49466666666666,6.42,2.21,NC.KIP..EHZ,P,1.0,2012-05-03 13:40:26.410
nc71775065,2012-05-03 13:40:12.380,40.46783333333333,-123.49466666666666,6.42,2.21,NC.KJJ..EHZ,P,1.0,2012-05-03 13:40:26.470
nc71775065,2012-05-03 13:40:12.380,40.46783333333333,-123.49466666666666,6.42,2.21,NC.KKP..EHZ,P,-1.0,2012-05-03 13:40:20.320
