event_id,etime,elat,elon,edep,emag,station_id,phase_type,phase_polarity,phase_time
nc71759805,2012-04-06 14:08:18.270,40.737833333333334,-124.8365,-0.32,2.86,NC.KCR..EHZ,P,1.0,2012-04-06 14:08:35.670
nc71759805,2012-04-06 14:08:18.270,40.737833333333334,-124.8365,-0.32,2.86,NC.KCS..EHZ,P,1.0,2012-04-06 14:08:38.690
nc71759805,2012-04-06 14:08:18.270,40.737833333333334,-124.8365,-0.32,2.86,NC.KCT..HHZ,P,1.0,2012-04-06 14:08:30.520
nc71759805,2012-04-06 14:08:18.270,40.737833333333334,-124.8365,-0.32,2.86,NC.KFP..EHZ,P,1.0,2012-04-06 14:08:45.480
nc71759805,2012-04-06 14:08:18.270,40.737833333333334,-124.8365,-0.32,2.86,NC.KHBB..HHZ,P,1.0,2012-04-06 14:08:41.260
nc71759805,2012-04-06 14:08:18.270,40.737833333333334,-124.8365,-0.32,2.86,NC.KHMB..HHZ,P,1.0,2012-04-06 14:08:35.970
nc71759805,2012-04-06 14:08:18.270,40.737833333333334,-124.8365,-0.32,2.86,NC.KIP..EHZ,P,1.0,2012-04-06 14:08:43.790
nc71759805,2012-04-06 14:08:18.270,40.737833333333334,-124.8365,-0.32,2.86,NC.KJJ..EHZ,P,1.0,2012-04-06 14:08:32.470
nc71759805,2012-04-06 14:08:18.270,40.737833333333334,-124.8365,-0.32,2.86,NC.KKP..EHZ,P,1.0,2012-04-06 14:08:41.290
nc71759805,2012-04-06 14:08:18.270,40.737833333333334,-124.8365,-0.32,2.86,NC.KMPB..HHZ,P,1.0,2012-04-06 14:08:32.740
nc71759805,2012-04-06 14:08:18.270,40.737833333333334,-124.8365,-0.32,2.86,NC.KMR..HHZ,P,1.0,2012-04-06 14:08:38.440
nc71759805,2012-04-06 14:08:18.270,40.737833333333334,-124.8365,-0.32,2.86,NC.KOM..EHZ,P,1.0,2012-04-06 14:08:40.550
nc71759805,2012-04-06 14:08:18.270,40.737833333333334,-124.8365,-0.32,2.86,NC.KRK..EHZ,P,1.0,2012-04-06 14:08:48.320
nc71759805,2012-04-06 14:08:18.270,40.737833333333334,-124.8365,-0.32,2.86,NC.KRP..HHZ,P,-1.0,2012-04-06 14:08:34.280
nc71759805,2012-04-06 14:08:18.270,40.737833333333334,-124.8365,-0.32,2.86,NC.KSM..EHZ,P,1.0,2012-04-06 14:08:34.090
nc71759805,2012-04-06 14:08:18.270,40.737833333333334,-124.8365,-0.32,2.86,NC.KSXB..HHZ,P,-1.0,2012-04-06 14:08:42.060
nc71759805,2012-04-06 14:08:18.270,40.737833333333334,-124.8365,-0.32,2.86,NC.KTR..EHZ,P,-1.0,2012-04-06 14:08:46.470
nc71759805,2012-04-06 14:08:18.270,40.737833333333334,-124.8365,-0.32,2.86,NC.LAMB..EHZ,P,-1.0,2012-04-06 14:08:50.870
nc71759805,2012-04-06 14:08:18.270,40.737833333333334,-124.8365,-0.32,2.86,NC.LBC..EHZ,P,-1.0,2012-04-06 14:09:01.200
nc71759805,2012-04-06 14:08:18.270,40.737833333333334,-124.8365,-0.32,2.86,NC.LBF..EHZ,P,-1.0,2012-04-06 14:08:57.710
nc71759805,2012-04-06 14:08:18.270,40.737833333333334,-124.8365,-0.32,2.86,NC.LBK..EHZ,P,1.0,2012-04-06 14:08:47.510
nc71759805,2012-04-06 14:08:18.270,40.737833333333334,-124.8365,-0.32,2.86,NC.LBP..EHZ,P,1.0,2012-04-06 14:08:45.750
nc71759805,2012-04-06 14:08:18.270,40.737833333333334,-124.8365,-0.32,2.86,NC.LDB..EHZ,P,1.0,2012-04-06 14:08:56.680
nc71759805,2012-04-06 14:08:18.270,40.737833333333334,-124.8365,-0.32,2.86,NC.LDH..HHZ,P,1.0,2012-04-06 14:08:59.140
nc71759805,2012-04-06 14:08:18.270,40.737833333333334,-124.8365,-0.32,2.86,NC.LEL..EHZ,P,,2012-04-06 14:09:00.030
nc71759805,2012-04-06 14:08:18.270,40.737833333333334,-124.8365,-0.32,2.86,NC.LGB..EHZ,P,,2012-04-06 14:08:54.330
nc71759805,2012-04-06 14:08:18.270,40.737833333333334,-124.8365,-0.32,2.86,NC.LGP..EHZ,P,1.0,2012-04-06 14:08:45.450
nc71759805,2012-04-06 14:08:18.270,40.737833333333334,-124.8365,-0.32,2.86,NC.LHE..EHZ,P,-1.0,2012-04-06 14:08:55.630
nc71759805,2012-04-06 14:08:18.270,40.737833333333334,-124.8365,-0.32,2.86,NC.LMC..HHZ,P,-1.0,2012-04-06 14:08:55.100
nc71759805,2012-04-06 14:08:18.270,40.737833333333334,-124.8365,-0.32,2.86,NC.LMI..EHZ,P,1.0,2012-04-06 14:08:53.150
nc71759805,2012-04-06 14:08:18.270,40.737833333333334,-124.8365,-0.32,2.86,NC.LMP..EHZ,P,-1.0,2012-04-06 14:08:56.060
nc71759805,2012-04-06 14:08:18.270,40.737833333333334,-124.8365,-0.32,2.86,NC.LPG..EHZ,P,1.0,2012-04-06 14:08:48.600
nc71759805,2012-04-06 14:08:18.270,40.737833333333334,-124.8365,-0.32,2.86,NC.LRB..EHZ,P,,2012-04-06 14:08:50.230
nc71759805,2012-04-06 14:08:18.270,40.737833333333334,-124.8365,-0.32,2.86,NC.LRD..EHZ,P,,2012-04-06 14:09:00.740
nc71759805,2012-04-06 14:08:18.270,40.737833333333334,-124.8365,-0.32,2.86,NC.LRR..EHZ,P,,2012-04-06 14:08:58.720
nc71759805,2012-04-06 14:08:18.270,40.737833333333334,-124.8365,-0.32,2.86,NC.LSF..EHZ,P,1.0,2012-04-06 14:08:48.980
nc71759805,2012-04-06 14:08:18.270,40.737833333333334,-124.8365,-0.32,2.86,NC.LSH..EHZ,P,1.0,2012-04-06 14:08:54.110
nc71759805,2012-04-06 14:08:18.270,40.737833333333334,-124.8365,-0.32,2.86,NC.LSI..EHZ,P,1.0,2012-04-06 14:09:01.140
nc71759805,2012-04-06 14:08:18.270,40.737833333333334,-124.8365,-0.32,2.86,NC.LSR..EHZ,P,1.0,2012-04-06 14:08:52.320
nc71759805,2012-04-06 14:08:18.270,40.737833333333334,-124.8365,-0.32,2.86,NC.LTC..EHZ,P,1.0,2012-04-06 14:08:54.300
nc71759805,2012-04-06 14:08:18.270,40.737833333333334,-124.8365,-0.32,2.86,NC.LTI..EHZ,P,1.0,2012-04-06 14:09:00.420
nc71759805,2012-04-06 14:08:18.270,40.737833333333334,-124.8365,-0.32,2.86,NC.LVR..EHZ,P,1.0,2012-04-06 14:08:49.470
nc71759805,2012-04-06 14:08:18.270,40.737833333333334,-124.8365,-0.32,2.86,NC.LWH..EHZ,P,1.0,2012-04-06 14:08:54.980
nc71759805,2012-04-06 14:08:18.270,40.737833333333334,-124.8365,-0.32,2.86,NC.NMC..EHZ,P,,2012-04-06 14:09:00.030
nc71759805,2012-04-06 14:08:18.270,40.737833333333334,-124.8365,-0.32,2.86,NC.NMT..EHZ,P,1.0,2012-04-06 14:09:01.780
nc71759805,2012-04-06 14:08:18.270,40.737833333333334,-124.8365,-0.32,2.86,NC.OCR..EHZ,P,-1.0,2012-04-06 14:08:58.890
nc71759805,2012-04-06 14:08:18.270,40.737833333333334,-124.8365,-0.32,2.86,NC.OGO..EHZ,P,,2012-04-06 14:09:01.170
nc71759805,2012-04-06 14:08:18.270,40.737833333333334,-124.8365,-0.32,2.86,PB.B040..EHZ,P,-1.0,2012-04-06 14:08:55.250
nc71759805,2012-04-06 14:08:18.270,40.737833333333334,-124.8365,-0.32,2.86,PB.B045..EHZ,P,1.0,2012-04-06 14:08:33.670
nc71759805,2012-04-06 14:08:18.270,40.737833333333334,-124.8365,-0.32,2.86,PB.B046..EHZ,P,1.0,2012-04-06 14:08:32.000
nc71759805,2012-04-06 14:08:18.270,40.737833333333334,-124.8365,-0.32,2.86,PB.B047..EHZ,P,1.0,2012-04-06 14:08:33.470
nc71759805,2012-04-06 14:08:18.270,40.737833333333334,-124.8365,-0.32,2.86,PB.B049..EHZ,P,1.0,2012-04-06 14:08:36.880
nc71759805,2012-04-06 14:08:18.270,40.737833333333334,-124.8365,-0.32,2.86,PB.B932..EHZ,P,1.0,2012-04-06 14:08:32.640
nc71759805,2012-04-06 14:08:18.270,40.737833333333334,-124.8365,-0.32,2.86,PB.B933..EHZ,P,1.0,2012-04-06 14:08:37.110
nc71759805,2012-04-06 14:08:18.270,40.737833333333334,-124.8365,-0.32,2.86,PB.B935..EHZ,P,1.0,2012-04-06 14:08:37.980
nc71759805,2012-04-06 14:08:18.270,40.737833333333334,-124.8365,-0.32,2.86,TA.L02D..HHZ,P,-1.0,2012-04-06 14:08:47.800
nc71759805,2012-04-06 14:08:18.270,40.737833333333334,-124.8365,-0.32,2.86,TA.M02C..HHZ,P,1.0,2012-04-06 14:08:46.970
nc71759805,2012-04-06 14:08:18.270,40.737833333333334,-124.8365,-0.32,2.86,TA.N02D..HHZ,P,1.0,2012-04-06 14:08:46.800
nc71759805,2012-04-06 14:08:18.270,40.737833333333334,-124.8365,-0.32,2.86,WR.MGL..EHZ,P,-1.0,2012-04-06 14:09:01.110
nc71760025,2012-04-06 21:59:12.520,40.0335,-123.786,18.19,1.83,NC.GHO..EHZ,P,-1.0,2012-04-06 21:59:29.130
nc71760025,2012-04-06 21:59:12.520,40.0335,-123.786,18.19,1.83,NC.GTC..EHZ,P,1.0,2012-04-06 21:59:24.550
nc71760025,2012-04-06 21:59:12.520,40.0335,-123.786,18.19,1.83,NC.KBN..EHZ,P,1.0,2012-04-06 21:59:22.660
nc71760025,2012-04-06 21:59:12.520,40.0335,-123.786,18.19,1.83,NC.KCPB..HHZ,P,,2012-04-06 21:59:20.900
nc71760025,2012-04-06 21:59:12.520,40.0335,-123.786,18.19,1.83,NC.KCR..EHZ,P,-1.0,2012-04-06 21:59:21.080
nc71760025,2012-04-06 21:59:12.520,40.0335,-123.786,18.19,1.83,NC.KCS..EHZ,P,1.0,2012-04-06 21:59:23.980
nc71760025,2012-04-06 21:59:12.520,40.0335,-123.786,18.19,1.83,NC.KCT..HHZ,P,,2012-04-06 21:59:25.340
nc71760025,2012-04-06 21:59:12.520,40.0335,-123.786,18.19,1.83,NC.KFP..EHZ,P,-1.0,2012-04-06 21:59:22.290
nc71760025,2012-04-06 21:59:12.520,40.0335,-123.786,18.19,1.83,NC.KHBB..HHZ,P,1.0,2012-04-06 21:59:26.670
nc71760025,2012-04-06 21:59:12.520,40.0335,-123.786,18.19,1.83,NC.KHMB..HHZ,P,,2012-04-06 21:59:28.020
nc71760025,2012-04-06 21:59:12.520,40.0335,-123.786,18.19,1.83,NC.KIP..EHZ,P,-1.0,2012-04-06 21:59:19.820
nc71760025,2012-04-06 21:59:12.520,40.0335,-123.786,18.19,1.83,NC.KJJ..EHZ,P,1.0,2012-04-06 21:59:21.840
nc71760025,2012-04-06 21:59:12.520,40.0335,-123.786,18.19,1.83,NC.KKP..EHZ,P,-1.0,2012-04-06 21:59:18.980
nc71760025,2012-04-06 21:59:12.520,40.0335,-123.786,18.19,1.83,NC.KMPB..HHZ,P,1.0,2012-04-06 21:59:22.480
nc71760025,2012-04-06 21:59:12.520,40.0335,-123.786,18.19,1.83,NC.KMR..HHZ,P,-1.0,2012-04-06 21:59:17.540
nc71760025,2012-04-06 21:59:12.520,40.0335,-123.786,18.19,1.83,NC.KOM..EHZ,P,1.0,2012-04-06 21:59:33.790
nc71760025,2012-04-06 21:59:12.520,40.0335,-123.786,18.19,1.83,NC.KSM..EHZ,P,1.0,2012-04-06 21:59:20.040
nc71760025,2012-04-06 21:59:12.520,40.0335,-123.786,18.19,1.83,NC.LBP..EHZ,P,1.0,2012-04-06 21:59:26.480
nc71760025,2012-04-06 21:59:12.520,40.0335,-123.786,18.19,1.83,NC.LPG..EHZ,P,1.0,2012-04-06 21:59:28.260
nc71760025,2012-04-06 21:59:12.520,40.0335,-123.786,18.19,1.83,NC.LVR..EHZ,P,-1.0,2012-04-06 21:59:28.410
nc71760025,2012-04-06 21:59:12.520,40.0335,-123.786,18.19,1.83,PB.B045..EHZ,P,,2012-04-06 21:59:21.860
nc71760025,2012-04-06 21:59:12.520,40.0335,-123.786,18.19,1.83,PB.B046..EHZ,P,1.0,2012-04-06 21:59:22.400
nc71760025,2012-04-06 21:59:12.520,40.0335,-123.786,18.19,1.83,PB.B047..EHZ,P,1.0,2012-04-06 21:59:20.730
nc71760025,2012-04-06 21:59:12.520,40.0335,-123.786,18.19,1.83,PB.B049..EHZ,P,-1.0,2012-04-06 21:59:17.770
nc71760025,2012-04-06 21:59:12.520,40.0335,-123.786,18.19,1.83,PB.B932..EHZ,P,1.0,2012-04-06 21:59:21.130
nc71760025,2012-04-06 21:59:12.520,40.0335,-123.786,18.19,1.83,PB.B933..EHZ,P,1.0,2012-04-06 21:59:17.330
nc71760025,2012-04-06 21:59:12.520,40.0335,-123.786,18.19,1.83,PB.B935..EHZ,P,1.0,2012-04-06 21:59:22.560
nc71760025,2012-04-06 21:59:12.520,40.0335,-123.786,18.19,1.83,TA.N02D..HHZ,P,1.0,2012-04-06 21:59:33.930
nc71760520,2012-04-07 21:46:34.070,40.312333333333335,-123.73866666666666,22.67,1.69,NC.GRO..EHZ,P,-1.0,2012-04-07 21:46:50.900
nc71760520,2012-04-07 21:46:34.070,40.312333333333335,-123.73866666666666,22.67,1.69,NC.KBN..EHZ,P,1.0,2012-04-07 21:46:46.400
nc71760520,2012-04-07 21:46:34.070,40.312333333333335,-123.73866666666666,22.67,1.69,NC.KCR..EHZ,P,-1.0,2012-04-07 21:46:39.030
nc71760520,2012-04-07 21:46:34.070,40.312333333333335,-123.73866666666666,22.67,1.69,NC.KCS..EHZ,P,1.0,2012-04-07 21:46:41.430
nc71760520,2012-04-07 21:46:34.070,40.312333333333335,-123.73866666666666,22.67,1.69,NC.KFP..EHZ,P,-1.0,2012-04-07 21:46:47.500
nc71760520,2012-04-07 21:46:34.070,40.312333333333335,-123.73866666666666,22.67,1.69,NC.KHBB..HHZ,P,1.0,2012-04-07 21:46:44.850
nc71760520,2012-04-07 21:46:34.070,40.312333333333335,-123.73866666666666,22.67,1.69,NC.KIP..EHZ,P,-1.0,2012-04-07 21:46:45.320
nc71760520,2012-04-07 21:46:34.070,40.312333333333335,-123.73866666666666,22.67,1.69,NC.KJJ..EHZ,P,-1.0,2012-04-07 21:46:43.200
nc71760520,2012-04-07 21:46:34.070,40.312333333333335,-123.73866666666666,22.67,1.69,NC.KKP..EHZ,P,1.0,2012-04-07 21:46:41.150
nc71760520,2012-04-07 21:46:34.070,40.312333333333335,-123.73866666666666,22.67,1.69,NC.KMPB..HHZ,P,1.0,2012-04-07 21:46:41.280
nc71760520,2012-04-07 21:46:34.070,40.312333333333335,-123.73866666666666,22.67,1.69,NC.KMR..HHZ,P,-1.0,2012-04-07 21:46:39.010
nc71760520,2012-04-07 21:46:34.070,40.312333333333335,-123.73866666666666,22.67,1.69,NC.KSM..EHZ,P,1.0,2012-04-07 21:46:42.090
nc71760520,2012-04-07 21:46:34.070,40.312333333333335,-123.73866666666666,22.67,1.69,NC.LVR..EHZ,P,-1.0,2012-04-07 21:46:50.280
nc71760520,2012-04-07 21:46:34.070,40.312333333333335,-123.73866666666666,22.67,1.69,PB.B045..EHZ,P,1.0,2012-04-07 21:46:40.100
nc71760520,2012-04-07 21:46:34.070,40.312333333333335,-123.73866666666666,22.67,1.69,PB.B046..EHZ,P,1.0,2012-04-07 21:46:42.780
nc71760520,2012-04-07 21:46:34.070,40.312333333333335,-123.73866666666666,22.67,1.69,PB.B047..EHZ,P,1.0,2012-04-07 21:46:41.730
nc71760520,2012-04-07 21:46:34.070,40.312333333333335,-123.73866666666666,22.67,1.69,PB.B049..EHZ,P,-1.0,2012-04-07 21:46:38.580
nc71760520,2012-04-07 21:46:34.070,40.312333333333335,-123.73866666666666,22.67,1.69,PB.B932..EHZ,P,1.0,2012-04-07 21:46:42.020
nc71760520,2012-04-07 21:46:34.070,40.312333333333335,-123.73866666666666,22.67,1.69,PB.B933..EHZ,P,1.0,2012-04-07 21:46:41.360
nc71760520,2012-04-07 21:46:34.070,40.312333333333335,-123.73866666666666,22.67,1.69,PB.B935..EHZ,P,-1.0,2012-04-07 21:46:40.180
nc71764085,2012-04-13 14:39:53.540,40.148,-123.86916666666667,19.74,1.95,NC.KBN..EHZ,P,,2012-04-13 14:40:05.150
nc71764085,2012-04-13 14:39:53.540,40.148,-123.86916666666667,19.74,1.95,NC.KCPB..HHZ,P,1.0,2012-04-13 14:40:03.810
nc71764085,2012-04-13 14:39:53.540,40.148,-123.86916666666667,19.74,1.95,NC.KCR..EHZ,P,1.0,2012-04-13 14:40:00.370
nc71764085,2012-04-13 14:39:53.540,40.148,-123.86916666666667,19.74,1.95,NC.KCS..EHZ,P,1.0,2012-04-13 14:40:03.770
nc71764085,2012-04-13 14:39:53.540,40.148,-123.86916666666667,19.74,1.95,NC.KCT..HHZ,P,-1.0,2012-04-13 14:40:04.180
nc71764085,2012-04-13 14:39:53.540,40.148,-123.86916666666667,19.74,1.95,NC.KFP..EHZ,P,1.0,2012-04-13 14:40:04.970
nc71764085,2012-04-13 14:39:53.540,40.148,-123.86916666666667,19.74,1.95,NC.KHBB..HHZ,P,1.0,2012-04-13 14:40:06.830
nc71764085,2012-04-13 14:39:53.540,40.148,-123.86916666666667,19.74,1.95,NC.KIP..EHZ,P,1.0,2012-04-13 14:40:02.820
nc71764085,2012-04-13 14:39:53.540,40.148,-123.86916666666667,19.74,1.95,NC.KJJ..EHZ,P,-1.0,2012-04-13 14:40:01.260
nc71764085,2012-04-13 14:39:53.540,40.148,-123.86916666666667,19.74,1.95,NC.KKP..EHZ,P,-1.0,2012-04-13 14:40:00.950
nc71764085,2012-04-13 14:39:53.540,40.148,-123.86916666666667,19.74,1.95,NC.KMPB..HHZ,P,1.0,2012-04-13 14:40:01.130
nc71764085,2012-04-13 14:39:53.540,40.148,-123.86916666666667,19.74,1.95,NC.KMR..HHZ,P,-1.0,2012-04-13 14:39:58.330
nc71764085,2012-04-13 14:39:53.540,40.148,-123.86916666666667,19.74,1.95,NC.LBK..EHZ,P,-1.0,2012-04-13 14:40:15.690
nc71764085,2012-04-13 14:39:53.540,40.148,-123.86916666666667,19.74,1.95,NC.LGP..EHZ,P,1.0,2012-04-13 14:40:12.280
nc71764085,2012-04-13 14:39:53.540,40.148,-123.86916666666667,19.74,1.95,NC.LVR..EHZ,P,1.0,2012-04-13 14:40:10.290
nc71764085,2012-04-13 14:39:53.540,40.148,-123.86916666666667,19.74,1.95,PB.B045..EHZ,P,1.0,2012-04-13 14:40:00.710
nc71764085,2012-04-13 14:39:53.540,40.148,-123.86916666666667,19.74,1.95,PB.B046..EHZ,P,1.0,2012-04-13 14:40:01.350
nc71764085,2012-04-13 14:39:53.540,40.148,-123.86916666666667,19.74,1.95,PB.B047..EHZ,P,1.0,2012-04-13 14:39:59.900
nc71764085,2012-04-13 14:39:53.540,40.148,-123.86916666666667,19.74,1.95,PB.B049..EHZ,P,-1.0,2012-04-13 14:39:57.780
nc71764085,2012-04-13 14:39:53.540,40.148,-123.86916666666667,19.74,1.95,PB.B932..EHZ,P,1.0,2012-04-13 14:40:00.290
nc71764085,2012-04-13 14:39:53.540,40.148,-123.86916666666667,19.74,1.95,PB.B933..EHZ,P,1.0,2012-04-13 14:39:58.050
nc71764085,2012-04-13 14:39:53.540,40.148,-123.86916666666667,19.74,1.95,PB.B935..EHZ,P,1.0,2012-04-13 14:40:02.360
nc71764090,2012-04-13 14:43:40.550,40.64366666666667,-123.28733333333334,28.69,2.09,BK.GASB..HHZ,P,-1.0,2012-04-13 14:43:59.680
nc71764090,2012-04-13 14:43:40.550,40.64366666666667,-123.28733333333334,28.69,2.09,BK.JCC..HHZ,P,,2012-04-13 14:43:52.060
nc71764090,2012-04-13 14:43:40.550,40.64366666666667,-123.28733333333334,28.69,2.09,BK.WDC..HHZ,P,-1.0,2012-04-13 14:43:51.440
nc71764090,2012-04-13 14:43:40.550,40.64366666666667,-123.28733333333334,28.69,2.09,NC.GRO..EHZ,P,-1.0,2012-04-13 14:43:56.740
nc71764090,2012-04-13 14:43:40.550,40.64366666666667,-123.28733333333334,28.69,2.09,NC.GVV..EHZ,P,-1.0,2012-04-13 14:43:58.520
nc71764090,2012-04-13 14:43:40.550,40.64366666666667,-123.28733333333334,28.69,2.09,NC.KCR..EHZ,P,1.0,2012-04-13 14:43:50.330
nc71764090,2012-04-13 14:43:40.550,40.64366666666667,-123.28733333333334,28.69,2.09,NC.KCS..EHZ,P,1.0,2012-04-13 14:43:46.970
nc71764090,2012-04-13 14:43:40.550,40.64366666666667,-123.28733333333334,28.69,2.09,NC.KHBB..HHZ,P,-1.0,2012-04-13 14:43:45.670
nc71764090,2012-04-13 14:43:40.550,40.64366666666667,-123.28733333333334,28.69,2.09,NC.KHMB..HHZ,P,1.0,2012-04-13 14:43:49.310
nc71764090,2012-04-13 14:43:40.550,40.64366666666667,-123.28733333333334,28.69,2.09,NC.KKP..EHZ,P,1.0,2012-04-13 14:43:51.600
nc71764090,2012-04-13 14:43:40.550,40.64366666666667,-123.28733333333334,28.69,2.09,NC.KMR..HHZ,P,-1.0,2012-04-13 14:43:51.660
nc71764090,2012-04-13 14:43:40.550,40.64366666666667,-123.28733333333334,28.69,2.09,NC.LBK..EHZ,P,-1.0,2012-04-13 14:43:52.750
nc71764090,2012-04-13 14:43:40.550,40.64366666666667,-123.28733333333334,28.69,2.09,NC.LBP..EHZ,P,1.0,2012-04-13 14:43:49.950
nc71764090,2012-04-13 14:43:40.550,40.64366666666667,-123.28733333333334,28.69,2.09,NC.LGP..EHZ,P,-1.0,2012-04-13 14:43:49.720
nc71764090,2012-04-13 14:43:40.550,40.64366666666667,-123.28733333333334,28.69,2.09,NC.LPG..EHZ,P,-1.0,2012-04-13 14:43:53.680
nc71764090,2012-04-13 14:43:40.550,40.64366666666667,-123.28733333333334,28.69,2.09,NC.LRB..EHZ,P,1.0,2012-04-13 14:43:54.980
nc71764090,2012-04-13 14:43:40.550,40.64366666666667,-123.28733333333334,28.69,2.09,NC.LSF..EHZ,P,,2012-04-13 14:43:51.630
nc71764090,2012-04-13 14:43:40.550,40.64366666666667,-123.28733333333334,28.69,2.09,NC.LSH..EHZ,P,1.0,2012-04-13 14:43:57.830
nc71764090,2012-04-13 14:43:40.550,40.64366666666667,-123.28733333333334,28.69,2.09,NC.LSR..EHZ,P,-1.0,2012-04-13 14:43:56.990
nc71764090,2012-04-13 14:43:40.550,40.64366666666667,-123.28733333333334,28.69,2.09,NC.LVR..EHZ,P,-1.0,2012-04-13 14:43:55.010
nc71764090,2012-04-13 14:43:40.550,40.64366666666667,-123.28733333333334,28.69,2.09,PB.B045..EHZ,P,1.0,2012-04-13 14:43:51.950
nc71764090,2012-04-13 14:43:40.550,40.64366666666667,-123.28733333333334,28.69,2.09,PB.B049..EHZ,P,1.0,2012-04-13 14:43:51.600
nc71764090,2012-04-13 14:43:40.550,40.64366666666667,-123.28733333333334,28.69,2.09,PB.B935..EHZ,P,1.0,2012-04-13 14:43:47.610
nc71764090,2012-04-13 14:43:40.550,40.64366666666667,-123.28733333333334,28.69,2.09,TA.M02C..HHZ,P,-1.0,2012-04-13 14:43:55.740
nc71764090,2012-04-13 14:43:40.550,40.64366666666667,-123.28733333333334,28.69,2.09,TA.N02D..HHZ,P,1.0,2012-04-13 14:43:51.440
nc71764775,2012-04-15 01:21:47.510,41.08866666666667,-123.2575,34.87,2.31,BK.JCC..HHZ,P,-1.0,2012-04-15 01:21:59.550
nc71764775,2012-04-15 01:21:47.510,41.08866666666667,-123.2575,34.87,2.31,BK.WDC..HHZ,P,-1.0,2012-04-15 01:22:02.110
nc71764775,2012-04-15 01:21:47.510,41.08866666666667,-123.2575,34.87,2.31,BK.YBH..HHZ,P,,2012-04-15 01:22:01.580
nc71764775,2012-04-15 01:21:47.510,41.08866666666667,-123.2575,34.87,2.31,NC.KCR..EHZ,P,-1.0,2012-04-15 01:22:02.270
nc71764775,2012-04-15 01:21:47.510,41.08866666666667,-123.2575,34.87,2.31,NC.KCS..EHZ,P,1.0,2012-04-15 01:21:59.870
nc71764775,2012-04-15 01:21:47.510,41.08866666666667,-123.2575,34.87,2.31,NC.KHBB..HHZ,P,-1.0,2012-04-15 01:21:57.500
nc71764775,2012-04-15 01:21:47.510,41.08866666666667,-123.2575,34.87,2.31,NC.KHMB..HHZ,P,1.0,2012-04-15 01:21:57.110
nc71764775,2012-04-15 01:21:47.510,41.08866666666667,-123.2575,34.87,2.31,NC.KOM..EHZ,P,1.0,2012-04-15 01:21:54.810
nc71764775,2012-04-15 01:21:47.510,41.08866666666667,-123.2575,34.87,2.31,NC.KTR..EHZ,P,-1.0,2012-04-15 01:22:02.930
nc71764775,2012-04-15 01:21:47.510,41.08866666666667,-123.2575,34.87,2.31,NC.LAMB..EHZ,P,-1.0,2012-04-15 01:22:01.030
nc71764775,2012-04-15 01:21:47.510,41.08866666666667,-123.2575,34.87,2.31,NC.LBF..EHZ,P,-1.0,2012-04-15 01:22:07.920
nc71764775,2012-04-15 01:21:47.510,41.08866666666667,-123.2575,34.87,2.31,NC.LBK..EHZ,P,-1.0,2012-04-15 01:21:57.590
nc71764775,2012-04-15 01:21:47.510,41.08866666666667,-123.2575,34.87,2.31,NC.LBO..EHZ,P,,2012-04-15 01:22:03.990
nc71764775,2012-04-15 01:21:47.510,41.08866666666667,-123.2575,34.87,2.31,NC.LBP..EHZ,P,-1.0,2012-04-15 01:22:03.700
nc71764775,2012-04-15 01:21:47.510,41.08866666666667,-123.2575,34.87,2.31,NC.LGB..EHZ,P,-1.0,2012-04-15 01:22:03.850
