event_id,etime,elat,elon,edep,emag,station_id,phase_type,phase_polarity,phase_time
nc71961400,2013-03-27 12:24:34.660,40.237833333333334,-124.15983333333334,10.17,1.95,PB.B049..EHZ,P,1.0,2013-03-27 12:24:40.710
nc71961400,2013-03-27 12:24:34.660,40.237833333333334,-124.15983333333334,10.17,1.95,PB.B932..EHZ,P,1.0,2013-03-27 12:24:37.110
nc71961400,2013-03-27 12:24:34.660,40.237833333333334,-124.15983333333334,10.17,1.95,PB.B933..EHZ,P,-1.0,2013-03-27 12:24:39.870
nc71961400,2013-03-27 12:24:34.660,40.237833333333334,-124.15983333333334,10.17,1.95,PB.B935..EHZ,P,1.0,2013-03-27 12:24:45.900
nc71961400,2013-03-27 12:24:34.660,40.237833333333334,-124.15983333333334,10.17,1.95,TA.O02D..HHZ,P,1.0,2013-03-27 12:24:53.990
nc71961630,2013-03-27 18:59:46.080,40.443,-123.1135,27.18,1.91,BK.GASB..HHZ,P,-1.0,2013-03-27 19:00:01.530
nc71961630,2013-03-27 18:59:46.080,40.443,-123.1135,27.18,1.91,BK.WDC..HHZ,P,-1.0,2013-03-27 18:59:55.110
nc71961630,2013-03-27 18:59:46.080,40.443,-123.1135,27.18,1.91,NC.GBB..EHZ,P,-1.0,2013-03-27 19:00:01.780
nc71961630,2013-03-27 18:59:46.080,40.443,-123.1135,27.18,1.91,NC.GRO..EHZ,P,-1.0,2013-03-27 18:59:57.950
nc71961630,2013-03-27 18:59:46.080,40.443,-123.1135,27.18,1.91,NC.GVV..EHZ,P,1.0,2013-03-27 18:59:59.710
nc71961630,2013-03-27 18:59:46.080,40.443,-123.1135,27.18,1.91,NC.KCR..EHZ,P,1.0,2013-03-27 18:59:56.930
nc71961630,2013-03-27 18:59:46.080,40.443,-123.1135,27.18,1.91,NC.KCS..EHZ,P,1.0,2013-03-27 18:59:54.030
nc71961630,2013-03-27 18:59:46.080,40.443,-123.1135,27.18,1.91,NC.KHBB..HHZ,P,1.0,2013-03-27 18:59:52.740
nc71961630,2013-03-27 18:59:46.080,40.443,-123.1135,27.18,1.91,NC.KIP..EHZ,P,-1.0,2013-03-27 18:59:58.680
nc71961630,2013-03-27 18:59:46.080,40.443,-123.1135,27.18,1.91,NC.KKP..EHZ,P,1.0,2013-03-27 18:59:55.570
nc71961630,2013-03-27 18:59:46.080,40.443,-123.1135,27.18,1.91,NC.KOM..EHZ,P,1.0,2013-03-27 19:00:01.650
nc71961630,2013-03-27 18:59:46.080,40.443,-123.1135,27.18,1.91,NC.KPP..EHZ,P,1.0,2013-03-27 18:59:52.790
nc71961630,2013-03-27 18:59:46.080,40.443,-123.1135,27.18,1.91,NC.LBP..EHZ,P,-1.0,2013-03-27 18:59:52.190
nc71961630,2013-03-27 18:59:46.080,40.443,-123.1135,27.18,1.91,NC.LGP..EHZ,P,,2013-03-27 18:59:56.050
nc71961630,2013-03-27 18:59:46.080,40.443,-123.1135,27.18,1.91,NC.LMI..EHZ,P,1.0,2013-03-27 18:59:59.390
nc71961630,2013-03-27 18:59:46.080,40.443,-123.1135,27.18,1.91,NC.LRB..EHZ,P,-1.0,2013-03-27 18:59:56.620
nc71961630,2013-03-27 18:59:46.080,40.443,-123.1135,27.18,1.91,NC.LSF..EHZ,P,,2013-03-27 18:59:55.870
nc71961630,2013-03-27 18:59:46.080,40.443,-123.1135,27.18,1.91,NC.LSH..EHZ,P,-1.0,2013-03-27 19:00:01.660
nc71961630,2013-03-27 18:59:46.080,40.443,-123.1135,27.18,1.91,NC.LSR..EHZ,P,1.0,2013-03-27 19:00:02.540
nc71961630,2013-03-27 18:59:46.080,40.443,-123.1135,27.18,1.91,NC.LTC..EHZ,P,1.0,2013-03-27 19:00:00.530
nc71961630,2013-03-27 18:59:46.080,40.443,-123.1135,27.18,1.91,NC.LVR..EHZ,P,1.0,2013-03-27 18:59:56.620
nc71961630,2013-03-27 18:59:46.080,40.443,-123.1135,27.18,1.91,NC.LWH..EHZ,P,-1.0,2013-03-27 19:00:01.810
nc71961630,2013-03-27 18:59:46.080,40.443,-123.1135,27.18,1.91,PB.B049..EHZ,P,-1.0,2013-03-27 18:59:56.920
nc71961630,2013-03-27 18:59:46.080,40.443,-123.1135,27.18,1.91,PB.B935..EHZ,P,1.0,2013-03-27 18:59:54.300
nc71961630,2013-03-27 18:59:46.080,40.443,-123.1135,27.18,1.91,TA.N02D..HHZ,P,-1.0,2013-03-27 18:59:57.480
nc71961630,2013-03-27 18:59:46.080,40.443,-123.1135,27.18,1.91,TA.O02D..HHZ,P,1.0,2013-03-27 18:59:54.040
nc71961630,2013-03-27 18:59:46.080,40.443,-123.1135,27.18,1.91,TA.O03E..HHZ,P,,2013-03-27 19:00:03.010
nc71964105,2013-04-01 02:52:06.040,40.94,-123.4335,26.61,2.29,BK.HATC..HHZ,P,,2013-04-01 02:52:32.170
nc71964105,2013-04-01 02:52:06.040,40.94,-123.4335,26.61,2.29,BK.JCC..HHZ,P,1.0,2013-04-01 02:52:15.260
nc71964105,2013-04-01 02:52:06.040,40.94,-123.4335,26.61,2.29,BK.WDC..HHZ,P,-1.0,2013-04-01 02:52:20.490
nc71964105,2013-04-01 02:52:06.040,40.94,-123.4335,26.61,2.29,BK.YBH..HHZ,P,-1.0,2013-04-01 02:52:22.780
nc71964105,2013-04-01 02:52:06.040,40.94,-123.4335,26.61,2.29,NC.GRO..EHZ,P,,2013-04-01 02:52:27.960
nc71964105,2013-04-01 02:52:06.040,40.94,-123.4335,26.61,2.29,NC.GTC..EHZ,P,,2013-04-01 02:52:30.300
nc71964105,2013-04-01 02:52:06.040,40.94,-123.4335,26.61,2.29,NC.KBN..EHZ,P,,2013-04-01 02:52:24.690
nc71964105,2013-04-01 02:52:06.040,40.94,-123.4335,26.61,2.29,NC.KBS..EHZ,P,-1.0,2013-04-01 02:52:24.280
nc71964105,2013-04-01 02:52:06.040,40.94,-123.4335,26.61,2.29,NC.KCO..EHZ,P,1.0,2013-04-01 02:52:21.960
nc71964105,2013-04-01 02:52:06.040,40.94,-123.4335,26.61,2.29,NC.KCR..EHZ,P,1.0,2013-04-01 02:52:17.550
nc71964105,2013-04-01 02:52:06.040,40.94,-123.4335,26.61,2.29,NC.KCS..EHZ,P,1.0,2013-04-01 02:52:15.100
nc71964105,2013-04-01 02:52:06.040,40.94,-123.4335,26.61,2.29,NC.KHBB..HHZ,P,1.0,2013-04-01 02:52:13.660
nc71964105,2013-04-01 02:52:06.040,40.94,-123.4335,26.61,2.29,NC.KHMB..HHZ,P,-1.0,2013-04-01 02:52:12.390
nc71964105,2013-04-01 02:52:06.040,40.94,-123.4335,26.61,2.29,NC.KIP..EHZ,P,1.0,2013-04-01 02:52:25.300
nc71964105,2013-04-01 02:52:06.040,40.94,-123.4335,26.61,2.29,NC.KKP..EHZ,P,,2013-04-01 02:52:20.860
nc71964105,2013-04-01 02:52:06.040,40.94,-123.4335,26.61,2.29,NC.KMPB..HHZ,P,1.0,2013-04-01 02:52:19.330
nc71964105,2013-04-01 02:52:06.040,40.94,-123.4335,26.61,2.29,NC.KMR..HHZ,P,-1.0,2013-04-01 02:52:20.060
nc71964105,2013-04-01 02:52:06.040,40.94,-123.4335,26.61,2.29,NC.KOM..EHZ,P,-1.0,2013-04-01 02:52:13.520
nc71964105,2013-04-01 02:52:06.040,40.94,-123.4335,26.61,2.29,NC.KPP..EHZ,P,1.0,2013-04-01 02:52:18.020
nc71964105,2013-04-01 02:52:06.040,40.94,-123.4335,26.61,2.29,NC.KRMB..HHZ,P,1.0,2013-04-01 02:52:18.390
nc71964105,2013-04-01 02:52:06.040,40.94,-123.4335,26.61,2.29,NC.KSM..EHZ,P,1.0,2013-04-01 02:52:22.100
nc71964105,2013-04-01 02:52:06.040,40.94,-123.4335,26.61,2.29,NC.KSXB..HHZ,P,1.0,2013-04-01 02:52:22.010
nc71964105,2013-04-01 02:52:06.040,40.94,-123.4335,26.61,2.29,NC.KTR..EHZ,P,-1.0,2013-04-01 02:52:22.980
nc71964105,2013-04-01 02:52:06.040,40.94,-123.4335,26.61,2.29,NC.LAMB..EHZ,P,-1.0,2013-04-01 02:52:22.270
nc71964105,2013-04-01 02:52:06.040,40.94,-123.4335,26.61,2.29,NC.LBF..EHZ,P,,2013-04-01 02:52:28.340
nc71964105,2013-04-01 02:52:06.040,40.94,-123.4335,26.61,2.29,NC.LBO..EHZ,P,1.0,2013-04-01 02:52:25.420
nc71964105,2013-04-01 02:52:06.040,40.94,-123.4335,26.61,2.29,NC.LBP..EHZ,P,-1.0,2013-04-01 02:52:20.060
nc71964105,2013-04-01 02:52:06.040,40.94,-123.4335,26.61,2.29,NC.LCSB..EHZ,P,,2013-04-01 02:52:22.500
nc71964105,2013-04-01 02:52:06.040,40.94,-123.4335,26.61,2.29,NC.LGB..EHZ,P,-1.0,2013-04-01 02:52:24.490
nc71964105,2013-04-01 02:52:06.040,40.94,-123.4335,26.61,2.29,NC.LGM..EHZ,P,1.0,2013-04-01 02:52:30.880
nc71964105,2013-04-01 02:52:06.040,40.94,-123.4335,26.61,2.29,NC.LGP..EHZ,P,1.0,2013-04-01 02:52:15.360
nc71964105,2013-04-01 02:52:06.040,40.94,-123.4335,26.61,2.29,NC.LMC..HHZ,P,-1.0,2013-04-01 02:52:24.840
nc71964105,2013-04-01 02:52:06.040,40.94,-123.4335,26.61,2.29,NC.LMI..EHZ,P,1.0,2013-04-01 02:52:24.950
nc71964105,2013-04-01 02:52:06.040,40.94,-123.4335,26.61,2.29,NC.LMP..EHZ,P,-1.0,2013-04-01 02:52:26.390
nc71964105,2013-04-01 02:52:06.040,40.94,-123.4335,26.61,2.29,NC.LPG..EHZ,P,,2013-04-01 02:52:23.710
nc71964105,2013-04-01 02:52:06.040,40.94,-123.4335,26.61,2.29,NC.LRR..EHZ,P,,2013-04-01 02:52:31.130
nc71964105,2013-04-01 02:52:06.040,40.94,-123.4335,26.61,2.29,NC.LSH..EHZ,P,-1.0,2013-04-01 02:52:25.170
nc71964105,2013-04-01 02:52:06.040,40.94,-123.4335,26.61,2.29,NC.LSR..EHZ,P,-1.0,2013-04-01 02:52:22.320
nc71964105,2013-04-01 02:52:06.040,40.94,-123.4335,26.61,2.29,NC.LWH..EHZ,P,1.0,2013-04-01 02:52:27.240
nc71964105,2013-04-01 02:52:06.040,40.94,-123.4335,26.61,2.29,PB.B039..EHZ,P,-1.0,2013-04-01 02:52:21.640
nc71964105,2013-04-01 02:52:06.040,40.94,-123.4335,26.61,2.29,PB.B040..EHZ,P,1.0,2013-04-01 02:52:26.190
nc71964105,2013-04-01 02:52:06.040,40.94,-123.4335,26.61,2.29,PB.B045..EHZ,P,1.0,2013-04-01 02:52:18.270
nc71964105,2013-04-01 02:52:06.040,40.94,-123.4335,26.61,2.29,PB.B046..EHZ,P,1.0,2013-04-01 02:52:21.340
nc71964105,2013-04-01 02:52:06.040,40.94,-123.4335,26.61,2.29,PB.B047..EHZ,P,1.0,2013-04-01 02:52:21.310
nc71964105,2013-04-01 02:52:06.040,40.94,-123.4335,26.61,2.29,PB.B049..EHZ,P,1.0,2013-04-01 02:52:19.690
nc71964105,2013-04-01 02:52:06.040,40.94,-123.4335,26.61,2.29,PB.B932..EHZ,P,1.0,2013-04-01 02:52:21.230
nc71964105,2013-04-01 02:52:06.040,40.94,-123.4335,26.61,2.29,PB.B933..EHZ,P,1.0,2013-04-01 02:52:22.640
nc71964105,2013-04-01 02:52:06.040,40.94,-123.4335,26.61,2.29,PB.B935..EHZ,P,1.0,2013-04-01 02:52:15.910
nc71964105,2013-04-01 02:52:06.040,40.94,-123.4335,26.61,2.29,TA.L02E..HHZ,P,,2013-04-01 02:52:26.310
nc71964105,2013-04-01 02:52:06.040,40.94,-123.4335,26.61,2.29,TA.L04D..HHZ,P,,2013-04-01 02:52:32.430
nc71964105,2013-04-01 02:52:06.040,40.94,-123.4335,26.61,2.29,TA.M02C..HHZ,P,1.0,2013-04-01 02:52:17.560
nc71964105,2013-04-01 02:52:06.040,40.94,-123.4335,26.61,2.29,TA.N02D..HHZ,P,-1.0,2013-04-01 02:52:16.590
nc71964105,2013-04-01 02:52:06.040,40.94,-123.4335,26.61,2.29,TA.O02D..HHZ,P,-1.0,2013-04-01 02:52:22.560
nc71964295,2013-04-01 10:55:38.860,40.937333333333335,-123.4305,23.7,1.99,BK.JCC..HHZ,P,-1.0,2013-04-01 10:55:48.140
nc71964295,2013-04-01 10:55:38.860,40.937333333333335,-123.4305,23.7,1.99,BK.WDC..HHZ,P,-1.0,2013-04-01 10:55:53.160
nc71964295,2013-04-01 10:55:38.860,40.937333333333335,-123.4305,23.7,1.99,NC.KCR..EHZ,P,-1.0,2013-04-01 10:55:50.180
nc71964295,2013-04-01 10:55:38.860,40.937333333333335,-123.4305,23.7,1.99,NC.KCS..EHZ,P,-1.0,2013-04-01 10:55:47.890
nc71964295,2013-04-01 10:55:38.860,40.937333333333335,-123.4305,23.7,1.99,NC.KHBB..HHZ,P,1.0,2013-04-01 10:55:46.350
nc71964295,2013-04-01 10:55:38.860,40.937333333333335,-123.4305,23.7,1.99,NC.KHMB..HHZ,P,-1.0,2013-04-01 10:55:45.100
nc71964295,2013-04-01 10:55:38.860,40.937333333333335,-123.4305,23.7,1.99,NC.KMPB..HHZ,P,1.0,2013-04-01 10:55:52.050
nc71964295,2013-04-01 10:55:38.860,40.937333333333335,-123.4305,23.7,1.99,NC.KOM..EHZ,P,-1.0,2013-04-01 10:55:46.140
nc71964295,2013-04-01 10:55:38.860,40.937333333333335,-123.4305,23.7,1.99,NC.KRMB..HHZ,P,1.0,2013-04-01 10:55:51.090
nc71964295,2013-04-01 10:55:38.860,40.937333333333335,-123.4305,23.7,1.99,NC.LAMB..EHZ,P,-1.0,2013-04-01 10:55:54.980
nc71964295,2013-04-01 10:55:38.860,40.937333333333335,-123.4305,23.7,1.99,NC.LBK..EHZ,P,1.0,2013-04-01 10:55:50.050
nc71964295,2013-04-01 10:55:38.860,40.937333333333335,-123.4305,23.7,1.99,NC.LCSB..EHZ,P,-1.0,2013-04-01 10:55:55.530
nc71964295,2013-04-01 10:55:38.860,40.937333333333335,-123.4305,23.7,1.99,NC.LGP..EHZ,P,1.0,2013-04-01 10:55:48.090
nc71964295,2013-04-01 10:55:38.860,40.937333333333335,-123.4305,23.7,1.99,NC.LSH..EHZ,P,-1.0,2013-04-01 10:55:57.850
nc71964295,2013-04-01 10:55:38.860,40.937333333333335,-123.4305,23.7,1.99,PB.B039..EHZ,P,-1.0,2013-04-01 10:55:54.400
nc71964295,2013-04-01 10:55:38.860,40.937333333333335,-123.4305,23.7,1.99,PB.B045..EHZ,P,1.0,2013-04-01 10:55:50.990
nc71964295,2013-04-01 10:55:38.860,40.937333333333335,-123.4305,23.7,1.99,PB.B049..EHZ,P,1.0,2013-04-01 10:55:52.390
nc71964295,2013-04-01 10:55:38.860,40.937333333333335,-123.4305,23.7,1.99,PB.B935..EHZ,P,1.0,2013-04-01 10:55:48.640
nc71964295,2013-04-01 10:55:38.860,40.937333333333335,-123.4305,23.7,1.99,TA.M02C..HHZ,P,1.0,2013-04-01 10:55:50.290
nc71964295,2013-04-01 10:55:38.860,40.937333333333335,-123.4305,23.7,1.99,TA.N02D..HHZ,P,1.0,2013-04-01 10:55:49.300
nc71971355,2013-04-14 20:26:33.380,40.116,-123.7755,21.23,1.76,NC.GRO..EHZ,P,1.0,2013-04-14 20:26:49.590
nc71971355,2013-04-14 20:26:33.380,40.116,-123.7755,21.23,1.76,NC.KBN..EHZ,P,,2013-04-14 20:26:44.170
nc71971355,2013-04-14 20:26:33.380,40.116,-123.7755,21.23,1.76,NC.KBS..EHZ,P,-1.0,2013-04-14 20:26:39.680
nc71971355,2013-04-14 20:26:33.380,40.116,-123.7755,21.23,1.76,NC.KCO..EHZ,P,1.0,2013-04-14 20:26:41.970
nc71971355,2013-04-14 20:26:33.380,40.116,-123.7755,21.23,1.76,NC.KCPB..HHZ,P,-1.0,2013-04-14 20:26:42.750
nc71971355,2013-04-14 20:26:33.380,40.116,-123.7755,21.23,1.76,NC.KCR..EHZ,P,-1.0,2013-04-14 20:26:40.790
nc71971355,2013-04-14 20:26:33.380,40.116,-123.7755,21.23,1.76,NC.KCS..EHZ,P,-1.0,2013-04-14 20:26:43.740
nc71971355,2013-04-14 20:26:33.380,40.116,-123.7755,21.23,1.76,NC.KCT..HHZ,P,1.0,2013-04-14 20:26:45.330
nc71971355,2013-04-14 20:26:33.380,40.116,-123.7755,21.23,1.76,NC.KFP..EHZ,P,1.0,2013-04-14 20:26:43.940
nc71971355,2013-04-14 20:26:33.380,40.116,-123.7755,21.23,1.76,NC.KHBB..HHZ,P,1.0,2013-04-14 20:26:46.690
nc71971355,2013-04-14 20:26:33.380,40.116,-123.7755,21.23,1.76,NC.KIP..EHZ,P,-1.0,2013-04-14 20:26:41.710
nc71971355,2013-04-14 20:26:33.380,40.116,-123.7755,21.23,1.76,NC.KKP..EHZ,P,1.0,2013-04-14 20:26:39.930
nc71971355,2013-04-14 20:26:33.380,40.116,-123.7755,21.23,1.76,NC.KMPB..HHZ,P,1.0,2013-04-14 20:26:42.250
nc71971355,2013-04-14 20:26:33.380,40.116,-123.7755,21.23,1.76,NC.KMR..HHZ,P,1.0,2013-04-14 20:26:38.160
nc71971355,2013-04-14 20:26:33.380,40.116,-123.7755,21.23,1.76,NC.KPP..EHZ,P,1.0,2013-04-14 20:26:42.270
nc71971355,2013-04-14 20:26:33.380,40.116,-123.7755,21.23,1.76,NC.KSM..EHZ,P,1.0,2013-04-14 20:26:40.590
nc71971355,2013-04-14 20:26:33.380,40.116,-123.7755,21.23,1.76,NC.LGP..EHZ,P,1.0,2013-04-14 20:26:51.930
nc71971355,2013-04-14 20:26:33.380,40.116,-123.7755,21.23,1.76,NC.LPG..EHZ,P,-1.0,2013-04-14 20:26:49.070
nc71971355,2013-04-14 20:26:33.380,40.116,-123.7755,21.23,1.76,NC.LVR..EHZ,P,-1.0,2013-04-14 20:26:49.170
nc71971355,2013-04-14 20:26:33.380,40.116,-123.7755,21.23,1.76,PB.B045..EHZ,P,1.0,2013-04-14 20:26:41.550
nc71971355,2013-04-14 20:26:33.380,40.116,-123.7755,21.23,1.76,PB.B046..EHZ,P,1.0,2013-04-14 20:26:42.420
nc71971355,2013-04-14 20:26:33.380,40.116,-123.7755,21.23,1.76,PB.B047..EHZ,P,1.0,2013-04-14 20:26:40.980
nc71971355,2013-04-14 20:26:33.380,40.116,-123.7755,21.23,1.76,PB.B049..EHZ,P,1.0,2013-04-14 20:26:38.110
nc71971355,2013-04-14 20:26:33.380,40.116,-123.7755,21.23,1.76,PB.B932..EHZ,P,1.0,2013-04-14 20:26:41.360
nc71971355,2013-04-14 20:26:33.380,40.116,-123.7755,21.23,1.76,PB.B933..EHZ,P,1.0,2013-04-14 20:26:38.490
nc71971355,2013-04-14 20:26:33.380,40.116,-123.7755,21.23,1.76,PB.B935..EHZ,P,1.0,2013-04-14 20:26:42.320
nc71971355,2013-04-14 20:26:33.380,40.116,-123.7755,21.23,1.76,TA.O02D..HHZ,P,,2013-04-14 20:26:47.710
nc71974330,2013-04-20 15:48:55.490,40.483666666666664,-123.917,19.7,1.67,BK.JCC..HHZ,P,-1.0,2013-04-20 15:49:02.680
nc71974330,2013-04-20 15:48:55.490,40.483666666666664,-123.917,19.7,1.67,NC.KBS..EHZ,P,1.0,2013-04-20 15:49:07.870
nc71974330,2013-04-20 15:48:55.490,40.483666666666664,-123.917,19.7,1.67,NC.KCO..EHZ,P,1.0,2013-04-20 15:49:03.240
nc71974330,2013-04-20 15:48:55.490,40.483666666666664,-123.917,19.7,1.67,NC.KCR..EHZ,P,-1.0,2013-04-20 15:48:59.750
nc71974330,2013-04-20 15:48:55.490,40.483666666666664,-123.917,19.7,1.67,NC.KCS..EHZ,P,1.0,2013-04-20 15:49:02.900
nc71974330,2013-04-20 15:48:55.490,40.483666666666664,-123.917,19.7,1.67,NC.KFP..EHZ,P,,2013-04-20 15:49:11.790
nc71974330,2013-04-20 15:48:55.490,40.483666666666664,-123.917,19.7,1.67,NC.KHBB..HHZ,P,1.0,2013-04-20 15:49:06.540
nc71974330,2013-04-20 15:48:55.490,40.483666666666664,-123.917,19.7,1.67,NC.KHMB..HHZ,P,1.0,2013-04-20 15:49:04.270
nc71974330,2013-04-20 15:48:55.490,40.483666666666664,-123.917,19.7,1.67,NC.KKP..EHZ,P,-1.0,2013-04-20 15:49:05.740
nc71974330,2013-04-20 15:48:55.490,40.483666666666664,-123.917,19.7,1.67,NC.KMPB..HHZ,P,1.0,2013-04-20 15:49:00.480
nc71974330,2013-04-20 15:48:55.490,40.483666666666664,-123.917,19.7,1.67,NC.KMR..HHZ,P,-1.0,2013-04-20 15:49:03.000
nc71974330,2013-04-20 15:48:55.490,40.483666666666664,-123.917,19.7,1.67,NC.KRMB..HHZ,P,-1.0,2013-04-20 15:49:12.750
nc71974330,2013-04-20 15:48:55.490,40.483666666666664,-123.917,19.7,1.67,NC.KSM..EHZ,P,1.0,2013-04-20 15:49:03.440
nc71974330,2013-04-20 15:48:55.490,40.483666666666664,-123.917,19.7,1.67,NC.KSXB..HHZ,P,-1.0,2013-04-20 15:49:17.120
nc71974330,2013-04-20 15:48:55.490,40.483666666666664,-123.917,19.7,1.67,NC.LGP..EHZ,P,-1.0,2013-04-20 15:49:11.910
nc71974330,2013-04-20 15:48:55.490,40.483666666666664,-123.917,19.7,1.67,PB.B045..EHZ,P,1.0,2013-04-20 15:48:59.470
nc71974330,2013-04-20 15:48:55.490,40.483666666666664,-123.917,19.7,1.67,PB.B046..EHZ,P,1.0,2013-04-20 15:49:02.700
nc71974330,2013-04-20 15:48:55.490,40.483666666666664,-123.917,19.7,1.67,PB.B047..EHZ,P,1.0,2013-04-20 15:49:02.470
nc71974330,2013-04-20 15:48:55.490,40.483666666666664,-123.917,19.7,1.67,PB.B049..EHZ,P,-1.0,2013-04-20 15:49:01.770
nc71974330,2013-04-20 15:48:55.490,40.483666666666664,-123.917,19.7,1.67,PB.B932..EHZ,P,1.0,2013-04-20 15:49:02.430
nc71974330,2013-04-20 15:48:55.490,40.483666666666664,-123.917,19.7,1.67,PB.B933..EHZ,P,1.0,2013-04-20 15:49:04.530
nc71974330,2013-04-20 15:48:55.490,40.483666666666664,-123.917,19.7,1.67,PB.B935..EHZ,P,1.0,2013-04-20 15:49:01.830
nc71974330,2013-04-20 15:48:55.490,40.483666666666664,-123.917,19.7,1.67,TA.M02C..HHZ,P,1.0,2013-04-20 15:49:15.940
nc71974330,2013-04-20 15:48:55.490,40.483666666666664,-123.917,19.7,1.67,TA.N02D..HHZ,P,-1.0,2013-04-20 15:49:13.450
nc71974690,2013-04-21 11:05:52.870,40.11416666666667,-123.76533333333333,21.58,1.9,BK.GASB..HHZ,P,-1.0,2013-04-21 11:06:09.230
nc71974690,2013-04-21 11:05:52.870,40.11416666666667,-123.76533333333333,21.58,1.9,BK.JCC..HHZ,P,-1.0,2013-04-21 11:06:05.020
nc71974690,2013-04-21 11:05:52.870,40.11416666666667,-123.76533333333333,21.58,1.9,BK.WDC..HHZ,P,1.0,2013-04-21 11:06:10.770
nc71974690,2013-04-21 11:05:52.870,40.11416666666667,-123.76533333333333,21.58,1.9,NC.GNA..EHZ,P,-1.0,2013-04-21 11:06:08.090
nc71974690,2013-04-21 11:05:52.870,40.11416666666667,-123.76533333333333,21.58,1.9,NC.GRO..EHZ,P,,2013-04-21 11:06:08.890
nc71974690,2013-04-21 11:05:52.870,40.11416666666667,-123.76533333333333,21.58,1.9,NC.GTC..EHZ,P,1.0,2013-04-21 11:06:05.670
nc71974690,2013-04-21 11:05:52.870,40.11416666666667,-123.76533333333333,21.58,1.9,NC.KBN..EHZ,P,1.0,2013-04-21 11:06:03.490
nc71974690,2013-04-21 11:05:52.870,40.11416666666667,-123.76533333333333,21.58,1.9,NC.KBS..EHZ,P,-1.0,2013-04-21 11:05:59.180
nc71974690,2013-04-21 11:05:52.870,40.11416666666667,-123.76533333333333,21.58,1.9,NC.KCO..EHZ,P,1.0,2013-04-21 11:06:01.200
nc71974690,2013-04-21 11:05:52.870,40.11416666666667,-123.76533333333333,21.58,1.9,NC.KCR..EHZ,P,-1.0,2013-04-21 11:06:00.290
nc71974690,2013-04-21 11:05:52.870,40.11416666666667,-123.76533333333333,21.58,1.9,NC.KCS..EHZ,P,1.0,2013-04-21 11:06:03.110
nc71974690,2013-04-21 11:05:52.870,40.11416666666667,-123.76533333333333,21.58,1.9,NC.KCT..HHZ,P,-1.0,2013-04-21 11:06:05.050
nc71974690,2013-04-21 11:05:52.870,40.11416666666667,-123.76533333333333,21.58,1.9,NC.KFP..EHZ,P,1.0,2013-04-21 11:06:03.430
nc71974690,2013-04-21 11:05:52.870,40.11416666666667,-123.76533333333333,21.58,1.9,NC.KHBB..HHZ,P,,2013-04-21 11:06:06.210
nc71974690,2013-04-21 11:05:52.870,40.11416666666667,-123.76533333333333,21.58,1.9,NC.KIP..EHZ,P,-1.0,2013-04-21 11:06:01.220
nc71974690,2013-04-21 11:05:52.870,40.11416666666667,-123.76533333333333,21.58,1.9,NC.KKP..EHZ,P,1.0,2013-04-21 11:05:59.280
nc71974690,2013-04-21 11:05:52.870,40.11416666666667,-123.76533333333333,21.58,1.9,NC.KMPB..HHZ,P,,2013-04-21 11:06:02.010
nc71974690,2013-04-21 11:05:52.870,40.11416666666667,-123.76533333333333,21.58,1.9,NC.KMR..HHZ,P,1.0,2013-04-21 11:05:57.610
nc71974690,2013-04-21 11:05:52.870,40.11416666666667,-123.76533333333333,21.58,1.9,NC.KSM..EHZ,P,1.0,2013-04-21 11:06:00.280
nc71974690,2013-04-21 11:05:52.870,40.11416666666667,-123.76533333333333,21.58,1.9,NC.LBP..EHZ,P,1.0,2013-04-21 11:06:06.230
nc71974690,2013-04-21 11:05:52.870,40.11416666666667,-123.76533333333333,21.58,1.9,NC.LPG..EHZ,P,-1.0,2013-04-21 11:06:08.430
nc71974690,2013-04-21 11:05:52.870,40.11416666666667,-123.76533333333333,21.58,1.9,NC.LRB..EHZ,P,-1.0,2013-04-21 11:06:10.320
nc71974690,2013-04-21 11:05:52.870,40.11416666666667,-123.76533333333333,21.58,1.9,NC.LVR..EHZ,P,1.0,2013-04-21 11:06:08.470
