event_id,etime,elat,elon,edep,emag,station_id,phase_type,phase_polarity,phase_time
nc71951585,2013-03-11 00:20:43.980,40.144,-123.81783333333334,20.51,2.08,NC.KHBB..HHZ,P,1.0,2013-03-11 00:20:56.810
nc71951585,2013-03-11 00:20:43.980,40.144,-123.81783333333334,20.51,2.08,NC.KIP..EHZ,P,-1.0,2013-03-11 00:20:52.900
nc71951585,2013-03-11 00:20:43.980,40.144,-123.81783333333334,20.51,2.08,NC.KKP..EHZ,P,-1.0,2013-03-11 00:20:50.880
nc71951585,2013-03-11 00:20:43.980,40.144,-123.81783333333334,20.51,2.08,NC.KMPB..HHZ,P,-1.0,2013-03-11 00:20:52.110
nc71951585,2013-03-11 00:20:43.980,40.144,-123.81783333333334,20.51,2.08,NC.KMR..HHZ,P,-1.0,2013-03-11 00:20:48.640
nc71951585,2013-03-11 00:20:43.980,40.144,-123.81783333333334,20.51,2.08,NC.KPP..EHZ,P,1.0,2013-03-11 00:20:52.880
nc71951585,2013-03-11 00:20:43.980,40.144,-123.81783333333334,20.51,2.08,NC.KRK..EHZ,P,1.0,2013-03-11 00:20:57.680
nc71951585,2013-03-11 00:20:43.980,40.144,-123.81783333333334,20.51,2.08,NC.KSM..EHZ,P,1.0,2013-03-11 00:20:50.600
nc71951585,2013-03-11 00:20:43.980,40.144,-123.81783333333334,20.51,2.08,NC.LBP..EHZ,P,-1.0,2013-03-11 00:20:57.590
nc71951585,2013-03-11 00:20:43.980,40.144,-123.81783333333334,20.51,2.08,NC.LGP..EHZ,P,-1.0,2013-03-11 00:21:02.220
nc71951585,2013-03-11 00:20:43.980,40.144,-123.81783333333334,20.51,2.08,NC.LPG..EHZ,P,-1.0,2013-03-11 00:20:59.710
nc71951585,2013-03-11 00:20:43.980,40.144,-123.81783333333334,20.51,2.08,NC.LSH..EHZ,P,1.0,2013-03-11 00:21:08.560
nc71951585,2013-03-11 00:20:43.980,40.144,-123.81783333333334,20.51,2.08,NC.LVR..EHZ,P,-1.0,2013-03-11 00:21:00.080
nc71951585,2013-03-11 00:20:43.980,40.144,-123.81783333333334,20.51,2.08,PB.B045..EHZ,P,-1.0,2013-03-11 00:20:51.360
nc71951585,2013-03-11 00:20:43.980,40.144,-123.81783333333334,20.51,2.08,PB.B046..EHZ,P,1.0,2013-03-11 00:20:52.300
nc71951585,2013-03-11 00:20:43.980,40.144,-123.81783333333334,20.51,2.08,PB.B047..EHZ,P,1.0,2013-03-11 00:20:50.900
nc71951585,2013-03-11 00:20:43.980,40.144,-123.81783333333334,20.51,2.08,PB.B049..EHZ,P,1.0,2013-03-11 00:20:48.340
nc71951585,2013-03-11 00:20:43.980,40.144,-123.81783333333334,20.51,2.08,PB.B932..EHZ,P,1.0,2013-03-11 00:20:51.270
nc71951585,2013-03-11 00:20:43.980,40.144,-123.81783333333334,20.51,2.08,PB.B933..EHZ,P,1.0,2013-03-11 00:20:48.850
nc71951585,2013-03-11 00:20:43.980,40.144,-123.81783333333334,20.51,2.08,TA.O02D..HHZ,P,-1.0,2013-03-11 00:20:58.530
nc71952585,2013-03-12 06:40:00.110,40.25033333333333,-124.15533333333333,11.28,1.65,BK.JCC..HHZ,P,-1.0,2013-03-12 06:40:12.080
nc71952585,2013-03-12 06:40:00.110,40.25033333333333,-124.15533333333333,11.28,1.65,NC.GTC..EHZ,P,,2013-03-12 06:40:16.780
nc71952585,2013-03-12 06:40:00.110,40.25033333333333,-124.15533333333333,11.28,1.65,NC.KBN..EHZ,P,,2013-03-12 06:40:15.950
nc71952585,2013-03-12 06:40:00.110,40.25033333333333,-124.15533333333333,11.28,1.65,NC.KBS..EHZ,P,-1.0,2013-03-12 06:40:11.580
nc71952585,2013-03-12 06:40:00.110,40.25033333333333,-124.15533333333333,11.28,1.65,NC.KCO..EHZ,P,1.0,2013-03-12 06:40:03.170
nc71952585,2013-03-12 06:40:00.110,40.25033333333333,-124.15533333333333,11.28,1.65,NC.KCR..EHZ,P,-1.0,2013-03-12 06:40:07.470
nc71952585,2013-03-12 06:40:00.110,40.25033333333333,-124.15533333333333,11.28,1.65,NC.KFP..EHZ,P,-1.0,2013-03-12 06:40:15.160
nc71952585,2013-03-12 06:40:00.110,40.25033333333333,-124.15533333333333,11.28,1.65,NC.KHBB..HHZ,P,-1.0,2013-03-12 06:40:15.980
nc71952585,2013-03-12 06:40:00.110,40.25033333333333,-124.15533333333333,11.28,1.65,NC.KKP..EHZ,P,-1.0,2013-03-12 06:40:12.100
nc71952585,2013-03-12 06:40:00.110,40.25033333333333,-124.15533333333333,11.28,1.65,NC.KMR..HHZ,P,-1.0,2013-03-12 06:40:07.920
nc71952585,2013-03-12 06:40:00.110,40.25033333333333,-124.15533333333333,11.28,1.65,NC.KOM..EHZ,P,-1.0,2013-03-12 06:40:20.740
nc71952585,2013-03-12 06:40:00.110,40.25033333333333,-124.15533333333333,11.28,1.65,NC.KPP..EHZ,P,-1.0,2013-03-12 06:40:13.540
nc71952585,2013-03-12 06:40:00.110,40.25033333333333,-124.15533333333333,11.28,1.65,NC.KSM..EHZ,P,1.0,2013-03-12 06:40:02.800
nc71952585,2013-03-12 06:40:00.110,40.25033333333333,-124.15533333333333,11.28,1.65,PB.B045..EHZ,P,-1.0,2013-03-12 06:40:05.550
nc71952585,2013-03-12 06:40:00.110,40.25033333333333,-124.15533333333333,11.28,1.65,PB.B046..EHZ,P,1.0,2013-03-12 06:40:03.650
nc71952585,2013-03-12 06:40:00.110,40.25033333333333,-124.15533333333333,11.28,1.65,PB.B047..EHZ,P,1.0,2013-03-12 06:40:02.500
nc71952585,2013-03-12 06:40:00.110,40.25033333333333,-124.15533333333333,11.28,1.65,PB.B049..EHZ,P,-1.0,2013-03-12 06:40:06.100
nc71952585,2013-03-12 06:40:00.110,40.25033333333333,-124.15533333333333,11.28,1.65,PB.B932..EHZ,P,1.0,2013-03-12 06:40:02.610
nc71952585,2013-03-12 06:40:00.110,40.25033333333333,-124.15533333333333,11.28,1.65,PB.B933..EHZ,P,1.0,2013-03-12 06:40:05.380
nc71952585,2013-03-12 06:40:00.110,40.25033333333333,-124.15533333333333,11.28,1.65,PB.B935..EHZ,P,1.0,2013-03-12 06:40:11.420
nc71953780,2013-03-13 21:44:16.950,41.014833333333335,-123.23583333333333,35.57,2.25,BK.JCC..HHZ,P,-1.0,2013-03-13 21:44:28.990
nc71953780,2013-03-13 21:44:16.950,41.014833333333335,-123.23583333333333,35.57,2.25,BK.WDC..HHZ,P,1.0,2013-03-13 21:44:30.360
nc71953780,2013-03-13 21:44:16.950,41.014833333333335,-123.23583333333333,35.57,2.25,BK.YBH..HHZ,P,-1.0,2013-03-13 21:44:32.260
nc71953780,2013-03-13 21:44:16.950,41.014833333333335,-123.23583333333333,35.57,2.25,NC.KCS..EHZ,P,1.0,2013-03-13 21:44:28.100
nc71953780,2013-03-13 21:44:16.950,41.014833333333335,-123.23583333333333,35.57,2.25,NC.KHBB..HHZ,P,-1.0,2013-03-13 21:44:25.610
nc71953780,2013-03-13 21:44:16.950,41.014833333333335,-123.23583333333333,35.57,2.25,NC.KHMB..HHZ,P,1.0,2013-03-13 21:44:26.090
nc71953780,2013-03-13 21:44:16.950,41.014833333333335,-123.23583333333333,35.57,2.25,NC.KOM..EHZ,P,1.0,2013-03-13 21:44:25.060
nc71953780,2013-03-13 21:44:16.950,41.014833333333335,-123.23583333333333,35.57,2.25,NC.KRMB..HHZ,P,-1.0,2013-03-13 21:44:30.390
nc71953780,2013-03-13 21:44:16.950,41.014833333333335,-123.23583333333333,35.57,2.25,NC.KSXB..HHZ,P,-1.0,2013-03-13 21:44:34.270
nc71953780,2013-03-13 21:44:16.950,41.014833333333335,-123.23583333333333,35.57,2.25,NC.LBK..EHZ,P,-1.0,2013-03-13 21:44:26.570
nc71953780,2013-03-13 21:44:16.950,41.014833333333335,-123.23583333333333,35.57,2.25,NC.LBO..EHZ,P,,2013-03-13 21:44:33.890
nc71953780,2013-03-13 21:44:16.950,41.014833333333335,-123.23583333333333,35.57,2.25,NC.LBP..EHZ,P,-1.0,2013-03-13 21:44:31.360
nc71953780,2013-03-13 21:44:16.950,41.014833333333335,-123.23583333333333,35.57,2.25,NC.LGP..EHZ,P,-1.0,2013-03-13 21:44:25.140
nc71953780,2013-03-13 21:44:16.950,41.014833333333335,-123.23583333333333,35.57,2.25,NC.LMP..EHZ,P,1.0,2013-03-13 21:44:35.640
nc71953780,2013-03-13 21:44:16.950,41.014833333333335,-123.23583333333333,35.57,2.25,NC.LSF..EHZ,P,1.0,2013-03-13 21:44:30.040
nc71953780,2013-03-13 21:44:16.950,41.014833333333335,-123.23583333333333,35.57,2.25,NC.LSH..EHZ,P,1.0,2013-03-13 21:44:34.430
nc71953780,2013-03-13 21:44:16.950,41.014833333333335,-123.23583333333333,35.57,2.25,NC.LSR..EHZ,P,1.0,2013-03-13 21:44:31.270
nc71953780,2013-03-13 21:44:16.950,41.014833333333335,-123.23583333333333,35.57,2.25,PB.B039..EHZ,P,1.0,2013-03-13 21:44:30.820
nc71953780,2013-03-13 21:44:16.950,41.014833333333335,-123.23583333333333,35.57,2.25,TA.M02C..HHZ,P,-1.0,2013-03-13 21:44:27.190
nc71953780,2013-03-13 21:44:16.950,41.014833333333335,-123.23583333333333,35.57,2.25,TA.N02D..HHZ,P,-1.0,2013-03-13 21:44:26.080
nc71957055,2013-03-19 12:41:31.930,40.33316666666666,-124.41233333333334,14.07,2.17,BK.GASB..HHZ,P,1.0,2013-03-19 12:41:57.000
nc71957055,2013-03-19 12:41:31.930,40.33316666666666,-124.41233333333334,14.07,2.17,BK.JCC..HHZ,P,-1.0,2013-03-19 12:41:42.730
nc71957055,2013-03-19 12:41:31.930,40.33316666666666,-124.41233333333334,14.07,2.17,NC.GHO..EHZ,P,1.0,2013-03-19 12:41:56.200
nc71957055,2013-03-19 12:41:31.930,40.33316666666666,-124.41233333333334,14.07,2.17,NC.GNA..EHZ,P,1.0,2013-03-19 12:41:53.240
nc71957055,2013-03-19 12:41:31.930,40.33316666666666,-124.41233333333334,14.07,2.17,NC.GRO..EHZ,P,,2013-03-19 12:41:56.360
nc71957055,2013-03-19 12:41:31.930,40.33316666666666,-124.41233333333334,14.07,2.17,NC.GTC..EHZ,P,-1.0,2013-03-19 12:41:51.520
nc71957055,2013-03-19 12:41:31.930,40.33316666666666,-124.41233333333334,14.07,2.17,NC.GVV..EHZ,P,-1.0,2013-03-19 12:41:57.080
nc71957055,2013-03-19 12:41:31.930,40.33316666666666,-124.41233333333334,14.07,2.17,NC.KBN..EHZ,P,1.0,2013-03-19 12:41:50.900
nc71957055,2013-03-19 12:41:31.930,40.33316666666666,-124.41233333333334,14.07,2.17,NC.KBS..EHZ,P,1.0,2013-03-19 12:41:46.310
nc71957055,2013-03-19 12:41:31.930,40.33316666666666,-124.41233333333334,14.07,2.17,NC.KCO..EHZ,P,-1.0,2013-03-19 12:41:36.190
nc71957055,2013-03-19 12:41:31.930,40.33316666666666,-124.41233333333334,14.07,2.17,NC.KCPB..HHZ,P,1.0,2013-03-19 12:41:49.350
nc71957055,2013-03-19 12:41:31.930,40.33316666666666,-124.41233333333334,14.07,2.17,NC.KCR..EHZ,P,1.0,2013-03-19 12:41:41.980
nc71957055,2013-03-19 12:41:31.930,40.33316666666666,-124.41233333333334,14.07,2.17,NC.KCS..EHZ,P,1.0,2013-03-19 12:41:45.960
nc71957055,2013-03-19 12:41:31.930,40.33316666666666,-124.41233333333334,14.07,2.17,NC.KCT..HHZ,P,-1.0,2013-03-19 12:41:36.310
nc71957055,2013-03-19 12:41:31.930,40.33316666666666,-124.41233333333334,14.07,2.17,NC.KFP..EHZ,P,-1.0,2013-03-19 12:41:49.870
nc71957055,2013-03-19 12:41:31.930,40.33316666666666,-124.41233333333334,14.07,2.17,NC.KHBB..HHZ,P,-1.0,2013-03-19 12:41:49.130
nc71957055,2013-03-19 12:41:31.930,40.33316666666666,-124.41233333333334,14.07,2.17,NC.KHMB..HHZ,P,-1.0,2013-03-19 12:41:46.100
nc71957055,2013-03-19 12:41:31.930,40.33316666666666,-124.41233333333334,14.07,2.17,NC.KIP..EHZ,P,-1.0,2013-03-19 12:41:48.360
nc71957055,2013-03-19 12:41:31.930,40.33316666666666,-124.41233333333334,14.07,2.17,NC.KKP..EHZ,P,1.0,2013-03-19 12:41:46.960
nc71957055,2013-03-19 12:41:31.930,40.33316666666666,-124.41233333333334,14.07,2.17,NC.KMPB..HHZ,P,1.0,2013-03-19 12:41:37.590
nc71957055,2013-03-19 12:41:31.930,40.33316666666666,-124.41233333333334,14.07,2.17,NC.KMR..HHZ,P,1.0,2013-03-19 12:41:43.490
nc71957055,2013-03-19 12:41:31.930,40.33316666666666,-124.41233333333334,14.07,2.17,NC.KOM..EHZ,P,-1.0,2013-03-19 12:41:52.150
nc71957055,2013-03-19 12:41:31.930,40.33316666666666,-124.41233333333334,14.07,2.17,NC.KRMB..HHZ,P,-1.0,2013-03-19 12:41:52.710
nc71957055,2013-03-19 12:41:31.930,40.33316666666666,-124.41233333333334,14.07,2.17,NC.LRB..EHZ,P,-1.0,2013-03-19 12:41:57.230
nc71957055,2013-03-19 12:41:31.930,40.33316666666666,-124.41233333333334,14.07,2.17,NC.LSH..EHZ,P,-1.0,2013-03-19 12:42:02.450
nc71957055,2013-03-19 12:41:31.930,40.33316666666666,-124.41233333333334,14.07,2.17,NC.LVR..EHZ,P,1.0,2013-03-19 12:41:55.820
nc71957055,2013-03-19 12:41:31.930,40.33316666666666,-124.41233333333334,14.07,2.17,PB.B045..EHZ,P,1.0,2013-03-19 12:41:39.210
nc71957055,2013-03-19 12:41:31.930,40.33316666666666,-124.41233333333334,14.07,2.17,PB.B046..EHZ,P,-1.0,2013-03-19 12:41:35.470
nc71957055,2013-03-19 12:41:31.930,40.33316666666666,-124.41233333333334,14.07,2.17,PB.B047..EHZ,P,-1.0,2013-03-19 12:41:37.070
nc71957055,2013-03-19 12:41:31.930,40.33316666666666,-124.41233333333334,14.07,2.17,PB.B932..EHZ,P,-1.0,2013-03-19 12:41:36.190
nc71957055,2013-03-19 12:41:31.930,40.33316666666666,-124.41233333333334,14.07,2.17,PB.B933..EHZ,P,1.0,2013-03-19 12:41:41.010
nc71957055,2013-03-19 12:41:31.930,40.33316666666666,-124.41233333333334,14.07,2.17,PB.B935..EHZ,P,1.0,2013-03-19 12:41:44.850
nc71957055,2013-03-19 12:41:31.930,40.33316666666666,-124.41233333333334,14.07,2.17,TA.N02D..HHZ,P,1.0,2013-03-19 12:41:56.320
nc71957055,2013-03-19 12:41:31.930,40.33316666666666,-124.41233333333334,14.07,2.17,TA.O02D..HHZ,P,1.0,2013-03-19 12:41:53.840
nc71958960,2013-03-23 16:56:07.330,40.152833333333334,-123.09883333333333,38.03,2.09,BK.GASB..HHZ,P,-1.0,2013-03-23 16:56:19.240
nc71958960,2013-03-23 16:56:07.330,40.152833333333334,-123.09883333333333,38.03,2.09,BK.WDC..HHZ,P,1.0,2013-03-23 16:56:18.970
nc71958960,2013-03-23 16:56:07.330,40.152833333333334,-123.09883333333333,38.03,2.09,NC.GHM..EHZ,P,-1.0,2013-03-23 16:56:20.130
nc71958960,2013-03-23 16:56:07.330,40.152833333333334,-123.09883333333333,38.03,2.09,NC.GNA..EHZ,P,-1.0,2013-03-23 16:56:24.340
nc71958960,2013-03-23 16:56:07.330,40.152833333333334,-123.09883333333333,38.03,2.09,NC.GRO..EHZ,P,1.0,2013-03-23 16:56:16.830
nc71958960,2013-03-23 16:56:07.330,40.152833333333334,-123.09883333333333,38.03,2.09,NC.GTC..EHZ,P,1.0,2013-03-23 16:56:21.610
nc71958960,2013-03-23 16:56:07.330,40.152833333333334,-123.09883333333333,38.03,2.09,NC.GVV..EHZ,P,1.0,2013-03-23 16:56:18.140
nc71958960,2013-03-23 16:56:07.330,40.152833333333334,-123.09883333333333,38.03,2.09,NC.GWR..EHZ,P,1.0,2013-03-23 16:56:23.560
nc71958960,2013-03-23 16:56:07.330,40.152833333333334,-123.09883333333333,38.03,2.09,NC.KBN..EHZ,P,-1.0,2013-03-23 16:56:15.310
nc71958960,2013-03-23 16:56:07.330,40.152833333333334,-123.09883333333333,38.03,2.09,NC.KBS..EHZ,P,-1.0,2013-03-23 16:56:17.370
nc71958960,2013-03-23 16:56:07.330,40.152833333333334,-123.09883333333333,38.03,2.09,NC.KCO..EHZ,P,-1.0,2013-03-23 16:56:23.130
nc71958960,2013-03-23 16:56:07.330,40.152833333333334,-123.09883333333333,38.03,2.09,NC.KCR..EHZ,P,1.0,2013-03-23 16:56:19.360
nc71958960,2013-03-23 16:56:07.330,40.152833333333334,-123.09883333333333,38.03,2.09,NC.KCS..EHZ,P,1.0,2013-03-23 16:56:18.160
nc71958960,2013-03-23 16:56:07.330,40.152833333333334,-123.09883333333333,38.03,2.09,NC.KFP..EHZ,P,-1.0,2013-03-23 16:56:18.460
nc71958960,2013-03-23 16:56:07.330,40.152833333333334,-123.09883333333333,38.03,2.09,NC.KHBB..HHZ,P,-1.0,2013-03-23 16:56:18.010
nc71958960,2013-03-23 16:56:07.330,40.152833333333334,-123.09883333333333,38.03,2.09,NC.KIP..EHZ,P,1.0,2013-03-23 16:56:17.360
nc71958960,2013-03-23 16:56:07.330,40.152833333333334,-123.09883333333333,38.03,2.09,NC.KKP..EHZ,P,1.0,2013-03-23 16:56:15.890
nc71958960,2013-03-23 16:56:07.330,40.152833333333334,-123.09883333333333,38.03,2.09,NC.KMR..HHZ,P,1.0,2013-03-23 16:56:17.530
nc71958960,2013-03-23 16:56:07.330,40.152833333333334,-123.09883333333333,38.03,2.09,NC.KPP..EHZ,P,1.0,2013-03-23 16:56:15.540
nc71958960,2013-03-23 16:56:07.330,40.152833333333334,-123.09883333333333,38.03,2.09,NC.KSM..EHZ,P,-1.0,2013-03-23 16:56:21.980
nc71958960,2013-03-23 16:56:07.330,40.152833333333334,-123.09883333333333,38.03,2.09,NC.LBK..EHZ,P,1.0,2013-03-23 16:56:24.920
nc71958960,2013-03-23 16:56:07.330,40.152833333333334,-123.09883333333333,38.03,2.09,NC.LBP..EHZ,P,-1.0,2013-03-23 16:56:14.720
nc71958960,2013-03-23 16:56:07.330,40.152833333333334,-123.09883333333333,38.03,2.09,NC.LDH..HHZ,P,-1.0,2013-03-23 16:56:27.300
nc71958960,2013-03-23 16:56:07.330,40.152833333333334,-123.09883333333333,38.03,2.09,NC.LGP..EHZ,P,-1.0,2013-03-23 16:56:21.690
nc71958960,2013-03-23 16:56:07.330,40.152833333333334,-123.09883333333333,38.03,2.09,NC.LME..EHZ,P,,2013-03-23 16:56:27.600
nc71958960,2013-03-23 16:56:07.330,40.152833333333334,-123.09883333333333,38.03,2.09,NC.LPG..EHZ,P,1.0,2013-03-23 16:56:15.580
nc71958960,2013-03-23 16:56:07.330,40.152833333333334,-123.09883333333333,38.03,2.09,NC.LRB..EHZ,P,1.0,2013-03-23 16:56:17.100
nc71958960,2013-03-23 16:56:07.330,40.152833333333334,-123.09883333333333,38.03,2.09,NC.LRR..EHZ,P,,2013-03-23 16:56:26.830
nc71958960,2013-03-23 16:56:07.330,40.152833333333334,-123.09883333333333,38.03,2.09,NC.LSF..EHZ,P,1.0,2013-03-23 16:56:20.270
nc71958960,2013-03-23 16:56:07.330,40.152833333333334,-123.09883333333333,38.03,2.09,NC.LSH..EHZ,P,1.0,2013-03-23 16:56:24.980
nc71958960,2013-03-23 16:56:07.330,40.152833333333334,-123.09883333333333,38.03,2.09,NC.LVR..EHZ,P,1.0,2013-03-23 16:56:16.100
nc71958960,2013-03-23 16:56:07.330,40.152833333333334,-123.09883333333333,38.03,2.09,NC.OCR..EHZ,P,-1.0,2013-03-23 16:56:24.690
nc71958960,2013-03-23 16:56:07.330,40.152833333333334,-123.09883333333333,38.03,2.09,NC.OGO..EHZ,P,,2013-03-23 16:56:26.980
nc71958960,2013-03-23 16:56:07.330,40.152833333333334,-123.09883333333333,38.03,2.09,PB.B046..EHZ,P,-1.0,2013-03-23 16:56:23.190
nc71958960,2013-03-23 16:56:07.330,40.152833333333334,-123.09883333333333,38.03,2.09,PB.B049..EHZ,P,1.0,2013-03-23 16:56:18.290
nc71958960,2013-03-23 16:56:07.330,40.152833333333334,-123.09883333333333,38.03,2.09,PB.B932..EHZ,P,-1.0,2013-03-23 16:56:22.390
nc71958960,2013-03-23 16:56:07.330,40.152833333333334,-123.09883333333333,38.03,2.09,PB.B933..EHZ,P,-1.0,2013-03-23 16:56:19.860
nc71958960,2013-03-23 16:56:07.330,40.152833333333334,-123.09883333333333,38.03,2.09,PB.B935..EHZ,P,1.0,2013-03-23 16:56:17.790
nc71958960,2013-03-23 16:56:07.330,40.152833333333334,-123.09883333333333,38.03,2.09,TA.N02D..HHZ,P,-1.0,2013-03-23 16:56:22.970
nc71958960,2013-03-23 16:56:07.330,40.152833333333334,-123.09883333333333,38.03,2.09,TA.O02D..HHZ,P,1.0,2013-03-23 16:56:14.820
nc71958960,2013-03-23 16:56:07.330,40.152833333333334,-123.09883333333333,38.03,2.09,TA.O03E..HHZ,P,,2013-03-23 16:56:23.930
nc71961400,2013-03-27 12:24:34.660,40.237833333333334,-124.15983333333334,10.17,1.95,BK.JCC..HHZ,P,1.0,2013-03-27 12:24:46.700
nc71961400,2013-03-27 12:24:34.660,40.237833333333334,-124.15983333333334,10.17,1.95,NC.GNA..EHZ,P,-1.0,2013-03-27 12:24:55.380
nc71961400,2013-03-27 12:24:34.660,40.237833333333334,-124.15983333333334,10.17,1.95,NC.GTC..EHZ,P,1.0,2013-03-27 12:24:51.290
nc71961400,2013-03-27 12:24:34.660,40.237833333333334,-124.15983333333334,10.17,1.95,NC.K004..HNZ,P,1.0,2013-03-27 12:24:37.280
nc71961400,2013-03-27 12:24:34.660,40.237833333333334,-124.15983333333334,10.17,1.95,NC.KBN..EHZ,P,-1.0,2013-03-27 12:24:50.570
nc71961400,2013-03-27 12:24:34.660,40.237833333333334,-124.15983333333334,10.17,1.95,NC.KBS..EHZ,P,-1.0,2013-03-27 12:24:45.930
nc71961400,2013-03-27 12:24:34.660,40.237833333333334,-124.15983333333334,10.17,1.95,NC.KCO..EHZ,P,1.0,2013-03-27 12:24:37.610
nc71961400,2013-03-27 12:24:34.660,40.237833333333334,-124.15983333333334,10.17,1.95,NC.KCPB..HHZ,P,-1.0,2013-03-27 12:24:48.920
nc71961400,2013-03-27 12:24:34.660,40.237833333333334,-124.15983333333334,10.17,1.95,NC.KCR..EHZ,P,1.0,2013-03-27 12:24:42.060
nc71961400,2013-03-27 12:24:34.660,40.237833333333334,-124.15983333333334,10.17,1.95,NC.KCS..EHZ,P,1.0,2013-03-27 12:24:47.280
nc71961400,2013-03-27 12:24:34.660,40.237833333333334,-124.15983333333334,10.17,1.95,NC.KCT..HHZ,P,-1.0,2013-03-27 12:24:41.240
nc71961400,2013-03-27 12:24:34.660,40.237833333333334,-124.15983333333334,10.17,1.95,NC.KFP..EHZ,P,1.0,2013-03-27 12:24:49.660
nc71961400,2013-03-27 12:24:34.660,40.237833333333334,-124.15983333333334,10.17,1.95,NC.KHBB..HHZ,P,1.0,2013-03-27 12:24:50.520
nc71961400,2013-03-27 12:24:34.660,40.237833333333334,-124.15983333333334,10.17,1.95,NC.KHMB..HHZ,P,1.0,2013-03-27 12:24:49.400
nc71961400,2013-03-27 12:24:34.660,40.237833333333334,-124.15983333333334,10.17,1.95,NC.KIP..EHZ,P,-1.0,2013-03-27 12:24:48.230
nc71961400,2013-03-27 12:24:34.660,40.237833333333334,-124.15983333333334,10.17,1.95,NC.KKP..EHZ,P,1.0,2013-03-27 12:24:46.520
nc71961400,2013-03-27 12:24:34.660,40.237833333333334,-124.15983333333334,10.17,1.95,NC.KMPB..HHZ,P,-1.0,2013-03-27 12:24:39.190
nc71961400,2013-03-27 12:24:34.660,40.237833333333334,-124.15983333333334,10.17,1.95,NC.KMR..HHZ,P,1.0,2013-03-27 12:24:42.510
nc71961400,2013-03-27 12:24:34.660,40.237833333333334,-124.15983333333334,10.17,1.95,NC.KPP..EHZ,P,1.0,2013-03-27 12:24:47.970
nc71961400,2013-03-27 12:24:34.660,40.237833333333334,-124.15983333333334,10.17,1.95,NC.KRK..EHZ,P,1.0,2013-03-27 12:24:52.470
nc71961400,2013-03-27 12:24:34.660,40.237833333333334,-124.15983333333334,10.17,1.95,NC.LBP..EHZ,P,1.0,2013-03-27 12:24:52.730
nc71961400,2013-03-27 12:24:34.660,40.237833333333334,-124.15983333333334,10.17,1.95,PB.B045..EHZ,P,-1.0,2013-03-27 12:24:40.170
nc71961400,2013-03-27 12:24:34.660,40.237833333333334,-124.15983333333334,10.17,1.95,PB.B046..EHZ,P,-1.0,2013-03-27 12:24:38.140
