event_id,etime,elat,elon,edep,emag,station_id,phase_type,phase_polarity,phase_time
nc71980360,2013-05-01 21:03:23.280,40.297,-124.38383333333333,8.56,3.86,NC.K004..HNZ,P,1.0,2013-05-01 21:03:28.490
nc71980360,2013-05-01 21:03:23.280,40.297,-124.38383333333333,8.56,3.86,NC.KBN..EHZ,P,-1.0,2013-05-01 21:03:42.110
nc71980360,2013-05-01 21:03:23.280,40.297,-124.38383333333333,8.56,3.86,NC.KBS..EHZ,P,-1.0,2013-05-01 21:03:37.700
nc71980360,2013-05-01 21:03:23.280,40.297,-124.38383333333333,8.56,3.86,NC.KCO..EHZ,P,-1.0,2013-05-01 21:03:26.410
nc71980360,2013-05-01 21:03:23.280,40.297,-124.38383333333333,8.56,3.86,NC.KCPB..HHZ,P,-1.0,2013-05-01 21:03:39.550
nc71980360,2013-05-01 21:03:23.280,40.297,-124.38383333333333,8.56,3.86,NC.KCR..EHZ,P,1.0,2013-05-01 21:03:33.350
nc71980360,2013-05-01 21:03:23.280,40.297,-124.38383333333333,8.56,3.86,NC.KCS..EHZ,P,1.0,2013-05-01 21:03:38.050
nc71980360,2013-05-01 21:03:23.280,40.297,-124.38383333333333,8.56,3.86,NC.KCT..HHZ,P,1.0,2013-05-01 21:03:27.910
nc71980360,2013-05-01 21:03:23.280,40.297,-124.38383333333333,8.56,3.86,NC.KFP..EHZ,P,-1.0,2013-05-01 21:03:41.240
nc71980360,2013-05-01 21:03:23.280,40.297,-124.38383333333333,8.56,3.86,NC.KHBB..HHZ,P,-1.0,2013-05-01 21:03:42.030
nc71980360,2013-05-01 21:03:23.280,40.297,-124.38383333333333,8.56,3.86,NC.KHMB..HHZ,P,1.0,2013-05-01 21:03:38.370
nc71980360,2013-05-01 21:03:23.280,40.297,-124.38383333333333,8.56,3.86,NC.KIP..EHZ,P,1.0,2013-05-01 21:03:39.500
nc71980360,2013-05-01 21:03:23.280,40.297,-124.38383333333333,8.56,3.86,NC.KKP..EHZ,P,-1.0,2013-05-01 21:03:38.480
nc71980360,2013-05-01 21:03:23.280,40.297,-124.38383333333333,8.56,3.86,NC.KMPB..HHZ,P,1.0,2013-05-01 21:03:28.800
nc71980360,2013-05-01 21:03:23.280,40.297,-124.38383333333333,8.56,3.86,NC.KMR..HHZ,P,-1.0,2013-05-01 21:03:34.610
nc71980360,2013-05-01 21:03:23.280,40.297,-124.38383333333333,8.56,3.86,NC.KOM..EHZ,P,1.0,2013-05-01 21:03:44.570
nc71980360,2013-05-01 21:03:23.280,40.297,-124.38383333333333,8.56,3.86,NC.KPP..EHZ,P,-1.0,2013-05-01 21:03:39.890
nc71980360,2013-05-01 21:03:23.280,40.297,-124.38383333333333,8.56,3.86,NC.KRMB..HHZ,P,-1.0,2013-05-01 21:03:45.210
nc71980360,2013-05-01 21:03:23.280,40.297,-124.38383333333333,8.56,3.86,NC.KSM..EHZ,P,-1.0,2013-05-01 21:03:28.050
nc71980360,2013-05-01 21:03:23.280,40.297,-124.38383333333333,8.56,3.86,NC.KSXB..HHZ,P,1.0,2013-05-01 21:03:49.490
nc71980360,2013-05-01 21:03:23.280,40.297,-124.38383333333333,8.56,3.86,NC.KTR..EHZ,P,1.0,2013-05-01 21:03:52.830
nc71980360,2013-05-01 21:03:23.280,40.297,-124.38383333333333,8.56,3.86,NC.LAMB..EHZ,P,-1.0,2013-05-01 21:03:54.940
nc71980360,2013-05-01 21:03:23.280,40.297,-124.38383333333333,8.56,3.86,NC.LBC..EHZ,P,,2013-05-01 21:04:01.790
nc71980360,2013-05-01 21:03:23.280,40.297,-124.38383333333333,8.56,3.86,NC.LBF..EHZ,P,-1.0,2013-05-01 21:04:00.000
nc71980360,2013-05-01 21:03:23.280,40.297,-124.38383333333333,8.56,3.86,NC.LBK..EHZ,P,,2013-05-01 21:03:49.710
nc71980360,2013-05-01 21:03:23.280,40.297,-124.38383333333333,8.56,3.86,NC.LBO..EHZ,P,,2013-05-01 21:03:57.200
nc71980360,2013-05-01 21:03:23.280,40.297,-124.38383333333333,8.56,3.86,NC.LBP..EHZ,P,-1.0,2013-05-01 21:03:44.150
nc71980360,2013-05-01 21:03:23.280,40.297,-124.38383333333333,8.56,3.86,NC.LCSB..EHZ,P,,2013-05-01 21:03:55.840
nc71980360,2013-05-01 21:03:23.280,40.297,-124.38383333333333,8.56,3.86,NC.LGB..EHZ,P,-1.0,2013-05-01 21:03:56.840
nc71980360,2013-05-01 21:03:23.280,40.297,-124.38383333333333,8.56,3.86,NC.LGM..EHZ,P,1.0,2013-05-01 21:04:02.650
nc71980360,2013-05-01 21:03:23.280,40.297,-124.38383333333333,8.56,3.86,NC.LGP..EHZ,P,1.0,2013-05-01 21:03:46.890
nc71980360,2013-05-01 21:03:23.280,40.297,-124.38383333333333,8.56,3.86,NC.LMC..HHZ,P,,2013-05-01 21:03:56.960
nc71980360,2013-05-01 21:03:23.280,40.297,-124.38383333333333,8.56,3.86,NC.LMI..EHZ,P,1.0,2013-05-01 21:03:51.410
nc71980360,2013-05-01 21:03:23.280,40.297,-124.38383333333333,8.56,3.86,NC.LMP..EHZ,P,1.0,2013-05-01 21:03:56.590
nc71980360,2013-05-01 21:03:23.280,40.297,-124.38383333333333,8.56,3.86,NC.LPG..EHZ,P,-1.0,2013-05-01 21:03:47.210
nc71980360,2013-05-01 21:03:23.280,40.297,-124.38383333333333,8.56,3.86,NC.LRB..EHZ,P,1.0,2013-05-01 21:03:48.820
nc71980360,2013-05-01 21:03:23.280,40.297,-124.38383333333333,8.56,3.86,NC.LRR..EHZ,P,-1.0,2013-05-01 21:03:58.260
nc71980360,2013-05-01 21:03:23.280,40.297,-124.38383333333333,8.56,3.86,NC.LSF..EHZ,P,1.0,2013-05-01 21:03:49.670
nc71980360,2013-05-01 21:03:23.280,40.297,-124.38383333333333,8.56,3.86,NC.LSH..EHZ,P,-1.0,2013-05-01 21:03:54.510
nc71980360,2013-05-01 21:03:23.280,40.297,-124.38383333333333,8.56,3.86,NC.LSI..EHZ,P,,2013-05-01 21:04:00.230
nc71980360,2013-05-01 21:03:23.280,40.297,-124.38383333333333,8.56,3.86,NC.LSR..EHZ,P,,2013-05-01 21:03:53.000
nc71980360,2013-05-01 21:03:23.280,40.297,-124.38383333333333,8.56,3.86,NC.LTC..EHZ,P,,2013-05-01 21:03:52.150
nc71980360,2013-05-01 21:03:23.280,40.297,-124.38383333333333,8.56,3.86,NC.LVR..EHZ,P,-1.0,2013-05-01 21:03:47.130
nc71980360,2013-05-01 21:03:23.280,40.297,-124.38383333333333,8.56,3.86,NC.NAPC..EHZ,P,,2013-05-01 21:04:02.190
nc71980360,2013-05-01 21:03:23.280,40.297,-124.38383333333333,8.56,3.86,NC.NBP..EHZ,P,,2013-05-01 21:04:00.430
nc71980360,2013-05-01 21:03:23.280,40.297,-124.38383333333333,8.56,3.86,NC.NCC..EHZ,P,-1.0,2013-05-01 21:04:05.020
nc71980360,2013-05-01 21:03:23.280,40.297,-124.38383333333333,8.56,3.86,NC.NEA..EHZ,P,1.0,2013-05-01 21:03:59.110
nc71980360,2013-05-01 21:03:23.280,40.297,-124.38383333333333,8.56,3.86,NC.NFR..EHZ,P,1.0,2013-05-01 21:03:55.190
nc71980360,2013-05-01 21:03:23.280,40.297,-124.38383333333333,8.56,3.86,NC.NHF..EHZ,P,1.0,2013-05-01 21:04:04.080
nc71980360,2013-05-01 21:03:23.280,40.297,-124.38383333333333,8.56,3.86,NC.NHS..EHZ,P,,2013-05-01 21:03:57.380
nc71980360,2013-05-01 21:03:23.280,40.297,-124.38383333333333,8.56,3.86,NC.NHV..EHZ,P,-1.0,2013-05-01 21:04:02.130
nc71980360,2013-05-01 21:03:23.280,40.297,-124.38383333333333,8.56,3.86,NC.NPV..EHZ,P,,2013-05-01 21:03:59.210
nc71980360,2013-05-01 21:03:23.280,40.297,-124.38383333333333,8.56,3.86,NC.NSP..EHZ,P,-1.0,2013-05-01 21:04:03.730
nc71980360,2013-05-01 21:03:23.280,40.297,-124.38383333333333,8.56,3.86,NC.OCR..EHZ,P,-1.0,2013-05-01 21:03:56.430
nc71980360,2013-05-01 21:03:23.280,40.297,-124.38383333333333,8.56,3.86,NC.OGO..EHZ,P,,2013-05-01 21:03:58.340
nc71980360,2013-05-01 21:03:23.280,40.297,-124.38383333333333,8.56,3.86,NC.OHC..EHZ,P,,2013-05-01 21:04:02.680
nc71980360,2013-05-01 21:03:23.280,40.297,-124.38383333333333,8.56,3.86,PB.B035..EHZ,P,,2013-05-01 21:04:00.950
nc71980360,2013-05-01 21:03:23.280,40.297,-124.38383333333333,8.56,3.86,PB.B036..EHZ,P,1.0,2013-05-01 21:04:00.820
nc71980360,2013-05-01 21:03:23.280,40.297,-124.38383333333333,8.56,3.86,PB.B039..EHZ,P,-1.0,2013-05-01 21:03:54.540
nc71980360,2013-05-01 21:03:23.280,40.297,-124.38383333333333,8.56,3.86,PB.B040..EHZ,P,-1.0,2013-05-01 21:03:59.020
nc71980360,2013-05-01 21:03:23.280,40.297,-124.38383333333333,8.56,3.86,PB.B045..EHZ,P,1.0,2013-05-01 21:03:30.620
nc71980360,2013-05-01 21:03:23.280,40.297,-124.38383333333333,8.56,3.86,PB.B046..EHZ,P,1.0,2013-05-01 21:03:25.810
nc71980360,2013-05-01 21:03:23.280,40.297,-124.38383333333333,8.56,3.86,PB.B047..EHZ,P,-1.0,2013-05-01 21:03:27.610
nc71980360,2013-05-01 21:03:23.280,40.297,-124.38383333333333,8.56,3.86,PB.B049..EHZ,P,-1.0,2013-05-01 21:03:32.720
nc71980360,2013-05-01 21:03:23.280,40.297,-124.38383333333333,8.56,3.86,PB.B057..EHZ,P,,2013-05-01 21:04:04.010
nc71980360,2013-05-01 21:03:23.280,40.297,-124.38383333333333,8.56,3.86,PB.B932..EHZ,P,-1.0,2013-05-01 21:03:26.610
nc71980360,2013-05-01 21:03:23.280,40.297,-124.38383333333333,8.56,3.86,PB.B933..EHZ,P,-1.0,2013-05-01 21:03:31.490
nc71980360,2013-05-01 21:03:23.280,40.297,-124.38383333333333,8.56,3.86,PB.B934..EHZ,P,-1.0,2013-05-01 21:03:37.430
nc71980360,2013-05-01 21:03:23.280,40.297,-124.38383333333333,8.56,3.86,PB.B935..EHZ,P,1.0,2013-05-01 21:03:36.870
nc71980360,2013-05-01 21:03:23.280,40.297,-124.38383333333333,8.56,3.86,TA.L02E..HHZ,P,,2013-05-01 21:03:55.340
nc71980360,2013-05-01 21:03:23.280,40.297,-124.38383333333333,8.56,3.86,TA.L04D..HHZ,P,-1.0,2013-05-01 21:04:04.450
nc71980360,2013-05-01 21:03:23.280,40.297,-124.38383333333333,8.56,3.86,TA.M02C..HHZ,P,-1.0,2013-05-01 21:03:50.370
nc71980360,2013-05-01 21:03:23.280,40.297,-124.38383333333333,8.56,3.86,TA.N02D..HHZ,P,,2013-05-01 21:03:46.810
nc71980360,2013-05-01 21:03:23.280,40.297,-124.38383333333333,8.56,3.86,TA.O02D..HHZ,P,-1.0,2013-05-01 21:03:45.560
nc71980360,2013-05-01 21:03:23.280,40.297,-124.38383333333333,8.56,3.86,TA.O03E..HHZ,P,1.0,2013-05-01 21:03:55.610
nc71980360,2013-05-01 21:03:23.280,40.297,-124.38383333333333,8.56,3.86,WR.MGL..EHZ,P,1.0,2013-05-01 21:03:57.970
nc71980360,2013-05-01 21:03:23.280,40.297,-124.38383333333333,8.56,3.86,WR.ORV..EHZ,P,-1.0,2013-05-01 21:04:01.160
nc71071244,2013-05-01 21:05:04.730,40.30316666666667,-124.38983333333333,6.52,1.91,BK.JCC..HHZ,P,1.0,2013-05-01 21:05:17.930
nc71071244,2013-05-01 21:05:04.730,40.30316666666667,-124.38983333333333,6.52,1.91,NC.GNA..EHZ,P,1.0,2013-05-01 21:05:25.930
nc71071244,2013-05-01 21:05:04.730,40.30316666666667,-124.38983333333333,6.52,1.91,NC.GTC..EHZ,P,1.0,2013-05-01 21:05:24.330
nc71071244,2013-05-01 21:05:04.730,40.30316666666667,-124.38983333333333,6.52,1.91,NC.K004..HNZ,P,,2013-05-01 21:05:10.080
nc71071244,2013-05-01 21:05:04.730,40.30316666666667,-124.38983333333333,6.52,1.91,NC.KBS..EHZ,P,1.0,2013-05-01 21:05:19.200
nc71071244,2013-05-01 21:05:04.730,40.30316666666667,-124.38983333333333,6.52,1.91,NC.KCO..EHZ,P,-1.0,2013-05-01 21:05:07.750
nc71071244,2013-05-01 21:05:04.730,40.30316666666667,-124.38983333333333,6.52,1.91,NC.KCPB..HHZ,P,1.0,2013-05-01 21:05:22.420
nc71071244,2013-05-01 21:05:04.730,40.30316666666667,-124.38983333333333,6.52,1.91,NC.KCR..EHZ,P,1.0,2013-05-01 21:05:14.960
nc71071244,2013-05-01 21:05:04.730,40.30316666666667,-124.38983333333333,6.52,1.91,NC.KCT..HHZ,P,1.0,2013-05-01 21:05:09.560
nc71071244,2013-05-01 21:05:04.730,40.30316666666667,-124.38983333333333,6.52,1.91,NC.KFP..EHZ,P,1.0,2013-05-01 21:05:22.910
nc71071244,2013-05-01 21:05:04.730,40.30316666666667,-124.38983333333333,6.52,1.91,NC.KIP..EHZ,P,1.0,2013-05-01 21:05:21.440
nc71071244,2013-05-01 21:05:04.730,40.30316666666667,-124.38983333333333,6.52,1.91,NC.KMPB..HHZ,P,1.0,2013-05-01 21:05:10.380
nc71071244,2013-05-01 21:05:04.730,40.30316666666667,-124.38983333333333,6.52,1.91,NC.KSM..EHZ,P,-1.0,2013-05-01 21:05:09.420
nc71071244,2013-05-01 21:05:04.730,40.30316666666667,-124.38983333333333,6.52,1.91,PB.B045..EHZ,P,-1.0,2013-05-01 21:05:12.070
nc71071244,2013-05-01 21:05:04.730,40.30316666666667,-124.38983333333333,6.52,1.91,PB.B046..EHZ,P,1.0,2013-05-01 21:05:07.150
nc71071244,2013-05-01 21:05:04.730,40.30316666666667,-124.38983333333333,6.52,1.91,PB.B047..EHZ,P,-1.0,2013-05-01 21:05:08.940
nc71071244,2013-05-01 21:05:04.730,40.30316666666667,-124.38983333333333,6.52,1.91,PB.B049..EHZ,P,,2013-05-01 21:05:13.210
nc71071244,2013-05-01 21:05:04.730,40.30316666666667,-124.38983333333333,6.52,1.91,PB.B932..EHZ,P,-1.0,2013-05-01 21:05:08.000
nc71071244,2013-05-01 21:05:04.730,40.30316666666667,-124.38983333333333,6.52,1.91,PB.B933..EHZ,P,1.0,2013-05-01 21:05:12.950
nc71980370,2013-05-01 21:05:44.470,40.29533333333333,-124.36716666666666,8.26,2.5,BK.GASB..HHZ,P,1.0,2013-05-01 21:06:09.010
nc71980370,2013-05-01 21:05:44.470,40.29533333333333,-124.36716666666666,8.26,2.5,BK.JCC..HHZ,P,1.0,2013-05-01 21:05:56.200
nc71980370,2013-05-01 21:05:44.470,40.29533333333333,-124.36716666666666,8.26,2.5,BK.WDC..HHZ,P,1.0,2013-05-01 21:06:09.030
nc71980370,2013-05-01 21:05:44.470,40.29533333333333,-124.36716666666666,8.26,2.5,NC.GGU..EHZ,P,1.0,2013-05-01 21:06:10.410
nc71980370,2013-05-01 21:05:44.470,40.29533333333333,-124.36716666666666,8.26,2.5,NC.GHO..EHZ,P,-1.0,2013-05-01 21:06:07.790
nc71980370,2013-05-01 21:05:44.470,40.29533333333333,-124.36716666666666,8.26,2.5,NC.GNA..EHZ,P,1.0,2013-05-01 21:06:05.460
nc71980370,2013-05-01 21:05:44.470,40.29533333333333,-124.36716666666666,8.26,2.5,NC.GRO..EHZ,P,1.0,2013-05-01 21:06:08.470
nc71980370,2013-05-01 21:05:44.470,40.29533333333333,-124.36716666666666,8.26,2.5,NC.GTC..EHZ,P,-1.0,2013-05-01 21:06:03.780
nc71980370,2013-05-01 21:05:44.470,40.29533333333333,-124.36716666666666,8.26,2.5,NC.GVV..EHZ,P,-1.0,2013-05-01 21:06:08.770
nc71980370,2013-05-01 21:05:44.470,40.29533333333333,-124.36716666666666,8.26,2.5,NC.GWR..EHZ,P,,2013-05-01 21:06:07.490
nc71980370,2013-05-01 21:05:44.470,40.29533333333333,-124.36716666666666,8.26,2.5,NC.K004..HNZ,P,1.0,2013-05-01 21:05:49.500
nc71980370,2013-05-01 21:05:44.470,40.29533333333333,-124.36716666666666,8.26,2.5,NC.KBN..EHZ,P,1.0,2013-05-01 21:06:03.140
nc71980370,2013-05-01 21:05:44.470,40.29533333333333,-124.36716666666666,8.26,2.5,NC.KBS..EHZ,P,1.0,2013-05-01 21:05:58.700
nc71980370,2013-05-01 21:05:44.470,40.29533333333333,-124.36716666666666,8.26,2.5,NC.KCO..EHZ,P,-1.0,2013-05-01 21:05:47.360
nc71980370,2013-05-01 21:05:44.470,40.29533333333333,-124.36716666666666,8.26,2.5,NC.KCPB..HHZ,P,-1.0,2013-05-01 21:06:00.700
nc71980370,2013-05-01 21:05:44.470,40.29533333333333,-124.36716666666666,8.26,2.5,NC.KCR..EHZ,P,1.0,2013-05-01 21:05:54.310
nc71980370,2013-05-01 21:05:44.470,40.29533333333333,-124.36716666666666,8.26,2.5,NC.KCS..EHZ,P,1.0,2013-05-01 21:05:59.080
nc71980370,2013-05-01 21:05:44.470,40.29533333333333,-124.36716666666666,8.26,2.5,NC.KCT..HHZ,P,1.0,2013-05-01 21:05:49.060
nc71980370,2013-05-01 21:05:44.470,40.29533333333333,-124.36716666666666,8.26,2.5,NC.KFP..EHZ,P,1.0,2013-05-01 21:06:02.270
nc71980370,2013-05-01 21:05:44.470,40.29533333333333,-124.36716666666666,8.26,2.5,NC.KHBB..HHZ,P,1.0,2013-05-01 21:06:02.380
nc71980370,2013-05-01 21:05:44.470,40.29533333333333,-124.36716666666666,8.26,2.5,NC.KHMB..HHZ,P,1.0,2013-05-01 21:05:59.440
nc71980370,2013-05-01 21:05:44.470,40.29533333333333,-124.36716666666666,8.26,2.5,NC.KIP..EHZ,P,1.0,2013-05-01 21:06:00.770
nc71980370,2013-05-01 21:05:44.470,40.29533333333333,-124.36716666666666,8.26,2.5,NC.KKP..EHZ,P,1.0,2013-05-01 21:05:59.460
nc71980370,2013-05-01 21:05:44.470,40.29533333333333,-124.36716666666666,8.26,2.5,NC.KMPB..HHZ,P,1.0,2013-05-01 21:05:49.770
nc71980370,2013-05-01 21:05:44.470,40.29533333333333,-124.36716666666666,8.26,2.5,NC.KMR..HHZ,P,1.0,2013-05-01 21:05:55.550
nc71980370,2013-05-01 21:05:44.470,40.29533333333333,-124.36716666666666,8.26,2.5,NC.KOM..EHZ,P,1.0,2013-05-01 21:06:05.660
nc71980370,2013-05-01 21:05:44.470,40.29533333333333,-124.36716666666666,8.26,2.5,NC.KPP..EHZ,P,1.0,2013-05-01 21:06:00.250
nc71980370,2013-05-01 21:05:44.470,40.29533333333333,-124.36716666666666,8.26,2.5,NC.KRMB..HHZ,P,-1.0,2013-05-01 21:06:06.490
nc71980370,2013-05-01 21:05:44.470,40.29533333333333,-124.36716666666666,8.26,2.5,NC.KSM..EHZ,P,-1.0,2013-05-01 21:05:49.000
nc71980370,2013-05-01 21:05:44.470,40.29533333333333,-124.36716666666666,8.26,2.5,NC.LBK..EHZ,P,-1.0,2013-05-01 21:06:10.610
nc71980370,2013-05-01 21:05:44.470,40.29533333333333,-124.36716666666666,8.26,2.5,NC.LBP..EHZ,P,,2013-05-01 21:06:05.580
nc71980370,2013-05-01 21:05:44.470,40.29533333333333,-124.36716666666666,8.26,2.5,NC.LPG..EHZ,P,,2013-05-01 21:06:07.690
nc71980370,2013-05-01 21:05:44.470,40.29533333333333,-124.36716666666666,8.26,2.5,NC.LVR..EHZ,P,-1.0,2013-05-01 21:06:08.510
nc71980370,2013-05-01 21:05:44.470,40.29533333333333,-124.36716666666666,8.26,2.5,PB.B045..EHZ,P,1.0,2013-05-01 21:05:51.600
nc71980370,2013-05-01 21:05:44.470,40.29533333333333,-124.36716666666666,8.26,2.5,PB.B046..EHZ,P,-1.0,2013-05-01 21:05:46.750
nc71980370,2013-05-01 21:05:44.470,40.29533333333333,-124.36716666666666,8.26,2.5,PB.B047..EHZ,P,-1.0,2013-05-01 21:05:48.550
nc71980370,2013-05-01 21:05:44.470,40.29533333333333,-124.36716666666666,8.26,2.5,PB.B049..EHZ,P,1.0,2013-05-01 21:05:53.680
nc71980370,2013-05-01 21:05:44.470,40.29533333333333,-124.36716666666666,8.26,2.5,PB.B932..EHZ,P,-1.0,2013-05-01 21:05:47.550
nc71980370,2013-05-01 21:05:44.470,40.29533333333333,-124.36716666666666,8.26,2.5,PB.B933..EHZ,P,-1.0,2013-05-01 21:05:52.470
nc71980370,2013-05-01 21:05:44.470,40.29533333333333,-124.36716666666666,8.26,2.5,PB.B934..EHZ,P,1.0,2013-05-01 21:05:58.070
nc71980370,2013-05-01 21:05:44.470,40.29533333333333,-124.36716666666666,8.26,2.5,PB.B935..EHZ,P,1.0,2013-05-01 21:05:57.880
nc71980370,2013-05-01 21:05:44.470,40.29533333333333,-124.36716666666666,8.26,2.5,TA.N02D..HHZ,P,1.0,2013-05-01 21:06:09.220
nc71980370,2013-05-01 21:05:44.470,40.29533333333333,-124.36716666666666,8.26,2.5,TA.O02D..HHZ,P,,2013-05-01 21:06:06.500
nc71980420,2013-05-02 00:02:15.460,40.300333333333334,-124.35483333333333,7.64,1.88,BK.JCC..HHZ,P,1.0,2013-05-02 00:02:27.360
nc71980420,2013-05-02 00:02:15.460,40.300333333333334,-124.35483333333333,7.64,1.88,NC.GTC..EHZ,P,1.0,2013-05-02 00:02:34.650
nc71980420,2013-05-02 00:02:15.460,40.300333333333334,-124.35483333333333,7.64,1.88,NC.KBN..EHZ,P,-1.0,2013-05-02 00:02:34.270
nc71980420,2013-05-02 00:02:15.460,40.300333333333334,-124.35483333333333,7.64,1.88,NC.KBS..EHZ,P,-1.0,2013-05-02 00:02:29.610
nc71980420,2013-05-02 00:02:15.460,40.300333333333334,-124.35483333333333,7.64,1.88,NC.KCO..EHZ,P,-1.0,2013-05-02 00:02:18.180
nc71980420,2013-05-02 00:02:15.460,40.300333333333334,-124.35483333333333,7.64,1.88,NC.KCPB..HHZ,P,1.0,2013-05-02 00:02:31.570
nc71980420,2013-05-02 00:02:15.460,40.300333333333334,-124.35483333333333,7.64,1.88,NC.KCR..EHZ,P,1.0,2013-05-02 00:02:25.090
nc71980420,2013-05-02 00:02:15.460,40.300333333333334,-124.35483333333333,7.64,1.88,NC.KCS..EHZ,P,,2013-05-02 00:02:29.210
nc71980420,2013-05-02 00:02:15.460,40.300333333333334,-124.35483333333333,7.64,1.88,NC.KCT..HHZ,P,,2013-05-02 00:02:19.990
nc71980420,2013-05-02 00:02:15.460,40.300333333333334,-124.35483333333333,7.64,1.88,NC.KFP..EHZ,P,1.0,2013-05-02 00:02:33.080
nc71980420,2013-05-02 00:02:15.460,40.300333333333334,-124.35483333333333,7.64,1.88,NC.KHMB..HHZ,P,-1.0,2013-05-02 00:02:30.450
nc71980420,2013-05-02 00:02:15.460,40.300333333333334,-124.35483333333333,7.64,1.88,NC.KIP..EHZ,P,1.0,2013-05-02 00:02:31.800
nc71980420,2013-05-02 00:02:15.460,40.300333333333334,-124.35483333333333,7.64,1.88,NC.KMPB..HHZ,P,1.0,2013-05-02 00:02:20.560
nc71980420,2013-05-02 00:02:15.460,40.300333333333334,-124.35483333333333,7.64,1.88,NC.KMR..HHZ,P,1.0,2013-05-02 00:02:26.480
nc71980420,2013-05-02 00:02:15.460,40.300333333333334,-124.35483333333333,7.64,1.88,NC.KRMB..HHZ,P,,2013-05-02 00:02:38.330
nc71980420,2013-05-02 00:02:15.460,40.300333333333334,-124.35483333333333,7.64,1.88,NC.KSM..EHZ,P,-1.0,2013-05-02 00:02:19.800
nc71980420,2013-05-02 00:02:15.460,40.300333333333334,-124.35483333333333,7.64,1.88,PB.B045..EHZ,P,1.0,2013-05-02 00:02:22.390
nc71980420,2013-05-02 00:02:15.460,40.300333333333334,-124.35483333333333,7.64,1.88,PB.B046..EHZ,P,-1.0,2013-05-02 00:02:17.550
nc71980420,2013-05-02 00:02:15.460,40.300333333333334,-124.35483333333333,7.64,1.88,PB.B047..EHZ,P,-1.0,2013-05-02 00:02:19.330
nc71980420,2013-05-02 00:02:15.460,40.300333333333334,-124.35483333333333,7.64,1.88,PB.B049..EHZ,P,1.0,2013-05-02 00:02:24.490
nc71980420,2013-05-02 00:02:15.460,40.300333333333334,-124.35483333333333,7.64,1.88,PB.B932..EHZ,P,-1.0,2013-05-02 00:02:18.320
nc71980420,2013-05-02 00:02:15.460,40.300333333333334,-124.35483333333333,7.64,1.88,PB.B933..EHZ,P,-1.0,2013-05-02 00:02:23.300
nc71980420,2013-05-02 00:02:15.460,40.300333333333334,-124.35483333333333,7.64,1.88,PB.B935..EHZ,P,1.0,2013-05-02 00:02:28.850
nc71980445,2013-05-02 00:30:48.390,40.2965,-124.38766666666666,8.77,2.51,BK.GASB..HHZ,P,-1.0,2013-05-02 00:31:13.140
nc71980445,2013-05-02 00:30:48.390,40.2965,-124.38766666666666,8.77,2.51,BK.JCC..HHZ,P,-1.0,2013-05-02 00:31:00.410
nc71980445,2013-05-02 00:30:48.390,40.2965,-124.38766666666666,8.77,2.51,BK.WDC..HHZ,P,1.0,2013-05-02 00:31:12.500
nc71980445,2013-05-02 00:30:48.390,40.2965,-124.38766666666666,8.77,2.51,NC.GHO..EHZ,P,-1.0,2013-05-02 00:31:11.750
