event_id,etime,elat,elon,edep,emag,station_id,phase_type,phase_polarity,phase_time
nc71974690,2013-04-21 11:05:52.870,40.11416666666667,-123.76533333333333,21.58,1.9,PB.B045..EHZ,P,-1.0,2013-04-21 11:06:01.070
nc71974690,2013-04-21 11:05:52.870,40.11416666666667,-123.76533333333333,21.58,1.9,PB.B046..EHZ,P,1.0,2013-04-21 11:06:02.050
nc71974690,2013-04-21 11:05:52.870,40.11416666666667,-123.76533333333333,21.58,1.9,PB.B047..EHZ,P,1.0,2013-04-21 11:06:00.640
nc71974690,2013-04-21 11:05:52.870,40.11416666666667,-123.76533333333333,21.58,1.9,PB.B049..EHZ,P,-1.0,2013-04-21 11:05:57.670
nc71974690,2013-04-21 11:05:52.870,40.11416666666667,-123.76533333333333,21.58,1.9,PB.B932..EHZ,P,1.0,2013-04-21 11:06:01.010
nc71974690,2013-04-21 11:05:52.870,40.11416666666667,-123.76533333333333,21.58,1.9,PB.B933..EHZ,P,1.0,2013-04-21 11:05:58.120
nc71974690,2013-04-21 11:05:52.870,40.11416666666667,-123.76533333333333,21.58,1.9,PB.B935..EHZ,P,-1.0,2013-04-21 11:06:01.610
nc71974690,2013-04-21 11:05:52.870,40.11416666666667,-123.76533333333333,21.58,1.9,TA.O02D..HHZ,P,-1.0,2013-04-21 11:06:07.040
nc71977175,2013-04-25 19:55:17.200,40.63883333333333,-124.81533333333333,-0.08,2.35,BK.JCC..HHZ,P,1.0,2013-04-25 19:55:31.010
nc71977175,2013-04-25 19:55:17.200,40.63883333333333,-124.81533333333333,-0.08,2.35,BK.WDC..HHZ,P,1.0,2013-04-25 19:55:47.260
nc71977175,2013-04-25 19:55:17.200,40.63883333333333,-124.81533333333333,-0.08,2.35,NC.KCO..EHZ,P,-1.0,2013-04-25 19:55:29.860
nc71977175,2013-04-25 19:55:17.200,40.63883333333333,-124.81533333333333,-0.08,2.35,NC.KCR..EHZ,P,1.0,2013-04-25 19:55:33.920
nc71977175,2013-04-25 19:55:17.200,40.63883333333333,-124.81533333333333,-0.08,2.35,NC.KCS..EHZ,P,1.0,2013-04-25 19:55:37.240
nc71977175,2013-04-25 19:55:17.200,40.63883333333333,-124.81533333333333,-0.08,2.35,NC.KFP..EHZ,P,-1.0,2013-04-25 19:55:43.060
nc71977175,2013-04-25 19:55:17.200,40.63883333333333,-124.81533333333333,-0.08,2.35,NC.KHBB..HHZ,P,1.0,2013-04-25 19:55:40.010
nc71977175,2013-04-25 19:55:17.200,40.63883333333333,-124.81533333333333,-0.08,2.35,NC.KHMB..HHZ,P,1.0,2013-04-25 19:55:34.930
nc71977175,2013-04-25 19:55:17.200,40.63883333333333,-124.81533333333333,-0.08,2.35,NC.KMPB..HHZ,P,1.0,2013-04-25 19:55:30.530
nc71977175,2013-04-25 19:55:17.200,40.63883333333333,-124.81533333333333,-0.08,2.35,NC.KOM..EHZ,P,1.0,2013-04-25 19:55:39.750
nc71977175,2013-04-25 19:55:17.200,40.63883333333333,-124.81533333333333,-0.08,2.35,NC.KPP..EHZ,P,,2013-04-25 19:55:39.310
nc71977175,2013-04-25 19:55:17.200,40.63883333333333,-124.81533333333333,-0.08,2.35,NC.KRMB..HHZ,P,-1.0,2013-04-25 19:55:37.670
nc71977175,2013-04-25 19:55:17.200,40.63883333333333,-124.81533333333333,-0.08,2.35,NC.KSM..EHZ,P,1.0,2013-04-25 19:55:31.400
nc71977175,2013-04-25 19:55:17.200,40.63883333333333,-124.81533333333333,-0.08,2.35,NC.LBK..EHZ,P,1.0,2013-04-25 19:55:46.730
nc71977175,2013-04-25 19:55:17.200,40.63883333333333,-124.81533333333333,-0.08,2.35,NC.LBP..EHZ,P,-1.0,2013-04-25 19:55:44.400
nc71977175,2013-04-25 19:55:17.200,40.63883333333333,-124.81533333333333,-0.08,2.35,NC.LGP..EHZ,P,-1.0,2013-04-25 19:55:44.460
nc71977175,2013-04-25 19:55:17.200,40.63883333333333,-124.81533333333333,-0.08,2.35,NC.LSF..EHZ,P,-1.0,2013-04-25 19:55:47.780
nc71977175,2013-04-25 19:55:17.200,40.63883333333333,-124.81533333333333,-0.08,2.35,PB.B045..EHZ,P,-1.0,2013-04-25 19:55:31.820
nc71977175,2013-04-25 19:55:17.200,40.63883333333333,-124.81533333333333,-0.08,2.35,PB.B046..EHZ,P,-1.0,2013-04-25 19:55:29.270
nc71977175,2013-04-25 19:55:17.200,40.63883333333333,-124.81533333333333,-0.08,2.35,PB.B932..EHZ,P,,2013-04-25 19:55:29.960
nc71977175,2013-04-25 19:55:17.200,40.63883333333333,-124.81533333333333,-0.08,2.35,PB.B935..EHZ,P,1.0,2013-04-25 19:55:36.400
nc71977175,2013-04-25 19:55:17.200,40.63883333333333,-124.81533333333333,-0.08,2.35,TA.M02C..HHZ,P,,2013-04-25 19:55:46.210
nc71977175,2013-04-25 19:55:17.200,40.63883333333333,-124.81533333333333,-0.08,2.35,TA.O02D..HHZ,P,,2013-04-25 19:55:45.980
nc71977360,2013-04-26 02:17:04.980,40.5185,-123.89633333333333,20.09,1.7,BK.JCC..HHZ,P,-1.0,2013-04-26 02:17:12.150
nc71977360,2013-04-26 02:17:04.980,40.5185,-123.89633333333333,20.09,1.7,BK.WDC..HHZ,P,-1.0,2013-04-26 02:17:23.870
nc71977360,2013-04-26 02:17:04.980,40.5185,-123.89633333333333,20.09,1.7,NC.KBS..EHZ,P,-1.0,2013-04-26 02:17:17.620
nc71977360,2013-04-26 02:17:04.980,40.5185,-123.89633333333333,20.09,1.7,NC.KCO..EHZ,P,1.0,2013-04-26 02:17:13.350
nc71977360,2013-04-26 02:17:04.980,40.5185,-123.89633333333333,20.09,1.7,NC.KCPB..HHZ,P,1.0,2013-04-26 02:17:20.550
nc71977360,2013-04-26 02:17:04.980,40.5185,-123.89633333333333,20.09,1.7,NC.KCR..EHZ,P,-1.0,2013-04-26 02:17:09.480
nc71977360,2013-04-26 02:17:04.980,40.5185,-123.89633333333333,20.09,1.7,NC.KCS..EHZ,P,1.0,2013-04-26 02:17:12.290
nc71977360,2013-04-26 02:17:04.980,40.5185,-123.89633333333333,20.09,1.7,NC.KCT..HHZ,P,1.0,2013-04-26 02:17:12.880
nc71977360,2013-04-26 02:17:04.980,40.5185,-123.89633333333333,20.09,1.7,NC.KHBB..HHZ,P,1.0,2013-04-26 02:17:15.830
nc71977360,2013-04-26 02:17:04.980,40.5185,-123.89633333333333,20.09,1.7,NC.KHMB..HHZ,P,-1.0,2013-04-26 02:17:13.640
nc71977360,2013-04-26 02:17:04.980,40.5185,-123.89633333333333,20.09,1.7,NC.KIP..EHZ,P,-1.0,2013-04-26 02:17:19.410
nc71977360,2013-04-26 02:17:04.980,40.5185,-123.89633333333333,20.09,1.7,NC.KKP..EHZ,P,-1.0,2013-04-26 02:17:15.430
nc71977360,2013-04-26 02:17:04.980,40.5185,-123.89633333333333,20.09,1.7,NC.KMPB..HHZ,P,1.0,2013-04-26 02:17:10.500
nc71977360,2013-04-26 02:17:04.980,40.5185,-123.89633333333333,20.09,1.7,NC.KMR..HHZ,P,-1.0,2013-04-26 02:17:12.820
nc71977360,2013-04-26 02:17:04.980,40.5185,-123.89633333333333,20.09,1.7,NC.KOM..EHZ,P,-1.0,2013-04-26 02:17:20.060
nc71977360,2013-04-26 02:17:04.980,40.5185,-123.89633333333333,20.09,1.7,NC.KPP..EHZ,P,1.0,2013-04-26 02:17:14.780
nc71977360,2013-04-26 02:17:04.980,40.5185,-123.89633333333333,20.09,1.7,NC.KSM..EHZ,P,1.0,2013-04-26 02:17:13.530
nc71977360,2013-04-26 02:17:04.980,40.5185,-123.89633333333333,20.09,1.7,NC.LGP..EHZ,P,1.0,2013-04-26 02:17:21.460
nc71977360,2013-04-26 02:17:04.980,40.5185,-123.89633333333333,20.09,1.7,PB.B045..EHZ,P,1.0,2013-04-26 02:17:09.430
nc71977360,2013-04-26 02:17:04.980,40.5185,-123.89633333333333,20.09,1.7,PB.B046..EHZ,P,1.0,2013-04-26 02:17:12.780
nc71977360,2013-04-26 02:17:04.980,40.5185,-123.89633333333333,20.09,1.7,PB.B047..EHZ,P,1.0,2013-04-26 02:17:12.560
nc71977360,2013-04-26 02:17:04.980,40.5185,-123.89633333333333,20.09,1.7,PB.B049..EHZ,P,-1.0,2013-04-26 02:17:11.670
nc71977360,2013-04-26 02:17:04.980,40.5185,-123.89633333333333,20.09,1.7,PB.B932..EHZ,P,1.0,2013-04-26 02:17:12.530
nc71977360,2013-04-26 02:17:04.980,40.5185,-123.89633333333333,20.09,1.7,PB.B933..EHZ,P,-1.0,2013-04-26 02:17:14.560
nc71977360,2013-04-26 02:17:04.980,40.5185,-123.89633333333333,20.09,1.7,PB.B935..EHZ,P,1.0,2013-04-26 02:17:11.300
nc71977360,2013-04-26 02:17:04.980,40.5185,-123.89633333333333,20.09,1.7,TA.N02D..HHZ,P,1.0,2013-04-26 02:17:22.870
nc71979355,2013-04-29 18:29:12.910,40.983666666666664,-123.52733333333333,26.18,2.63,BK.GASB..HHZ,P,-1.0,2013-04-29 18:29:37.600
nc71979355,2013-04-29 18:29:12.910,40.983666666666664,-123.52733333333333,26.18,2.63,BK.HUMO..HHZ,P,,2013-04-29 18:29:39.260
nc71979355,2013-04-29 18:29:12.910,40.983666666666664,-123.52733333333333,26.18,2.63,BK.JCC..HHZ,P,-1.0,2013-04-29 18:29:21.600
nc71979355,2013-04-29 18:29:12.910,40.983666666666664,-123.52733333333333,26.18,2.63,BK.WDC..HHZ,P,1.0,2013-04-29 18:29:28.590
nc71979355,2013-04-29 18:29:12.910,40.983666666666664,-123.52733333333333,26.18,2.63,BK.YBH..HHZ,P,,2013-04-29 18:29:29.960
nc71979355,2013-04-29 18:29:12.910,40.983666666666664,-123.52733333333333,26.18,2.63,NC.GRO..EHZ,P,,2013-04-29 18:29:35.000
nc71979355,2013-04-29 18:29:12.910,40.983666666666664,-123.52733333333333,26.18,2.63,NC.GVV..EHZ,P,1.0,2013-04-29 18:29:36.270
nc71979355,2013-04-29 18:29:12.910,40.983666666666664,-123.52733333333333,26.18,2.63,NC.K002..HNZ,P,1.0,2013-04-29 18:29:23.380
nc71979355,2013-04-29 18:29:12.910,40.983666666666664,-123.52733333333333,26.18,2.63,NC.KBS..EHZ,P,1.0,2013-04-29 18:29:31.610
nc71979355,2013-04-29 18:29:12.910,40.983666666666664,-123.52733333333333,26.18,2.63,NC.KCPB..HHZ,P,,2013-04-29 18:29:34.560
nc71979355,2013-04-29 18:29:12.910,40.983666666666664,-123.52733333333333,26.18,2.63,NC.KCR..EHZ,P,1.0,2013-04-29 18:29:24.620
nc71979355,2013-04-29 18:29:12.910,40.983666666666664,-123.52733333333333,26.18,2.63,NC.KCS..EHZ,P,-1.0,2013-04-29 18:29:22.570
nc71979355,2013-04-29 18:29:12.910,40.983666666666664,-123.52733333333333,26.18,2.63,NC.KFP..EHZ,P,1.0,2013-04-29 18:29:34.710
nc71979355,2013-04-29 18:29:12.910,40.983666666666664,-123.52733333333333,26.18,2.63,NC.KHBB..HHZ,P,-1.0,2013-04-29 18:29:21.460
nc71979355,2013-04-29 18:29:12.910,40.983666666666664,-123.52733333333333,26.18,2.63,NC.KHMB..HHZ,P,1.0,2013-04-29 18:29:18.740
nc71979355,2013-04-29 18:29:12.910,40.983666666666664,-123.52733333333333,26.18,2.63,NC.KIP..EHZ,P,1.0,2013-04-29 18:29:32.800
nc71979355,2013-04-29 18:29:12.910,40.983666666666664,-123.52733333333333,26.18,2.63,NC.KKP..EHZ,P,-1.0,2013-04-29 18:29:27.600
nc71979355,2013-04-29 18:29:12.910,40.983666666666664,-123.52733333333333,26.18,2.63,NC.KMPB..HHZ,P,,2013-04-29 18:29:26.360
nc71979355,2013-04-29 18:29:12.910,40.983666666666664,-123.52733333333333,26.18,2.63,NC.KMR..HHZ,P,,2013-04-29 18:29:28.420
nc71979355,2013-04-29 18:29:12.910,40.983666666666664,-123.52733333333333,26.18,2.63,NC.KOM..EHZ,P,1.0,2013-04-29 18:29:19.830
nc71979355,2013-04-29 18:29:12.910,40.983666666666664,-123.52733333333333,26.18,2.63,NC.KPP..EHZ,P,1.0,2013-04-29 18:29:25.670
nc71979355,2013-04-29 18:29:12.910,40.983666666666664,-123.52733333333333,26.18,2.63,NC.KRMB..HHZ,P,-1.0,2013-04-29 18:29:24.450
nc71979355,2013-04-29 18:29:12.910,40.983666666666664,-123.52733333333333,26.18,2.63,NC.KSM..EHZ,P,,2013-04-29 18:29:29.210
nc71979355,2013-04-29 18:29:12.910,40.983666666666664,-123.52733333333333,26.18,2.63,NC.KSXB..HHZ,P,-1.0,2013-04-29 18:29:28.150
nc71979355,2013-04-29 18:29:12.910,40.983666666666664,-123.52733333333333,26.18,2.63,NC.KTR..EHZ,P,1.0,2013-04-29 18:29:29.400
nc71979355,2013-04-29 18:29:12.910,40.983666666666664,-123.52733333333333,26.18,2.63,NC.LAMB..EHZ,P,-1.0,2013-04-29 18:29:29.570
nc71979355,2013-04-29 18:29:12.910,40.983666666666664,-123.52733333333333,26.18,2.63,NC.LAS..EHZ,P,-1.0,2013-04-29 18:29:41.490
nc71979355,2013-04-29 18:29:12.910,40.983666666666664,-123.52733333333333,26.18,2.63,NC.LBC..EHZ,P,1.0,2013-04-29 18:29:39.980
nc71979355,2013-04-29 18:29:12.910,40.983666666666664,-123.52733333333333,26.18,2.63,NC.LBF..EHZ,P,1.0,2013-04-29 18:29:36.150
nc71979355,2013-04-29 18:29:12.910,40.983666666666664,-123.52733333333333,26.18,2.63,NC.LBK..EHZ,P,-1.0,2013-04-29 18:29:25.030
nc71979355,2013-04-29 18:29:12.910,40.983666666666664,-123.52733333333333,26.18,2.63,NC.LBO..EHZ,P,-1.0,2013-04-29 18:29:32.880
nc71979355,2013-04-29 18:29:12.910,40.983666666666664,-123.52733333333333,26.18,2.63,NC.LBP..EHZ,P,-1.0,2013-04-29 18:29:28.250
nc71979355,2013-04-29 18:29:12.910,40.983666666666664,-123.52733333333333,26.18,2.63,NC.LCSB..EHZ,P,1.0,2013-04-29 18:29:30.350
nc71979355,2013-04-29 18:29:12.910,40.983666666666664,-123.52733333333333,26.18,2.63,NC.LDH..HHZ,P,-1.0,2013-04-29 18:29:39.270
nc71979355,2013-04-29 18:29:12.910,40.983666666666664,-123.52733333333333,26.18,2.63,NC.LGB..EHZ,P,,2013-04-29 18:29:32.320
nc71979355,2013-04-29 18:29:12.910,40.983666666666664,-123.52733333333333,26.18,2.63,NC.LGM..EHZ,P,,2013-04-29 18:29:36.730
nc71979355,2013-04-29 18:29:12.910,40.983666666666664,-123.52733333333333,26.18,2.63,NC.LGP..EHZ,P,-1.0,2013-04-29 18:29:23.290
nc71979355,2013-04-29 18:29:12.910,40.983666666666664,-123.52733333333333,26.18,2.63,NC.LMC..HHZ,P,,2013-04-29 18:29:31.500
nc71979355,2013-04-29 18:29:12.910,40.983666666666664,-123.52733333333333,26.18,2.63,NC.LMI..EHZ,P,,2013-04-29 18:29:32.170
nc71979355,2013-04-29 18:29:12.910,40.983666666666664,-123.52733333333333,26.18,2.63,NC.LMP..EHZ,P,,2013-04-29 18:29:33.140
nc71979355,2013-04-29 18:29:12.910,40.983666666666664,-123.52733333333333,26.18,2.63,NC.LPG..EHZ,P,,2013-04-29 18:29:31.760
nc71979355,2013-04-29 18:29:12.910,40.983666666666664,-123.52733333333333,26.18,2.63,NC.LRB..EHZ,P,,2013-04-29 18:29:32.660
nc71979355,2013-04-29 18:29:12.910,40.983666666666664,-123.52733333333333,26.18,2.63,NC.LRR..EHZ,P,-1.0,2013-04-29 18:29:38.370
nc71979355,2013-04-29 18:29:12.910,40.983666666666664,-123.52733333333333,26.18,2.63,NC.LSF..EHZ,P,1.0,2013-04-29 18:29:28.170
nc71979355,2013-04-29 18:29:12.910,40.983666666666664,-123.52733333333333,26.18,2.63,NC.LSH..EHZ,P,,2013-04-29 18:29:32.630
nc71979355,2013-04-29 18:29:12.910,40.983666666666664,-123.52733333333333,26.18,2.63,NC.LSI..EHZ,P,-1.0,2013-04-29 18:29:41.120
nc71979355,2013-04-29 18:29:12.910,40.983666666666664,-123.52733333333333,26.18,2.63,NC.LSR..EHZ,P,-1.0,2013-04-29 18:29:30.430
nc71979355,2013-04-29 18:29:12.910,40.983666666666664,-123.52733333333333,26.18,2.63,NC.LTI..EHZ,P,,2013-04-29 18:29:39.150
nc71979355,2013-04-29 18:29:12.910,40.983666666666664,-123.52733333333333,26.18,2.63,NC.LVR..EHZ,P,,2013-04-29 18:29:32.380
nc71979355,2013-04-29 18:29:12.910,40.983666666666664,-123.52733333333333,26.18,2.63,NC.LWH..EHZ,P,-1.0,2013-04-29 18:29:34.260
nc71979355,2013-04-29 18:29:12.910,40.983666666666664,-123.52733333333333,26.18,2.63,PB.B039..EHZ,P,1.0,2013-04-29 18:29:29.180
nc71979355,2013-04-29 18:29:12.910,40.983666666666664,-123.52733333333333,26.18,2.63,PB.B040..EHZ,P,1.0,2013-04-29 18:29:33.470
nc71979355,2013-04-29 18:29:12.910,40.983666666666664,-123.52733333333333,26.18,2.63,PB.B045..EHZ,P,1.0,2013-04-29 18:29:25.470
nc71979355,2013-04-29 18:29:12.910,40.983666666666664,-123.52733333333333,26.18,2.63,PB.B046..EHZ,P,-1.0,2013-04-29 18:29:28.210
nc71979355,2013-04-29 18:29:12.910,40.983666666666664,-123.52733333333333,26.18,2.63,PB.B047..EHZ,P,-1.0,2013-04-29 18:29:28.330
nc71979355,2013-04-29 18:29:12.910,40.983666666666664,-123.52733333333333,26.18,2.63,PB.B049..EHZ,P,1.0,2013-04-29 18:29:26.940
nc71979355,2013-04-29 18:29:12.910,40.983666666666664,-123.52733333333333,26.18,2.63,PB.B932..EHZ,P,1.0,2013-04-29 18:29:28.130
nc71979355,2013-04-29 18:29:12.910,40.983666666666664,-123.52733333333333,26.18,2.63,PB.B933..EHZ,P,1.0,2013-04-29 18:29:29.840
nc71979355,2013-04-29 18:29:12.910,40.983666666666664,-123.52733333333333,26.18,2.63,PB.B935..EHZ,P,1.0,2013-04-29 18:29:23.350
nc71979355,2013-04-29 18:29:12.910,40.983666666666664,-123.52733333333333,26.18,2.63,TA.L02E..HHZ,P,1.0,2013-04-29 18:29:32.670
nc71979355,2013-04-29 18:29:12.910,40.983666666666664,-123.52733333333333,26.18,2.63,TA.L04D..HHZ,P,,2013-04-29 18:29:38.660
nc71979355,2013-04-29 18:29:12.910,40.983666666666664,-123.52733333333333,26.18,2.63,TA.M02C..HHZ,P,-1.0,2013-04-29 18:29:24.970
nc71979355,2013-04-29 18:29:12.910,40.983666666666664,-123.52733333333333,26.18,2.63,TA.N02D..HHZ,P,-1.0,2013-04-29 18:29:24.500
nc71979355,2013-04-29 18:29:12.910,40.983666666666664,-123.52733333333333,26.18,2.63,TA.O02D..HHZ,P,-1.0,2013-04-29 18:29:30.460
nc71979355,2013-04-29 18:29:12.910,40.983666666666664,-123.52733333333333,26.18,2.63,TA.O03E..HHZ,P,1.0,2013-04-29 18:29:35.800
nc71980360,2013-05-01 21:03:23.280,40.297,-124.38383333333333,8.56,3.86,BG.HBW..DPZ,P,,2013-05-01 21:03:59.490
nc71980360,2013-05-01 21:03:23.280,40.297,-124.38383333333333,8.56,3.86,BG.HER..DPZ,P,,2013-05-01 21:03:53.090
nc71980360,2013-05-01 21:03:23.280,40.297,-124.38383333333333,8.56,3.86,BK.CVS..HHZ,P,1.0,2013-05-01 21:04:02.620
nc71980360,2013-05-01 21:03:23.280,40.297,-124.38383333333333,8.56,3.86,BK.GASB..HHZ,P,-1.0,2013-05-01 21:03:47.710
nc71980360,2013-05-01 21:03:23.280,40.297,-124.38383333333333,8.56,3.86,BK.HATC..HHZ,P,-1.0,2013-05-01 21:04:01.390
nc71980360,2013-05-01 21:03:23.280,40.297,-124.38383333333333,8.56,3.86,BK.HOPS..HHZ,P,1.0,2013-05-01 21:03:50.310
nc71980360,2013-05-01 21:03:23.280,40.297,-124.38383333333333,8.56,3.86,BK.HUMO..HHZ,P,-1.0,2013-05-01 21:04:03.890
nc71980360,2013-05-01 21:03:23.280,40.297,-124.38383333333333,8.56,3.86,BK.JCC..HHZ,P,1.0,2013-05-01 21:03:35.150
nc71980360,2013-05-01 21:03:23.280,40.297,-124.38383333333333,8.56,3.86,BK.MCCM..HHZ,P,-1.0,2013-05-01 21:04:01.290
nc71980360,2013-05-01 21:03:23.280,40.297,-124.38383333333333,8.56,3.86,BK.MNRC..HHZ,P,,2013-05-01 21:03:57.300
nc71980360,2013-05-01 21:03:23.280,40.297,-124.38383333333333,8.56,3.86,BK.ORV..HHZ,P,,2013-05-01 21:04:00.630
nc71980360,2013-05-01 21:03:23.280,40.297,-124.38383333333333,8.56,3.86,BK.WDC..HHZ,P,-1.0,2013-05-01 21:03:48.320
nc71980360,2013-05-01 21:03:23.280,40.297,-124.38383333333333,8.56,3.86,BK.YBH..HHZ,P,1.0,2013-05-01 21:03:55.020
nc71980360,2013-05-01 21:03:23.280,40.297,-124.38383333333333,8.56,3.86,CE.89101..HNZ,P,1.0,2013-05-01 21:03:25.880
nc71980360,2013-05-01 21:03:23.280,40.297,-124.38383333333333,8.56,3.86,NC.G002..HNZ,P,,2013-05-01 21:03:38.890
nc71980360,2013-05-01 21:03:23.280,40.297,-124.38383333333333,8.56,3.86,NC.GAC..EHZ,P,-1.0,2013-05-01 21:03:53.020
nc71980360,2013-05-01 21:03:23.280,40.297,-124.38383333333333,8.56,3.86,NC.GAXB..EHZ,P,,2013-05-01 21:03:55.910
nc71980360,2013-05-01 21:03:23.280,40.297,-124.38383333333333,8.56,3.86,NC.GBB..EHZ,P,,2013-05-01 21:03:50.380
nc71980360,2013-05-01 21:03:23.280,40.297,-124.38383333333333,8.56,3.86,NC.GBM..EHZ,P,,2013-05-01 21:03:59.560
nc71980360,2013-05-01 21:03:23.280,40.297,-124.38383333333333,8.56,3.86,NC.GCK..EHZ,P,,2013-05-01 21:03:51.780
nc71980360,2013-05-01 21:03:23.280,40.297,-124.38383333333333,8.56,3.86,NC.GCR..EHZ,P,1.0,2013-05-01 21:03:55.680
nc71980360,2013-05-01 21:03:23.280,40.297,-124.38383333333333,8.56,3.86,NC.GCVB..EHZ,P,-1.0,2013-05-01 21:03:53.050
nc71980360,2013-05-01 21:03:23.280,40.297,-124.38383333333333,8.56,3.86,NC.GDC..EHZ,P,,2013-05-01 21:03:51.770
nc71980360,2013-05-01 21:03:23.280,40.297,-124.38383333333333,8.56,3.86,NC.GFC..EHZ,P,-1.0,2013-05-01 21:04:02.680
nc71980360,2013-05-01 21:03:23.280,40.297,-124.38383333333333,8.56,3.86,NC.GGU..EHZ,P,-1.0,2013-05-01 21:03:49.020
nc71980360,2013-05-01 21:03:23.280,40.297,-124.38383333333333,8.56,3.86,NC.GHC..EHZ,P,,2013-05-01 21:03:54.050
nc71980360,2013-05-01 21:03:23.280,40.297,-124.38383333333333,8.56,3.86,NC.GHG..EHZ,P,-1.0,2013-05-01 21:03:50.850
nc71980360,2013-05-01 21:03:23.280,40.297,-124.38383333333333,8.56,3.86,NC.GHL..EHZ,P,-1.0,2013-05-01 21:03:50.100
nc71980360,2013-05-01 21:03:23.280,40.297,-124.38383333333333,8.56,3.86,NC.GHM..EHZ,P,-1.0,2013-05-01 21:03:46.750
nc71980360,2013-05-01 21:03:23.280,40.297,-124.38383333333333,8.56,3.86,NC.GHO..EHZ,P,-1.0,2013-05-01 21:03:46.620
nc71980360,2013-05-01 21:03:23.280,40.297,-124.38383333333333,8.56,3.86,NC.GMK..EHZ,P,,2013-05-01 21:03:52.970
nc71980360,2013-05-01 21:03:23.280,40.297,-124.38383333333333,8.56,3.86,NC.GNA..EHZ,P,-1.0,2013-05-01 21:03:44.330
nc71980360,2013-05-01 21:03:23.280,40.297,-124.38383333333333,8.56,3.86,NC.GRO..EHZ,P,-1.0,2013-05-01 21:03:47.170
nc71980360,2013-05-01 21:03:23.280,40.297,-124.38383333333333,8.56,3.86,NC.GRT..EHZ,P,,2013-05-01 21:03:59.720
nc71980360,2013-05-01 21:03:23.280,40.297,-124.38383333333333,8.56,3.86,NC.GSN..EHZ,P,-1.0,2013-05-01 21:03:50.100
nc71980360,2013-05-01 21:03:23.280,40.297,-124.38383333333333,8.56,3.86,NC.GSS..EHZ,P,1.0,2013-05-01 21:03:53.820
nc71980360,2013-05-01 21:03:23.280,40.297,-124.38383333333333,8.56,3.86,NC.GTC..EHZ,P,-1.0,2013-05-01 21:03:42.490
nc71980360,2013-05-01 21:03:23.280,40.297,-124.38383333333333,8.56,3.86,NC.GTS..EHZ,P,-1.0,2013-05-01 21:03:51.300
nc71980360,2013-05-01 21:03:23.280,40.297,-124.38383333333333,8.56,3.86,NC.GVV..EHZ,P,-1.0,2013-05-01 21:03:47.730
nc71980360,2013-05-01 21:03:23.280,40.297,-124.38383333333333,8.56,3.86,NC.GWK..EHZ,P,,2013-05-01 21:03:54.420
nc71980360,2013-05-01 21:03:23.280,40.297,-124.38383333333333,8.56,3.86,NC.GWR..EHZ,P,-1.0,2013-05-01 21:03:46.360
