event_id,etime,elat,elon,edep,emag,station_id,phase_type,phase_polarity,phase_time
nc71980445,2013-05-02 00:30:48.390,40.2965,-124.38766666666666,8.77,2.51,NC.GNA..EHZ,P,-1.0,2013-05-02 00:31:09.510
nc71980445,2013-05-02 00:30:48.390,40.2965,-124.38766666666666,8.77,2.51,NC.GTC..EHZ,P,1.0,2013-05-02 00:31:07.720
nc71980445,2013-05-02 00:30:48.390,40.2965,-124.38766666666666,8.77,2.51,NC.GVV..EHZ,P,1.0,2013-05-02 00:31:12.950
nc71980445,2013-05-02 00:30:48.390,40.2965,-124.38766666666666,8.77,2.51,NC.GWR..EHZ,P,-1.0,2013-05-02 00:31:11.510
nc71980445,2013-05-02 00:30:48.390,40.2965,-124.38766666666666,8.77,2.51,NC.K004..HNZ,P,-1.0,2013-05-02 00:30:53.630
nc71980445,2013-05-02 00:30:48.390,40.2965,-124.38766666666666,8.77,2.51,NC.KBN..EHZ,P,1.0,2013-05-02 00:31:07.290
nc71980445,2013-05-02 00:30:48.390,40.2965,-124.38766666666666,8.77,2.51,NC.KBS..EHZ,P,-1.0,2013-05-02 00:31:02.870
nc71980445,2013-05-02 00:30:48.390,40.2965,-124.38766666666666,8.77,2.51,NC.KCO..EHZ,P,-1.0,2013-05-02 00:30:51.570
nc71980445,2013-05-02 00:30:48.390,40.2965,-124.38766666666666,8.77,2.51,NC.KCPB..HHZ,P,-1.0,2013-05-02 00:31:04.720
nc71980445,2013-05-02 00:30:48.390,40.2965,-124.38766666666666,8.77,2.51,NC.KCR..EHZ,P,1.0,2013-05-02 00:30:58.470
nc71980445,2013-05-02 00:30:48.390,40.2965,-124.38766666666666,8.77,2.51,NC.KCS..EHZ,P,1.0,2013-05-02 00:31:02.640
nc71980445,2013-05-02 00:30:48.390,40.2965,-124.38766666666666,8.77,2.51,NC.KCT..HHZ,P,1.0,2013-05-02 00:30:53.040
nc71980445,2013-05-02 00:30:48.390,40.2965,-124.38766666666666,8.77,2.51,NC.KFP..EHZ,P,-1.0,2013-05-02 00:31:06.410
nc71980445,2013-05-02 00:30:48.390,40.2965,-124.38766666666666,8.77,2.51,NC.KHBB..HHZ,P,-1.0,2013-05-02 00:31:06.330
nc71980445,2013-05-02 00:30:48.390,40.2965,-124.38766666666666,8.77,2.51,NC.KHMB..HHZ,P,-1.0,2013-05-02 00:31:03.600
nc71980445,2013-05-02 00:30:48.390,40.2965,-124.38766666666666,8.77,2.51,NC.KIP..EHZ,P,1.0,2013-05-02 00:31:04.820
nc71980445,2013-05-02 00:30:48.390,40.2965,-124.38766666666666,8.77,2.51,NC.KKP..EHZ,P,-1.0,2013-05-02 00:31:03.780
nc71980445,2013-05-02 00:30:48.390,40.2965,-124.38766666666666,8.77,2.51,NC.KMPB..HHZ,P,1.0,2013-05-02 00:30:53.960
nc71980445,2013-05-02 00:30:48.390,40.2965,-124.38766666666666,8.77,2.51,NC.KMR..HHZ,P,-1.0,2013-05-02 00:30:59.750
nc71980445,2013-05-02 00:30:48.390,40.2965,-124.38766666666666,8.77,2.51,NC.KRMB..HHZ,P,1.0,2013-05-02 00:31:10.530
nc71980445,2013-05-02 00:30:48.390,40.2965,-124.38766666666666,8.77,2.51,NC.KSM..EHZ,P,-1.0,2013-05-02 00:30:53.220
nc71980445,2013-05-02 00:30:48.390,40.2965,-124.38766666666666,8.77,2.51,NC.KSXB..HHZ,P,1.0,2013-05-02 00:31:14.620
nc71980445,2013-05-02 00:30:48.390,40.2965,-124.38766666666666,8.77,2.51,NC.LBP..EHZ,P,1.0,2013-05-02 00:31:09.690
nc71980445,2013-05-02 00:30:48.390,40.2965,-124.38766666666666,8.77,2.51,NC.LGP..EHZ,P,-1.0,2013-05-02 00:31:11.940
nc71980445,2013-05-02 00:30:48.390,40.2965,-124.38766666666666,8.77,2.51,NC.LPG..EHZ,P,-1.0,2013-05-02 00:31:11.100
nc71980445,2013-05-02 00:30:48.390,40.2965,-124.38766666666666,8.77,2.51,PB.B045..EHZ,P,1.0,2013-05-02 00:30:55.790
nc71980445,2013-05-02 00:30:48.390,40.2965,-124.38766666666666,8.77,2.51,PB.B046..EHZ,P,1.0,2013-05-02 00:30:50.970
nc71980445,2013-05-02 00:30:48.390,40.2965,-124.38766666666666,8.77,2.51,PB.B047..EHZ,P,-1.0,2013-05-02 00:30:52.770
nc71980445,2013-05-02 00:30:48.390,40.2965,-124.38766666666666,8.77,2.51,PB.B049..EHZ,P,-1.0,2013-05-02 00:30:57.890
nc71980445,2013-05-02 00:30:48.390,40.2965,-124.38766666666666,8.77,2.51,PB.B932..EHZ,P,-1.0,2013-05-02 00:30:51.760
nc71980445,2013-05-02 00:30:48.390,40.2965,-124.38766666666666,8.77,2.51,PB.B933..EHZ,P,-1.0,2013-05-02 00:30:56.670
nc71980445,2013-05-02 00:30:48.390,40.2965,-124.38766666666666,8.77,2.51,PB.B935..EHZ,P,-1.0,2013-05-02 00:31:02.190
nc71980445,2013-05-02 00:30:48.390,40.2965,-124.38766666666666,8.77,2.51,TA.M02C..HHZ,P,-1.0,2013-05-02 00:31:15.460
nc71980445,2013-05-02 00:30:48.390,40.2965,-124.38766666666666,8.77,2.51,TA.O02D..HHZ,P,-1.0,2013-05-02 00:31:10.960
nc71980540,2013-05-02 04:19:37.510,40.296166666666664,-124.376,8.43,2.47,BK.GASB..HHZ,P,-1.0,2013-05-02 04:20:02.160
nc71980540,2013-05-02 04:19:37.510,40.296166666666664,-124.376,8.43,2.47,BK.JCC..HHZ,P,1.0,2013-05-02 04:19:49.240
nc71980540,2013-05-02 04:19:37.510,40.296166666666664,-124.376,8.43,2.47,NC.GHO..EHZ,P,1.0,2013-05-02 04:20:00.820
nc71980540,2013-05-02 04:19:37.510,40.296166666666664,-124.376,8.43,2.47,NC.GNA..EHZ,P,-1.0,2013-05-02 04:19:58.580
nc71980540,2013-05-02 04:19:37.510,40.296166666666664,-124.376,8.43,2.47,NC.GRO..EHZ,P,1.0,2013-05-02 04:20:01.610
nc71980540,2013-05-02 04:19:37.510,40.296166666666664,-124.376,8.43,2.47,NC.GTC..EHZ,P,1.0,2013-05-02 04:19:56.710
nc71980540,2013-05-02 04:19:37.510,40.296166666666664,-124.376,8.43,2.47,NC.GVV..EHZ,P,,2013-05-02 04:20:00.970
nc71980540,2013-05-02 04:19:37.510,40.296166666666664,-124.376,8.43,2.47,NC.GWR..EHZ,P,-1.0,2013-05-02 04:20:00.480
nc71980540,2013-05-02 04:19:37.510,40.296166666666664,-124.376,8.43,2.47,NC.KBN..EHZ,P,1.0,2013-05-02 04:19:56.310
nc71980540,2013-05-02 04:19:37.510,40.296166666666664,-124.376,8.43,2.47,NC.KBS..EHZ,P,-1.0,2013-05-02 04:19:51.850
nc71980540,2013-05-02 04:19:37.510,40.296166666666664,-124.376,8.43,2.47,NC.KCO..EHZ,P,-1.0,2013-05-02 04:19:40.570
nc71980540,2013-05-02 04:19:37.510,40.296166666666664,-124.376,8.43,2.47,NC.KCPB..HHZ,P,1.0,2013-05-02 04:19:55.000
nc71980540,2013-05-02 04:19:37.510,40.296166666666664,-124.376,8.43,2.47,NC.KCR..EHZ,P,1.0,2013-05-02 04:19:47.490
nc71980540,2013-05-02 04:19:37.510,40.296166666666664,-124.376,8.43,2.47,NC.KCT..HHZ,P,1.0,2013-05-02 04:19:42.040
nc71980540,2013-05-02 04:19:37.510,40.296166666666664,-124.376,8.43,2.47,NC.KFP..EHZ,P,1.0,2013-05-02 04:19:55.360
nc71980540,2013-05-02 04:19:37.510,40.296166666666664,-124.376,8.43,2.47,NC.KHMB..HHZ,P,-1.0,2013-05-02 04:19:52.480
nc71980540,2013-05-02 04:19:37.510,40.296166666666664,-124.376,8.43,2.47,NC.KIP..EHZ,P,-1.0,2013-05-02 04:19:53.850
nc71980540,2013-05-02 04:19:37.510,40.296166666666664,-124.376,8.43,2.47,NC.KKP..EHZ,P,-1.0,2013-05-02 04:19:52.570
nc71980540,2013-05-02 04:19:37.510,40.296166666666664,-124.376,8.43,2.47,NC.KMPB..HHZ,P,1.0,2013-05-02 04:19:42.930
nc71980540,2013-05-02 04:19:37.510,40.296166666666664,-124.376,8.43,2.47,NC.KMR..HHZ,P,-1.0,2013-05-02 04:19:48.710
nc71980540,2013-05-02 04:19:37.510,40.296166666666664,-124.376,8.43,2.47,NC.KRK..EHZ,P,1.0,2013-05-02 04:19:58.350
nc71980540,2013-05-02 04:19:37.510,40.296166666666664,-124.376,8.43,2.47,NC.KSM..EHZ,P,-1.0,2013-05-02 04:19:42.210
nc71980540,2013-05-02 04:19:37.510,40.296166666666664,-124.376,8.43,2.47,NC.LBP..EHZ,P,-1.0,2013-05-02 04:19:58.370
nc71980540,2013-05-02 04:19:37.510,40.296166666666664,-124.376,8.43,2.47,NC.LPG..EHZ,P,-1.0,2013-05-02 04:20:01.200
nc71980540,2013-05-02 04:19:37.510,40.296166666666664,-124.376,8.43,2.47,NC.LVR..EHZ,P,1.0,2013-05-02 04:20:01.620
nc71980540,2013-05-02 04:19:37.510,40.296166666666664,-124.376,8.43,2.47,PB.B045..EHZ,P,1.0,2013-05-02 04:19:44.790
nc71980540,2013-05-02 04:19:37.510,40.296166666666664,-124.376,8.43,2.47,PB.B046..EHZ,P,1.0,2013-05-02 04:19:39.960
nc71980540,2013-05-02 04:19:37.510,40.296166666666664,-124.376,8.43,2.47,PB.B047..EHZ,P,-1.0,2013-05-02 04:19:41.750
nc71980540,2013-05-02 04:19:37.510,40.296166666666664,-124.376,8.43,2.47,PB.B049..EHZ,P,-1.0,2013-05-02 04:19:46.850
nc71980540,2013-05-02 04:19:37.510,40.296166666666664,-124.376,8.43,2.47,PB.B932..EHZ,P,-1.0,2013-05-02 04:19:40.740
nc71980540,2013-05-02 04:19:37.510,40.296166666666664,-124.376,8.43,2.47,PB.B933..EHZ,P,-1.0,2013-05-02 04:19:45.660
nc71980540,2013-05-02 04:19:37.510,40.296166666666664,-124.376,8.43,2.47,PB.B935..EHZ,P,,2013-05-02 04:19:51.030
nc71980540,2013-05-02 04:19:37.510,40.296166666666664,-124.376,8.43,2.47,TA.O02D..HHZ,P,-1.0,2013-05-02 04:19:59.880
nc71980655,2013-05-02 09:52:04.740,40.305166666666665,-124.35,7.46,1.58,BK.JCC..HHZ,P,-1.0,2013-05-02 09:52:16.480
nc71980655,2013-05-02 09:52:04.740,40.305166666666665,-124.35,7.46,1.58,NC.GTC..EHZ,P,1.0,2013-05-02 09:52:23.840
nc71980655,2013-05-02 09:52:04.740,40.305166666666665,-124.35,7.46,1.58,NC.KBS..EHZ,P,-1.0,2013-05-02 09:52:18.800
nc71980655,2013-05-02 09:52:04.740,40.305166666666665,-124.35,7.46,1.58,NC.KCO..EHZ,P,-1.0,2013-05-02 09:52:07.390
nc71980655,2013-05-02 09:52:04.740,40.305166666666665,-124.35,7.46,1.58,NC.KCPB..HHZ,P,1.0,2013-05-02 09:52:21.880
nc71980655,2013-05-02 09:52:04.740,40.305166666666665,-124.35,7.46,1.58,NC.KCR..EHZ,P,1.0,2013-05-02 09:52:14.300
nc71980655,2013-05-02 09:52:04.740,40.305166666666665,-124.35,7.46,1.58,NC.KCT..HHZ,P,-1.0,2013-05-02 09:52:09.180
nc71980655,2013-05-02 09:52:04.740,40.305166666666665,-124.35,7.46,1.58,NC.KFP..EHZ,P,-1.0,2013-05-02 09:52:22.420
nc71980655,2013-05-02 09:52:04.740,40.305166666666665,-124.35,7.46,1.58,NC.KIP..EHZ,P,-1.0,2013-05-02 09:52:20.950
nc71980655,2013-05-02 09:52:04.740,40.305166666666665,-124.35,7.46,1.58,NC.KMPB..HHZ,P,1.0,2013-05-02 09:52:09.770
nc71980655,2013-05-02 09:52:04.740,40.305166666666665,-124.35,7.46,1.58,NC.KSM..EHZ,P,-1.0,2013-05-02 09:52:09.010
nc71980655,2013-05-02 09:52:04.740,40.305166666666665,-124.35,7.46,1.58,PB.B045..EHZ,P,1.0,2013-05-02 09:52:11.590
nc71980655,2013-05-02 09:52:04.740,40.305166666666665,-124.35,7.46,1.58,PB.B046..EHZ,P,-1.0,2013-05-02 09:52:06.770
nc71980655,2013-05-02 09:52:04.740,40.305166666666665,-124.35,7.46,1.58,PB.B047..EHZ,P,-1.0,2013-05-02 09:52:08.530
nc71980655,2013-05-02 09:52:04.740,40.305166666666665,-124.35,7.46,1.58,PB.B049..EHZ,P,1.0,2013-05-02 09:52:13.670
nc71980655,2013-05-02 09:52:04.740,40.305166666666665,-124.35,7.46,1.58,PB.B932..EHZ,P,-1.0,2013-05-02 09:52:07.540
nc71980655,2013-05-02 09:52:04.740,40.305166666666665,-124.35,7.46,1.58,PB.B933..EHZ,P,1.0,2013-05-02 09:52:12.410
nc71980655,2013-05-02 09:52:04.740,40.305166666666665,-124.35,7.46,1.58,PB.B935..EHZ,P,,2013-05-02 09:52:18.030
nc71984316,2013-05-02 20:54:23.030,40.2955,-124.35033333333334,8.11,1.41,BK.JCC..HHZ,P,,2013-05-02 20:54:34.880
nc71984316,2013-05-02 20:54:23.030,40.2955,-124.35033333333334,8.11,1.41,NC.KBS..EHZ,P,1.0,2013-05-02 20:54:37.180
nc71984316,2013-05-02 20:54:23.030,40.2955,-124.35033333333334,8.11,1.41,NC.KCO..EHZ,P,-1.0,2013-05-02 20:54:25.730
nc71984316,2013-05-02 20:54:23.030,40.2955,-124.35033333333334,8.11,1.41,NC.KCR..EHZ,P,1.0,2013-05-02 20:54:32.660
nc71984316,2013-05-02 20:54:23.030,40.2955,-124.35033333333334,8.11,1.41,NC.KCT..HHZ,P,1.0,2013-05-02 20:54:27.570
nc71984316,2013-05-02 20:54:23.030,40.2955,-124.35033333333334,8.11,1.41,NC.KFP..EHZ,P,1.0,2013-05-02 20:54:40.700
nc71984316,2013-05-02 20:54:23.030,40.2955,-124.35033333333334,8.11,1.41,NC.KMPB..HHZ,P,1.0,2013-05-02 20:54:28.110
nc71984316,2013-05-02 20:54:23.030,40.2955,-124.35033333333334,8.11,1.41,NC.KSM..EHZ,P,-1.0,2013-05-02 20:54:27.350
nc71984316,2013-05-02 20:54:23.030,40.2955,-124.35033333333334,8.11,1.41,PB.B045..EHZ,P,1.0,2013-05-02 20:54:29.950
nc71984316,2013-05-02 20:54:23.030,40.2955,-124.35033333333334,8.11,1.41,PB.B046..EHZ,P,-1.0,2013-05-02 20:54:25.160
nc71984316,2013-05-02 20:54:23.030,40.2955,-124.35033333333334,8.11,1.41,PB.B047..EHZ,P,-1.0,2013-05-02 20:54:26.880
nc71984316,2013-05-02 20:54:23.030,40.2955,-124.35033333333334,8.11,1.41,PB.B049..EHZ,P,1.0,2013-05-02 20:54:32.080
nc71984316,2013-05-02 20:54:23.030,40.2955,-124.35033333333334,8.11,1.41,PB.B932..EHZ,P,-1.0,2013-05-02 20:54:25.890
nc71984316,2013-05-02 20:54:23.030,40.2955,-124.35033333333334,8.11,1.41,PB.B933..EHZ,P,-1.0,2013-05-02 20:54:30.850
nc71984346,2013-05-02 22:27:16.050,40.31883333333333,-124.42083333333333,7.42,2.0,BK.JCC..HHZ,P,1.0,2013-05-02 22:27:28.170
nc71984346,2013-05-02 22:27:16.050,40.31883333333333,-124.42083333333333,7.42,2.0,NC.GNA..EHZ,P,-1.0,2013-05-02 22:27:37.730
nc71984346,2013-05-02 22:27:16.050,40.31883333333333,-124.42083333333333,7.42,2.0,NC.GTC..EHZ,P,-1.0,2013-05-02 22:27:35.930
nc71984346,2013-05-02 22:27:16.050,40.31883333333333,-124.42083333333333,7.42,2.0,NC.KBS..EHZ,P,1.0,2013-05-02 22:27:30.950
nc71984346,2013-05-02 22:27:16.050,40.31883333333333,-124.42083333333333,7.42,2.0,NC.KCO..EHZ,P,-1.0,2013-05-02 22:27:19.750
nc71984346,2013-05-02 22:27:16.050,40.31883333333333,-124.42083333333333,7.42,2.0,NC.KCPB..HHZ,P,-1.0,2013-05-02 22:27:34.210
nc71984346,2013-05-02 22:27:16.050,40.31883333333333,-124.42083333333333,7.42,2.0,NC.KCR..EHZ,P,1.0,2013-05-02 22:27:26.620
nc71984346,2013-05-02 22:27:16.050,40.31883333333333,-124.42083333333333,7.42,2.0,NC.KCS..EHZ,P,1.0,2013-05-02 22:27:31.140
nc71984346,2013-05-02 22:27:16.050,40.31883333333333,-124.42083333333333,7.42,2.0,NC.KCT..HHZ,P,-1.0,2013-05-02 22:27:20.570
nc71984346,2013-05-02 22:27:16.050,40.31883333333333,-124.42083333333333,7.42,2.0,NC.KFP..EHZ,P,1.0,2013-05-02 22:27:34.540
nc71984346,2013-05-02 22:27:16.050,40.31883333333333,-124.42083333333333,7.42,2.0,NC.KHBB..HHZ,P,1.0,2013-05-02 22:27:34.420
nc71984346,2013-05-02 22:27:16.050,40.31883333333333,-124.42083333333333,7.42,2.0,NC.KHMB..HHZ,P,-1.0,2013-05-02 22:27:31.470
nc71984346,2013-05-02 22:27:16.050,40.31883333333333,-124.42083333333333,7.42,2.0,NC.KIP..EHZ,P,-1.0,2013-05-02 22:27:32.990
nc71984346,2013-05-02 22:27:16.050,40.31883333333333,-124.42083333333333,7.42,2.0,NC.KKP..EHZ,P,-1.0,2013-05-02 22:27:32.000
nc71984346,2013-05-02 22:27:16.050,40.31883333333333,-124.42083333333333,7.42,2.0,NC.KMPB..HHZ,P,-1.0,2013-05-02 22:27:21.920
nc71984346,2013-05-02 22:27:16.050,40.31883333333333,-124.42083333333333,7.42,2.0,NC.KMR..HHZ,P,1.0,2013-05-02 22:27:27.880
nc71984346,2013-05-02 22:27:16.050,40.31883333333333,-124.42083333333333,7.42,2.0,NC.KRK..EHZ,P,-1.0,2013-05-02 22:27:37.440
nc71984346,2013-05-02 22:27:16.050,40.31883333333333,-124.42083333333333,7.42,2.0,NC.KRMB..HHZ,P,1.0,2013-05-02 22:27:38.170
nc71984346,2013-05-02 22:27:16.050,40.31883333333333,-124.42083333333333,7.42,2.0,NC.KSM..EHZ,P,1.0,2013-05-02 22:27:21.440
nc71984346,2013-05-02 22:27:16.050,40.31883333333333,-124.42083333333333,7.42,2.0,NC.LGP..EHZ,P,-1.0,2013-05-02 22:27:39.920
nc71984346,2013-05-02 22:27:16.050,40.31883333333333,-124.42083333333333,7.42,2.0,PB.B045..EHZ,P,-1.0,2013-05-02 22:27:23.810
nc71984346,2013-05-02 22:27:16.050,40.31883333333333,-124.42083333333333,7.42,2.0,PB.B046..EHZ,P,-1.0,2013-05-02 22:27:18.920
nc71984346,2013-05-02 22:27:16.050,40.31883333333333,-124.42083333333333,7.42,2.0,PB.B047..EHZ,P,1.0,2013-05-02 22:27:20.980
nc71984346,2013-05-02 22:27:16.050,40.31883333333333,-124.42083333333333,7.42,2.0,PB.B049..EHZ,P,1.0,2013-05-02 22:27:26.010
nc71984346,2013-05-02 22:27:16.050,40.31883333333333,-124.42083333333333,7.42,2.0,PB.B932..EHZ,P,-1.0,2013-05-02 22:27:19.940
nc71984346,2013-05-02 22:27:16.050,40.31883333333333,-124.42083333333333,7.42,2.0,PB.B933..EHZ,P,1.0,2013-05-02 22:27:24.890
nc71984346,2013-05-02 22:27:16.050,40.31883333333333,-124.42083333333333,7.42,2.0,PB.B935..EHZ,P,1.0,2013-05-02 22:27:30.060
nc71984346,2013-05-02 22:27:16.050,40.31883333333333,-124.42083333333333,7.42,2.0,TA.O02D..HHZ,P,-1.0,2013-05-02 22:27:38.920
nc71984396,2013-05-03 00:20:34.740,40.2825,-124.43933333333334,13.41,2.36,BK.GASB..HHZ,P,-1.0,2013-05-03 00:20:59.160
nc71984396,2013-05-03 00:20:34.740,40.2825,-124.43933333333334,13.41,2.36,BK.JCC..HHZ,P,1.0,2013-05-03 00:20:46.110
nc71984396,2013-05-03 00:20:34.740,40.2825,-124.43933333333334,13.41,2.36,BK.WDC..HHZ,P,-1.0,2013-05-03 00:20:59.540
nc71984396,2013-05-03 00:20:34.740,40.2825,-124.43933333333334,13.41,2.36,NC.GTC..EHZ,P,-1.0,2013-05-03 00:20:53.680
nc71984396,2013-05-03 00:20:34.740,40.2825,-124.43933333333334,13.41,2.36,NC.KBN..EHZ,P,,2013-05-03 00:20:53.480
nc71984396,2013-05-03 00:20:34.740,40.2825,-124.43933333333334,13.41,2.36,NC.KBS..EHZ,P,-1.0,2013-05-03 00:20:48.960
nc71984396,2013-05-03 00:20:34.740,40.2825,-124.43933333333334,13.41,2.36,NC.KCO..EHZ,P,1.0,2013-05-03 00:20:38.910
nc71984396,2013-05-03 00:20:34.740,40.2825,-124.43933333333334,13.41,2.36,NC.KCPB..HHZ,P,1.0,2013-05-03 00:20:52.190
nc71984396,2013-05-03 00:20:34.740,40.2825,-124.43933333333334,13.41,2.36,NC.KCR..EHZ,P,1.0,2013-05-03 00:20:45.320
nc71984396,2013-05-03 00:20:34.740,40.2825,-124.43933333333334,13.41,2.36,NC.KCS..EHZ,P,-1.0,2013-05-03 00:20:49.330
nc71984396,2013-05-03 00:20:34.740,40.2825,-124.43933333333334,13.41,2.36,NC.KCT..HHZ,P,1.0,2013-05-03 00:20:39.870
nc71984396,2013-05-03 00:20:34.740,40.2825,-124.43933333333334,13.41,2.36,NC.KFP..EHZ,P,-1.0,2013-05-03 00:20:52.460
nc71984396,2013-05-03 00:20:34.740,40.2825,-124.43933333333334,13.41,2.36,NC.KHMB..HHZ,P,1.0,2013-05-03 00:20:49.510
nc71984396,2013-05-03 00:20:34.740,40.2825,-124.43933333333334,13.41,2.36,NC.KIP..EHZ,P,1.0,2013-05-03 00:20:51.130
nc71984396,2013-05-03 00:20:34.740,40.2825,-124.43933333333334,13.41,2.36,NC.KKP..EHZ,P,-1.0,2013-05-03 00:20:49.960
nc71984396,2013-05-03 00:20:34.740,40.2825,-124.43933333333334,13.41,2.36,NC.KMPB..HHZ,P,1.0,2013-05-03 00:20:40.990
nc71984396,2013-05-03 00:20:34.740,40.2825,-124.43933333333334,13.41,2.36,NC.KMR..HHZ,P,,2013-05-03 00:20:46.710
nc71984396,2013-05-03 00:20:34.740,40.2825,-124.43933333333334,13.41,2.36,NC.KOM..EHZ,P,1.0,2013-05-03 00:20:55.630
nc71984396,2013-05-03 00:20:34.740,40.2825,-124.43933333333334,13.41,2.36,NC.KRK..EHZ,P,-1.0,2013-05-03 00:20:55.330
nc71984396,2013-05-03 00:20:34.740,40.2825,-124.43933333333334,13.41,2.36,NC.KSM..EHZ,P,-1.0,2013-05-03 00:20:40.310
nc71984396,2013-05-03 00:20:34.740,40.2825,-124.43933333333334,13.41,2.36,NC.LBK..EHZ,P,,2013-05-03 00:21:00.820
nc71984396,2013-05-03 00:20:34.740,40.2825,-124.43933333333334,13.41,2.36,NC.LBP..EHZ,P,,2013-05-03 00:20:53.970
nc71984396,2013-05-03 00:20:34.740,40.2825,-124.43933333333334,13.41,2.36,NC.LGP..EHZ,P,1.0,2013-05-03 00:20:58.070
nc71984396,2013-05-03 00:20:34.740,40.2825,-124.43933333333334,13.41,2.36,NC.LPG..EHZ,P,,2013-05-03 00:20:58.440
nc71984396,2013-05-03 00:20:34.740,40.2825,-124.43933333333334,13.41,2.36,NC.LSF..EHZ,P,,2013-05-03 00:21:00.260
nc71984396,2013-05-03 00:20:34.740,40.2825,-124.43933333333334,13.41,2.36,NC.LVR..EHZ,P,-1.0,2013-05-03 00:20:58.920
nc71984396,2013-05-03 00:20:34.740,40.2825,-124.43933333333334,13.41,2.36,PB.B045..EHZ,P,1.0,2013-05-03 00:20:42.710
nc71984396,2013-05-03 00:20:34.740,40.2825,-124.43933333333334,13.41,2.36,PB.B046..EHZ,P,1.0,2013-05-03 00:20:38.340
nc71984396,2013-05-03 00:20:34.740,40.2825,-124.43933333333334,13.41,2.36,PB.B047..EHZ,P,-1.0,2013-05-03 00:20:39.990
nc71984396,2013-05-03 00:20:34.740,40.2825,-124.43933333333334,13.41,2.36,PB.B049..EHZ,P,,2013-05-03 00:20:44.660
nc71984396,2013-05-03 00:20:34.740,40.2825,-124.43933333333334,13.41,2.36,PB.B932..EHZ,P,1.0,2013-05-03 00:20:39.040
nc71984396,2013-05-03 00:20:34.740,40.2825,-124.43933333333334,13.41,2.36,PB.B933..EHZ,P,-1.0,2013-05-03 00:20:43.600
nc71984396,2013-05-03 00:20:34.740,40.2825,-124.43933333333334,13.41,2.36,PB.B935..EHZ,P,1.0,2013-05-03 00:20:48.300
nc71984396,2013-05-03 00:20:34.740,40.2825,-124.43933333333334,13.41,2.36,TA.N02D..HHZ,P,-1.0,2013-05-03 00:20:59.470
nc71984396,2013-05-03 00:20:34.740,40.2825,-124.43933333333334,13.41,2.36,TA.O02D..HHZ,P,1.0,2013-05-03 00:20:56.900
nc71986471,2013-05-06 13:57:44.690,40.824666666666666,-124.625,2.26,2.49,BK.HUMO..HHZ,P,1.0,2013-05-06 13:58:20.750
nc71986471,2013-05-06 13:57:44.690,40.824666666666666,-124.625,2.26,2.49,BK.WDC..HHZ,P,1.0,2013-05-06 13:58:12.660
nc71986471,2013-05-06 13:57:44.690,40.824666666666666,-124.625,2.26,2.49,BK.YBH..HHZ,P,-1.0,2013-05-06 13:58:13.990
nc71986471,2013-05-06 13:57:44.690,40.824666666666666,-124.625,2.26,2.49,NC.KCR..EHZ,P,-1.0,2013-05-06 13:58:00.070
nc71986471,2013-05-06 13:57:44.690,40.824666666666666,-124.625,2.26,2.49,NC.KCS..EHZ,P,1.0,2013-05-06 13:58:02.790
nc71986471,2013-05-06 13:57:44.690,40.824666666666666,-124.625,2.26,2.49,NC.KHBB..HHZ,P,1.0,2013-05-06 13:58:04.790
nc71986471,2013-05-06 13:57:44.690,40.824666666666666,-124.625,2.26,2.49,NC.KOM..EHZ,P,-1.0,2013-05-06 13:58:03.630
