event_id,etime,elat,elon,edep,emag,station_id,phase_type,phase_polarity,phase_time
nc71928296,2013-01-25 02:03:25.350,40.094166666666666,-123.753,21.33,1.71,PB.B935..EHZ,P,-1.0,2013-01-25 02:03:34.120
nc71928296,2013-01-25 02:03:25.350,40.094166666666666,-123.753,21.33,1.71,TA.N02D..HHZ,P,,2013-01-25 02:03:45.490
nc71928351,2013-01-25 04:24:42.410,40.093,-123.7545,21.92,1.4,NC.KBS..EHZ,P,-1.0,2013-01-25 04:24:48.330
nc71928351,2013-01-25 04:24:42.410,40.093,-123.7545,21.92,1.4,NC.KCO..EHZ,P,1.0,2013-01-25 04:24:51.440
nc71928351,2013-01-25 04:24:42.410,40.093,-123.7545,21.92,1.4,NC.KCR..EHZ,P,-1.0,2013-01-25 04:24:50.080
nc71928351,2013-01-25 04:24:42.410,40.093,-123.7545,21.92,1.4,NC.KCS..EHZ,P,,2013-01-25 04:24:52.120
nc71928351,2013-01-25 04:24:42.410,40.093,-123.7545,21.92,1.4,NC.KIP..EHZ,P,-1.0,2013-01-25 04:24:50.340
nc71928351,2013-01-25 04:24:42.410,40.093,-123.7545,21.92,1.4,NC.KKP..EHZ,P,1.0,2013-01-25 04:24:48.500
nc71928351,2013-01-25 04:24:42.410,40.093,-123.7545,21.92,1.4,NC.KMPB..HHZ,P,-1.0,2013-01-25 04:24:51.730
nc71928351,2013-01-25 04:24:42.410,40.093,-123.7545,21.92,1.4,NC.KMR..HHZ,P,-1.0,2013-01-25 04:24:47.150
nc71928351,2013-01-25 04:24:42.410,40.093,-123.7545,21.92,1.4,NC.KSM..EHZ,P,1.0,2013-01-25 04:24:50.040
nc71928351,2013-01-25 04:24:42.410,40.093,-123.7545,21.92,1.4,PB.B045..EHZ,P,1.0,2013-01-25 04:24:51.000
nc71928351,2013-01-25 04:24:42.410,40.093,-123.7545,21.92,1.4,PB.B046..EHZ,P,1.0,2013-01-25 04:24:51.880
nc71928351,2013-01-25 04:24:42.410,40.093,-123.7545,21.92,1.4,PB.B047..EHZ,P,1.0,2013-01-25 04:24:50.440
nc71928351,2013-01-25 04:24:42.410,40.093,-123.7545,21.92,1.4,PB.B049..EHZ,P,1.0,2013-01-25 04:24:47.390
nc71928351,2013-01-25 04:24:42.410,40.093,-123.7545,21.92,1.4,PB.B932..EHZ,P,1.0,2013-01-25 04:24:50.850
nc71928351,2013-01-25 04:24:42.410,40.093,-123.7545,21.92,1.4,PB.B935..EHZ,P,1.0,2013-01-25 04:24:51.240
nc71929101,2013-01-26 11:48:22.320,40.431,-123.5725,7.53,1.39,BK.JCC..HHZ,P,1.0,2013-01-26 11:48:33.210
nc71929101,2013-01-26 11:48:22.320,40.431,-123.5725,7.53,1.39,BK.WDC..HHZ,P,-1.0,2013-01-26 11:48:37.690
nc71929101,2013-01-26 11:48:22.320,40.431,-123.5725,7.53,1.39,NC.KBS..EHZ,P,-1.0,2013-01-26 11:48:33.980
nc71929101,2013-01-26 11:48:22.320,40.431,-123.5725,7.53,1.39,NC.KCR..EHZ,P,-1.0,2013-01-26 11:48:26.990
nc71929101,2013-01-26 11:48:22.320,40.431,-123.5725,7.53,1.39,NC.KCS..EHZ,P,-1.0,2013-01-26 11:48:25.840
nc71929101,2013-01-26 11:48:22.320,40.431,-123.5725,7.53,1.39,NC.KCT..HHZ,P,-1.0,2013-01-26 11:48:35.470
nc71929101,2013-01-26 11:48:22.320,40.431,-123.5725,7.53,1.39,NC.KFP..EHZ,P,,2013-01-26 11:48:38.660
nc71929101,2013-01-26 11:48:22.320,40.431,-123.5725,7.53,1.39,NC.KHBB..HHZ,P,1.0,2013-01-26 11:48:29.790
nc71929101,2013-01-26 11:48:22.320,40.431,-123.5725,7.53,1.39,NC.KHMB..HHZ,P,1.0,2013-01-26 11:48:32.440
nc71929101,2013-01-26 11:48:22.320,40.431,-123.5725,7.53,1.39,NC.KMPB..HHZ,P,,2013-01-26 11:48:31.090
nc71929101,2013-01-26 11:48:22.320,40.431,-123.5725,7.53,1.39,NC.KMR..HHZ,P,-1.0,2013-01-26 11:48:28.470
nc71929101,2013-01-26 11:48:22.320,40.431,-123.5725,7.53,1.39,NC.KPP..EHZ,P,1.0,2013-01-26 11:48:27.310
nc71929101,2013-01-26 11:48:22.320,40.431,-123.5725,7.53,1.39,NC.LSF..EHZ,P,1.0,2013-01-26 11:48:38.500
nc71929101,2013-01-26 11:48:22.320,40.431,-123.5725,7.53,1.39,PB.B045..EHZ,P,1.0,2013-01-26 11:48:29.840
nc71929101,2013-01-26 11:48:22.320,40.431,-123.5725,7.53,1.39,PB.B046..EHZ,P,-1.0,2013-01-26 11:48:34.230
nc71929101,2013-01-26 11:48:22.320,40.431,-123.5725,7.53,1.39,PB.B047..EHZ,P,-1.0,2013-01-26 11:48:32.910
nc71929101,2013-01-26 11:48:22.320,40.431,-123.5725,7.53,1.39,PB.B049..EHZ,P,-1.0,2013-01-26 11:48:28.520
nc71929101,2013-01-26 11:48:22.320,40.431,-123.5725,7.53,1.39,PB.B932..EHZ,P,-1.0,2013-01-26 11:48:33.300
nc71929101,2013-01-26 11:48:22.320,40.431,-123.5725,7.53,1.39,PB.B933..EHZ,P,-1.0,2013-01-26 11:48:32.750
nc71929101,2013-01-26 11:48:22.320,40.431,-123.5725,7.53,1.39,PB.B935..EHZ,P,1.0,2013-01-26 11:48:24.660
nc71929101,2013-01-26 11:48:22.320,40.431,-123.5725,7.53,1.39,TA.M02C..HHZ,P,,2013-01-26 11:48:42.400
nc71929101,2013-01-26 11:48:22.320,40.431,-123.5725,7.53,1.39,TA.N02D..HHZ,P,-1.0,2013-01-26 11:48:38.640
nc71929281,2013-01-26 18:52:09.010,40.156666666666666,-123.8485,22.81,1.78,BK.GASB..HHZ,P,,2013-01-26 18:52:26.090
nc71929281,2013-01-26 18:52:09.010,40.156666666666666,-123.8485,22.81,1.78,BK.JCC..HHZ,P,,2013-01-26 18:52:21.800
nc71929281,2013-01-26 18:52:09.010,40.156666666666666,-123.8485,22.81,1.78,BK.WDC..HHZ,P,-1.0,2013-01-26 18:52:27.000
nc71929281,2013-01-26 18:52:09.010,40.156666666666666,-123.8485,22.81,1.78,NC.GVV..EHZ,P,1.0,2013-01-26 18:52:26.690
nc71929281,2013-01-26 18:52:09.010,40.156666666666666,-123.8485,22.81,1.78,NC.KBN..EHZ,P,-1.0,2013-01-26 18:52:20.550
nc71929281,2013-01-26 18:52:09.010,40.156666666666666,-123.8485,22.81,1.78,NC.KBS..EHZ,P,1.0,2013-01-26 18:52:16.200
nc71929281,2013-01-26 18:52:09.010,40.156666666666666,-123.8485,22.81,1.78,NC.KCO..EHZ,P,-1.0,2013-01-26 18:52:16.230
nc71929281,2013-01-26 18:52:09.010,40.156666666666666,-123.8485,22.81,1.78,NC.KCPB..HHZ,P,,2013-01-26 18:52:19.120
nc71929281,2013-01-26 18:52:09.010,40.156666666666666,-123.8485,22.81,1.78,NC.KCR..EHZ,P,1.0,2013-01-26 18:52:15.680
nc71929281,2013-01-26 18:52:09.010,40.156666666666666,-123.8485,22.81,1.78,NC.KCT..HHZ,P,1.0,2013-01-26 18:52:19.740
nc71929281,2013-01-26 18:52:09.010,40.156666666666666,-123.8485,22.81,1.78,NC.KFP..EHZ,P,-1.0,2013-01-26 18:52:20.350
nc71929281,2013-01-26 18:52:09.010,40.156666666666666,-123.8485,22.81,1.78,NC.KHBB..HHZ,P,-1.0,2013-01-26 18:52:22.360
nc71929281,2013-01-26 18:52:09.010,40.156666666666666,-123.8485,22.81,1.78,NC.KIP..EHZ,P,1.0,2013-01-26 18:52:18.200
nc71929281,2013-01-26 18:52:09.010,40.156666666666666,-123.8485,22.81,1.78,NC.KKP..EHZ,P,1.0,2013-01-26 18:52:15.390
nc71929281,2013-01-26 18:52:09.010,40.156666666666666,-123.8485,22.81,1.78,NC.KMPB..HHZ,P,-1.0,2013-01-26 18:52:16.700
nc71929281,2013-01-26 18:52:09.010,40.156666666666666,-123.8485,22.81,1.78,NC.KMR..HHZ,P,-1.0,2013-01-26 18:52:13.900
nc71929281,2013-01-26 18:52:09.010,40.156666666666666,-123.8485,22.81,1.78,NC.KSM..EHZ,P,1.0,2013-01-26 18:52:15.390
nc71929281,2013-01-26 18:52:09.010,40.156666666666666,-123.8485,22.81,1.78,NC.LBP..EHZ,P,1.0,2013-01-26 18:52:23.050
nc71929281,2013-01-26 18:52:09.010,40.156666666666666,-123.8485,22.81,1.78,NC.LGP..EHZ,P,,2013-01-26 18:52:27.970
nc71929281,2013-01-26 18:52:09.010,40.156666666666666,-123.8485,22.81,1.78,NC.LPG..EHZ,P,1.0,2013-01-26 18:52:25.230
nc71929281,2013-01-26 18:52:09.010,40.156666666666666,-123.8485,22.81,1.78,NC.LVR..EHZ,P,-1.0,2013-01-26 18:52:25.450
nc71929281,2013-01-26 18:52:09.010,40.156666666666666,-123.8485,22.81,1.78,PB.B045..EHZ,P,1.0,2013-01-26 18:52:16.110
nc71929281,2013-01-26 18:52:09.010,40.156666666666666,-123.8485,22.81,1.78,PB.B046..EHZ,P,1.0,2013-01-26 18:52:17.020
nc71929281,2013-01-26 18:52:09.010,40.156666666666666,-123.8485,22.81,1.78,PB.B047..EHZ,P,1.0,2013-01-26 18:52:15.630
nc71929281,2013-01-26 18:52:09.010,40.156666666666666,-123.8485,22.81,1.78,PB.B049..EHZ,P,-1.0,2013-01-26 18:52:13.400
nc71929281,2013-01-26 18:52:09.010,40.156666666666666,-123.8485,22.81,1.78,PB.B932..EHZ,P,1.0,2013-01-26 18:52:15.990
nc71929281,2013-01-26 18:52:09.010,40.156666666666666,-123.8485,22.81,1.78,PB.B933..EHZ,P,-1.0,2013-01-26 18:52:13.900
nc71929281,2013-01-26 18:52:09.010,40.156666666666666,-123.8485,22.81,1.78,PB.B935..EHZ,P,-1.0,2013-01-26 18:52:17.600
nc71929281,2013-01-26 18:52:09.010,40.156666666666666,-123.8485,22.81,1.78,TA.N02D..HHZ,P,-1.0,2013-01-26 18:52:29.530
nc71935241,2013-02-04 23:22:33.820,40.31166666666667,-124.26466666666667,6.24,0.46,NC.KCO..EHZ,P,1.0,2013-02-04 23:22:35.830
nc71935241,2013-02-04 23:22:33.820,40.31166666666667,-124.26466666666667,6.24,0.46,NC.KCT..HHZ,P,-1.0,2013-02-04 23:22:37.320
nc71935241,2013-02-04 23:22:33.820,40.31166666666667,-124.26466666666667,6.24,0.46,NC.KMPB..HHZ,P,-1.0,2013-02-04 23:22:37.580
nc71935241,2013-02-04 23:22:33.820,40.31166666666667,-124.26466666666667,6.24,0.46,NC.KSM..EHZ,P,1.0,2013-02-04 23:22:37.270
nc71935241,2013-02-04 23:22:33.820,40.31166666666667,-124.26466666666667,6.24,0.46,PB.B046..EHZ,P,1.0,2013-02-04 23:22:35.340
nc71935241,2013-02-04 23:22:33.820,40.31166666666667,-124.26466666666667,6.24,0.46,PB.B047..EHZ,P,-1.0,2013-02-04 23:22:36.480
nc71935241,2013-02-04 23:22:33.820,40.31166666666667,-124.26466666666667,6.24,0.46,PB.B932..EHZ,P,-1.0,2013-02-04 23:22:35.660
nc71935606,2013-02-05 14:43:35.100,40.81433333333333,-123.46016666666667,27.45,1.96,BK.WDC..HHZ,P,1.0,2013-02-05 14:43:48.820
nc71935606,2013-02-05 14:43:35.100,40.81433333333333,-123.46016666666667,27.45,1.96,NC.GTC..EHZ,P,,2013-02-05 14:43:52.790
nc71935606,2013-02-05 14:43:35.100,40.81433333333333,-123.46016666666667,27.45,1.96,NC.KCR..EHZ,P,,2013-02-05 14:43:45.060
nc71935606,2013-02-05 14:43:35.100,40.81433333333333,-123.46016666666667,27.45,1.96,NC.KCS..EHZ,P,-1.0,2013-02-05 14:43:42.410
nc71935606,2013-02-05 14:43:35.100,40.81433333333333,-123.46016666666667,27.45,1.96,NC.KHBB..HHZ,P,-1.0,2013-02-05 14:43:41.660
nc71935606,2013-02-05 14:43:35.100,40.81433333333333,-123.46016666666667,27.45,1.96,NC.KOM..EHZ,P,1.0,2013-02-05 14:43:44.470
nc71935606,2013-02-05 14:43:35.100,40.81433333333333,-123.46016666666667,27.45,1.96,NC.KPP..EHZ,P,-1.0,2013-02-05 14:43:45.180
nc71935606,2013-02-05 14:43:35.100,40.81433333333333,-123.46016666666667,27.45,1.96,NC.LBP..EHZ,P,,2013-02-05 14:43:47.820
nc71935606,2013-02-05 14:43:35.100,40.81433333333333,-123.46016666666667,27.45,1.96,NC.LGP..EHZ,P,1.0,2013-02-05 14:43:44.920
nc71935606,2013-02-05 14:43:35.100,40.81433333333333,-123.46016666666667,27.45,1.96,NC.LSF..EHZ,P,1.0,2013-02-05 14:43:48.910
nc71935606,2013-02-05 14:43:35.100,40.81433333333333,-123.46016666666667,27.45,1.96,PB.B935..EHZ,P,-1.0,2013-02-05 14:43:43.090
nc71935606,2013-02-05 14:43:35.100,40.81433333333333,-123.46016666666667,27.45,1.96,TA.N02D..HHZ,P,1.0,2013-02-05 14:43:46.310
nc71932410,2013-02-06 09:40:39.840,40.10733333333334,-123.78366666666666,19.46,1.62,NC.KBN..EHZ,P,1.0,2013-02-06 09:40:50.440
nc71932410,2013-02-06 09:40:39.840,40.10733333333334,-123.78366666666666,19.46,1.62,NC.KBS..EHZ,P,-1.0,2013-02-06 09:40:46.030
nc71932410,2013-02-06 09:40:39.840,40.10733333333334,-123.78366666666666,19.46,1.62,NC.KCO..EHZ,P,1.0,2013-02-06 09:40:48.330
nc71932410,2013-02-06 09:40:39.840,40.10733333333334,-123.78366666666666,19.46,1.62,NC.KCPB..HHZ,P,-1.0,2013-02-06 09:40:49.160
nc71932410,2013-02-06 09:40:39.840,40.10733333333334,-123.78366666666666,19.46,1.62,NC.KCR..EHZ,P,-1.0,2013-02-06 09:40:47.190
nc71932410,2013-02-06 09:40:39.840,40.10733333333334,-123.78366666666666,19.46,1.62,NC.KCS..EHZ,P,1.0,2013-02-06 09:40:50.020
nc71932410,2013-02-06 09:40:39.840,40.10733333333334,-123.78366666666666,19.46,1.62,NC.KHBB..HHZ,P,-1.0,2013-02-06 09:40:53.010
nc71932410,2013-02-06 09:40:39.840,40.10733333333334,-123.78366666666666,19.46,1.62,NC.KIP..EHZ,P,-1.0,2013-02-06 09:40:48.120
nc71932410,2013-02-06 09:40:39.840,40.10733333333334,-123.78366666666666,19.46,1.62,NC.KKP..EHZ,P,-1.0,2013-02-06 09:40:46.290
nc71932410,2013-02-06 09:40:39.840,40.10733333333334,-123.78366666666666,19.46,1.62,NC.KMPB..HHZ,P,1.0,2013-02-06 09:40:48.640
nc71932410,2013-02-06 09:40:39.840,40.10733333333334,-123.78366666666666,19.46,1.62,NC.KMR..HHZ,P,-1.0,2013-02-06 09:40:44.460
nc71932410,2013-02-06 09:40:39.840,40.10733333333334,-123.78366666666666,19.46,1.62,NC.KPP..EHZ,P,1.0,2013-02-06 09:40:48.680
nc71932410,2013-02-06 09:40:39.840,40.10733333333334,-123.78366666666666,19.46,1.62,NC.LBP..EHZ,P,1.0,2013-02-06 09:40:53.160
nc71932410,2013-02-06 09:40:39.840,40.10733333333334,-123.78366666666666,19.46,1.62,NC.LGP..EHZ,P,,2013-02-06 09:40:58.320
nc71932410,2013-02-06 09:40:39.840,40.10733333333334,-123.78366666666666,19.46,1.62,PB.B045..EHZ,P,-1.0,2013-02-06 09:40:47.910
nc71932410,2013-02-06 09:40:39.840,40.10733333333334,-123.78366666666666,19.46,1.62,PB.B046..EHZ,P,-1.0,2013-02-06 09:40:48.800
nc71932410,2013-02-06 09:40:39.840,40.10733333333334,-123.78366666666666,19.46,1.62,PB.B047..EHZ,P,1.0,2013-02-06 09:40:47.350
nc71932410,2013-02-06 09:40:39.840,40.10733333333334,-123.78366666666666,19.46,1.62,PB.B049..EHZ,P,1.0,2013-02-06 09:40:44.430
nc71932410,2013-02-06 09:40:39.840,40.10733333333334,-123.78366666666666,19.46,1.62,PB.B932..EHZ,P,1.0,2013-02-06 09:40:47.760
nc71932410,2013-02-06 09:40:39.840,40.10733333333334,-123.78366666666666,19.46,1.62,PB.B933..EHZ,P,1.0,2013-02-06 09:40:44.820
nc71932410,2013-02-06 09:40:39.840,40.10733333333334,-123.78366666666666,19.46,1.62,PB.B935..EHZ,P,1.0,2013-02-06 09:40:48.560
nc71069639,2013-02-11 03:36:16.880,40.45216666666666,-124.2205,13.33,1.39,BK.JCC..HHZ,P,,2013-02-11 03:36:26.060
nc71069639,2013-02-11 03:36:16.880,40.45216666666666,-124.2205,13.33,1.39,NC.KCT..HHZ,P,,2013-02-11 03:36:20.540
nc71069639,2013-02-11 03:36:16.880,40.45216666666666,-124.2205,13.33,1.39,NC.KMR..HHZ,P,,2013-02-11 03:36:26.590
nc71069639,2013-02-11 03:36:16.880,40.45216666666666,-124.2205,13.33,1.39,NC.KSM..EHZ,P,1.0,2013-02-11 03:36:22.790
nc71069639,2013-02-11 03:36:16.880,40.45216666666666,-124.2205,13.33,1.39,PB.B045..EHZ,P,,2013-02-11 03:36:21.140
nc71069639,2013-02-11 03:36:16.880,40.45216666666666,-124.2205,13.33,1.39,PB.B046..EHZ,P,1.0,2013-02-11 03:36:20.900
nc71069639,2013-02-11 03:36:16.880,40.45216666666666,-124.2205,13.33,1.39,PB.B047..EHZ,P,1.0,2013-02-11 03:36:22.070
nc71069639,2013-02-11 03:36:16.880,40.45216666666666,-124.2205,13.33,1.39,PB.B932..EHZ,P,1.0,2013-02-11 03:36:21.380
nc71069639,2013-02-11 03:36:16.880,40.45216666666666,-124.2205,13.33,1.39,PB.B933..EHZ,P,-1.0,2013-02-11 03:36:25.720
nc71069694,2013-02-14 07:30:01.880,40.314166666666665,-124.27233333333334,3.53,1.39,NC.KCO..EHZ,P,-1.0,2013-02-14 07:30:03.510
nc71069694,2013-02-14 07:30:01.880,40.314166666666665,-124.27233333333334,3.53,1.39,PB.B045..EHZ,P,1.0,2013-02-14 07:30:07.720
nc71069694,2013-02-14 07:30:01.880,40.314166666666665,-124.27233333333334,3.53,1.39,PB.B046..EHZ,P,-1.0,2013-02-14 07:30:02.900
nc71069694,2013-02-14 07:30:01.880,40.314166666666665,-124.27233333333334,3.53,1.39,PB.B047..EHZ,P,-1.0,2013-02-14 07:30:04.660
nc71069694,2013-02-14 07:30:01.880,40.314166666666665,-124.27233333333334,3.53,1.39,PB.B932..EHZ,P,-1.0,2013-02-14 07:30:03.660
nc71069694,2013-02-14 07:30:01.880,40.314166666666665,-124.27233333333334,3.53,1.39,PB.B933..EHZ,P,1.0,2013-02-14 07:30:08.660
nc71940250,2013-02-19 08:18:05.630,40.793,-124.75483333333334,1.38,2.57,BK.JCC..HHZ,P,1.0,2013-02-19 08:18:18.040
nc71940250,2013-02-19 08:18:05.630,40.793,-124.75483333333334,1.38,2.57,NC.KBN..EHZ,P,1.0,2013-02-19 08:18:32.370
nc71940250,2013-02-19 08:18:05.630,40.793,-124.75483333333334,1.38,2.57,NC.KBS..EHZ,P,,2013-02-19 08:18:27.990
nc71940250,2013-02-19 08:18:05.630,40.793,-124.75483333333334,1.38,2.57,NC.KCO..EHZ,P,1.0,2013-02-19 08:18:18.700
nc71940250,2013-02-19 08:18:05.630,40.793,-124.75483333333334,1.38,2.57,NC.KCR..EHZ,P,1.0,2013-02-19 08:18:21.910
nc71940250,2013-02-19 08:18:05.630,40.793,-124.75483333333334,1.38,2.57,NC.KCS..EHZ,P,1.0,2013-02-19 08:18:24.890
nc71940250,2013-02-19 08:18:05.630,40.793,-124.75483333333334,1.38,2.57,NC.KCT..HHZ,P,1.0,2013-02-19 08:18:16.630
nc71940250,2013-02-19 08:18:05.630,40.793,-124.75483333333334,1.38,2.57,NC.KFP..EHZ,P,,2013-02-19 08:18:31.480
nc71940250,2013-02-19 08:18:05.630,40.793,-124.75483333333334,1.38,2.57,NC.KHBB..HHZ,P,1.0,2013-02-19 08:18:27.350
nc71940250,2013-02-19 08:18:05.630,40.793,-124.75483333333334,1.38,2.57,NC.KHMB..HHZ,P,1.0,2013-02-19 08:18:21.820
nc71940250,2013-02-19 08:18:05.630,40.793,-124.75483333333334,1.38,2.57,NC.KIP..EHZ,P,1.0,2013-02-19 08:18:30.030
nc71940250,2013-02-19 08:18:05.630,40.793,-124.75483333333334,1.38,2.57,NC.KKP..EHZ,P,-1.0,2013-02-19 08:18:27.650
nc71940250,2013-02-19 08:18:05.630,40.793,-124.75483333333334,1.38,2.57,NC.KMPB..HHZ,P,1.0,2013-02-19 08:18:18.880
nc71940250,2013-02-19 08:18:05.630,40.793,-124.75483333333334,1.38,2.57,NC.KMR..HHZ,P,1.0,2013-02-19 08:18:24.550
nc71940250,2013-02-19 08:18:05.630,40.793,-124.75483333333334,1.38,2.57,NC.KOM..EHZ,P,-1.0,2013-02-19 08:18:25.870
nc71940250,2013-02-19 08:18:05.630,40.793,-124.75483333333334,1.38,2.57,NC.KPP..EHZ,P,,2013-02-19 08:18:26.450
nc71940250,2013-02-19 08:18:05.630,40.793,-124.75483333333334,1.38,2.57,NC.KRMB..HHZ,P,1.0,2013-02-19 08:18:22.840
nc71940250,2013-02-19 08:18:05.630,40.793,-124.75483333333334,1.38,2.57,NC.LBK..EHZ,P,,2013-02-19 08:18:33.390
nc71940250,2013-02-19 08:18:05.630,40.793,-124.75483333333334,1.38,2.57,NC.LBP..EHZ,P,1.0,2013-02-19 08:18:31.970
nc71940250,2013-02-19 08:18:05.630,40.793,-124.75483333333334,1.38,2.57,NC.LGP..EHZ,P,-1.0,2013-02-19 08:18:31.400
nc71940250,2013-02-19 08:18:05.630,40.793,-124.75483333333334,1.38,2.57,NC.LMI..EHZ,P,1.0,2013-02-19 08:18:39.530
nc71940250,2013-02-19 08:18:05.630,40.793,-124.75483333333334,1.38,2.57,NC.LSF..EHZ,P,-1.0,2013-02-19 08:18:35.180
nc71940250,2013-02-19 08:18:05.630,40.793,-124.75483333333334,1.38,2.57,NC.LSH..EHZ,P,1.0,2013-02-19 08:18:40.250
nc71940250,2013-02-19 08:18:05.630,40.793,-124.75483333333334,1.38,2.57,NC.LVR..EHZ,P,1.0,2013-02-19 08:18:35.920
nc71940250,2013-02-19 08:18:05.630,40.793,-124.75483333333334,1.38,2.57,NC.LWH..EHZ,P,,2013-02-19 08:18:41.230
nc71940250,2013-02-19 08:18:05.630,40.793,-124.75483333333334,1.38,2.57,PB.B047..EHZ,P,,2013-02-19 08:18:19.530
nc71940250,2013-02-19 08:18:05.630,40.793,-124.75483333333334,1.38,2.57,PB.B049..EHZ,P,1.0,2013-02-19 08:18:23.020
nc71940250,2013-02-19 08:18:05.630,40.793,-124.75483333333334,1.38,2.57,PB.B933..EHZ,P,-1.0,2013-02-19 08:18:22.950
nc71940250,2013-02-19 08:18:05.630,40.793,-124.75483333333334,1.38,2.57,PB.B935..EHZ,P,1.0,2013-02-19 08:18:24.130
nc71951510,2013-03-10 21:36:32.130,40.28333333333333,-124.212,16.72,1.5,NC.KCO..EHZ,P,1.0,2013-03-10 21:36:35.560
nc71951510,2013-03-10 21:36:32.130,40.28333333333333,-124.212,16.72,1.5,NC.KCR..EHZ,P,-1.0,2013-03-10 21:36:39.940
nc71951510,2013-03-10 21:36:32.130,40.28333333333333,-124.212,16.72,1.5,NC.KCT..HHZ,P,1.0,2013-03-10 21:36:37.950
nc71951510,2013-03-10 21:36:32.130,40.28333333333333,-124.212,16.72,1.5,NC.KMPB..HHZ,P,-1.0,2013-03-10 21:36:36.730
nc71951510,2013-03-10 21:36:32.130,40.28333333333333,-124.212,16.72,1.5,NC.KSM..EHZ,P,1.0,2013-03-10 21:36:36.000
nc71951510,2013-03-10 21:36:32.130,40.28333333333333,-124.212,16.72,1.5,PB.B045..EHZ,P,-1.0,2013-03-10 21:36:37.800
nc71951510,2013-03-10 21:36:32.130,40.28333333333333,-124.212,16.72,1.5,PB.B046..EHZ,P,1.0,2013-03-10 21:36:35.530
nc71951510,2013-03-10 21:36:32.130,40.28333333333333,-124.212,16.72,1.5,PB.B047..EHZ,P,1.0,2013-03-10 21:36:35.530
nc71951510,2013-03-10 21:36:32.130,40.28333333333333,-124.212,16.72,1.5,PB.B049..EHZ,P,1.0,2013-03-10 21:36:38.950
nc71951510,2013-03-10 21:36:32.130,40.28333333333333,-124.212,16.72,1.5,PB.B932..EHZ,P,1.0,2013-03-10 21:36:35.240
nc71951510,2013-03-10 21:36:32.130,40.28333333333333,-124.212,16.72,1.5,PB.B933..EHZ,P,1.0,2013-03-10 21:36:38.460
nc71951585,2013-03-11 00:20:43.980,40.144,-123.81783333333334,20.51,2.08,NC.GTC..EHZ,P,1.0,2013-03-11 00:20:57.310
nc71951585,2013-03-11 00:20:43.980,40.144,-123.81783333333334,20.51,2.08,NC.KBN..EHZ,P,1.0,2013-03-11 00:20:55.240
nc71951585,2013-03-11 00:20:43.980,40.144,-123.81783333333334,20.51,2.08,NC.KBS..EHZ,P,-1.0,2013-03-11 00:20:50.810
nc71951585,2013-03-11 00:20:43.980,40.144,-123.81783333333334,20.51,2.08,NC.KCO..EHZ,P,1.0,2013-03-11 00:20:51.880
nc71951585,2013-03-11 00:20:43.980,40.144,-123.81783333333334,20.51,2.08,NC.KCPB..HHZ,P,1.0,2013-03-11 00:20:53.800
nc71951585,2013-03-11 00:20:43.980,40.144,-123.81783333333334,20.51,2.08,NC.KCR..EHZ,P,-1.0,2013-03-11 00:20:50.800
nc71951585,2013-03-11 00:20:43.980,40.144,-123.81783333333334,20.51,2.08,NC.KCS..EHZ,P,1.0,2013-03-11 00:20:53.860
nc71951585,2013-03-11 00:20:43.980,40.144,-123.81783333333334,20.51,2.08,NC.KFP..EHZ,P,1.0,2013-03-11 00:20:55.070
