event_id,etime,elat,elon,edep,emag,station_id,phase_type,phase_polarity,phase_time
nc72157151,2014-02-06 05:57:34.700,40.66133333333333,-123.32766666666667,26.01,1.85,PB.B935..EHZ,P,1.0,2014-02-06 05:57:41.410
nc72157151,2014-02-06 05:57:34.700,40.66133333333333,-123.32766666666667,26.01,1.85,TA.N02D..HHZ,P,1.0,2014-02-06 05:57:45.560
nc72159176,2014-02-08 08:42:24.830,40.302,-123.55833333333334,21.85,1.85,BK.GASB..HHZ,P,-1.0,2014-02-08 08:42:41.510
nc72159176,2014-02-08 08:42:24.830,40.302,-123.55833333333334,21.85,1.85,BK.WDC..HHZ,P,-1.0,2014-02-08 08:42:39.370
nc72159176,2014-02-08 08:42:24.830,40.302,-123.55833333333334,21.85,1.85,NC.GTC..EHZ,P,1.0,2014-02-08 08:42:40.350
nc72159176,2014-02-08 08:42:24.830,40.302,-123.55833333333334,21.85,1.85,NC.GVV..EHZ,P,-1.0,2014-02-08 08:42:40.460
nc72159176,2014-02-08 08:42:24.830,40.302,-123.55833333333334,21.85,1.85,NC.KBS..EHZ,P,1.0,2014-02-08 08:42:33.460
nc72159176,2014-02-08 08:42:24.830,40.302,-123.55833333333334,21.85,1.85,NC.KCO..EHZ,P,1.0,2014-02-08 08:42:35.390
nc72159176,2014-02-08 08:42:24.830,40.302,-123.55833333333334,21.85,1.85,NC.KCPB..HHZ,P,-1.0,2014-02-08 08:42:36.790
nc72159176,2014-02-08 08:42:24.830,40.302,-123.55833333333334,21.85,1.85,NC.KCR..EHZ,P,1.0,2014-02-08 08:42:31.010
nc72159176,2014-02-08 08:42:24.830,40.302,-123.55833333333334,21.85,1.85,NC.KCS..EHZ,P,-1.0,2014-02-08 08:42:31.440
nc72159176,2014-02-08 08:42:24.830,40.302,-123.55833333333334,21.85,1.85,NC.KFP..EHZ,P,1.0,2014-02-08 08:42:37.340
nc72159176,2014-02-08 08:42:24.830,40.302,-123.55833333333334,21.85,1.85,NC.KHBB..HHZ,P,-1.0,2014-02-08 08:42:34.810
nc72159176,2014-02-08 08:42:24.830,40.302,-123.55833333333334,21.85,1.85,NC.KIP..EHZ,P,1.0,2014-02-08 08:42:34.960
nc72159176,2014-02-08 08:42:24.830,40.302,-123.55833333333334,21.85,1.85,NC.KKP..EHZ,P,-1.0,2014-02-08 08:42:30.480
nc72159176,2014-02-08 08:42:24.830,40.302,-123.55833333333334,21.85,1.85,NC.KMPB..HHZ,P,1.0,2014-02-08 08:42:34.070
nc72159176,2014-02-08 08:42:24.830,40.302,-123.55833333333334,21.85,1.85,NC.KMR..HHZ,P,-1.0,2014-02-08 08:42:30.100
nc72159176,2014-02-08 08:42:24.830,40.302,-123.55833333333334,21.85,1.85,NC.KPP..EHZ,P,-1.0,2014-02-08 08:42:30.320
nc72159176,2014-02-08 08:42:24.830,40.302,-123.55833333333334,21.85,1.85,NC.LBP..EHZ,P,1.0,2014-02-08 08:42:35.050
nc72159176,2014-02-08 08:42:24.830,40.302,-123.55833333333334,21.85,1.85,NC.LGP..EHZ,P,,2014-02-08 08:42:39.150
nc72159176,2014-02-08 08:42:24.830,40.302,-123.55833333333334,21.85,1.85,NC.LPG..EHZ,P,,2014-02-08 08:42:37.700
nc72159176,2014-02-08 08:42:24.830,40.302,-123.55833333333334,21.85,1.85,NC.LRB..EHZ,P,,2014-02-08 08:42:39.560
nc72159176,2014-02-08 08:42:24.830,40.302,-123.55833333333334,21.85,1.85,NC.LVR..EHZ,P,1.0,2014-02-08 08:42:38.460
nc72159176,2014-02-08 08:42:24.830,40.302,-123.55833333333334,21.85,1.85,PB.B045..EHZ,P,1.0,2014-02-08 08:42:32.720
nc72159176,2014-02-08 08:42:24.830,40.302,-123.55833333333334,21.85,1.85,PB.B046..EHZ,P,,2014-02-08 08:42:35.600
nc72159176,2014-02-08 08:42:24.830,40.302,-123.55833333333334,21.85,1.85,PB.B047..EHZ,P,1.0,2014-02-08 08:42:34.390
nc72159176,2014-02-08 08:42:24.830,40.302,-123.55833333333334,21.85,1.85,PB.B049..EHZ,P,1.0,2014-02-08 08:42:30.550
nc72159176,2014-02-08 08:42:24.830,40.302,-123.55833333333334,21.85,1.85,PB.B933..EHZ,P,1.0,2014-02-08 08:42:33.400
nc72159176,2014-02-08 08:42:24.830,40.302,-123.55833333333334,21.85,1.85,PB.B934..EHZ,P,-1.0,2014-02-08 08:42:34.410
nc72159176,2014-02-08 08:42:24.830,40.302,-123.55833333333334,21.85,1.85,PB.B935..EHZ,P,-1.0,2014-02-08 08:42:30.330
nc72159176,2014-02-08 08:42:24.830,40.302,-123.55833333333334,21.85,1.85,TA.N02D..HHZ,P,-1.0,2014-02-08 08:42:41.330
nc72159811,2014-02-08 17:44:54.200,39.82,-123.18033333333334,6.65,2.99,BG.RGP..DPZ,P,,2014-02-08 17:45:14.020
nc72159811,2014-02-08 17:44:54.200,39.82,-123.18033333333334,6.65,2.99,BK.GASB..HHZ,P,1.0,2014-02-08 17:45:02.220
nc72159811,2014-02-08 17:44:54.200,39.82,-123.18033333333334,6.65,2.99,BK.HATC..HHZ,P,-1.0,2014-02-08 17:45:23.860
nc72159811,2014-02-08 17:44:54.200,39.82,-123.18033333333334,6.65,2.99,BK.HOPS..HHZ,P,1.0,2014-02-08 17:45:10.660
nc72159811,2014-02-08 17:44:54.200,39.82,-123.18033333333334,6.65,2.99,BK.HUMO..HHZ,P,,2014-02-08 17:45:39.600
nc72159811,2014-02-08 17:44:54.200,39.82,-123.18033333333334,6.65,2.99,BK.MNRC..HHZ,P,-1.0,2014-02-08 17:45:16.770
nc72159811,2014-02-08 17:44:54.200,39.82,-123.18033333333334,6.65,2.99,BK.ORV..HHZ,P,-1.0,2014-02-08 17:45:16.870
nc72159811,2014-02-08 17:44:54.200,39.82,-123.18033333333334,6.65,2.99,BK.WDC..HHZ,P,1.0,2014-02-08 17:45:11.220
nc72159811,2014-02-08 17:44:54.200,39.82,-123.18033333333334,6.65,2.99,BK.YBH..HHZ,P,1.0,2014-02-08 17:45:27.850
nc72159811,2014-02-08 17:44:54.200,39.82,-123.18033333333334,6.65,2.99,NC.AFD..HHZ,P,,2014-02-08 17:45:26.070
nc72159811,2014-02-08 17:44:54.200,39.82,-123.18033333333334,6.65,2.99,NC.G002..HNZ,P,,2014-02-08 17:45:04.500
nc72159811,2014-02-08 17:44:54.200,39.82,-123.18033333333334,6.65,2.99,NC.GAC..EHZ,P,-1.0,2014-02-08 17:45:13.490
nc72159811,2014-02-08 17:44:54.200,39.82,-123.18033333333334,6.65,2.99,NC.GCK..EHZ,P,1.0,2014-02-08 17:45:07.540
nc72159811,2014-02-08 17:44:54.200,39.82,-123.18033333333334,6.65,2.99,NC.GCR..EHZ,P,1.0,2014-02-08 17:45:16.470
nc72159811,2014-02-08 17:44:54.200,39.82,-123.18033333333334,6.65,2.99,NC.GDC..EHZ,P,-1.0,2014-02-08 17:45:14.680
nc72159811,2014-02-08 17:44:54.200,39.82,-123.18033333333334,6.65,2.99,NC.GFC..EHZ,P,1.0,2014-02-08 17:45:11.810
nc72159811,2014-02-08 17:44:54.200,39.82,-123.18033333333334,6.65,2.99,NC.GGU..EHZ,P,1.0,2014-02-08 17:45:12.630
nc72159811,2014-02-08 17:44:54.200,39.82,-123.18033333333334,6.65,2.99,NC.GHC..EHZ,P,1.0,2014-02-08 17:45:18.670
nc72159811,2014-02-08 17:44:54.200,39.82,-123.18033333333334,6.65,2.99,NC.GHL..EHZ,P,-1.0,2014-02-08 17:45:09.700
nc72159811,2014-02-08 17:44:54.200,39.82,-123.18033333333334,6.65,2.99,NC.GHO..EHZ,P,1.0,2014-02-08 17:45:10.780
nc72159811,2014-02-08 17:44:54.200,39.82,-123.18033333333334,6.65,2.99,NC.GNA..EHZ,P,-1.0,2014-02-08 17:45:08.190
nc72159811,2014-02-08 17:44:54.200,39.82,-123.18033333333334,6.65,2.99,NC.GPM..EHZ,P,,2014-02-08 17:45:13.380
nc72159811,2014-02-08 17:44:54.200,39.82,-123.18033333333334,6.65,2.99,NC.GSG..EHZ,P,,2014-02-08 17:45:14.480
nc72159811,2014-02-08 17:44:54.200,39.82,-123.18033333333334,6.65,2.99,NC.GSN..EHZ,P,-1.0,2014-02-08 17:45:11.540
nc72159811,2014-02-08 17:44:54.200,39.82,-123.18033333333334,6.65,2.99,NC.GTC..EHZ,P,-1.0,2014-02-08 17:45:04.480
nc72159811,2014-02-08 17:44:54.200,39.82,-123.18033333333334,6.65,2.99,NC.GVV..EHZ,P,1.0,2014-02-08 17:45:02.300
nc72159811,2014-02-08 17:44:54.200,39.82,-123.18033333333334,6.65,2.99,NC.GWK..EHZ,P,1.0,2014-02-08 17:45:12.620
nc72159811,2014-02-08 17:44:54.200,39.82,-123.18033333333334,6.65,2.99,NC.KBN..EHZ,P,-1.0,2014-02-08 17:44:56.600
nc72159811,2014-02-08 17:44:54.200,39.82,-123.18033333333334,6.65,2.99,NC.KBS..EHZ,P,1.0,2014-02-08 17:45:01.010
nc72159811,2014-02-08 17:44:54.200,39.82,-123.18033333333334,6.65,2.99,NC.KCO..EHZ,P,-1.0,2014-02-08 17:45:11.670
nc72159811,2014-02-08 17:44:54.200,39.82,-123.18033333333334,6.65,2.99,NC.KCPB..HHZ,P,1.0,2014-02-08 17:45:01.280
nc72159811,2014-02-08 17:44:54.200,39.82,-123.18033333333334,6.65,2.99,NC.KCR..EHZ,P,-1.0,2014-02-08 17:45:09.790
nc72159811,2014-02-08 17:44:54.200,39.82,-123.18033333333334,6.65,2.99,NC.KCS..EHZ,P,-1.0,2014-02-08 17:45:09.440
nc72159811,2014-02-08 17:44:54.200,39.82,-123.18033333333334,6.65,2.99,NC.KCT..HHZ,P,-1.0,2014-02-08 17:45:15.030
nc72159811,2014-02-08 17:44:54.200,39.82,-123.18033333333334,6.65,2.99,NC.KFP..EHZ,P,1.0,2014-02-08 17:44:59.530
nc72159811,2014-02-08 17:44:54.200,39.82,-123.18033333333334,6.65,2.99,NC.KHBB..HHZ,P,-1.0,2014-02-08 17:45:10.080
nc72159811,2014-02-08 17:44:54.200,39.82,-123.18033333333334,6.65,2.99,NC.KHMB..HHZ,P,-1.0,2014-02-08 17:45:15.470
nc72159811,2014-02-08 17:44:54.200,39.82,-123.18033333333334,6.65,2.99,NC.KIP..EHZ,P,1.0,2014-02-08 17:44:58.920
nc72159811,2014-02-08 17:44:54.200,39.82,-123.18033333333334,6.65,2.99,NC.KKP..EHZ,P,-1.0,2014-02-08 17:45:02.860
nc72159811,2014-02-08 17:44:54.200,39.82,-123.18033333333334,6.65,2.99,NC.KMPB..HHZ,P,1.0,2014-02-08 17:45:12.410
nc72159811,2014-02-08 17:44:54.200,39.82,-123.18033333333334,6.65,2.99,NC.KMR..HHZ,P,-1.0,2014-02-08 17:45:05.630
nc72159811,2014-02-08 17:44:54.200,39.82,-123.18033333333334,6.65,2.99,NC.KOM..EHZ,P,,2014-02-08 17:45:20.240
nc72159811,2014-02-08 17:44:54.200,39.82,-123.18033333333334,6.65,2.99,NC.KRMB..HHZ,P,1.0,2014-02-08 17:45:24.330
nc72159811,2014-02-08 17:44:54.200,39.82,-123.18033333333334,6.65,2.99,NC.LAMB..EHZ,P,-1.0,2014-02-08 17:45:26.490
nc72159811,2014-02-08 17:44:54.200,39.82,-123.18033333333334,6.65,2.99,NC.LBC..EHZ,P,,2014-02-08 17:45:24.490
nc72159811,2014-02-08 17:44:54.200,39.82,-123.18033333333334,6.65,2.99,NC.LBF..EHZ,P,-1.0,2014-02-08 17:45:26.530
nc72159811,2014-02-08 17:44:54.200,39.82,-123.18033333333334,6.65,2.99,NC.LBK..EHZ,P,1.0,2014-02-08 17:45:18.590
nc72159811,2014-02-08 17:44:54.200,39.82,-123.18033333333334,6.65,2.99,NC.LBO..EHZ,P,,2014-02-08 17:45:26.700
nc72159811,2014-02-08 17:44:54.200,39.82,-123.18033333333334,6.65,2.99,NC.LBP..EHZ,P,-1.0,2014-02-08 17:45:05.240
nc72159811,2014-02-08 17:44:54.200,39.82,-123.18033333333334,6.65,2.99,NC.LDH..HHZ,P,-1.0,2014-02-08 17:45:19.270
nc72159811,2014-02-08 17:44:54.200,39.82,-123.18033333333334,6.65,2.99,NC.LEL..EHZ,P,-1.0,2014-02-08 17:45:19.570
nc72159811,2014-02-08 17:44:54.200,39.82,-123.18033333333334,6.65,2.99,NC.LGP..EHZ,P,1.0,2014-02-08 17:45:15.310
nc72159811,2014-02-08 17:44:54.200,39.82,-123.18033333333334,6.65,2.99,NC.LHE..EHZ,P,1.0,2014-02-08 17:45:28.620
nc72159811,2014-02-08 17:44:54.200,39.82,-123.18033333333334,6.65,2.99,NC.LME..EHZ,P,,2014-02-08 17:45:18.980
nc72159811,2014-02-08 17:44:54.200,39.82,-123.18033333333334,6.65,2.99,NC.LMI..EHZ,P,1.0,2014-02-08 17:45:13.730
nc72159811,2014-02-08 17:44:54.200,39.82,-123.18033333333334,6.65,2.99,NC.LMP..EHZ,P,,2014-02-08 17:45:27.560
nc72159811,2014-02-08 17:44:54.200,39.82,-123.18033333333334,6.65,2.99,NC.LPG..EHZ,P,1.0,2014-02-08 17:45:04.480
nc72159811,2014-02-08 17:44:54.200,39.82,-123.18033333333334,6.65,2.99,NC.LPK..EHZ,P,-1.0,2014-02-08 17:45:24.280
nc72159811,2014-02-08 17:44:54.200,39.82,-123.18033333333334,6.65,2.99,NC.LRB..EHZ,P,1.0,2014-02-08 17:45:06.380
nc72159811,2014-02-08 17:44:54.200,39.82,-123.18033333333334,6.65,2.99,NC.LRD..EHZ,P,,2014-02-08 17:45:19.690
nc72159811,2014-02-08 17:44:54.200,39.82,-123.18033333333334,6.65,2.99,NC.LRR..EHZ,P,-1.0,2014-02-08 17:45:18.430
nc72159811,2014-02-08 17:44:54.200,39.82,-123.18033333333334,6.65,2.99,NC.LSF..EHZ,P,-1.0,2014-02-08 17:45:12.760
nc72159811,2014-02-08 17:44:54.200,39.82,-123.18033333333334,6.65,2.99,NC.LSI..EHZ,P,-1.0,2014-02-08 17:45:20.010
nc72159811,2014-02-08 17:44:54.200,39.82,-123.18033333333334,6.65,2.99,NC.LSR..EHZ,P,1.0,2014-02-08 17:45:20.880
nc72159811,2014-02-08 17:44:54.200,39.82,-123.18033333333334,6.65,2.99,NC.LTC..EHZ,P,1.0,2014-02-08 17:45:11.570
nc72159811,2014-02-08 17:44:54.200,39.82,-123.18033333333334,6.65,2.99,NC.LTI..EHZ,P,1.0,2014-02-08 17:45:27.280
nc72159811,2014-02-08 17:44:54.200,39.82,-123.18033333333334,6.65,2.99,NC.LVR..EHZ,P,1.0,2014-02-08 17:45:03.280
nc72159811,2014-02-08 17:44:54.200,39.82,-123.18033333333334,6.65,2.99,NC.NMC..EHZ,P,,2014-02-08 17:45:18.580
nc72159811,2014-02-08 17:44:54.200,39.82,-123.18033333333334,6.65,2.99,NC.NMT..EHZ,P,,2014-02-08 17:45:17.290
nc72159811,2014-02-08 17:44:54.200,39.82,-123.18033333333334,6.65,2.99,NC.OCR..EHZ,P,1.0,2014-02-08 17:45:13.740
nc72159811,2014-02-08 17:44:54.200,39.82,-123.18033333333334,6.65,2.99,NC.OHC..EHZ,P,-1.0,2014-02-08 17:45:18.010
nc72159811,2014-02-08 17:44:54.200,39.82,-123.18033333333334,6.65,2.99,NN.BEK..HHZ,P,1.0,2014-02-08 17:45:31.900
nc72159811,2014-02-08 17:44:54.200,39.82,-123.18033333333334,6.65,2.99,NN.DON..EHZ,P,,2014-02-08 17:45:32.750
nc72159811,2014-02-08 17:44:54.200,39.82,-123.18033333333334,6.65,2.99,NN.IND..EHZ,P,-1.0,2014-02-08 17:45:33.560
nc72159811,2014-02-08 17:44:54.200,39.82,-123.18033333333334,6.65,2.99,NN.KBF..EHZ,P,-1.0,2014-02-08 17:45:34.050
nc72159811,2014-02-08 17:44:54.200,39.82,-123.18033333333334,6.65,2.99,NN.LOY..EHZ,P,-1.0,2014-02-08 17:45:33.380
nc72159811,2014-02-08 17:44:54.200,39.82,-123.18033333333334,6.65,2.99,NN.LVO..EHZ,P,1.0,2014-02-08 17:45:24.830
nc72159811,2014-02-08 17:44:54.200,39.82,-123.18033333333334,6.65,2.99,NN.MPK..EHZ,P,,2014-02-08 17:45:36.790
nc72159811,2014-02-08 17:44:54.200,39.82,-123.18033333333334,6.65,2.99,NN.PEA..EHZ,P,-1.0,2014-02-08 17:45:36.790
nc72159811,2014-02-08 17:44:54.200,39.82,-123.18033333333334,6.65,2.99,NN.SAT..EHZ,P,-1.0,2014-02-08 17:45:30.820
nc72159811,2014-02-08 17:44:54.200,39.82,-123.18033333333334,6.65,2.99,NN.SBT..EHZ,P,1.0,2014-02-08 17:45:27.770
nc72159811,2014-02-08 17:44:54.200,39.82,-123.18033333333334,6.65,2.99,NN.SMI..EHZ,P,,2014-02-08 17:45:25.020
nc72159811,2014-02-08 17:44:54.200,39.82,-123.18033333333334,6.65,2.99,PB.B039..EHZ,P,1.0,2014-02-08 17:45:24.530
nc72159811,2014-02-08 17:44:54.200,39.82,-123.18033333333334,6.65,2.99,PB.B040..EHZ,P,-1.0,2014-02-08 17:45:30.080
nc72159811,2014-02-08 17:44:54.200,39.82,-123.18033333333334,6.65,2.99,PB.B045..EHZ,P,-1.0,2014-02-08 17:45:11.340
nc72159811,2014-02-08 17:44:54.200,39.82,-123.18033333333334,6.65,2.99,PB.B046..EHZ,P,-1.0,2014-02-08 17:45:12.260
nc72159811,2014-02-08 17:44:54.200,39.82,-123.18033333333334,6.65,2.99,PB.B047..EHZ,P,-1.0,2014-02-08 17:45:10.820
nc72159811,2014-02-08 17:44:54.200,39.82,-123.18033333333334,6.65,2.99,PB.B049..EHZ,P,-1.0,2014-02-08 17:45:07.190
nc72159811,2014-02-08 17:44:54.200,39.82,-123.18033333333334,6.65,2.99,PB.B934..EHZ,P,1.0,2014-02-08 17:45:02.170
nc72159811,2014-02-08 17:44:54.200,39.82,-123.18033333333334,6.65,2.99,PB.B935..EHZ,P,-1.0,2014-02-08 17:45:08.590
nc72159811,2014-02-08 17:44:54.200,39.82,-123.18033333333334,6.65,2.99,TA.L04D..HHZ,P,-1.0,2014-02-08 17:45:36.000
nc72159811,2014-02-08 17:44:54.200,39.82,-123.18033333333334,6.65,2.99,TA.M02C..HHZ,P,-1.0,2014-02-08 17:45:22.590
nc72159811,2014-02-08 17:44:54.200,39.82,-123.18033333333334,6.65,2.99,TA.N02D..HHZ,P,1.0,2014-02-08 17:45:16.670
nc72159811,2014-02-08 17:44:54.200,39.82,-123.18033333333334,6.65,2.99,TA.O03E..HHZ,P,1.0,2014-02-08 17:45:15.070
nc72159811,2014-02-08 17:44:54.200,39.82,-123.18033333333334,6.65,2.99,WR.MGL..EHZ,P,-1.0,2014-02-08 17:45:15.960
nc72159811,2014-02-08 17:44:54.200,39.82,-123.18033333333334,6.65,2.99,WR.PAM..EHZ,P,,2014-02-08 17:45:16.890
nc72162461,2014-02-11 04:08:54.870,40.47716666666667,-123.41633333333333,26.08,1.97,BK.GASB..HHZ,P,-1.0,2014-02-11 04:09:12.840
nc72162461,2014-02-11 04:08:54.870,40.47716666666667,-123.41633333333333,26.08,1.97,BK.WDC..HHZ,P,1.0,2014-02-11 04:09:07.200
nc72162461,2014-02-11 04:08:54.870,40.47716666666667,-123.41633333333333,26.08,1.97,NC.GHM..EHZ,P,-1.0,2014-02-11 04:09:14.230
nc72162461,2014-02-11 04:08:54.870,40.47716666666667,-123.41633333333333,26.08,1.97,NC.GRO..EHZ,P,1.0,2014-02-11 04:09:09.860
nc72162461,2014-02-11 04:08:54.870,40.47716666666667,-123.41633333333333,26.08,1.97,NC.GVV..EHZ,P,1.0,2014-02-11 04:09:11.530
nc72162461,2014-02-11 04:08:54.870,40.47716666666667,-123.41633333333333,26.08,1.97,NC.KBN..EHZ,P,-1.0,2014-02-11 04:09:06.740
nc72162461,2014-02-11 04:08:54.870,40.47716666666667,-123.41633333333333,26.08,1.97,NC.KBS..EHZ,P,-1.0,2014-02-11 04:09:06.320
nc72162461,2014-02-11 04:08:54.870,40.47716666666667,-123.41633333333333,26.08,1.97,NC.KCO..EHZ,P,-1.0,2014-02-11 04:09:07.170
nc72162461,2014-02-11 04:08:54.870,40.47716666666667,-123.41633333333333,26.08,1.97,NC.KCPB..HHZ,P,1.0,2014-02-11 04:09:09.150
nc72162461,2014-02-11 04:08:54.870,40.47716666666667,-123.41633333333333,26.08,1.97,NC.KCR..EHZ,P,1.0,2014-02-11 04:09:02.380
nc72162461,2014-02-11 04:08:54.870,40.47716666666667,-123.41633333333333,26.08,1.97,NC.KCS..EHZ,P,1.0,2014-02-11 04:09:00.220
nc72162461,2014-02-11 04:08:54.870,40.47716666666667,-123.41633333333333,26.08,1.97,NC.KCT..HHZ,P,1.0,2014-02-11 04:09:07.740
nc72162461,2014-02-11 04:08:54.870,40.47716666666667,-123.41633333333333,26.08,1.97,NC.KFP..EHZ,P,,2014-02-11 04:09:09.490
nc72162461,2014-02-11 04:08:54.870,40.47716666666667,-123.41633333333333,26.08,1.97,NC.KHBB..HHZ,P,1.0,2014-02-11 04:09:01.300
nc72162461,2014-02-11 04:08:54.870,40.47716666666667,-123.41633333333333,26.08,1.97,NC.KHMB..HHZ,P,-1.0,2014-02-11 04:09:04.390
nc72162461,2014-02-11 04:08:54.870,40.47716666666667,-123.41633333333333,26.08,1.97,NC.KIP..EHZ,P,-1.0,2014-02-11 04:09:07.450
nc72162461,2014-02-11 04:08:54.870,40.47716666666667,-123.41633333333333,26.08,1.97,NC.KKP..EHZ,P,-1.0,2014-02-11 04:09:03.020
nc72162461,2014-02-11 04:08:54.870,40.47716666666667,-123.41633333333333,26.08,1.97,NC.KMPB..HHZ,P,1.0,2014-02-11 04:09:05.240
nc72162461,2014-02-11 04:08:54.870,40.47716666666667,-123.41633333333333,26.08,1.97,NC.KMR..HHZ,P,-1.0,2014-02-11 04:09:03.000
nc72162461,2014-02-11 04:08:54.870,40.47716666666667,-123.41633333333333,26.08,1.97,NC.KOM..EHZ,P,-1.0,2014-02-11 04:09:08.940
nc72162461,2014-02-11 04:08:54.870,40.47716666666667,-123.41633333333333,26.08,1.97,NC.KPP..EHZ,P,-1.0,2014-02-11 04:09:00.580
nc72162461,2014-02-11 04:08:54.870,40.47716666666667,-123.41633333333333,26.08,1.97,NC.KRK..EHZ,P,,2014-02-11 04:09:12.070
nc72162461,2014-02-11 04:08:54.870,40.47716666666667,-123.41633333333333,26.08,1.97,NC.LBK..EHZ,P,-1.0,2014-02-11 04:09:09.910
nc72162461,2014-02-11 04:08:54.870,40.47716666666667,-123.41633333333333,26.08,1.97,NC.LBP..EHZ,P,1.0,2014-02-11 04:09:03.950
nc72162461,2014-02-11 04:08:54.870,40.47716666666667,-123.41633333333333,26.08,1.97,NC.LGP..EHZ,P,1.0,2014-02-11 04:09:06.550
nc72162461,2014-02-11 04:08:54.870,40.47716666666667,-123.41633333333333,26.08,1.97,NC.LMI..EHZ,P,-1.0,2014-02-11 04:09:12.330
nc72162461,2014-02-11 04:08:54.870,40.47716666666667,-123.41633333333333,26.08,1.97,NC.LPG..EHZ,P,1.0,2014-02-11 04:09:07.250
nc72162461,2014-02-11 04:08:54.870,40.47716666666667,-123.41633333333333,26.08,1.97,NC.LPK..EHZ,P,,2014-02-11 04:09:14.970
nc72162461,2014-02-11 04:08:54.870,40.47716666666667,-123.41633333333333,26.08,1.97,NC.LRB..EHZ,P,-1.0,2014-02-11 04:09:09.100
nc72162461,2014-02-11 04:08:54.870,40.47716666666667,-123.41633333333333,26.08,1.97,NC.LSF..EHZ,P,1.0,2014-02-11 04:09:07.880
nc72162461,2014-02-11 04:08:54.870,40.47716666666667,-123.41633333333333,26.08,1.97,NC.LSR..EHZ,P,,2014-02-11 04:09:14.210
nc72162461,2014-02-11 04:08:54.870,40.47716666666667,-123.41633333333333,26.08,1.97,NC.LVR..EHZ,P,1.0,2014-02-11 04:09:08.280
nc72162461,2014-02-11 04:08:54.870,40.47716666666667,-123.41633333333333,26.08,1.97,PB.B039..EHZ,P,1.0,2014-02-11 04:09:15.660
nc72162461,2014-02-11 04:08:54.870,40.47716666666667,-123.41633333333333,26.08,1.97,PB.B045..EHZ,P,1.0,2014-02-11 04:09:03.910
nc72162461,2014-02-11 04:08:54.870,40.47716666666667,-123.41633333333333,26.08,1.97,PB.B046..EHZ,P,1.0,2014-02-11 04:09:06.780
nc72162461,2014-02-11 04:08:54.870,40.47716666666667,-123.41633333333333,26.08,1.97,PB.B047..EHZ,P,1.0,2014-02-11 04:09:06.150
nc72162461,2014-02-11 04:08:54.870,40.47716666666667,-123.41633333333333,26.08,1.97,PB.B049..EHZ,P,1.0,2014-02-11 04:09:03.220
nc72162461,2014-02-11 04:08:54.870,40.47716666666667,-123.41633333333333,26.08,1.97,PB.B935..EHZ,P,1.0,2014-02-11 04:09:00.120
nc72162461,2014-02-11 04:08:54.870,40.47716666666667,-123.41633333333333,26.08,1.97,TA.M02C..HHZ,P,,2014-02-11 04:09:12.280
nc72162461,2014-02-11 04:08:54.870,40.47716666666667,-123.41633333333333,26.08,1.97,TA.N02D..HHZ,P,-1.0,2014-02-11 04:09:08.310
nc72162461,2014-02-11 04:08:54.870,40.47716666666667,-123.41633333333333,26.08,1.97,TA.O02D..HHZ,P,1.0,2014-02-11 04:09:05.890
nc72162461,2014-02-11 04:08:54.870,40.47716666666667,-123.41633333333333,26.08,1.97,TA.O03E..HHZ,P,-1.0,2014-02-11 04:09:16.720
nc71078979,2014-02-11 22:30:00.180,40.692,-124.31566666666667,6.8,1.66,BK.JCC..HHZ,P,-1.0,2014-02-11 22:30:05.700
