event_id,etime,elat,elon,edep,emag,station_id,phase_type,phase_polarity,phase_time
nc72147670,2014-01-28 01:54:26.300,40.533833333333334,-123.517,25.02,1.47,NC.KKP..EHZ,P,1.0,2014-01-28 01:54:35.210
nc72147670,2014-01-28 01:54:26.300,40.533833333333334,-123.517,25.02,1.47,NC.KMR..HHZ,P,1.0,2014-01-28 01:54:34.450
nc72147670,2014-01-28 01:54:26.300,40.533833333333334,-123.517,25.02,1.47,NC.KOM..EHZ,P,-1.0,2014-01-28 01:54:39.820
nc72147670,2014-01-28 01:54:26.300,40.533833333333334,-123.517,25.02,1.47,NC.KPP..EHZ,P,1.0,2014-01-28 01:54:32.890
nc72147670,2014-01-28 01:54:26.300,40.533833333333334,-123.517,25.02,1.47,NC.LBP..EHZ,P,-1.0,2014-01-28 01:54:36.930
nc72147670,2014-01-28 01:54:26.300,40.533833333333334,-123.517,25.02,1.47,NC.LGP..EHZ,P,1.0,2014-01-28 01:54:38.480
nc72147670,2014-01-28 01:54:26.300,40.533833333333334,-123.517,25.02,1.47,PB.B045..EHZ,P,1.0,2014-01-28 01:54:34.530
nc72147670,2014-01-28 01:54:26.300,40.533833333333334,-123.517,25.02,1.47,PB.B049..EHZ,P,1.0,2014-01-28 01:54:34.410
nc72147670,2014-01-28 01:54:26.300,40.533833333333334,-123.517,25.02,1.47,PB.B935..EHZ,P,1.0,2014-01-28 01:54:31.040
nc72147670,2014-01-28 01:54:26.300,40.533833333333334,-123.517,25.02,1.47,TA.M02C..HHZ,P,1.0,2014-01-28 01:54:44.000
nc72147670,2014-01-28 01:54:26.300,40.533833333333334,-123.517,25.02,1.47,TA.N02D..HHZ,P,-1.0,2014-01-28 01:54:40.240
nc72147670,2014-01-28 01:54:26.300,40.533833333333334,-123.517,25.02,1.47,TA.O02D..HHZ,P,1.0,2014-01-28 01:54:39.060
nc72153556,2014-02-01 08:27:08.180,40.518166666666666,-123.53116666666666,7.95,2.19,BK.GASB..HHZ,P,-1.0,2014-02-01 08:27:29.050
nc72153556,2014-02-01 08:27:08.180,40.518166666666666,-123.53116666666666,7.95,2.19,BK.HATC..HHZ,P,-1.0,2014-02-01 08:27:34.580
nc72153556,2014-02-01 08:27:08.180,40.518166666666666,-123.53116666666666,7.95,2.19,BK.JCC..HHZ,P,-1.0,2014-02-01 08:27:18.460
nc72153556,2014-02-01 08:27:08.180,40.518166666666666,-123.53116666666666,7.95,2.19,BK.WDC..HHZ,P,-1.0,2014-02-01 08:27:22.730
nc72153556,2014-02-01 08:27:08.180,40.518166666666666,-123.53116666666666,7.95,2.19,BK.YBH..HHZ,P,1.0,2014-02-01 08:27:32.550
nc72153556,2014-02-01 08:27:08.180,40.518166666666666,-123.53116666666666,7.95,2.19,NC.GHM..EHZ,P,,2014-02-01 08:27:30.390
nc72153556,2014-02-01 08:27:08.180,40.518166666666666,-123.53116666666666,7.95,2.19,NC.GRO..EHZ,P,-1.0,2014-02-01 08:27:26.090
nc72153556,2014-02-01 08:27:08.180,40.518166666666666,-123.53116666666666,7.95,2.19,NC.GTC..EHZ,P,1.0,2014-02-01 08:27:29.080
nc72153556,2014-02-01 08:27:08.180,40.518166666666666,-123.53116666666666,7.95,2.19,NC.GVV..EHZ,P,-1.0,2014-02-01 08:27:27.710
nc72153556,2014-02-01 08:27:08.180,40.518166666666666,-123.53116666666666,7.95,2.19,NC.KBN..EHZ,P,1.0,2014-02-01 08:27:22.450
nc72153556,2014-02-01 08:27:08.180,40.518166666666666,-123.53116666666666,7.95,2.19,NC.KBS..EHZ,P,1.0,2014-02-01 08:27:21.390
nc72153556,2014-02-01 08:27:08.180,40.518166666666666,-123.53116666666666,7.95,2.19,NC.KCO..EHZ,P,-1.0,2014-02-01 08:27:21.310
nc72153556,2014-02-01 08:27:08.180,40.518166666666666,-123.53116666666666,7.95,2.19,NC.KCPB..HHZ,P,-1.0,2014-02-01 08:27:25.570
nc72153556,2014-02-01 08:27:08.180,40.518166666666666,-123.53116666666666,7.95,2.19,NC.KCR..EHZ,P,-1.0,2014-02-01 08:27:13.830
nc72153556,2014-02-01 08:27:08.180,40.518166666666666,-123.53116666666666,7.95,2.19,NC.KCS..EHZ,P,1.0,2014-02-01 08:27:10.700
nc72153556,2014-02-01 08:27:08.180,40.518166666666666,-123.53116666666666,7.95,2.19,NC.KCT..HHZ,P,-1.0,2014-02-01 08:27:21.560
nc72153556,2014-02-01 08:27:08.180,40.518166666666666,-123.53116666666666,7.95,2.19,NC.KFP..EHZ,P,-1.0,2014-02-01 08:27:26.110
nc72153556,2014-02-01 08:27:08.180,40.518166666666666,-123.53116666666666,7.95,2.19,NC.KHBB..HHZ,P,-1.0,2014-02-01 08:27:14.440
nc72153556,2014-02-01 08:27:08.180,40.518166666666666,-123.53116666666666,7.95,2.19,NC.KHMB..HHZ,P,1.0,2014-02-01 08:27:16.040
nc72153556,2014-02-01 08:27:08.180,40.518166666666666,-123.53116666666666,7.95,2.19,NC.KIP..EHZ,P,-1.0,2014-02-01 08:27:23.380
nc72153556,2014-02-01 08:27:08.180,40.518166666666666,-123.53116666666666,7.95,2.19,NC.KKP..EHZ,P,-1.0,2014-02-01 08:27:17.100
nc72153556,2014-02-01 08:27:08.180,40.518166666666666,-123.53116666666666,7.95,2.19,NC.KMPB..HHZ,P,-1.0,2014-02-01 08:27:17.970
nc72153556,2014-02-01 08:27:08.180,40.518166666666666,-123.53116666666666,7.95,2.19,NC.KMR..HHZ,P,-1.0,2014-02-01 08:27:16.100
nc72153556,2014-02-01 08:27:08.180,40.518166666666666,-123.53116666666666,7.95,2.19,NC.KOM..EHZ,P,,2014-02-01 08:27:22.410
nc72153556,2014-02-01 08:27:08.180,40.518166666666666,-123.53116666666666,7.95,2.19,NC.KPP..EHZ,P,1.0,2014-02-01 08:27:13.820
nc72153556,2014-02-01 08:27:08.180,40.518166666666666,-123.53116666666666,7.95,2.19,NC.KRP..HHZ,P,-1.0,2014-02-01 08:27:23.200
nc72153556,2014-02-01 08:27:08.180,40.518166666666666,-123.53116666666666,7.95,2.19,NC.KTR..EHZ,P,-1.0,2014-02-01 08:27:33.350
nc72153556,2014-02-01 08:27:08.180,40.518166666666666,-123.53116666666666,7.95,2.19,NC.LAMB..EHZ,P,,2014-02-01 08:27:31.460
nc72153556,2014-02-01 08:27:08.180,40.518166666666666,-123.53116666666666,7.95,2.19,NC.LBC..EHZ,P,-1.0,2014-02-01 08:27:39.100
nc72153556,2014-02-01 08:27:08.180,40.518166666666666,-123.53116666666666,7.95,2.19,NC.LBF..EHZ,P,,2014-02-01 08:27:36.230
nc72153556,2014-02-01 08:27:08.180,40.518166666666666,-123.53116666666666,7.95,2.19,NC.LBK..EHZ,P,1.0,2014-02-01 08:27:24.550
nc72153556,2014-02-01 08:27:08.180,40.518166666666666,-123.53116666666666,7.95,2.19,NC.LBO..EHZ,P,,2014-02-01 08:27:33.610
nc72153556,2014-02-01 08:27:08.180,40.518166666666666,-123.53116666666666,7.95,2.19,NC.LBP..EHZ,P,-1.0,2014-02-01 08:27:19.160
nc72153556,2014-02-01 08:27:08.180,40.518166666666666,-123.53116666666666,7.95,2.19,NC.LDB..EHZ,P,,2014-02-01 08:27:33.540
nc72153556,2014-02-01 08:27:08.180,40.518166666666666,-123.53116666666666,7.95,2.19,NC.LGB..EHZ,P,,2014-02-01 08:27:32.310
nc72153556,2014-02-01 08:27:08.180,40.518166666666666,-123.53116666666666,7.95,2.19,NC.LGM..EHZ,P,1.0,2014-02-01 08:27:39.100
nc72153556,2014-02-01 08:27:08.180,40.518166666666666,-123.53116666666666,7.95,2.19,NC.LGP..EHZ,P,-1.0,2014-02-01 08:27:21.040
nc72153556,2014-02-01 08:27:08.180,40.518166666666666,-123.53116666666666,7.95,2.19,NC.LHE..EHZ,P,,2014-02-01 08:27:35.270
nc72153556,2014-02-01 08:27:08.180,40.518166666666666,-123.53116666666666,7.95,2.19,NC.LMI..EHZ,P,-1.0,2014-02-01 08:27:28.420
nc72153556,2014-02-01 08:27:08.180,40.518166666666666,-123.53116666666666,7.95,2.19,NC.LMP..EHZ,P,1.0,2014-02-01 08:27:34.600
nc72153556,2014-02-01 08:27:08.180,40.518166666666666,-123.53116666666666,7.95,2.19,NC.LPG..EHZ,P,1.0,2014-02-01 08:27:23.360
nc72153556,2014-02-01 08:27:08.180,40.518166666666666,-123.53116666666666,7.95,2.19,NC.LPK..EHZ,P,1.0,2014-02-01 08:27:30.080
nc72153556,2014-02-01 08:27:08.180,40.518166666666666,-123.53116666666666,7.95,2.19,NC.LRB..EHZ,P,1.0,2014-02-01 08:27:25.300
nc72153556,2014-02-01 08:27:08.180,40.518166666666666,-123.53116666666666,7.95,2.19,NC.LSF..EHZ,P,-1.0,2014-02-01 08:27:23.460
nc72153556,2014-02-01 08:27:08.180,40.518166666666666,-123.53116666666666,7.95,2.19,NC.LSH..EHZ,P,-1.0,2014-02-01 08:27:30.000
nc72153556,2014-02-01 08:27:08.180,40.518166666666666,-123.53116666666666,7.95,2.19,NC.LSR..EHZ,P,-1.0,2014-02-01 08:27:29.160
nc72153556,2014-02-01 08:27:08.180,40.518166666666666,-123.53116666666666,7.95,2.19,NC.LTC..EHZ,P,-1.0,2014-02-01 08:27:31.140
nc72153556,2014-02-01 08:27:08.180,40.518166666666666,-123.53116666666666,7.95,2.19,NC.LTI..EHZ,P,-1.0,2014-02-01 08:27:38.490
nc72153556,2014-02-01 08:27:08.180,40.518166666666666,-123.53116666666666,7.95,2.19,NC.LVR..EHZ,P,1.0,2014-02-01 08:27:24.570
nc72153556,2014-02-01 08:27:08.180,40.518166666666666,-123.53116666666666,7.95,2.19,PB.B039..EHZ,P,1.0,2014-02-01 08:27:30.410
nc72153556,2014-02-01 08:27:08.180,40.518166666666666,-123.53116666666666,7.95,2.19,PB.B040..EHZ,P,,2014-02-01 08:27:36.120
nc72153556,2014-02-01 08:27:08.180,40.518166666666666,-123.53116666666666,7.95,2.19,PB.B045..EHZ,P,-1.0,2014-02-01 08:27:16.130
nc72153556,2014-02-01 08:27:08.180,40.518166666666666,-123.53116666666666,7.95,2.19,PB.B046..EHZ,P,-1.0,2014-02-01 08:27:21.050
nc72153556,2014-02-01 08:27:08.180,40.518166666666666,-123.53116666666666,7.95,2.19,PB.B047..EHZ,P,-1.0,2014-02-01 08:27:19.920
nc72153556,2014-02-01 08:27:08.180,40.518166666666666,-123.53116666666666,7.95,2.19,PB.B049..EHZ,P,-1.0,2014-02-01 08:27:16.010
nc72153556,2014-02-01 08:27:08.180,40.518166666666666,-123.53116666666666,7.95,2.19,PB.B933..EHZ,P,-1.0,2014-02-01 08:27:20.260
nc72153556,2014-02-01 08:27:08.180,40.518166666666666,-123.53116666666666,7.95,2.19,PB.B935..EHZ,P,1.0,2014-02-01 08:27:10.460
nc72153556,2014-02-01 08:27:08.180,40.518166666666666,-123.53116666666666,7.95,2.19,TA.L04D..HHZ,P,-1.0,2014-02-01 08:27:43.020
nc72153556,2014-02-01 08:27:08.180,40.518166666666666,-123.53116666666666,7.95,2.19,TA.M02C..HHZ,P,1.0,2014-02-01 08:27:26.810
nc72153556,2014-02-01 08:27:08.180,40.518166666666666,-123.53116666666666,7.95,2.19,TA.M04C..HHZ,P,-1.0,2014-02-01 08:27:40.310
nc72153556,2014-02-01 08:27:08.180,40.518166666666666,-123.53116666666666,7.95,2.19,TA.N02D..HHZ,P,1.0,2014-02-01 08:27:23.070
nc72153556,2014-02-01 08:27:08.180,40.518166666666666,-123.53116666666666,7.95,2.19,TA.O02D..HHZ,P,-1.0,2014-02-01 08:27:21.600
nc72153556,2014-02-01 08:27:08.180,40.518166666666666,-123.53116666666666,7.95,2.19,TA.O03E..HHZ,P,-1.0,2014-02-01 08:27:32.860
nc72154546,2014-02-03 06:11:37.210,41.3045,-123.31266666666667,37.99,2.2,BK.JCC..HHZ,P,1.0,2014-02-03 06:11:51.050
nc72154546,2014-02-03 06:11:37.210,41.3045,-123.31266666666667,37.99,2.2,BK.WDC..HHZ,P,1.0,2014-02-03 06:11:54.650
nc72154546,2014-02-03 06:11:37.210,41.3045,-123.31266666666667,37.99,2.2,BK.YBH..HHZ,P,-1.0,2014-02-03 06:11:49.810
nc72154546,2014-02-03 06:11:37.210,41.3045,-123.31266666666667,37.99,2.2,NC.KHBB..HHZ,P,-1.0,2014-02-03 06:11:50.720
nc72154546,2014-02-03 06:11:37.210,41.3045,-123.31266666666667,37.99,2.2,NC.KHMB..HHZ,P,1.0,2014-02-03 06:11:49.260
nc72154546,2014-02-03 06:11:37.210,41.3045,-123.31266666666667,37.99,2.2,NC.KOM..EHZ,P,1.0,2014-02-03 06:11:44.700
nc72154546,2014-02-03 06:11:37.210,41.3045,-123.31266666666667,37.99,2.2,NC.KRMB..HHZ,P,-1.0,2014-02-03 06:11:48.460
nc72154546,2014-02-03 06:11:37.210,41.3045,-123.31266666666667,37.99,2.2,NC.KRP..HHZ,P,-1.0,2014-02-03 06:11:49.360
nc72154546,2014-02-03 06:11:37.210,41.3045,-123.31266666666667,37.99,2.2,NC.KSXB..HHZ,P,-1.0,2014-02-03 06:11:50.660
nc72154546,2014-02-03 06:11:37.210,41.3045,-123.31266666666667,37.99,2.2,NC.KTR..EHZ,P,-1.0,2014-02-03 06:11:49.970
nc72154546,2014-02-03 06:11:37.210,41.3045,-123.31266666666667,37.99,2.2,NC.LAMB..EHZ,P,1.0,2014-02-03 06:11:49.370
nc72154546,2014-02-03 06:11:37.210,41.3045,-123.31266666666667,37.99,2.2,NC.LBK..EHZ,P,-1.0,2014-02-03 06:11:48.670
nc72154546,2014-02-03 06:11:37.210,41.3045,-123.31266666666667,37.99,2.2,NC.LBO..EHZ,P,1.0,2014-02-03 06:11:53.060
nc72154546,2014-02-03 06:11:37.210,41.3045,-123.31266666666667,37.99,2.2,NC.LCSB..EHZ,P,-1.0,2014-02-03 06:11:50.990
nc72154546,2014-02-03 06:11:37.210,41.3045,-123.31266666666667,37.99,2.2,NC.LGB..EHZ,P,1.0,2014-02-03 06:11:53.350
nc72154546,2014-02-03 06:11:37.210,41.3045,-123.31266666666667,37.99,2.2,NC.LGM..EHZ,P,-1.0,2014-02-03 06:11:58.340
nc72154546,2014-02-03 06:11:37.210,41.3045,-123.31266666666667,37.99,2.2,NC.LGP..EHZ,P,1.0,2014-02-03 06:11:48.630
nc72154546,2014-02-03 06:11:37.210,41.3045,-123.31266666666667,37.99,2.2,NC.LHE..EHZ,P,-1.0,2014-02-03 06:11:53.950
nc72154546,2014-02-03 06:11:37.210,41.3045,-123.31266666666667,37.99,2.2,NC.LMP..EHZ,P,-1.0,2014-02-03 06:11:54.170
nc72154546,2014-02-03 06:11:37.210,41.3045,-123.31266666666667,37.99,2.2,NC.LPK..EHZ,P,-1.0,2014-02-03 06:11:49.150
nc72154546,2014-02-03 06:11:37.210,41.3045,-123.31266666666667,37.99,2.2,NC.LSH..EHZ,P,-1.0,2014-02-03 06:11:56.610
nc72154546,2014-02-03 06:11:37.210,41.3045,-123.31266666666667,37.99,2.2,NC.LSR..EHZ,P,-1.0,2014-02-03 06:11:52.720
nc72154546,2014-02-03 06:11:37.210,41.3045,-123.31266666666667,37.99,2.2,PB.B039..EHZ,P,-1.0,2014-02-03 06:11:49.600
nc72154546,2014-02-03 06:11:37.210,41.3045,-123.31266666666667,37.99,2.2,PB.B040..EHZ,P,-1.0,2014-02-03 06:11:53.010
nc72154546,2014-02-03 06:11:37.210,41.3045,-123.31266666666667,37.99,2.2,PB.B045..EHZ,P,-1.0,2014-02-03 06:11:55.280
nc72154546,2014-02-03 06:11:37.210,41.3045,-123.31266666666667,37.99,2.2,PB.B046..EHZ,P,1.0,2014-02-03 06:11:58.030
nc72154546,2014-02-03 06:11:37.210,41.3045,-123.31266666666667,37.99,2.2,PB.B047..EHZ,P,1.0,2014-02-03 06:11:58.240
nc72154546,2014-02-03 06:11:37.210,41.3045,-123.31266666666667,37.99,2.2,PB.B049..EHZ,P,1.0,2014-02-03 06:11:56.880
nc72154546,2014-02-03 06:11:37.210,41.3045,-123.31266666666667,37.99,2.2,TA.M02C..HHZ,P,-1.0,2014-02-03 06:11:46.080
nc72154546,2014-02-03 06:11:37.210,41.3045,-123.31266666666667,37.99,2.2,TA.N02D..HHZ,P,1.0,2014-02-03 06:11:48.980
nc72156201,2014-02-05 10:16:01.900,40.809,-123.475,23.4,1.79,BK.JCC..HHZ,P,1.0,2014-02-05 10:16:10.530
nc72156201,2014-02-05 10:16:01.900,40.809,-123.475,23.4,1.79,BK.WDC..HHZ,P,1.0,2014-02-05 10:16:15.630
nc72156201,2014-02-05 10:16:01.900,40.809,-123.475,23.4,1.79,NC.KCR..EHZ,P,,2014-02-05 10:16:11.630
nc72156201,2014-02-05 10:16:01.900,40.809,-123.475,23.4,1.79,NC.KCS..EHZ,P,-1.0,2014-02-05 10:16:08.810
nc72156201,2014-02-05 10:16:01.900,40.809,-123.475,23.4,1.79,NC.KHBB..HHZ,P,-1.0,2014-02-05 10:16:08.180
nc72156201,2014-02-05 10:16:01.900,40.809,-123.475,23.4,1.79,NC.KHMB..HHZ,P,1.0,2014-02-05 10:16:07.710
nc72156201,2014-02-05 10:16:01.900,40.809,-123.475,23.4,1.79,NC.KMR..HHZ,P,1.0,2014-02-05 10:16:13.760
nc72156201,2014-02-05 10:16:01.900,40.809,-123.475,23.4,1.79,NC.KOM..EHZ,P,1.0,2014-02-05 10:16:11.050
nc72156201,2014-02-05 10:16:01.900,40.809,-123.475,23.4,1.79,NC.KPP..EHZ,P,-1.0,2014-02-05 10:16:11.640
nc72156201,2014-02-05 10:16:01.900,40.809,-123.475,23.4,1.79,NC.KRMB..HHZ,P,-1.0,2014-02-05 10:16:15.620
nc72156201,2014-02-05 10:16:01.900,40.809,-123.475,23.4,1.79,NC.KRP..HHZ,P,-1.0,2014-02-05 10:16:12.430
nc72156201,2014-02-05 10:16:01.900,40.809,-123.475,23.4,1.79,NC.LBK..EHZ,P,1.0,2014-02-05 10:16:14.240
nc72156201,2014-02-05 10:16:01.900,40.809,-123.475,23.4,1.79,NC.LBP..EHZ,P,-1.0,2014-02-05 10:16:14.510
nc72156201,2014-02-05 10:16:01.900,40.809,-123.475,23.4,1.79,NC.LGP..EHZ,P,1.0,2014-02-05 10:16:11.580
nc72156201,2014-02-05 10:16:01.900,40.809,-123.475,23.4,1.79,NC.LPK..EHZ,P,-1.0,2014-02-05 10:16:18.530
nc72156201,2014-02-05 10:16:01.900,40.809,-123.475,23.4,1.79,NC.LSF..EHZ,P,-1.0,2014-02-05 10:16:15.720
nc72156201,2014-02-05 10:16:01.900,40.809,-123.475,23.4,1.79,NC.LSH..EHZ,P,,2014-02-05 10:16:20.740
nc72156201,2014-02-05 10:16:01.900,40.809,-123.475,23.4,1.79,PB.B045..EHZ,P,1.0,2014-02-05 10:16:12.350
nc72156201,2014-02-05 10:16:01.900,40.809,-123.475,23.4,1.79,PB.B046..EHZ,P,,2014-02-05 10:16:15.500
nc72156201,2014-02-05 10:16:01.900,40.809,-123.475,23.4,1.79,PB.B047..EHZ,P,,2014-02-05 10:16:15.260
nc72156201,2014-02-05 10:16:01.900,40.809,-123.475,23.4,1.79,PB.B049..EHZ,P,-1.0,2014-02-05 10:16:13.390
nc72156201,2014-02-05 10:16:01.900,40.809,-123.475,23.4,1.79,PB.B935..EHZ,P,-1.0,2014-02-05 10:16:09.490
nc72156201,2014-02-05 10:16:01.900,40.809,-123.475,23.4,1.79,TA.M02C..HHZ,P,1.0,2014-02-05 10:16:15.150
nc72156201,2014-02-05 10:16:01.900,40.809,-123.475,23.4,1.79,TA.N02D..HHZ,P,-1.0,2014-02-05 10:16:13.060
nc72156201,2014-02-05 10:16:01.900,40.809,-123.475,23.4,1.79,TA.O02D..HHZ,P,1.0,2014-02-05 10:16:16.710
nc72156466,2014-02-05 12:43:37.650,40.0285,-123.7575,17.25,1.83,BK.GASB..HHZ,P,1.0,2014-02-05 12:43:53.230
nc72156466,2014-02-05 12:43:37.650,40.0285,-123.7575,17.25,1.83,NC.GTC..EHZ,P,1.0,2014-02-05 12:43:49.530
nc72156466,2014-02-05 12:43:37.650,40.0285,-123.7575,17.25,1.83,NC.KBN..EHZ,P,-1.0,2014-02-05 12:43:47.470
nc72156466,2014-02-05 12:43:37.650,40.0285,-123.7575,17.25,1.83,NC.KBS..EHZ,P,-1.0,2014-02-05 12:43:42.570
nc72156466,2014-02-05 12:43:37.650,40.0285,-123.7575,17.25,1.83,NC.KCR..EHZ,P,-1.0,2014-02-05 12:43:46.320
nc72156466,2014-02-05 12:43:37.650,40.0285,-123.7575,17.25,1.83,NC.KCS..EHZ,P,1.0,2014-02-05 12:43:49.110
nc72156466,2014-02-05 12:43:37.650,40.0285,-123.7575,17.25,1.83,NC.KCT..HHZ,P,-1.0,2014-02-05 12:43:50.530
nc72156466,2014-02-05 12:43:37.650,40.0285,-123.7575,17.25,1.83,NC.KFP..EHZ,P,-1.0,2014-02-05 12:43:47.240
nc72156466,2014-02-05 12:43:37.650,40.0285,-123.7575,17.25,1.83,NC.KHBB..HHZ,P,-1.0,2014-02-05 12:43:52.050
nc72156466,2014-02-05 12:43:37.650,40.0285,-123.7575,17.25,1.83,NC.KIP..EHZ,P,-1.0,2014-02-05 12:43:44.680
nc72156466,2014-02-05 12:43:37.650,40.0285,-123.7575,17.25,1.83,NC.KKP..EHZ,P,1.0,2014-02-05 12:43:43.920
nc72156466,2014-02-05 12:43:37.650,40.0285,-123.7575,17.25,1.83,NC.KMR..HHZ,P,-1.0,2014-02-05 12:43:42.750
nc72156466,2014-02-05 12:43:37.650,40.0285,-123.7575,17.25,1.83,NC.KRK..EHZ,P,1.0,2014-02-05 12:43:50.120
nc72156466,2014-02-05 12:43:37.650,40.0285,-123.7575,17.25,1.83,NC.LBP..EHZ,P,-1.0,2014-02-05 12:43:51.620
nc72156466,2014-02-05 12:43:37.650,40.0285,-123.7575,17.25,1.83,NC.LGP..EHZ,P,1.0,2014-02-05 12:43:57.230
nc72156466,2014-02-05 12:43:37.650,40.0285,-123.7575,17.25,1.83,NC.LPG..EHZ,P,,2014-02-05 12:43:53.420
nc72156466,2014-02-05 12:43:37.650,40.0285,-123.7575,17.25,1.83,PB.B045..EHZ,P,-1.0,2014-02-05 12:43:47.170
nc72156466,2014-02-05 12:43:37.650,40.0285,-123.7575,17.25,1.83,PB.B046..EHZ,P,1.0,2014-02-05 12:43:47.660
nc72156466,2014-02-05 12:43:37.650,40.0285,-123.7575,17.25,1.83,PB.B047..EHZ,P,1.0,2014-02-05 12:43:46.080
nc72156466,2014-02-05 12:43:37.650,40.0285,-123.7575,17.25,1.83,PB.B049..EHZ,P,-1.0,2014-02-05 12:43:43.040
nc72156466,2014-02-05 12:43:37.650,40.0285,-123.7575,17.25,1.83,PB.B933..EHZ,P,-1.0,2014-02-05 12:43:42.550
nc72156466,2014-02-05 12:43:37.650,40.0285,-123.7575,17.25,1.83,TA.N02D..HHZ,P,,2014-02-05 12:43:58.750
nc72156466,2014-02-05 12:43:37.650,40.0285,-123.7575,17.25,1.83,TA.O02D..HHZ,P,1.0,2014-02-05 12:43:52.120
nc72157151,2014-02-06 05:57:34.700,40.66133333333333,-123.32766666666667,26.01,1.85,BK.WDC..HHZ,P,1.0,2014-02-06 05:57:46.010
nc72157151,2014-02-06 05:57:34.700,40.66133333333333,-123.32766666666667,26.01,1.85,NC.KCR..EHZ,P,1.0,2014-02-06 05:57:44.030
nc72157151,2014-02-06 05:57:34.700,40.66133333333333,-123.32766666666667,26.01,1.85,NC.KCS..EHZ,P,1.0,2014-02-06 05:57:40.780
nc72157151,2014-02-06 05:57:34.700,40.66133333333333,-123.32766666666667,26.01,1.85,NC.KHBB..HHZ,P,-1.0,2014-02-06 05:57:39.760
nc72157151,2014-02-06 05:57:34.700,40.66133333333333,-123.32766666666667,26.01,1.85,NC.KHMB..HHZ,P,1.0,2014-02-06 05:57:42.830
nc72157151,2014-02-06 05:57:34.700,40.66133333333333,-123.32766666666667,26.01,1.85,NC.KKP..EHZ,P,1.0,2014-02-06 05:57:45.700
nc72157151,2014-02-06 05:57:34.700,40.66133333333333,-123.32766666666667,26.01,1.85,NC.KOM..EHZ,P,1.0,2014-02-06 05:57:46.440
nc72157151,2014-02-06 05:57:34.700,40.66133333333333,-123.32766666666667,26.01,1.85,NC.KPP..EHZ,P,1.0,2014-02-06 05:57:42.390
nc72157151,2014-02-06 05:57:34.700,40.66133333333333,-123.32766666666667,26.01,1.85,NC.LBK..EHZ,P,1.0,2014-02-06 05:57:46.890
nc72157151,2014-02-06 05:57:34.700,40.66133333333333,-123.32766666666667,26.01,1.85,NC.LBP..EHZ,P,-1.0,2014-02-06 05:57:44.660
nc72157151,2014-02-06 05:57:34.700,40.66133333333333,-123.32766666666667,26.01,1.85,NC.LGP..EHZ,P,1.0,2014-02-06 05:57:43.940
nc72157151,2014-02-06 05:57:34.700,40.66133333333333,-123.32766666666667,26.01,1.85,NC.LMI..EHZ,P,-1.0,2014-02-06 05:57:51.210
nc72157151,2014-02-06 05:57:34.700,40.66133333333333,-123.32766666666667,26.01,1.85,NC.LPK..EHZ,P,-1.0,2014-02-06 05:57:52.450
nc72157151,2014-02-06 05:57:34.700,40.66133333333333,-123.32766666666667,26.01,1.85,NC.LSF..EHZ,P,1.0,2014-02-06 05:57:46.410
nc72157151,2014-02-06 05:57:34.700,40.66133333333333,-123.32766666666667,26.01,1.85,NC.LSH..EHZ,P,,2014-02-06 05:57:52.280
nc72157151,2014-02-06 05:57:34.700,40.66133333333333,-123.32766666666667,26.01,1.85,NC.LSR..EHZ,P,1.0,2014-02-06 05:57:51.370
