event_id,etime,elat,elon,edep,emag,station_id,phase_type,phase_polarity,phase_time
nc72175591,2014-02-26 18:23:55.070,41.331,-123.50283333333333,33.81,2.51,NC.KTR..EHZ,P,-1.0,2014-02-26 18:24:06.880
nc72175591,2014-02-26 18:23:55.070,41.331,-123.50283333333333,33.81,2.51,NC.LAMB..EHZ,P,1.0,2014-02-26 18:24:08.840
nc72175591,2014-02-26 18:23:55.070,41.331,-123.50283333333333,33.81,2.51,NC.LBK..EHZ,P,1.0,2014-02-26 18:24:08.290
nc72175591,2014-02-26 18:23:55.070,41.331,-123.50283333333333,33.81,2.51,NC.LBP..EHZ,P,-1.0,2014-02-26 18:24:16.180
nc72175591,2014-02-26 18:23:55.070,41.331,-123.50283333333333,33.81,2.51,NC.LGB..EHZ,P,1.0,2014-02-26 18:24:13.890
nc72175591,2014-02-26 18:23:55.070,41.331,-123.50283333333333,33.81,2.51,NC.LGM..EHZ,P,-1.0,2014-02-26 18:24:18.590
nc72175591,2014-02-26 18:23:55.070,41.331,-123.50283333333333,33.81,2.51,NC.LGP..EHZ,P,1.0,2014-02-26 18:24:07.930
nc72175591,2014-02-26 18:23:55.070,41.331,-123.50283333333333,33.81,2.51,NC.LHE..EHZ,P,-1.0,2014-02-26 18:24:14.170
nc72175591,2014-02-26 18:23:55.070,41.331,-123.50283333333333,33.81,2.51,NC.LMC..HHZ,P,,2014-02-26 18:24:15.280
nc72175591,2014-02-26 18:23:55.070,41.331,-123.50283333333333,33.81,2.51,NC.LMI..EHZ,P,-1.0,2014-02-26 18:24:18.010
nc72175591,2014-02-26 18:23:55.070,41.331,-123.50283333333333,33.81,2.51,NC.LPG..EHZ,P,,2014-02-26 18:24:19.820
nc72175591,2014-02-26 18:23:55.070,41.331,-123.50283333333333,33.81,2.51,NC.LPK..EHZ,P,1.0,2014-02-26 18:24:08.880
nc72175591,2014-02-26 18:23:55.070,41.331,-123.50283333333333,33.81,2.51,NC.LSF..EHZ,P,,2014-02-26 18:24:13.540
nc72175591,2014-02-26 18:23:55.070,41.331,-123.50283333333333,33.81,2.51,NC.LSH..EHZ,P,-1.0,2014-02-26 18:24:16.900
nc72175591,2014-02-26 18:23:55.070,41.331,-123.50283333333333,33.81,2.51,NC.LSR..EHZ,P,-1.0,2014-02-26 18:24:13.140
nc72175591,2014-02-26 18:23:55.070,41.331,-123.50283333333333,33.81,2.51,PB.B039..EHZ,P,1.0,2014-02-26 18:24:09.270
nc72175591,2014-02-26 18:23:55.070,41.331,-123.50283333333333,33.81,2.51,PB.B040..EHZ,P,-1.0,2014-02-26 18:24:12.970
nc72175591,2014-02-26 18:23:55.070,41.331,-123.50283333333333,33.81,2.51,PB.B046..EHZ,P,1.0,2014-02-26 18:24:14.690
nc72175591,2014-02-26 18:23:55.070,41.331,-123.50283333333333,33.81,2.51,PB.B047..EHZ,P,1.0,2014-02-26 18:24:15.080
nc72175591,2014-02-26 18:23:55.070,41.331,-123.50283333333333,33.81,2.51,PB.B049..EHZ,P,-1.0,2014-02-26 18:24:14.140
nc72175591,2014-02-26 18:23:55.070,41.331,-123.50283333333333,33.81,2.51,PB.B933..EHZ,P,-1.0,2014-02-26 18:24:16.960
nc72175591,2014-02-26 18:23:55.070,41.331,-123.50283333333333,33.81,2.51,PB.B935..EHZ,P,-1.0,2014-02-26 18:24:11.000
nc72175591,2014-02-26 18:23:55.070,41.331,-123.50283333333333,33.81,2.51,TA.M02C..HHZ,P,1.0,2014-02-26 18:24:05.400
nc72175591,2014-02-26 18:23:55.070,41.331,-123.50283333333333,33.81,2.51,TA.N02D..HHZ,P,1.0,2014-02-26 18:24:08.680
nc72177601,2014-03-02 02:39:48.490,40.3185,-124.46983333333333,6.51,2.04,BK.JCC..HHZ,P,1.0,2014-03-02 02:40:00.640
nc72177601,2014-03-02 02:39:48.490,40.3185,-124.46983333333333,6.51,2.04,NC.GNA..EHZ,P,1.0,2014-03-02 02:40:10.540
nc72177601,2014-03-02 02:39:48.490,40.3185,-124.46983333333333,6.51,2.04,NC.GTC..EHZ,P,-1.0,2014-03-02 02:40:08.690
nc72177601,2014-03-02 02:39:48.490,40.3185,-124.46983333333333,6.51,2.04,NC.KBN..EHZ,P,1.0,2014-03-02 02:40:09.440
nc72177601,2014-03-02 02:39:48.490,40.3185,-124.46983333333333,6.51,2.04,NC.KBS..EHZ,P,,2014-03-02 02:40:04.040
nc72177601,2014-03-02 02:39:48.490,40.3185,-124.46983333333333,6.51,2.04,NC.KCO..EHZ,P,-1.0,2014-03-02 02:39:52.750
nc72177601,2014-03-02 02:39:48.490,40.3185,-124.46983333333333,6.51,2.04,NC.KCR..EHZ,P,1.0,2014-03-02 02:39:59.670
nc72177601,2014-03-02 02:39:48.490,40.3185,-124.46983333333333,6.51,2.04,NC.KCT..HHZ,P,1.0,2014-03-02 02:39:53.310
nc72177601,2014-03-02 02:39:48.490,40.3185,-124.46983333333333,6.51,2.04,NC.KFP..EHZ,P,1.0,2014-03-02 02:40:07.490
nc72177601,2014-03-02 02:39:48.490,40.3185,-124.46983333333333,6.51,2.04,NC.KHBB..HHZ,P,-1.0,2014-03-02 02:40:07.430
nc72177601,2014-03-02 02:39:48.490,40.3185,-124.46983333333333,6.51,2.04,NC.KHMB..HHZ,P,1.0,2014-03-02 02:40:04.120
nc72177601,2014-03-02 02:39:48.490,40.3185,-124.46983333333333,6.51,2.04,NC.KIP..EHZ,P,1.0,2014-03-02 02:40:05.960
nc72177601,2014-03-02 02:39:48.490,40.3185,-124.46983333333333,6.51,2.04,NC.KKP..EHZ,P,-1.0,2014-03-02 02:40:04.910
nc72177601,2014-03-02 02:39:48.490,40.3185,-124.46983333333333,6.51,2.04,NC.KMPB..HHZ,P,1.0,2014-03-02 02:39:55.050
nc72177601,2014-03-02 02:39:48.490,40.3185,-124.46983333333333,6.51,2.04,NC.KMR..HHZ,P,,2014-03-02 02:40:01.450
nc72177601,2014-03-02 02:39:48.490,40.3185,-124.46983333333333,6.51,2.04,NC.KOM..EHZ,P,1.0,2014-03-02 02:40:10.190
nc72177601,2014-03-02 02:39:48.490,40.3185,-124.46983333333333,6.51,2.04,NC.KRK..EHZ,P,-1.0,2014-03-02 02:40:10.430
nc72177601,2014-03-02 02:39:48.490,40.3185,-124.46983333333333,6.51,2.04,NC.KRMB..HHZ,P,1.0,2014-03-02 02:40:10.490
nc72177601,2014-03-02 02:39:48.490,40.3185,-124.46983333333333,6.51,2.04,NC.KSM..EHZ,P,-1.0,2014-03-02 02:39:54.440
nc72177601,2014-03-02 02:39:48.490,40.3185,-124.46983333333333,6.51,2.04,NC.KSXB..HHZ,P,-1.0,2014-03-02 02:40:14.590
nc72177601,2014-03-02 02:39:48.490,40.3185,-124.46983333333333,6.51,2.04,PB.B045..EHZ,P,1.0,2014-03-02 02:39:56.880
nc72177601,2014-03-02 02:39:48.490,40.3185,-124.46983333333333,6.51,2.04,PB.B046..EHZ,P,1.0,2014-03-02 02:39:52.050
nc72177601,2014-03-02 02:39:48.490,40.3185,-124.46983333333333,6.51,2.04,PB.B047..EHZ,P,1.0,2014-03-02 02:39:54.070
nc72177601,2014-03-02 02:39:48.490,40.3185,-124.46983333333333,6.51,2.04,PB.B049..EHZ,P,1.0,2014-03-02 02:39:59.050
nc72177601,2014-03-02 02:39:48.490,40.3185,-124.46983333333333,6.51,2.04,PB.B933..EHZ,P,-1.0,2014-03-02 02:39:57.900
nc72177601,2014-03-02 02:39:48.490,40.3185,-124.46983333333333,6.51,2.04,TA.O02D..HHZ,P,1.0,2014-03-02 02:40:11.900
nc72177611,2014-03-02 02:56:37.050,40.30683333333333,-124.4995,6.11,2.81,BK.JCC..HHZ,P,1.0,2014-03-02 02:56:49.660
nc72177611,2014-03-02 02:56:37.050,40.30683333333333,-124.4995,6.11,2.81,BK.WDC..HHZ,P,-1.0,2014-03-02 02:57:03.190
nc72177611,2014-03-02 02:56:37.050,40.30683333333333,-124.4995,6.11,2.81,NC.GNA..EHZ,P,1.0,2014-03-02 02:56:59.660
nc72177611,2014-03-02 02:56:37.050,40.30683333333333,-124.4995,6.11,2.81,NC.GRO..EHZ,P,-1.0,2014-03-02 02:57:03.250
nc72177611,2014-03-02 02:56:37.050,40.30683333333333,-124.4995,6.11,2.81,NC.GTC..EHZ,P,-1.0,2014-03-02 02:56:57.760
nc72177611,2014-03-02 02:56:37.050,40.30683333333333,-124.4995,6.11,2.81,NC.KBN..EHZ,P,,2014-03-02 02:56:58.480
nc72177611,2014-03-02 02:56:37.050,40.30683333333333,-124.4995,6.11,2.81,NC.KBS..EHZ,P,-1.0,2014-03-02 02:56:53.110
nc72177611,2014-03-02 02:56:37.050,40.30683333333333,-124.4995,6.11,2.81,NC.KCO..EHZ,P,-1.0,2014-03-02 02:56:41.760
nc72177611,2014-03-02 02:56:37.050,40.30683333333333,-124.4995,6.11,2.81,NC.KCPB..HHZ,P,1.0,2014-03-02 02:56:55.020
nc72177611,2014-03-02 02:56:37.050,40.30683333333333,-124.4995,6.11,2.81,NC.KCR..EHZ,P,1.0,2014-03-02 02:56:48.680
nc72177611,2014-03-02 02:56:37.050,40.30683333333333,-124.4995,6.11,2.81,NC.KCS..EHZ,P,1.0,2014-03-02 02:56:53.040
nc72177611,2014-03-02 02:56:37.050,40.30683333333333,-124.4995,6.11,2.81,NC.KCT..HHZ,P,1.0,2014-03-02 02:56:42.330
nc72177611,2014-03-02 02:56:37.050,40.30683333333333,-124.4995,6.11,2.81,NC.KFP..EHZ,P,-1.0,2014-03-02 02:56:56.550
nc72177611,2014-03-02 02:56:37.050,40.30683333333333,-124.4995,6.11,2.81,NC.KHBB..HHZ,P,1.0,2014-03-02 02:56:56.420
nc72177611,2014-03-02 02:56:37.050,40.30683333333333,-124.4995,6.11,2.81,NC.KHMB..HHZ,P,1.0,2014-03-02 02:56:53.130
nc72177611,2014-03-02 02:56:37.050,40.30683333333333,-124.4995,6.11,2.81,NC.KIP..EHZ,P,-1.0,2014-03-02 02:56:54.920
nc72177611,2014-03-02 02:56:37.050,40.30683333333333,-124.4995,6.11,2.81,NC.KKP..EHZ,P,1.0,2014-03-02 02:56:53.790
nc72177611,2014-03-02 02:56:37.050,40.30683333333333,-124.4995,6.11,2.81,NC.KMPB..HHZ,P,1.0,2014-03-02 02:56:44.050
nc72177611,2014-03-02 02:56:37.050,40.30683333333333,-124.4995,6.11,2.81,NC.KMR..HHZ,P,1.0,2014-03-02 02:56:50.180
nc72177611,2014-03-02 02:56:37.050,40.30683333333333,-124.4995,6.11,2.81,NC.KOM..EHZ,P,1.0,2014-03-02 02:56:59.210
nc72177611,2014-03-02 02:56:37.050,40.30683333333333,-124.4995,6.11,2.81,NC.KPP..EHZ,P,,2014-03-02 02:56:54.840
nc72177611,2014-03-02 02:56:37.050,40.30683333333333,-124.4995,6.11,2.81,NC.KRMB..HHZ,P,1.0,2014-03-02 02:56:59.600
nc72177611,2014-03-02 02:56:37.050,40.30683333333333,-124.4995,6.11,2.81,NC.KRP..HHZ,P,-1.0,2014-03-02 02:56:54.240
nc72177611,2014-03-02 02:56:37.050,40.30683333333333,-124.4995,6.11,2.81,NC.KSM..EHZ,P,-1.0,2014-03-02 02:56:43.440
nc72177611,2014-03-02 02:56:37.050,40.30683333333333,-124.4995,6.11,2.81,NC.LBK..EHZ,P,-1.0,2014-03-02 02:57:04.540
nc72177611,2014-03-02 02:56:37.050,40.30683333333333,-124.4995,6.11,2.81,NC.LGP..EHZ,P,1.0,2014-03-02 02:57:01.690
nc72177611,2014-03-02 02:56:37.050,40.30683333333333,-124.4995,6.11,2.81,NC.LSH..EHZ,P,-1.0,2014-03-02 02:57:09.630
nc72177611,2014-03-02 02:56:37.050,40.30683333333333,-124.4995,6.11,2.81,NC.LVR..EHZ,P,-1.0,2014-03-02 02:57:02.630
nc72177611,2014-03-02 02:56:37.050,40.30683333333333,-124.4995,6.11,2.81,PB.B045..EHZ,P,1.0,2014-03-02 02:56:45.950
nc72177611,2014-03-02 02:56:37.050,40.30683333333333,-124.4995,6.11,2.81,PB.B046..EHZ,P,1.0,2014-03-02 02:56:41.070
nc72177611,2014-03-02 02:56:37.050,40.30683333333333,-124.4995,6.11,2.81,PB.B047..EHZ,P,-1.0,2014-03-02 02:56:43.030
nc72177611,2014-03-02 02:56:37.050,40.30683333333333,-124.4995,6.11,2.81,PB.B049..EHZ,P,1.0,2014-03-02 02:56:48.020
nc72177611,2014-03-02 02:56:37.050,40.30683333333333,-124.4995,6.11,2.81,PB.B933..EHZ,P,-1.0,2014-03-02 02:56:46.900
nc72177611,2014-03-02 02:56:37.050,40.30683333333333,-124.4995,6.11,2.81,PB.B935..EHZ,P,1.0,2014-03-02 02:56:51.940
nc72177611,2014-03-02 02:56:37.050,40.30683333333333,-124.4995,6.11,2.81,TA.N02D..HHZ,P,1.0,2014-03-02 02:57:03.160
nc72177611,2014-03-02 02:56:37.050,40.30683333333333,-124.4995,6.11,2.81,TA.O02D..HHZ,P,-1.0,2014-03-02 02:57:00.830
nc72177616,2014-03-02 03:00:08.610,40.30883333333333,-124.48983333333334,6.61,2.33,BK.JCC..HHZ,P,1.0,2014-03-02 03:00:21.070
nc72177616,2014-03-02 03:00:08.610,40.30883333333333,-124.48983333333334,6.61,2.33,NC.KBS..EHZ,P,-1.0,2014-03-02 03:00:24.550
nc72177616,2014-03-02 03:00:08.610,40.30883333333333,-124.48983333333334,6.61,2.33,NC.KCO..EHZ,P,-1.0,2014-03-02 03:00:13.180
nc72177616,2014-03-02 03:00:08.610,40.30883333333333,-124.48983333333334,6.61,2.33,NC.KCPB..HHZ,P,,2014-03-02 03:00:26.350
nc72177616,2014-03-02 03:00:08.610,40.30883333333333,-124.48983333333334,6.61,2.33,NC.KCR..EHZ,P,1.0,2014-03-02 03:00:20.130
nc72177616,2014-03-02 03:00:08.610,40.30883333333333,-124.48983333333334,6.61,2.33,NC.KCS..EHZ,P,-1.0,2014-03-02 03:00:24.650
nc72177616,2014-03-02 03:00:08.610,40.30883333333333,-124.48983333333334,6.61,2.33,NC.KCT..HHZ,P,1.0,2014-03-02 03:00:13.750
nc72177616,2014-03-02 03:00:08.610,40.30883333333333,-124.48983333333334,6.61,2.33,NC.KFP..EHZ,P,-1.0,2014-03-02 03:00:27.980
nc72177616,2014-03-02 03:00:08.610,40.30883333333333,-124.48983333333334,6.61,2.33,NC.KHBB..HHZ,P,-1.0,2014-03-02 03:00:27.860
nc72177616,2014-03-02 03:00:08.610,40.30883333333333,-124.48983333333334,6.61,2.33,NC.KHMB..HHZ,P,1.0,2014-03-02 03:00:24.550
nc72177616,2014-03-02 03:00:08.610,40.30883333333333,-124.48983333333334,6.61,2.33,NC.KIP..EHZ,P,1.0,2014-03-02 03:00:26.350
nc72177616,2014-03-02 03:00:08.610,40.30883333333333,-124.48983333333334,6.61,2.33,NC.KKP..EHZ,P,-1.0,2014-03-02 03:00:25.350
nc72177616,2014-03-02 03:00:08.610,40.30883333333333,-124.48983333333334,6.61,2.33,NC.KMPB..HHZ,P,1.0,2014-03-02 03:00:15.480
nc72177616,2014-03-02 03:00:08.610,40.30883333333333,-124.48983333333334,6.61,2.33,NC.KMR..HHZ,P,-1.0,2014-03-02 03:00:21.490
nc72177616,2014-03-02 03:00:08.610,40.30883333333333,-124.48983333333334,6.61,2.33,NC.KOM..EHZ,P,1.0,2014-03-02 03:00:30.660
nc72177616,2014-03-02 03:00:08.610,40.30883333333333,-124.48983333333334,6.61,2.33,NC.KSM..EHZ,P,-1.0,2014-03-02 03:00:14.880
nc72177616,2014-03-02 03:00:08.610,40.30883333333333,-124.48983333333334,6.61,2.33,PB.B045..EHZ,P,1.0,2014-03-02 03:00:17.340
nc72177616,2014-03-02 03:00:08.610,40.30883333333333,-124.48983333333334,6.61,2.33,PB.B046..EHZ,P,1.0,2014-03-02 03:00:12.490
nc72177616,2014-03-02 03:00:08.610,40.30883333333333,-124.48983333333334,6.61,2.33,PB.B047..EHZ,P,-1.0,2014-03-02 03:00:14.460
nc72177616,2014-03-02 03:00:08.610,40.30883333333333,-124.48983333333334,6.61,2.33,PB.B049..EHZ,P,1.0,2014-03-02 03:00:19.480
nc72177616,2014-03-02 03:00:08.610,40.30883333333333,-124.48983333333334,6.61,2.33,PB.B933..EHZ,P,-1.0,2014-03-02 03:00:18.300
nc72177616,2014-03-02 03:00:08.610,40.30883333333333,-124.48983333333334,6.61,2.33,PB.B935..EHZ,P,-1.0,2014-03-02 03:00:23.500
nc72177626,2014-03-02 03:01:25.420,40.31,-124.49266666666666,6.53,2.96,BK.GASB..HHZ,P,-1.0,2014-03-02 03:01:51.690
nc72177626,2014-03-02 03:01:25.420,40.31,-124.49266666666666,6.53,2.96,BK.HATC..HHZ,P,,2014-03-02 03:02:04.470
nc72177626,2014-03-02 03:01:25.420,40.31,-124.49266666666666,6.53,2.96,BK.HOPS..HHZ,P,-1.0,2014-03-02 03:01:53.740
nc72177626,2014-03-02 03:01:25.420,40.31,-124.49266666666666,6.53,2.96,BK.JCC..HHZ,P,1.0,2014-03-02 03:01:37.960
nc72177626,2014-03-02 03:01:25.420,40.31,-124.49266666666666,6.53,2.96,BK.WDC..HHZ,P,1.0,2014-03-02 03:01:51.590
nc72177626,2014-03-02 03:01:25.420,40.31,-124.49266666666666,6.53,2.96,BK.YBH..HHZ,P,-1.0,2014-03-02 03:01:57.870
nc72177626,2014-03-02 03:01:25.420,40.31,-124.49266666666666,6.53,2.96,NC.GBB..EHZ,P,,2014-03-02 03:01:55.330
nc72177626,2014-03-02 03:01:25.420,40.31,-124.49266666666666,6.53,2.96,NC.GGU..EHZ,P,1.0,2014-03-02 03:01:52.580
nc72177626,2014-03-02 03:01:25.420,40.31,-124.49266666666666,6.53,2.96,NC.GHL..EHZ,P,1.0,2014-03-02 03:01:53.590
nc72177626,2014-03-02 03:01:25.420,40.31,-124.49266666666666,6.53,2.96,NC.GHM..EHZ,P,-1.0,2014-03-02 03:01:50.280
nc72177626,2014-03-02 03:01:25.420,40.31,-124.49266666666666,6.53,2.96,NC.GHO..EHZ,P,-1.0,2014-03-02 03:01:50.050
nc72177626,2014-03-02 03:01:25.420,40.31,-124.49266666666666,6.53,2.96,NC.GNA..EHZ,P,-1.0,2014-03-02 03:01:47.780
nc72177626,2014-03-02 03:01:25.420,40.31,-124.49266666666666,6.53,2.96,NC.GSN..EHZ,P,-1.0,2014-03-02 03:01:53.620
nc72177626,2014-03-02 03:01:25.420,40.31,-124.49266666666666,6.53,2.96,NC.GTC..EHZ,P,1.0,2014-03-02 03:01:45.940
nc72177626,2014-03-02 03:01:25.420,40.31,-124.49266666666666,6.53,2.96,NC.GTS..EHZ,P,-1.0,2014-03-02 03:01:54.890
nc72177626,2014-03-02 03:01:25.420,40.31,-124.49266666666666,6.53,2.96,NC.K004..HNZ,P,-1.0,2014-03-02 03:01:32.290
nc72177626,2014-03-02 03:01:25.420,40.31,-124.49266666666666,6.53,2.96,NC.KBN..EHZ,P,1.0,2014-03-02 03:01:45.440
nc72177626,2014-03-02 03:01:25.420,40.31,-124.49266666666666,6.53,2.96,NC.KBS..EHZ,P,1.0,2014-03-02 03:01:41.100
nc72177626,2014-03-02 03:01:25.420,40.31,-124.49266666666666,6.53,2.96,NC.KCO..EHZ,P,-1.0,2014-03-02 03:01:30.070
nc72177626,2014-03-02 03:01:25.420,40.31,-124.49266666666666,6.53,2.96,NC.KCPB..HHZ,P,-1.0,2014-03-02 03:01:43.220
nc72177626,2014-03-02 03:01:25.420,40.31,-124.49266666666666,6.53,2.96,NC.KCR..EHZ,P,1.0,2014-03-02 03:01:37.010
nc72177626,2014-03-02 03:01:25.420,40.31,-124.49266666666666,6.53,2.96,NC.KCS..EHZ,P,1.0,2014-03-02 03:01:41.320
nc72177626,2014-03-02 03:01:25.420,40.31,-124.49266666666666,6.53,2.96,NC.KCT..HHZ,P,1.0,2014-03-02 03:01:30.630
nc72177626,2014-03-02 03:01:25.420,40.31,-124.49266666666666,6.53,2.96,NC.KFP..EHZ,P,1.0,2014-03-02 03:01:44.650
nc72177626,2014-03-02 03:01:25.420,40.31,-124.49266666666666,6.53,2.96,NC.KHBB..HHZ,P,1.0,2014-03-02 03:01:44.580
nc72177626,2014-03-02 03:01:25.420,40.31,-124.49266666666666,6.53,2.96,NC.KHMB..HHZ,P,1.0,2014-03-02 03:01:41.470
nc72177626,2014-03-02 03:01:25.420,40.31,-124.49266666666666,6.53,2.96,NC.KIP..EHZ,P,-1.0,2014-03-02 03:01:43.200
nc72177626,2014-03-02 03:01:25.420,40.31,-124.49266666666666,6.53,2.96,NC.KKP..EHZ,P,1.0,2014-03-02 03:01:42.020
nc72177626,2014-03-02 03:01:25.420,40.31,-124.49266666666666,6.53,2.96,NC.KMPB..HHZ,P,1.0,2014-03-02 03:01:32.370
nc72177626,2014-03-02 03:01:25.420,40.31,-124.49266666666666,6.53,2.96,NC.KMR..HHZ,P,1.0,2014-03-02 03:01:38.240
nc72177626,2014-03-02 03:01:25.420,40.31,-124.49266666666666,6.53,2.96,NC.KOM..EHZ,P,1.0,2014-03-02 03:01:47.500
nc72177626,2014-03-02 03:01:25.420,40.31,-124.49266666666666,6.53,2.96,NC.KPP..EHZ,P,1.0,2014-03-02 03:01:42.640
nc72177626,2014-03-02 03:01:25.420,40.31,-124.49266666666666,6.53,2.96,NC.KRMB..HHZ,P,-1.0,2014-03-02 03:01:47.810
nc72177626,2014-03-02 03:01:25.420,40.31,-124.49266666666666,6.53,2.96,NC.KRP..HHZ,P,-1.0,2014-03-02 03:01:42.580
nc72177626,2014-03-02 03:01:25.420,40.31,-124.49266666666666,6.53,2.96,NC.KSM..EHZ,P,-1.0,2014-03-02 03:01:31.750
nc72177626,2014-03-02 03:01:25.420,40.31,-124.49266666666666,6.53,2.96,NC.KSXB..HHZ,P,-1.0,2014-03-02 03:01:52.000
nc72177626,2014-03-02 03:01:25.420,40.31,-124.49266666666666,6.53,2.96,NC.KTR..EHZ,P,1.0,2014-03-02 03:01:55.260
nc72177626,2014-03-02 03:01:25.420,40.31,-124.49266666666666,6.53,2.96,NC.LAMB..EHZ,P,-1.0,2014-03-02 03:01:57.550
nc72177626,2014-03-02 03:01:25.420,40.31,-124.49266666666666,6.53,2.96,NC.LBC..EHZ,P,1.0,2014-03-02 03:02:05.860
nc72177626,2014-03-02 03:01:25.420,40.31,-124.49266666666666,6.53,2.96,NC.LBF..EHZ,P,-1.0,2014-03-02 03:02:02.870
nc72177626,2014-03-02 03:01:25.420,40.31,-124.49266666666666,6.53,2.96,NC.LBK..EHZ,P,-1.0,2014-03-02 03:01:52.930
nc72177626,2014-03-02 03:01:25.420,40.31,-124.49266666666666,6.53,2.96,NC.LBP..EHZ,P,-1.0,2014-03-02 03:01:47.790
nc72177626,2014-03-02 03:01:25.420,40.31,-124.49266666666666,6.53,2.96,NC.LDB..EHZ,P,-1.0,2014-03-02 03:01:59.290
nc72177626,2014-03-02 03:01:25.420,40.31,-124.49266666666666,6.53,2.96,NC.LGM..EHZ,P,,2014-03-02 03:02:04.470
nc72177626,2014-03-02 03:01:25.420,40.31,-124.49266666666666,6.53,2.96,NC.LGP..EHZ,P,1.0,2014-03-02 03:01:49.990
nc72177626,2014-03-02 03:01:25.420,40.31,-124.49266666666666,6.53,2.96,NC.LHE..EHZ,P,1.0,2014-03-02 03:02:01.740
nc72177626,2014-03-02 03:01:25.420,40.31,-124.49266666666666,6.53,2.96,NC.LMC..HHZ,P,1.0,2014-03-02 03:02:00.580
nc72177626,2014-03-02 03:01:25.420,40.31,-124.49266666666666,6.53,2.96,NC.LMI..EHZ,P,-1.0,2014-03-02 03:01:55.900
nc72177626,2014-03-02 03:01:25.420,40.31,-124.49266666666666,6.53,2.96,NC.LMP..EHZ,P,1.0,2014-03-02 03:02:01.620
nc72177626,2014-03-02 03:01:25.420,40.31,-124.49266666666666,6.53,2.96,NC.LPG..EHZ,P,,2014-03-02 03:01:50.520
nc72177626,2014-03-02 03:01:25.420,40.31,-124.49266666666666,6.53,2.96,NC.LPK..EHZ,P,1.0,2014-03-02 03:01:57.220
nc72177626,2014-03-02 03:01:25.420,40.31,-124.49266666666666,6.53,2.96,NC.LSH..EHZ,P,1.0,2014-03-02 03:01:58.090
nc72177626,2014-03-02 03:01:25.420,40.31,-124.49266666666666,6.53,2.96,NC.LSI..EHZ,P,,2014-03-02 03:02:03.990
nc72177626,2014-03-02 03:01:25.420,40.31,-124.49266666666666,6.53,2.96,NC.LSR..EHZ,P,,2014-03-02 03:01:57.100
nc72177626,2014-03-02 03:01:25.420,40.31,-124.49266666666666,6.53,2.96,NC.LTC..EHZ,P,-1.0,2014-03-02 03:01:56.750
nc72177626,2014-03-02 03:01:25.420,40.31,-124.49266666666666,6.53,2.96,NC.LTI..EHZ,P,1.0,2014-03-02 03:02:05.060
nc72177626,2014-03-02 03:01:25.420,40.31,-124.49266666666666,6.53,2.96,NC.LVR..EHZ,P,-1.0,2014-03-02 03:01:50.950
nc72177626,2014-03-02 03:01:25.420,40.31,-124.49266666666666,6.53,2.96,PB.B039..EHZ,P,-1.0,2014-03-02 03:01:57.240
nc72177626,2014-03-02 03:01:25.420,40.31,-124.49266666666666,6.53,2.96,PB.B040..EHZ,P,-1.0,2014-03-02 03:02:01.470
nc72177626,2014-03-02 03:01:25.420,40.31,-124.49266666666666,6.53,2.96,PB.B045..EHZ,P,1.0,2014-03-02 03:01:34.240
nc72177626,2014-03-02 03:01:25.420,40.31,-124.49266666666666,6.53,2.96,PB.B046..EHZ,P,1.0,2014-03-02 03:01:29.370
nc72177626,2014-03-02 03:01:25.420,40.31,-124.49266666666666,6.53,2.96,PB.B047..EHZ,P,-1.0,2014-03-02 03:01:31.350
nc72177626,2014-03-02 03:01:25.420,40.31,-124.49266666666666,6.53,2.96,PB.B049..EHZ,P,1.0,2014-03-02 03:01:36.360
