event_id,etime,elat,elon,edep,emag,station_id,phase_type,phase_polarity,phase_time
nc72182136,2014-03-10 06:22:45.880,40.718833333333336,-124.93716666666667,3.15,3.33,TA.N02D..HHZ,P,1.0,2014-03-10 06:23:15.810
nc72182136,2014-03-10 06:22:45.880,40.718833333333336,-124.93716666666667,3.15,3.33,TA.O02D..HHZ,P,-1.0,2014-03-10 06:23:16.070
nc72182151,2014-03-10 06:39:10.120,40.7295,-124.87233333333333,4.39,2.5,BK.GASB..HHZ,P,1.0,2014-03-10 06:39:43.050
nc72182151,2014-03-10 06:39:10.120,40.7295,-124.87233333333333,4.39,2.5,BK.JCC..HHZ,P,1.0,2014-03-10 06:39:23.170
nc72182151,2014-03-10 06:39:10.120,40.7295,-124.87233333333333,4.39,2.5,NC.GNA..EHZ,P,1.0,2014-03-10 06:39:39.210
nc72182151,2014-03-10 06:39:10.120,40.7295,-124.87233333333333,4.39,2.5,NC.GRO..EHZ,P,-1.0,2014-03-10 06:39:42.010
nc72182151,2014-03-10 06:39:10.120,40.7295,-124.87233333333333,4.39,2.5,NC.GVV..EHZ,P,,2014-03-10 06:39:42.760
nc72182151,2014-03-10 06:39:10.120,40.7295,-124.87233333333333,4.39,2.5,NC.KBN..EHZ,P,-1.0,2014-03-10 06:39:37.350
nc72182151,2014-03-10 06:39:10.120,40.7295,-124.87233333333333,4.39,2.5,NC.KBS..EHZ,P,1.0,2014-03-10 06:39:32.890
nc72182151,2014-03-10 06:39:10.120,40.7295,-124.87233333333333,4.39,2.5,NC.KCO..EHZ,P,1.0,2014-03-10 06:39:23.650
nc72182151,2014-03-10 06:39:10.120,40.7295,-124.87233333333333,4.39,2.5,NC.KCPB..HHZ,P,,2014-03-10 06:39:35.170
nc72182151,2014-03-10 06:39:10.120,40.7295,-124.87233333333333,4.39,2.5,NC.KCR..EHZ,P,1.0,2014-03-10 06:39:27.100
nc72182151,2014-03-10 06:39:10.120,40.7295,-124.87233333333333,4.39,2.5,NC.KCS..EHZ,P,1.0,2014-03-10 06:39:30.040
nc72182151,2014-03-10 06:39:10.120,40.7295,-124.87233333333333,4.39,2.5,NC.KFP..EHZ,P,1.0,2014-03-10 06:39:36.400
nc72182151,2014-03-10 06:39:10.120,40.7295,-124.87233333333333,4.39,2.5,NC.KHBB..HHZ,P,-1.0,2014-03-10 06:39:32.500
nc72182151,2014-03-10 06:39:10.120,40.7295,-124.87233333333333,4.39,2.5,NC.KHMB..HHZ,P,1.0,2014-03-10 06:39:26.930
nc72182151,2014-03-10 06:39:10.120,40.7295,-124.87233333333333,4.39,2.5,NC.KIP..EHZ,P,-1.0,2014-03-10 06:39:35.060
nc72182151,2014-03-10 06:39:10.120,40.7295,-124.87233333333333,4.39,2.5,NC.KKP..EHZ,P,-1.0,2014-03-10 06:39:32.360
nc72182151,2014-03-10 06:39:10.120,40.7295,-124.87233333333333,4.39,2.5,NC.KMPB..HHZ,P,1.0,2014-03-10 06:39:24.120
nc72182151,2014-03-10 06:39:10.120,40.7295,-124.87233333333333,4.39,2.5,NC.KMR..HHZ,P,-1.0,2014-03-10 06:39:29.840
nc72182151,2014-03-10 06:39:10.120,40.7295,-124.87233333333333,4.39,2.5,NC.KOM..EHZ,P,-1.0,2014-03-10 06:39:31.040
nc72182151,2014-03-10 06:39:10.120,40.7295,-124.87233333333333,4.39,2.5,NC.KRP..HHZ,P,-1.0,2014-03-10 06:39:24.270
nc72182151,2014-03-10 06:39:10.120,40.7295,-124.87233333333333,4.39,2.5,NC.KSXB..HHZ,P,1.0,2014-03-10 06:39:31.150
nc72182151,2014-03-10 06:39:10.120,40.7295,-124.87233333333333,4.39,2.5,NC.LBK..EHZ,P,1.0,2014-03-10 06:39:38.600
nc72182151,2014-03-10 06:39:10.120,40.7295,-124.87233333333333,4.39,2.5,NC.LBP..EHZ,P,-1.0,2014-03-10 06:39:37.340
nc72182151,2014-03-10 06:39:10.120,40.7295,-124.87233333333333,4.39,2.5,NC.LGP..EHZ,P,-1.0,2014-03-10 06:39:36.560
nc72182151,2014-03-10 06:39:10.120,40.7295,-124.87233333333333,4.39,2.5,NC.LPG..EHZ,P,-1.0,2014-03-10 06:39:40.340
nc72182151,2014-03-10 06:39:10.120,40.7295,-124.87233333333333,4.39,2.5,NC.LVR..EHZ,P,-1.0,2014-03-10 06:39:41.180
nc72182151,2014-03-10 06:39:10.120,40.7295,-124.87233333333333,4.39,2.5,PB.B045..EHZ,P,1.0,2014-03-10 06:39:25.060
nc72182151,2014-03-10 06:39:10.120,40.7295,-124.87233333333333,4.39,2.5,PB.B046..EHZ,P,1.0,2014-03-10 06:39:22.950
nc72182151,2014-03-10 06:39:10.120,40.7295,-124.87233333333333,4.39,2.5,PB.B049..EHZ,P,-1.0,2014-03-10 06:39:28.250
nc72182151,2014-03-10 06:39:10.120,40.7295,-124.87233333333333,4.39,2.5,PB.B933..EHZ,P,1.0,2014-03-10 06:39:27.970
nc72182151,2014-03-10 06:39:10.120,40.7295,-124.87233333333333,4.39,2.5,PB.B935..EHZ,P,1.0,2014-03-10 06:39:29.330
nc72182151,2014-03-10 06:39:10.120,40.7295,-124.87233333333333,4.39,2.5,TA.O02D..HHZ,P,-1.0,2014-03-10 06:39:38.810
nc72182326,2014-03-10 11:09:10.500,40.702333333333335,-124.8165,5.82,2.4,BK.GASB..HHZ,P,1.0,2014-03-10 11:09:42.570
nc72182326,2014-03-10 11:09:10.500,40.702333333333335,-124.8165,5.82,2.4,BK.JCC..HHZ,P,1.0,2014-03-10 11:09:23.090
nc72182326,2014-03-10 11:09:10.500,40.702333333333335,-124.8165,5.82,2.4,BK.WDC..HHZ,P,1.0,2014-03-10 11:09:39.960
nc72182326,2014-03-10 11:09:10.500,40.702333333333335,-124.8165,5.82,2.4,BK.YBH..HHZ,P,,2014-03-10 11:09:41.870
nc72182326,2014-03-10 11:09:10.500,40.702333333333335,-124.8165,5.82,2.4,NC.GNA..EHZ,P,-1.0,2014-03-10 11:09:39.190
nc72182326,2014-03-10 11:09:10.500,40.702333333333335,-124.8165,5.82,2.4,NC.GTC..EHZ,P,,2014-03-10 11:09:37.450
nc72182326,2014-03-10 11:09:10.500,40.702333333333335,-124.8165,5.82,2.4,NC.KBN..EHZ,P,1.0,2014-03-10 11:09:36.810
nc72182326,2014-03-10 11:09:10.500,40.702333333333335,-124.8165,5.82,2.4,NC.KBS..EHZ,P,-1.0,2014-03-10 11:09:32.510
nc72182326,2014-03-10 11:09:10.500,40.702333333333335,-124.8165,5.82,2.4,NC.KCO..EHZ,P,1.0,2014-03-10 11:09:23.200
nc72182326,2014-03-10 11:09:10.500,40.702333333333335,-124.8165,5.82,2.4,NC.KCR..EHZ,P,1.0,2014-03-10 11:09:26.700
nc72182326,2014-03-10 11:09:10.500,40.702333333333335,-124.8165,5.82,2.4,NC.KCS..EHZ,P,1.0,2014-03-10 11:09:29.740
nc72182326,2014-03-10 11:09:10.500,40.702333333333335,-124.8165,5.82,2.4,NC.KFP..EHZ,P,1.0,2014-03-10 11:09:36.000
nc72182326,2014-03-10 11:09:10.500,40.702333333333335,-124.8165,5.82,2.4,NC.KHBB..HHZ,P,1.0,2014-03-10 11:09:32.280
nc72182326,2014-03-10 11:09:10.500,40.702333333333335,-124.8165,5.82,2.4,NC.KHMB..HHZ,P,1.0,2014-03-10 11:09:26.850
nc72182326,2014-03-10 11:09:10.500,40.702333333333335,-124.8165,5.82,2.4,NC.KIP..EHZ,P,-1.0,2014-03-10 11:09:34.620
nc72182326,2014-03-10 11:09:10.500,40.702333333333335,-124.8165,5.82,2.4,NC.KKP..EHZ,P,1.0,2014-03-10 11:09:32.240
nc72182326,2014-03-10 11:09:10.500,40.702333333333335,-124.8165,5.82,2.4,NC.KMPB..HHZ,P,1.0,2014-03-10 11:09:23.640
nc72182326,2014-03-10 11:09:10.500,40.702333333333335,-124.8165,5.82,2.4,NC.KMR..HHZ,P,-1.0,2014-03-10 11:09:29.420
nc72182326,2014-03-10 11:09:10.500,40.702333333333335,-124.8165,5.82,2.4,NC.KOM..EHZ,P,-1.0,2014-03-10 11:09:32.080
nc72182326,2014-03-10 11:09:10.500,40.702333333333335,-124.8165,5.82,2.4,NC.KRP..HHZ,P,-1.0,2014-03-10 11:09:24.930
nc72182326,2014-03-10 11:09:10.500,40.702333333333335,-124.8165,5.82,2.4,NC.LBP..EHZ,P,1.0,2014-03-10 11:09:36.780
nc72182326,2014-03-10 11:09:10.500,40.702333333333335,-124.8165,5.82,2.4,NC.LGP..EHZ,P,1.0,2014-03-10 11:09:36.420
nc72182326,2014-03-10 11:09:10.500,40.702333333333335,-124.8165,5.82,2.4,NC.LPG..EHZ,P,-1.0,2014-03-10 11:09:39.930
nc72182326,2014-03-10 11:09:10.500,40.702333333333335,-124.8165,5.82,2.4,NC.LRB..EHZ,P,-1.0,2014-03-10 11:09:41.560
nc72182326,2014-03-10 11:09:10.500,40.702333333333335,-124.8165,5.82,2.4,NC.LSH..EHZ,P,-1.0,2014-03-10 11:09:45.220
nc72182326,2014-03-10 11:09:10.500,40.702333333333335,-124.8165,5.82,2.4,NC.LSR..EHZ,P,,2014-03-10 11:09:43.510
nc72182326,2014-03-10 11:09:10.500,40.702333333333335,-124.8165,5.82,2.4,NC.LVR..EHZ,P,-1.0,2014-03-10 11:09:40.790
nc72182326,2014-03-10 11:09:10.500,40.702333333333335,-124.8165,5.82,2.4,PB.B045..EHZ,P,1.0,2014-03-10 11:09:24.660
nc72182326,2014-03-10 11:09:10.500,40.702333333333335,-124.8165,5.82,2.4,PB.B046..EHZ,P,1.0,2014-03-10 11:09:22.500
nc72182326,2014-03-10 11:09:10.500,40.702333333333335,-124.8165,5.82,2.4,PB.B047..EHZ,P,1.0,2014-03-10 11:09:24.000
nc72182326,2014-03-10 11:09:10.500,40.702333333333335,-124.8165,5.82,2.4,PB.B049..EHZ,P,1.0,2014-03-10 11:09:27.710
nc72182326,2014-03-10 11:09:10.500,40.702333333333335,-124.8165,5.82,2.4,PB.B933..EHZ,P,1.0,2014-03-10 11:09:27.500
nc72182326,2014-03-10 11:09:10.500,40.702333333333335,-124.8165,5.82,2.4,PB.B935..EHZ,P,1.0,2014-03-10 11:09:29.000
nc72182326,2014-03-10 11:09:10.500,40.702333333333335,-124.8165,5.82,2.4,TA.M02C..HHZ,P,,2014-03-10 11:09:38.540
nc72182326,2014-03-10 11:09:10.500,40.702333333333335,-124.8165,5.82,2.4,TA.N02D..HHZ,P,,2014-03-10 11:09:37.730
nc72182326,2014-03-10 11:09:10.500,40.702333333333335,-124.8165,5.82,2.4,TA.O02D..HHZ,P,1.0,2014-03-10 11:09:38.760
nc72183011,2014-03-11 19:52:27.400,40.092666666666666,-123.74816666666666,20.52,1.61,NC.GRO..EHZ,P,-1.0,2014-03-11 19:52:42.820
nc72183011,2014-03-11 19:52:27.400,40.092666666666666,-123.74816666666666,20.52,1.61,NC.KBN..EHZ,P,1.0,2014-03-11 19:52:37.410
nc72183011,2014-03-11 19:52:27.400,40.092666666666666,-123.74816666666666,20.52,1.61,NC.KBS..EHZ,P,-1.0,2014-03-11 19:52:33.230
nc72183011,2014-03-11 19:52:27.400,40.092666666666666,-123.74816666666666,20.52,1.61,NC.KFP..EHZ,P,1.0,2014-03-11 19:52:37.440
nc72183011,2014-03-11 19:52:27.400,40.092666666666666,-123.74816666666666,20.52,1.61,NC.KIP..EHZ,P,1.0,2014-03-11 19:52:35.220
nc72183011,2014-03-11 19:52:27.400,40.092666666666666,-123.74816666666666,20.52,1.61,NC.KKP..EHZ,P,-1.0,2014-03-11 19:52:33.470
nc72183011,2014-03-11 19:52:27.400,40.092666666666666,-123.74816666666666,20.52,1.61,NC.KMR..HHZ,P,-1.0,2014-03-11 19:52:32.070
nc72183011,2014-03-11 19:52:27.400,40.092666666666666,-123.74816666666666,20.52,1.61,NC.KSM..EHZ,P,1.0,2014-03-11 19:52:34.960
nc72183011,2014-03-11 19:52:27.400,40.092666666666666,-123.74816666666666,20.52,1.61,NC.LBP..EHZ,P,1.0,2014-03-11 19:52:40.330
nc72183011,2014-03-11 19:52:27.400,40.092666666666666,-123.74816666666666,20.52,1.61,NC.LPG..EHZ,P,1.0,2014-03-11 19:52:42.420
nc72183011,2014-03-11 19:52:27.400,40.092666666666666,-123.74816666666666,20.52,1.61,NC.LVR..EHZ,P,-1.0,2014-03-11 19:52:42.610
nc72183011,2014-03-11 19:52:27.400,40.092666666666666,-123.74816666666666,20.52,1.61,PB.B045..EHZ,P,1.0,2014-03-11 19:52:35.610
nc72183011,2014-03-11 19:52:27.400,40.092666666666666,-123.74816666666666,20.52,1.61,PB.B046..EHZ,P,1.0,2014-03-11 19:52:36.800
nc72183011,2014-03-11 19:52:27.400,40.092666666666666,-123.74816666666666,20.52,1.61,PB.B047..EHZ,P,1.0,2014-03-11 19:52:35.370
nc72183011,2014-03-11 19:52:27.400,40.092666666666666,-123.74816666666666,20.52,1.61,PB.B049..EHZ,P,1.0,2014-03-11 19:52:32.270
nc72183011,2014-03-11 19:52:27.400,40.092666666666666,-123.74816666666666,20.52,1.61,PB.B933..EHZ,P,1.0,2014-03-11 19:52:32.700
nc72183011,2014-03-11 19:52:27.400,40.092666666666666,-123.74816666666666,20.52,1.61,PB.B935..EHZ,P,1.0,2014-03-11 19:52:36.250
nc72184761,2014-03-14 04:02:34.300,40.11,-123.779,20.44,2.05,BK.GASB..HHZ,P,-1.0,2014-03-14 04:02:50.620
nc72184761,2014-03-14 04:02:34.300,40.11,-123.779,20.44,2.05,BK.JCC..HHZ,P,,2014-03-14 04:02:48.150
nc72184761,2014-03-14 04:02:34.300,40.11,-123.779,20.44,2.05,BK.WDC..HHZ,P,1.0,2014-03-14 04:02:52.370
nc72184761,2014-03-14 04:02:34.300,40.11,-123.779,20.44,2.05,NC.GHM..EHZ,P,-1.0,2014-03-14 04:02:50.360
nc72184761,2014-03-14 04:02:34.300,40.11,-123.779,20.44,2.05,NC.GRO..EHZ,P,-1.0,2014-03-14 04:02:50.170
nc72184761,2014-03-14 04:02:34.300,40.11,-123.779,20.44,2.05,NC.GVV..EHZ,P,-1.0,2014-03-14 04:02:50.750
nc72184761,2014-03-14 04:02:34.300,40.11,-123.779,20.44,2.05,NC.KBN..EHZ,P,1.0,2014-03-14 04:02:44.970
nc72184761,2014-03-14 04:02:34.300,40.11,-123.779,20.44,2.05,NC.KBS..EHZ,P,-1.0,2014-03-14 04:02:40.550
nc72184761,2014-03-14 04:02:34.300,40.11,-123.779,20.44,2.05,NC.KCO..EHZ,P,1.0,2014-03-14 04:02:42.790
nc72184761,2014-03-14 04:02:34.300,40.11,-123.779,20.44,2.05,NC.KCPB..HHZ,P,-1.0,2014-03-14 04:02:43.670
nc72184761,2014-03-14 04:02:34.300,40.11,-123.779,20.44,2.05,NC.KCR..EHZ,P,-1.0,2014-03-14 04:02:41.690
nc72184761,2014-03-14 04:02:34.300,40.11,-123.779,20.44,2.05,NC.KCS..EHZ,P,-1.0,2014-03-14 04:02:44.630
nc72184761,2014-03-14 04:02:34.300,40.11,-123.779,20.44,2.05,NC.KCT..HHZ,P,-1.0,2014-03-14 04:02:46.190
nc72184761,2014-03-14 04:02:34.300,40.11,-123.779,20.44,2.05,NC.KFP..EHZ,P,,2014-03-14 04:02:44.850
nc72184761,2014-03-14 04:02:34.300,40.11,-123.779,20.44,2.05,NC.KHBB..HHZ,P,-1.0,2014-03-14 04:02:47.550
nc72184761,2014-03-14 04:02:34.300,40.11,-123.779,20.44,2.05,NC.KIP..EHZ,P,-1.0,2014-03-14 04:02:42.680
nc72184761,2014-03-14 04:02:34.300,40.11,-123.779,20.44,2.05,NC.KKP..EHZ,P,-1.0,2014-03-14 04:02:40.800
nc72184761,2014-03-14 04:02:34.300,40.11,-123.779,20.44,2.05,NC.KMPB..HHZ,P,-1.0,2014-03-14 04:02:43.110
nc72184761,2014-03-14 04:02:34.300,40.11,-123.779,20.44,2.05,NC.KMR..HHZ,P,-1.0,2014-03-14 04:02:38.940
nc72184761,2014-03-14 04:02:34.300,40.11,-123.779,20.44,2.05,NC.KOM..EHZ,P,,2014-03-14 04:02:54.350
nc72184761,2014-03-14 04:02:34.300,40.11,-123.779,20.44,2.05,NC.KPP..EHZ,P,1.0,2014-03-14 04:02:43.150
nc72184761,2014-03-14 04:02:34.300,40.11,-123.779,20.44,2.05,NC.KSM..EHZ,P,1.0,2014-03-14 04:02:41.410
nc72184761,2014-03-14 04:02:34.300,40.11,-123.779,20.44,2.05,NC.LBK..EHZ,P,-1.0,2014-03-14 04:02:56.150
nc72184761,2014-03-14 04:02:34.300,40.11,-123.779,20.44,2.05,NC.LBP..EHZ,P,1.0,2014-03-14 04:02:47.710
nc72184761,2014-03-14 04:02:34.300,40.11,-123.779,20.44,2.05,NC.LGP..EHZ,P,1.0,2014-03-14 04:02:52.790
nc72184761,2014-03-14 04:02:34.300,40.11,-123.779,20.44,2.05,NC.LPG..EHZ,P,-1.0,2014-03-14 04:02:50.030
nc72184761,2014-03-14 04:02:34.300,40.11,-123.779,20.44,2.05,NC.LRB..EHZ,P,-1.0,2014-03-14 04:02:52.000
nc72184761,2014-03-14 04:02:34.300,40.11,-123.779,20.44,2.05,NC.LSH..EHZ,P,-1.0,2014-03-14 04:02:58.910
nc72184761,2014-03-14 04:02:34.300,40.11,-123.779,20.44,2.05,NC.LVR..EHZ,P,1.0,2014-03-14 04:02:50.040
nc72184761,2014-03-14 04:02:34.300,40.11,-123.779,20.44,2.05,PB.B045..EHZ,P,1.0,2014-03-14 04:02:42.460
nc72184761,2014-03-14 04:02:34.300,40.11,-123.779,20.44,2.05,PB.B046..EHZ,P,1.0,2014-03-14 04:02:43.270
nc72184761,2014-03-14 04:02:34.300,40.11,-123.779,20.44,2.05,PB.B047..EHZ,P,1.0,2014-03-14 04:02:41.830
nc72184761,2014-03-14 04:02:34.300,40.11,-123.779,20.44,2.05,PB.B049..EHZ,P,1.0,2014-03-14 04:02:38.920
nc72184761,2014-03-14 04:02:34.300,40.11,-123.779,20.44,2.05,PB.B933..EHZ,P,1.0,2014-03-14 04:02:39.280
nc72184761,2014-03-14 04:02:34.300,40.11,-123.779,20.44,2.05,PB.B935..EHZ,P,-1.0,2014-03-14 04:02:43.190
nc72184761,2014-03-14 04:02:34.300,40.11,-123.779,20.44,2.05,TA.N02D..HHZ,P,1.0,2014-03-14 04:02:54.500
nc72184761,2014-03-14 04:02:34.300,40.11,-123.779,20.44,2.05,TA.O02D..HHZ,P,-1.0,2014-03-14 04:02:48.660
nc72185721,2014-03-15 14:52:14.360,40.30133333333333,-124.411,10.88,1.81,BK.JCC..HHZ,P,-1.0,2014-03-15 14:52:26.260
nc72185721,2014-03-15 14:52:14.360,40.30133333333333,-124.411,10.88,1.81,NC.GTC..EHZ,P,1.0,2014-03-15 14:52:33.750
nc72185721,2014-03-15 14:52:14.360,40.30133333333333,-124.411,10.88,1.81,NC.KBS..EHZ,P,-1.0,2014-03-15 14:52:28.830
nc72185721,2014-03-15 14:52:14.360,40.30133333333333,-124.411,10.88,1.81,NC.KCO..EHZ,P,-1.0,2014-03-15 14:52:17.940
nc72185721,2014-03-15 14:52:14.360,40.30133333333333,-124.411,10.88,1.81,NC.KCPB..HHZ,P,1.0,2014-03-15 14:52:30.760
nc72185721,2014-03-15 14:52:14.360,40.30133333333333,-124.411,10.88,1.81,NC.KCR..EHZ,P,1.0,2014-03-15 14:52:24.650
nc72185721,2014-03-15 14:52:14.360,40.30133333333333,-124.411,10.88,1.81,NC.KCS..EHZ,P,,2014-03-15 14:52:29.300
nc72185721,2014-03-15 14:52:14.360,40.30133333333333,-124.411,10.88,1.81,NC.KCT..HHZ,P,1.0,2014-03-15 14:52:19.220
nc72185721,2014-03-15 14:52:14.360,40.30133333333333,-124.411,10.88,1.81,NC.KFP..EHZ,P,-1.0,2014-03-15 14:52:32.380
nc72185721,2014-03-15 14:52:14.360,40.30133333333333,-124.411,10.88,1.81,NC.KHBB..HHZ,P,,2014-03-15 14:52:31.960
nc72185721,2014-03-15 14:52:14.360,40.30133333333333,-124.411,10.88,1.81,NC.KIP..EHZ,P,-1.0,2014-03-15 14:52:30.860
nc72185721,2014-03-15 14:52:14.360,40.30133333333333,-124.411,10.88,1.81,NC.KMPB..HHZ,P,1.0,2014-03-15 14:52:20.190
nc72185721,2014-03-15 14:52:14.360,40.30133333333333,-124.411,10.88,1.81,NC.KMR..HHZ,P,1.0,2014-03-15 14:52:26.530
nc72185721,2014-03-15 14:52:14.360,40.30133333333333,-124.411,10.88,1.81,NC.KOM..EHZ,P,1.0,2014-03-15 14:52:35.580
nc72185721,2014-03-15 14:52:14.360,40.30133333333333,-124.411,10.88,1.81,NC.KRMB..HHZ,P,1.0,2014-03-15 14:52:36.350
nc72185721,2014-03-15 14:52:14.360,40.30133333333333,-124.411,10.88,1.81,NC.KSM..EHZ,P,-1.0,2014-03-15 14:52:19.520
nc72185721,2014-03-15 14:52:14.360,40.30133333333333,-124.411,10.88,1.81,PB.B045..EHZ,P,1.0,2014-03-15 14:52:21.960
nc72185721,2014-03-15 14:52:14.360,40.30133333333333,-124.411,10.88,1.81,PB.B046..EHZ,P,1.0,2014-03-15 14:52:17.410
nc72185721,2014-03-15 14:52:14.360,40.30133333333333,-124.411,10.88,1.81,PB.B047..EHZ,P,-1.0,2014-03-15 14:52:19.070
nc72185721,2014-03-15 14:52:14.360,40.30133333333333,-124.411,10.88,1.81,PB.B049..EHZ,P,1.0,2014-03-15 14:52:23.650
nc72185721,2014-03-15 14:52:14.360,40.30133333333333,-124.411,10.88,1.81,PB.B933..EHZ,P,-1.0,2014-03-15 14:52:22.890
nc72185721,2014-03-15 14:52:14.360,40.30133333333333,-124.411,10.88,1.81,PB.B935..EHZ,P,-1.0,2014-03-15 14:52:28.180
nc72185826,2014-03-15 19:24:17.410,40.74933333333333,-124.344,11.61,1.9,BK.JCC..HHZ,P,1.0,2014-03-15 19:24:22.930
nc72185826,2014-03-15 19:24:17.410,40.74933333333333,-124.344,11.61,1.9,NC.KCO..EHZ,P,-1.0,2014-03-15 19:24:27.890
nc72185826,2014-03-15 19:24:17.410,40.74933333333333,-124.344,11.61,1.9,NC.KCR..EHZ,P,-1.0,2014-03-15 19:24:28.310
nc72185826,2014-03-15 19:24:17.410,40.74933333333333,-124.344,11.61,1.9,NC.KCS..EHZ,P,-1.0,2014-03-15 19:24:30.930
nc72185826,2014-03-15 19:24:17.410,40.74933333333333,-124.344,11.61,1.9,NC.KCT..HHZ,P,-1.0,2014-03-15 19:24:23.930
nc72185826,2014-03-15 19:24:17.410,40.74933333333333,-124.344,11.61,1.9,NC.KHBB..HHZ,P,1.0,2014-03-15 19:24:33.270
nc72185826,2014-03-15 19:24:17.410,40.74933333333333,-124.344,11.61,1.9,NC.KHMB..HHZ,P,1.0,2014-03-15 19:24:27.810
nc72185826,2014-03-15 19:24:17.410,40.74933333333333,-124.344,11.61,1.9,NC.KMPB..HHZ,P,1.0,2014-03-15 19:24:25.770
nc72185826,2014-03-15 19:24:17.410,40.74933333333333,-124.344,11.61,1.9,NC.KMR..HHZ,P,-1.0,2014-03-15 19:24:31.530
nc72185826,2014-03-15 19:24:17.410,40.74933333333333,-124.344,11.61,1.9,NC.KOM..EHZ,P,1.0,2014-03-15 19:24:33.450
nc72185826,2014-03-15 19:24:17.410,40.74933333333333,-124.344,11.61,1.9,NC.KPP..EHZ,P,1.0,2014-03-15 19:24:33.380
nc72185826,2014-03-15 19:24:17.410,40.74933333333333,-124.344,11.61,1.9,NC.KRMB..HHZ,P,,2014-03-15 19:24:33.530
nc72185826,2014-03-15 19:24:17.410,40.74933333333333,-124.344,11.61,1.9,NC.KRP..HHZ,P,-1.0,2014-03-15 19:24:27.800
nc72185826,2014-03-15 19:24:17.410,40.74933333333333,-124.344,11.61,1.9,NC.KSM..EHZ,P,1.0,2014-03-15 19:24:29.070
nc72185826,2014-03-15 19:24:17.410,40.74933333333333,-124.344,11.61,1.9,NC.KSXB..HHZ,P,1.0,2014-03-15 19:24:37.240
nc72185826,2014-03-15 19:24:17.410,40.74933333333333,-124.344,11.61,1.9,NC.LBK..EHZ,P,1.0,2014-03-15 19:24:40.200
nc72185826,2014-03-15 19:24:17.410,40.74933333333333,-124.344,11.61,1.9,NC.LGP..EHZ,P,1.0,2014-03-15 19:24:37.680
nc72185826,2014-03-15 19:24:17.410,40.74933333333333,-124.344,11.61,1.9,NC.LPK..EHZ,P,,2014-03-15 19:24:43.360
nc72185826,2014-03-15 19:24:17.410,40.74933333333333,-124.344,11.61,1.9,NC.LSH..EHZ,P,-1.0,2014-03-15 19:24:46.540
nc72185826,2014-03-15 19:24:17.410,40.74933333333333,-124.344,11.61,1.9,PB.B045..EHZ,P,1.0,2014-03-15 19:24:26.340
nc72185826,2014-03-15 19:24:17.410,40.74933333333333,-124.344,11.61,1.9,PB.B046..EHZ,P,-1.0,2014-03-15 19:24:26.760
nc72185826,2014-03-15 19:24:17.410,40.74933333333333,-124.344,11.61,1.9,PB.B047..EHZ,P,-1.0,2014-03-15 19:24:28.080
nc72185826,2014-03-15 19:24:17.410,40.74933333333333,-124.344,11.61,1.9,PB.B932..EHZ,P,-1.0,2014-03-15 19:24:27.430
nc72185826,2014-03-15 19:24:17.410,40.74933333333333,-124.344,11.61,1.9,PB.B933..EHZ,P,-1.0,2014-03-15 19:24:31.940
nc72185826,2014-03-15 19:24:17.410,40.74933333333333,-124.344,11.61,1.9,PB.B935..EHZ,P,1.0,2014-03-15 19:24:30.150
nc72186071,2014-03-16 06:07:17.550,40.236666666666665,-124.1595,10.61,1.83,BK.GASB..HHZ,P,1.0,2014-03-16 06:07:39.010
nc72186071,2014-03-16 06:07:17.550,40.236666666666665,-124.1595,10.61,1.83,BK.JCC..HHZ,P,-1.0,2014-03-16 06:07:29.470
nc72186071,2014-03-16 06:07:17.550,40.236666666666665,-124.1595,10.61,1.83,BK.WDC..HHZ,P,-1.0,2014-03-16 06:07:39.990
