event_id,etime,elat,elon,edep,emag,station_id,phase_type,phase_polarity,phase_time
nc71078979,2014-02-11 22:30:00.180,40.692,-124.31566666666667,6.8,1.66,NC.KCO..EHZ,P,1.0,2014-02-11 22:30:10.000
nc71078979,2014-02-11 22:30:00.180,40.692,-124.31566666666667,6.8,1.66,NC.KCT..HHZ,P,-1.0,2014-02-11 22:30:05.590
nc71078979,2014-02-11 22:30:00.180,40.692,-124.31566666666667,6.8,1.66,NC.KHBB..HHZ,P,-1.0,2014-02-11 22:30:15.990
nc71078979,2014-02-11 22:30:00.180,40.692,-124.31566666666667,6.8,1.66,NC.KHMB..HHZ,P,-1.0,2014-02-11 22:30:10.750
nc71078979,2014-02-11 22:30:00.180,40.692,-124.31566666666667,6.8,1.66,NC.KMPB..HHZ,P,1.0,2014-02-11 22:30:06.380
nc71078979,2014-02-11 22:30:00.180,40.692,-124.31566666666667,6.8,1.66,NC.KMR..HHZ,P,-1.0,2014-02-11 22:30:13.810
nc71078979,2014-02-11 22:30:00.180,40.692,-124.31566666666667,6.8,1.66,NC.KOM..EHZ,P,1.0,2014-02-11 22:30:17.020
nc71078979,2014-02-11 22:30:00.180,40.692,-124.31566666666667,6.8,1.66,NC.KRP..HHZ,P,-1.0,2014-02-11 22:30:11.160
nc71078979,2014-02-11 22:30:00.180,40.692,-124.31566666666667,6.8,1.66,NC.KSM..EHZ,P,1.0,2014-02-11 22:30:11.170
nc71078979,2014-02-11 22:30:00.180,40.692,-124.31566666666667,6.8,1.66,PB.B045..EHZ,P,-1.0,2014-02-11 22:30:08.160
nc71078979,2014-02-11 22:30:00.180,40.692,-124.31566666666667,6.8,1.66,PB.B046..EHZ,P,-1.0,2014-02-11 22:30:08.620
nc71078979,2014-02-11 22:30:00.180,40.692,-124.31566666666667,6.8,1.66,PB.B047..EHZ,P,,2014-02-11 22:30:10.050
nc71078979,2014-02-11 22:30:00.180,40.692,-124.31566666666667,6.8,1.66,PB.B049..EHZ,P,1.0,2014-02-11 22:30:12.430
nc71078979,2014-02-11 22:30:00.180,40.692,-124.31566666666667,6.8,1.66,PB.B933..EHZ,P,,2014-02-11 22:30:14.110
nc71078979,2014-02-11 22:30:00.180,40.692,-124.31566666666667,6.8,1.66,PB.B935..EHZ,P,,2014-02-11 22:30:12.650
nc71078984,2014-02-11 22:30:22.910,40.693333333333335,-124.31616666666666,8.22,1.74,BK.JCC..HHZ,P,-1.0,2014-02-11 22:30:28.410
nc71078984,2014-02-11 22:30:22.910,40.693333333333335,-124.31616666666666,8.22,1.74,NC.KCO..EHZ,P,1.0,2014-02-11 22:30:32.700
nc71078984,2014-02-11 22:30:22.910,40.693333333333335,-124.31616666666666,8.22,1.74,NC.KCT..HHZ,P,-1.0,2014-02-11 22:30:28.270
nc71078984,2014-02-11 22:30:22.910,40.693333333333335,-124.31616666666666,8.22,1.74,NC.KHBB..HHZ,P,1.0,2014-02-11 22:30:38.680
nc71078984,2014-02-11 22:30:22.910,40.693333333333335,-124.31616666666666,8.22,1.74,NC.KHMB..HHZ,P,1.0,2014-02-11 22:30:33.250
nc71078984,2014-02-11 22:30:22.910,40.693333333333335,-124.31616666666666,8.22,1.74,NC.KMPB..HHZ,P,-1.0,2014-02-11 22:30:30.210
nc71078984,2014-02-11 22:30:22.910,40.693333333333335,-124.31616666666666,8.22,1.74,NC.KMR..HHZ,P,1.0,2014-02-11 22:30:36.650
nc71078984,2014-02-11 22:30:22.910,40.693333333333335,-124.31616666666666,8.22,1.74,NC.KOM..EHZ,P,,2014-02-11 22:30:39.470
nc71078984,2014-02-11 22:30:22.910,40.693333333333335,-124.31616666666666,8.22,1.74,NC.KRP..HHZ,P,1.0,2014-02-11 22:30:33.970
nc71078984,2014-02-11 22:30:22.910,40.693333333333335,-124.31616666666666,8.22,1.74,NC.KSM..EHZ,P,-1.0,2014-02-11 22:30:33.920
nc71078984,2014-02-11 22:30:22.910,40.693333333333335,-124.31616666666666,8.22,1.74,PB.B045..EHZ,P,1.0,2014-02-11 22:30:31.080
nc71078984,2014-02-11 22:30:22.910,40.693333333333335,-124.31616666666666,8.22,1.74,PB.B046..EHZ,P,-1.0,2014-02-11 22:30:31.320
nc71078984,2014-02-11 22:30:22.910,40.693333333333335,-124.31616666666666,8.22,1.74,PB.B047..EHZ,P,1.0,2014-02-11 22:30:32.790
nc71078984,2014-02-11 22:30:22.910,40.693333333333335,-124.31616666666666,8.22,1.74,PB.B049..EHZ,P,1.0,2014-02-11 22:30:35.110
nc71078984,2014-02-11 22:30:22.910,40.693333333333335,-124.31616666666666,8.22,1.74,PB.B933..EHZ,P,,2014-02-11 22:30:36.880
nc71078984,2014-02-11 22:30:22.910,40.693333333333335,-124.31616666666666,8.22,1.74,PB.B935..EHZ,P,,2014-02-11 22:30:35.380
nc72171531,2014-02-20 20:58:25.520,40.143,-123.82866666666666,20.59,1.85,BK.GASB..HHZ,P,,2014-02-20 20:58:42.310
nc72171531,2014-02-20 20:58:25.520,40.143,-123.82866666666666,20.59,1.85,BK.JCC..HHZ,P,1.0,2014-02-20 20:58:37.960
nc72171531,2014-02-20 20:58:25.520,40.143,-123.82866666666666,20.59,1.85,BK.WDC..HHZ,P,,2014-02-20 20:58:43.480
nc72171531,2014-02-20 20:58:25.520,40.143,-123.82866666666666,20.59,1.85,NC.GRO..EHZ,P,1.0,2014-02-20 20:58:42.140
nc72171531,2014-02-20 20:58:25.520,40.143,-123.82866666666666,20.59,1.85,NC.GSS..EHZ,P,1.0,2014-02-20 20:58:49.450
nc72171531,2014-02-20 20:58:25.520,40.143,-123.82866666666666,20.59,1.85,NC.GVV..EHZ,P,-1.0,2014-02-20 20:58:43.110
nc72171531,2014-02-20 20:58:25.520,40.143,-123.82866666666666,20.59,1.85,NC.KBN..EHZ,P,-1.0,2014-02-20 20:58:36.850
nc72171531,2014-02-20 20:58:25.520,40.143,-123.82866666666666,20.59,1.85,NC.KBS..EHZ,P,-1.0,2014-02-20 20:58:32.420
nc72171531,2014-02-20 20:58:25.520,40.143,-123.82866666666666,20.59,1.85,NC.KCO..EHZ,P,1.0,2014-02-20 20:58:33.260
nc72171531,2014-02-20 20:58:25.520,40.143,-123.82866666666666,20.59,1.85,NC.KCPB..HHZ,P,1.0,2014-02-20 20:58:35.390
nc72171531,2014-02-20 20:58:25.520,40.143,-123.82866666666666,20.59,1.85,NC.KCR..EHZ,P,-1.0,2014-02-20 20:58:32.180
nc72171531,2014-02-20 20:58:25.520,40.143,-123.82866666666666,20.59,1.85,NC.KCT..HHZ,P,1.0,2014-02-20 20:58:36.450
nc72171531,2014-02-20 20:58:25.520,40.143,-123.82866666666666,20.59,1.85,NC.KFP..EHZ,P,-1.0,2014-02-20 20:58:36.810
nc72171531,2014-02-20 20:58:25.520,40.143,-123.82866666666666,20.59,1.85,NC.KHBB..HHZ,P,1.0,2014-02-20 20:58:38.570
nc72171531,2014-02-20 20:58:25.520,40.143,-123.82866666666666,20.59,1.85,NC.KHMB..HHZ,P,,2014-02-20 20:58:39.220
nc72171531,2014-02-20 20:58:25.520,40.143,-123.82866666666666,20.59,1.85,NC.KIP..EHZ,P,-1.0,2014-02-20 20:58:34.510
nc72171531,2014-02-20 20:58:25.520,40.143,-123.82866666666666,20.59,1.85,NC.KKP..EHZ,P,1.0,2014-02-20 20:58:32.510
nc72171531,2014-02-20 20:58:25.520,40.143,-123.82866666666666,20.59,1.85,NC.KMPB..HHZ,P,1.0,2014-02-20 20:58:33.530
nc72171531,2014-02-20 20:58:25.520,40.143,-123.82866666666666,20.59,1.85,NC.KMR..HHZ,P,-1.0,2014-02-20 20:58:30.200
nc72171531,2014-02-20 20:58:25.520,40.143,-123.82866666666666,20.59,1.85,NC.KPP..EHZ,P,1.0,2014-02-20 20:58:34.500
nc72171531,2014-02-20 20:58:25.520,40.143,-123.82866666666666,20.59,1.85,NC.KRP..HHZ,P,-1.0,2014-02-20 20:58:42.550
nc72171531,2014-02-20 20:58:25.520,40.143,-123.82866666666666,20.59,1.85,NC.KSM..EHZ,P,1.0,2014-02-20 20:58:31.990
nc72171531,2014-02-20 20:58:25.520,40.143,-123.82866666666666,20.59,1.85,NC.LBP..EHZ,P,1.0,2014-02-20 20:58:39.150
nc72171531,2014-02-20 20:58:25.520,40.143,-123.82866666666666,20.59,1.85,NC.LGP..EHZ,P,1.0,2014-02-20 20:58:43.580
nc72171531,2014-02-20 20:58:25.520,40.143,-123.82866666666666,20.59,1.85,NC.LPG..EHZ,P,1.0,2014-02-20 20:58:41.560
nc72171531,2014-02-20 20:58:25.520,40.143,-123.82866666666666,20.59,1.85,NC.LRB..EHZ,P,-1.0,2014-02-20 20:58:43.740
nc72171531,2014-02-20 20:58:25.520,40.143,-123.82866666666666,20.59,1.85,NC.LSF..EHZ,P,1.0,2014-02-20 20:58:44.610
nc72171531,2014-02-20 20:58:25.520,40.143,-123.82866666666666,20.59,1.85,NC.LSH..EHZ,P,1.0,2014-02-20 20:58:50.190
nc72171531,2014-02-20 20:58:25.520,40.143,-123.82866666666666,20.59,1.85,PB.B045..EHZ,P,1.0,2014-02-20 20:58:32.850
nc72171531,2014-02-20 20:58:25.520,40.143,-123.82866666666666,20.59,1.85,PB.B046..EHZ,P,1.0,2014-02-20 20:58:33.710
nc72171531,2014-02-20 20:58:25.520,40.143,-123.82866666666666,20.59,1.85,PB.B047..EHZ,P,1.0,2014-02-20 20:58:32.310
nc72171531,2014-02-20 20:58:25.520,40.143,-123.82866666666666,20.59,1.85,PB.B049..EHZ,P,-1.0,2014-02-20 20:58:29.820
nc72171531,2014-02-20 20:58:25.520,40.143,-123.82866666666666,20.59,1.85,PB.B933..EHZ,P,1.0,2014-02-20 20:58:30.330
nc72171531,2014-02-20 20:58:25.520,40.143,-123.82866666666666,20.59,1.85,PB.B935..EHZ,P,-1.0,2014-02-20 20:58:34.000
nc72171531,2014-02-20 20:58:25.520,40.143,-123.82866666666666,20.59,1.85,TA.N02D..HHZ,P,,2014-02-20 20:58:45.310
nc72171531,2014-02-20 20:58:25.520,40.143,-123.82866666666666,20.59,1.85,TA.O02D..HHZ,P,1.0,2014-02-20 20:58:40.310
nc72173106,2014-02-22 19:31:27.270,39.842,-123.13316666666667,-0.59,1.41,BK.GASB..HHZ,P,1.0,2014-02-22 19:31:34.970
nc72173106,2014-02-22 19:31:27.270,39.842,-123.13316666666667,-0.59,1.41,NC.GCK..EHZ,P,-1.0,2014-02-22 19:31:40.210
nc72173106,2014-02-22 19:31:27.270,39.842,-123.13316666666667,-0.59,1.41,NC.GHM..EHZ,P,-1.0,2014-02-22 19:31:35.120
nc72173106,2014-02-22 19:31:27.270,39.842,-123.13316666666667,-0.59,1.41,NC.GNA..EHZ,P,1.0,2014-02-22 19:31:42.600
nc72173106,2014-02-22 19:31:27.270,39.842,-123.13316666666667,-0.59,1.41,NC.GRO..EHZ,P,1.0,2014-02-22 19:31:34.920
nc72173106,2014-02-22 19:31:27.270,39.842,-123.13316666666667,-0.59,1.41,NC.GTC..EHZ,P,-1.0,2014-02-22 19:31:38.270
nc72173106,2014-02-22 19:31:27.270,39.842,-123.13316666666667,-0.59,1.41,NC.GVV..EHZ,P,-1.0,2014-02-22 19:31:34.760
nc72173106,2014-02-22 19:31:27.270,39.842,-123.13316666666667,-0.59,1.41,NC.KBN..EHZ,P,-1.0,2014-02-22 19:31:29.100
nc72173106,2014-02-22 19:31:27.270,39.842,-123.13316666666667,-0.59,1.41,NC.KBS..EHZ,P,-1.0,2014-02-22 19:31:34.960
nc72173106,2014-02-22 19:31:27.270,39.842,-123.13316666666667,-0.59,1.41,NC.KCPB..HHZ,P,1.0,2014-02-22 19:31:35.200
nc72173106,2014-02-22 19:31:27.270,39.842,-123.13316666666667,-0.59,1.41,NC.KFP..EHZ,P,1.0,2014-02-22 19:31:33.390
nc72173106,2014-02-22 19:31:27.270,39.842,-123.13316666666667,-0.59,1.41,NC.KIP..EHZ,P,1.0,2014-02-22 19:31:32.770
nc72173106,2014-02-22 19:31:27.270,39.842,-123.13316666666667,-0.59,1.41,NC.KKP..EHZ,P,,2014-02-22 19:31:36.330
nc72173106,2014-02-22 19:31:27.270,39.842,-123.13316666666667,-0.59,1.41,NC.KMR..HHZ,P,1.0,2014-02-22 19:31:39.800
nc72173106,2014-02-22 19:31:27.270,39.842,-123.13316666666667,-0.59,1.41,NC.KPP..EHZ,P,1.0,2014-02-22 19:31:38.530
nc72173106,2014-02-22 19:31:27.270,39.842,-123.13316666666667,-0.59,1.41,NC.KRK..EHZ,P,-1.0,2014-02-22 19:31:33.260
nc72173106,2014-02-22 19:31:27.270,39.842,-123.13316666666667,-0.59,1.41,NC.LBP..EHZ,P,,2014-02-22 19:31:37.960
nc72173106,2014-02-22 19:31:27.270,39.842,-123.13316666666667,-0.59,1.41,NC.LPG..EHZ,P,1.0,2014-02-22 19:31:36.970
nc72173106,2014-02-22 19:31:27.270,39.842,-123.13316666666667,-0.59,1.41,NC.LRB..EHZ,P,,2014-02-22 19:31:38.610
nc72173106,2014-02-22 19:31:27.270,39.842,-123.13316666666667,-0.59,1.41,NC.LVR..EHZ,P,1.0,2014-02-22 19:31:36.120
nc72173106,2014-02-22 19:31:27.270,39.842,-123.13316666666667,-0.59,1.41,PB.B049..EHZ,P,,2014-02-22 19:31:41.410
nc72173306,2014-02-23 02:42:26.490,39.83416666666667,-123.13316666666667,0.62,1.43,BK.GASB..HHZ,P,-1.0,2014-02-23 02:42:34.050
nc72173306,2014-02-23 02:42:26.490,39.83416666666667,-123.13316666666667,0.62,1.43,BK.WDC..HHZ,P,-1.0,2014-02-23 02:42:43.540
nc72173306,2014-02-23 02:42:26.490,39.83416666666667,-123.13316666666667,0.62,1.43,NC.GCK..EHZ,P,1.0,2014-02-23 02:42:39.380
nc72173306,2014-02-23 02:42:26.490,39.83416666666667,-123.13316666666667,0.62,1.43,NC.GHL..EHZ,P,,2014-02-23 02:42:42.560
nc72173306,2014-02-23 02:42:26.490,39.83416666666667,-123.13316666666667,0.62,1.43,NC.GHM..EHZ,P,1.0,2014-02-23 02:42:34.230
nc72173306,2014-02-23 02:42:26.490,39.83416666666667,-123.13316666666667,0.62,1.43,NC.GNA..EHZ,P,1.0,2014-02-23 02:42:41.710
nc72173306,2014-02-23 02:42:26.490,39.83416666666667,-123.13316666666667,0.62,1.43,NC.GRO..EHZ,P,1.0,2014-02-23 02:42:34.160
nc72173306,2014-02-23 02:42:26.490,39.83416666666667,-123.13316666666667,0.62,1.43,NC.GTC..EHZ,P,1.0,2014-02-23 02:42:37.540
nc72173306,2014-02-23 02:42:26.490,39.83416666666667,-123.13316666666667,0.62,1.43,NC.GTS..EHZ,P,-1.0,2014-02-23 02:42:39.770
nc72173306,2014-02-23 02:42:26.490,39.83416666666667,-123.13316666666667,0.62,1.43,NC.GVV..EHZ,P,1.0,2014-02-23 02:42:33.930
nc72173306,2014-02-23 02:42:26.490,39.83416666666667,-123.13316666666667,0.62,1.43,NC.KBN..EHZ,P,-1.0,2014-02-23 02:42:28.380
nc72173306,2014-02-23 02:42:26.490,39.83416666666667,-123.13316666666667,0.62,1.43,NC.KBS..EHZ,P,1.0,2014-02-23 02:42:34.140
nc72173306,2014-02-23 02:42:26.490,39.83416666666667,-123.13316666666667,0.62,1.43,NC.KCPB..HHZ,P,1.0,2014-02-23 02:42:34.470
nc72173306,2014-02-23 02:42:26.490,39.83416666666667,-123.13316666666667,0.62,1.43,NC.KFP..EHZ,P,1.0,2014-02-23 02:42:32.710
nc72173306,2014-02-23 02:42:26.490,39.83416666666667,-123.13316666666667,0.62,1.43,NC.KIP..EHZ,P,1.0,2014-02-23 02:42:32.030
nc72173306,2014-02-23 02:42:26.490,39.83416666666667,-123.13316666666667,0.62,1.43,NC.KKP..EHZ,P,1.0,2014-02-23 02:42:35.720
nc72173306,2014-02-23 02:42:26.490,39.83416666666667,-123.13316666666667,0.62,1.43,NC.KPP..EHZ,P,-1.0,2014-02-23 02:42:37.800
nc72173306,2014-02-23 02:42:26.490,39.83416666666667,-123.13316666666667,0.62,1.43,NC.KSM..EHZ,P,,2014-02-23 02:42:44.120
nc72173306,2014-02-23 02:42:26.490,39.83416666666667,-123.13316666666667,0.62,1.43,NC.LBP..EHZ,P,-1.0,2014-02-23 02:42:37.210
nc72173306,2014-02-23 02:42:26.490,39.83416666666667,-123.13316666666667,0.62,1.43,NC.LPG..EHZ,P,1.0,2014-02-23 02:42:36.230
nc72173306,2014-02-23 02:42:26.490,39.83416666666667,-123.13316666666667,0.62,1.43,NC.LRB..EHZ,P,1.0,2014-02-23 02:42:38.130
nc72173306,2014-02-23 02:42:26.490,39.83416666666667,-123.13316666666667,0.62,1.43,NC.LVR..EHZ,P,1.0,2014-02-23 02:42:34.950
nc72173306,2014-02-23 02:42:26.490,39.83416666666667,-123.13316666666667,0.62,1.43,PB.B047..EHZ,P,-1.0,2014-02-23 02:42:44.300
nc72173306,2014-02-23 02:42:26.490,39.83416666666667,-123.13316666666667,0.62,1.43,PB.B049..EHZ,P,-1.0,2014-02-23 02:42:40.290
nc72173306,2014-02-23 02:42:26.490,39.83416666666667,-123.13316666666667,0.62,1.43,PB.B933..EHZ,P,1.0,2014-02-23 02:42:40.390
nc72173306,2014-02-23 02:42:26.490,39.83416666666667,-123.13316666666667,0.62,1.43,PB.B935..EHZ,P,1.0,2014-02-23 02:42:41.490
nc72173306,2014-02-23 02:42:26.490,39.83416666666667,-123.13316666666667,0.62,1.43,TA.O02D..HHZ,P,1.0,2014-02-23 02:42:35.560
nc72173401,2014-02-23 05:54:06.530,40.527166666666666,-123.32433333333333,28.02,1.78,BK.WDC..HHZ,P,-1.0,2014-02-23 05:54:17.550
nc72173401,2014-02-23 05:54:06.530,40.527166666666666,-123.32433333333333,28.02,1.78,NC.KBN..EHZ,P,1.0,2014-02-23 05:54:18.980
nc72173401,2014-02-23 05:54:06.530,40.527166666666666,-123.32433333333333,28.02,1.78,NC.KBS..EHZ,P,1.0,2014-02-23 05:54:18.930
nc72173401,2014-02-23 05:54:06.530,40.527166666666666,-123.32433333333333,28.02,1.78,NC.KCR..EHZ,P,-1.0,2014-02-23 05:54:15.160
nc72173401,2014-02-23 05:54:06.530,40.527166666666666,-123.32433333333333,28.02,1.78,NC.KCS..EHZ,P,1.0,2014-02-23 05:54:12.470
nc72173401,2014-02-23 05:54:06.530,40.527166666666666,-123.32433333333333,28.02,1.78,NC.KHBB..HHZ,P,1.0,2014-02-23 05:54:12.230
nc72173401,2014-02-23 05:54:06.530,40.527166666666666,-123.32433333333333,28.02,1.78,NC.KHMB..HHZ,P,1.0,2014-02-23 05:54:16.150
nc72173401,2014-02-23 05:54:06.530,40.527166666666666,-123.32433333333333,28.02,1.78,NC.KIP..EHZ,P,-1.0,2014-02-23 05:54:19.820
nc72173401,2014-02-23 05:54:06.530,40.527166666666666,-123.32433333333333,28.02,1.78,NC.KKP..EHZ,P,1.0,2014-02-23 05:54:15.800
nc72173401,2014-02-23 05:54:06.530,40.527166666666666,-123.32433333333333,28.02,1.78,NC.KOM..EHZ,P,-1.0,2014-02-23 05:54:19.990
nc72173401,2014-02-23 05:54:06.530,40.527166666666666,-123.32433333333333,28.02,1.78,NC.KPP..EHZ,P,1.0,2014-02-23 05:54:12.840
nc72173401,2014-02-23 05:54:06.530,40.527166666666666,-123.32433333333333,28.02,1.78,NC.LBP..EHZ,P,1.0,2014-02-23 05:54:15.130
nc72173401,2014-02-23 05:54:06.530,40.527166666666666,-123.32433333333333,28.02,1.78,NC.LGP..EHZ,P,-1.0,2014-02-23 05:54:16.920
nc72173401,2014-02-23 05:54:06.530,40.527166666666666,-123.32433333333333,28.02,1.78,NC.LPG..EHZ,P,1.0,2014-02-23 05:54:18.440
nc72173401,2014-02-23 05:54:06.530,40.527166666666666,-123.32433333333333,28.02,1.78,NC.LVR..EHZ,P,1.0,2014-02-23 05:54:19.720
nc72173401,2014-02-23 05:54:06.530,40.527166666666666,-123.32433333333333,28.02,1.78,PB.B045..EHZ,P,-1.0,2014-02-23 05:54:16.640
nc72173401,2014-02-23 05:54:06.530,40.527166666666666,-123.32433333333333,28.02,1.78,PB.B049..EHZ,P,-1.0,2014-02-23 05:54:16.050
nc72173401,2014-02-23 05:54:06.530,40.527166666666666,-123.32433333333333,28.02,1.78,PB.B935..EHZ,P,1.0,2014-02-23 05:54:12.720
nc72173401,2014-02-23 05:54:06.530,40.527166666666666,-123.32433333333333,28.02,1.78,TA.M02C..HHZ,P,,2014-02-23 05:54:22.700
nc72173401,2014-02-23 05:54:06.530,40.527166666666666,-123.32433333333333,28.02,1.78,TA.N02D..HHZ,P,-1.0,2014-02-23 05:54:18.600
nc72173401,2014-02-23 05:54:06.530,40.527166666666666,-123.32433333333333,28.02,1.78,TA.O02D..HHZ,P,1.0,2014-02-23 05:54:17.090
nc72174371,2014-02-25 02:01:54.830,40.556666666666665,-124.212,10.15,1.59,BK.JCC..HHZ,P,-1.0,2014-02-25 02:02:01.390
nc72174371,2014-02-25 02:01:54.830,40.556666666666665,-124.212,10.15,1.59,NC.KBS..EHZ,P,1.0,2014-02-25 02:02:10.630
nc72174371,2014-02-25 02:01:54.830,40.556666666666665,-124.212,10.15,1.59,NC.KCO..EHZ,P,-1.0,2014-02-25 02:02:01.730
nc72174371,2014-02-25 02:01:54.830,40.556666666666665,-124.212,10.15,1.59,NC.KCPB..HHZ,P,-1.0,2014-02-25 02:02:12.670
nc72174371,2014-02-25 02:01:54.830,40.556666666666665,-124.212,10.15,1.59,NC.KCR..EHZ,P,1.0,2014-02-25 02:02:01.790
nc72174371,2014-02-25 02:01:54.830,40.556666666666665,-124.212,10.15,1.59,NC.KCS..EHZ,P,,2014-02-25 02:02:06.420
nc72174371,2014-02-25 02:01:54.830,40.556666666666665,-124.212,10.15,1.59,NC.KCT..HHZ,P,-1.0,2014-02-25 02:01:58.570
nc72174371,2014-02-25 02:01:54.830,40.556666666666665,-124.212,10.15,1.59,NC.KHMB..HHZ,P,,2014-02-25 02:02:05.410
nc72174371,2014-02-25 02:01:54.830,40.556666666666665,-124.212,10.15,1.59,NC.KIP..EHZ,P,1.0,2014-02-25 02:02:12.410
nc72174371,2014-02-25 02:01:54.830,40.556666666666665,-124.212,10.15,1.59,NC.KKP..EHZ,P,,2014-02-25 02:02:01.780
nc72174371,2014-02-25 02:01:54.830,40.556666666666665,-124.212,10.15,1.59,NC.KMPB..HHZ,P,-1.0,2014-02-25 02:01:58.830
nc72174371,2014-02-25 02:01:54.830,40.556666666666665,-124.212,10.15,1.59,NC.KMR..HHZ,P,1.0,2014-02-25 02:02:05.930
nc72174371,2014-02-25 02:01:54.830,40.556666666666665,-124.212,10.15,1.59,NC.KRP..HHZ,P,,2014-02-25 02:02:07.250
nc72174371,2014-02-25 02:01:54.830,40.556666666666665,-124.212,10.15,1.59,NC.KSM..EHZ,P,-1.0,2014-02-25 02:02:02.990
nc72174371,2014-02-25 02:01:54.830,40.556666666666665,-124.212,10.15,1.59,PB.B045..EHZ,P,-1.0,2014-02-25 02:01:59.680
nc72174371,2014-02-25 02:01:54.830,40.556666666666665,-124.212,10.15,1.59,PB.B046..EHZ,P,-1.0,2014-02-25 02:02:00.510
nc72174371,2014-02-25 02:01:54.830,40.556666666666665,-124.212,10.15,1.59,PB.B047..EHZ,P,-1.0,2014-02-25 02:02:01.640
nc72174371,2014-02-25 02:01:54.830,40.556666666666665,-124.212,10.15,1.59,PB.B049..EHZ,P,-1.0,2014-02-25 02:02:03.990
nc72174371,2014-02-25 02:01:54.830,40.556666666666665,-124.212,10.15,1.59,PB.B933..EHZ,P,-1.0,2014-02-25 02:02:05.930
nc72174371,2014-02-25 02:01:54.830,40.556666666666665,-124.212,10.15,1.59,PB.B935..EHZ,P,1.0,2014-02-25 02:02:05.520
nc72175591,2014-02-26 18:23:55.070,41.331,-123.50283333333333,33.81,2.51,BK.HUMO..HHZ,P,1.0,2014-02-26 18:24:19.110
nc72175591,2014-02-26 18:23:55.070,41.331,-123.50283333333333,33.81,2.51,BK.JCC..HHZ,P,1.0,2014-02-26 18:24:07.280
nc72175591,2014-02-26 18:23:55.070,41.331,-123.50283333333333,33.81,2.51,BK.WDC..HHZ,P,1.0,2014-02-26 18:24:14.240
nc72175591,2014-02-26 18:23:55.070,41.331,-123.50283333333333,33.81,2.51,BK.YBH..HHZ,P,-1.0,2014-02-26 18:24:08.800
nc72175591,2014-02-26 18:23:55.070,41.331,-123.50283333333333,33.81,2.51,NC.KHBB..HHZ,P,-1.0,2014-02-26 18:24:08.960
nc72175591,2014-02-26 18:23:55.070,41.331,-123.50283333333333,33.81,2.51,NC.KHMB..HHZ,P,1.0,2014-02-26 18:24:05.730
nc72175591,2014-02-26 18:23:55.070,41.331,-123.50283333333333,33.81,2.51,NC.KOM..EHZ,P,1.0,2014-02-26 18:24:00.950
nc72175591,2014-02-26 18:23:55.070,41.331,-123.50283333333333,33.81,2.51,NC.KRMB..HHZ,P,-1.0,2014-02-26 18:24:03.690
nc72175591,2014-02-26 18:23:55.070,41.331,-123.50283333333333,33.81,2.51,NC.KRP..HHZ,P,1.0,2014-02-26 18:24:04.790
nc72175591,2014-02-26 18:23:55.070,41.331,-123.50283333333333,33.81,2.51,NC.KSXB..HHZ,P,1.0,2014-02-26 18:24:06.720
