event_id,etime,elat,elon,edep,emag,station_id,phase_type,phase_polarity,phase_time
nc72177626,2014-03-02 03:01:25.420,40.31,-124.49266666666666,6.53,2.96,PB.B933..EHZ,P,-1.0,2014-03-02 03:01:35.190
nc72177626,2014-03-02 03:01:25.420,40.31,-124.49266666666666,6.53,2.96,PB.B934..EHZ,P,-1.0,2014-03-02 03:01:40.650
nc72177626,2014-03-02 03:01:25.420,40.31,-124.49266666666666,6.53,2.96,PB.B935..EHZ,P,1.0,2014-03-02 03:01:40.270
nc72177626,2014-03-02 03:01:25.420,40.31,-124.49266666666666,6.53,2.96,TA.L04D..HHZ,P,-1.0,2014-03-02 03:02:07.350
nc72177626,2014-03-02 03:01:25.420,40.31,-124.49266666666666,6.53,2.96,TA.M02C..HHZ,P,-1.0,2014-03-02 03:01:53.460
nc72177626,2014-03-02 03:01:25.420,40.31,-124.49266666666666,6.53,2.96,TA.M04C..HHZ,P,-1.0,2014-03-02 03:02:05.980
nc72177626,2014-03-02 03:01:25.420,40.31,-124.49266666666666,6.53,2.96,TA.N02D..HHZ,P,-1.0,2014-03-02 03:01:51.240
nc72177626,2014-03-02 03:01:25.420,40.31,-124.49266666666666,6.53,2.96,TA.O02D..HHZ,P,-1.0,2014-03-02 03:01:49.050
nc72177626,2014-03-02 03:01:25.420,40.31,-124.49266666666666,6.53,2.96,TA.O03E..HHZ,P,1.0,2014-03-02 03:01:59.050
nc72177681,2014-03-02 04:50:09.990,40.79416666666667,-123.75916666666667,-0.92,2.09,BK.JCC..HHZ,P,-1.0,2014-03-02 04:50:14.800
nc72177681,2014-03-02 04:50:09.990,40.79416666666667,-123.75916666666667,-0.92,2.09,BK.WDC..HHZ,P,1.0,2014-03-02 04:50:29.000
nc72177681,2014-03-02 04:50:09.990,40.79416666666667,-123.75916666666667,-0.92,2.09,NC.KBS..EHZ,P,,2014-03-02 04:50:29.130
nc72177681,2014-03-02 04:50:09.990,40.79416666666667,-123.75916666666667,-0.92,2.09,NC.KCO..EHZ,P,1.0,2014-03-02 04:50:24.970
nc72177681,2014-03-02 04:50:09.990,40.79416666666667,-123.75916666666667,-0.92,2.09,NC.KCR..EHZ,P,1.0,2014-03-02 04:50:19.120
nc72177681,2014-03-02 04:50:09.990,40.79416666666667,-123.75916666666667,-0.92,2.09,NC.KCS..EHZ,P,-1.0,2014-03-02 04:50:18.160
nc72177681,2014-03-02 04:50:09.990,40.79416666666667,-123.75916666666667,-0.92,2.09,NC.KCT..HHZ,P,-1.0,2014-03-02 04:50:22.750
nc72177681,2014-03-02 04:50:09.990,40.79416666666667,-123.75916666666667,-0.92,2.09,NC.KHBB..HHZ,P,1.0,2014-03-02 04:50:19.330
nc72177681,2014-03-02 04:50:09.990,40.79416666666667,-123.75916666666667,-0.92,2.09,NC.KHMB..HHZ,P,-1.0,2014-03-02 04:50:12.710
nc72177681,2014-03-02 04:50:09.990,40.79416666666667,-123.75916666666667,-0.92,2.09,NC.KKP..EHZ,P,1.0,2014-03-02 04:50:25.900
nc72177681,2014-03-02 04:50:09.990,40.79416666666667,-123.75916666666667,-0.92,2.09,NC.KMPB..HHZ,P,-1.0,2014-03-02 04:50:20.890
nc72177681,2014-03-02 04:50:09.990,40.79416666666667,-123.75916666666667,-0.92,2.09,NC.KMR..HHZ,P,-1.0,2014-03-02 04:50:23.730
nc72177681,2014-03-02 04:50:09.990,40.79416666666667,-123.75916666666667,-0.92,2.09,NC.KOM..EHZ,P,-1.0,2014-03-02 04:50:20.890
nc72177681,2014-03-02 04:50:09.990,40.79416666666667,-123.75916666666667,-0.92,2.09,NC.KRMB..HHZ,P,1.0,2014-03-02 04:50:24.950
nc72177681,2014-03-02 04:50:09.990,40.79416666666667,-123.75916666666667,-0.92,2.09,NC.KRP..HHZ,P,1.0,2014-03-02 04:50:19.370
nc72177681,2014-03-02 04:50:09.990,40.79416666666667,-123.75916666666667,-0.92,2.09,NC.KSM..EHZ,P,-1.0,2014-03-02 04:50:25.490
nc72177681,2014-03-02 04:50:09.990,40.79416666666667,-123.75916666666667,-0.92,2.09,NC.KSXB..HHZ,P,-1.0,2014-03-02 04:50:30.310
nc72177681,2014-03-02 04:50:09.990,40.79416666666667,-123.75916666666667,-0.92,2.09,NC.KTR..EHZ,P,,2014-03-02 04:50:32.230
nc72177681,2014-03-02 04:50:09.990,40.79416666666667,-123.75916666666667,-0.92,2.09,NC.LAMB..EHZ,P,,2014-03-02 04:50:32.160
nc72177681,2014-03-02 04:50:09.990,40.79416666666667,-123.75916666666667,-0.92,2.09,NC.LBF..EHZ,P,,2014-03-02 04:50:37.150
nc72177681,2014-03-02 04:50:09.990,40.79416666666667,-123.75916666666667,-0.92,2.09,NC.LBK..EHZ,P,1.0,2014-03-02 04:50:26.880
nc72177681,2014-03-02 04:50:09.990,40.79416666666667,-123.75916666666667,-0.92,2.09,NC.LBO..EHZ,P,1.0,2014-03-02 04:50:36.050
nc72177681,2014-03-02 04:50:09.990,40.79416666666667,-123.75916666666667,-0.92,2.09,NC.LBP..EHZ,P,-1.0,2014-03-02 04:50:27.240
nc72177681,2014-03-02 04:50:09.990,40.79416666666667,-123.75916666666667,-0.92,2.09,NC.LGP..EHZ,P,1.0,2014-03-02 04:50:23.930
nc72177681,2014-03-02 04:50:09.990,40.79416666666667,-123.75916666666667,-0.92,2.09,NC.LSR..EHZ,P,-1.0,2014-03-02 04:50:32.430
nc72177681,2014-03-02 04:50:09.990,40.79416666666667,-123.75916666666667,-0.92,2.09,PB.B040..EHZ,P,1.0,2014-03-02 04:50:37.220
nc72177681,2014-03-02 04:50:09.990,40.79416666666667,-123.75916666666667,-0.92,2.09,PB.B045..EHZ,P,-1.0,2014-03-02 04:50:19.590
nc72177681,2014-03-02 04:50:09.990,40.79416666666667,-123.75916666666667,-0.92,2.09,PB.B046..EHZ,P,-1.0,2014-03-02 04:50:23.990
nc72177681,2014-03-02 04:50:09.990,40.79416666666667,-123.75916666666667,-0.92,2.09,PB.B047..EHZ,P,-1.0,2014-03-02 04:50:24.150
nc72177681,2014-03-02 04:50:09.990,40.79416666666667,-123.75916666666667,-0.92,2.09,PB.B049..EHZ,P,1.0,2014-03-02 04:50:22.780
nc72177681,2014-03-02 04:50:09.990,40.79416666666667,-123.75916666666667,-0.92,2.09,PB.B933..EHZ,P,-1.0,2014-03-02 04:50:26.630
nc72177681,2014-03-02 04:50:09.990,40.79416666666667,-123.75916666666667,-0.92,2.09,PB.B935..EHZ,P,,2014-03-02 04:50:18.330
nc72177681,2014-03-02 04:50:09.990,40.79416666666667,-123.75916666666667,-0.92,2.09,TA.M02C..HHZ,P,-1.0,2014-03-02 04:50:27.410
nc72177681,2014-03-02 04:50:09.990,40.79416666666667,-123.75916666666667,-0.92,2.09,TA.N02D..HHZ,P,1.0,2014-03-02 04:50:25.730
nc72177681,2014-03-02 04:50:09.990,40.79416666666667,-123.75916666666667,-0.92,2.09,TA.O02D..HHZ,P,-1.0,2014-03-02 04:50:29.740
nc72178546,2014-03-03 21:05:04.300,40.583666666666666,-124.08533333333334,17.0,2.29,BK.JCC..HHZ,P,-1.0,2014-03-03 21:05:09.910
nc72178546,2014-03-03 21:05:04.300,40.583666666666666,-124.08533333333334,17.0,2.29,NC.KBS..EHZ,P,,2014-03-03 21:05:18.910
nc72178546,2014-03-03 21:05:04.300,40.583666666666666,-124.08533333333334,17.0,2.29,NC.KCO..EHZ,P,-1.0,2014-03-03 21:05:12.130
nc72178546,2014-03-03 21:05:04.300,40.583666666666666,-124.08533333333334,17.0,2.29,NC.KCR..EHZ,P,1.0,2014-03-03 21:05:10.600
nc72178546,2014-03-03 21:05:04.300,40.583666666666666,-124.08533333333334,17.0,2.29,NC.KCS..EHZ,P,1.0,2014-03-03 21:05:13.900
nc72178546,2014-03-03 21:05:04.300,40.583666666666666,-124.08533333333334,17.0,2.29,NC.KCT..HHZ,P,1.0,2014-03-03 21:05:09.990
nc72178546,2014-03-03 21:05:04.300,40.583666666666666,-124.08533333333334,17.0,2.29,NC.KHBB..HHZ,P,1.0,2014-03-03 21:05:16.980
nc72178546,2014-03-03 21:05:04.300,40.583666666666666,-124.08533333333334,17.0,2.29,NC.KHMB..HHZ,P,-1.0,2014-03-03 21:05:13.230
nc72178546,2014-03-03 21:05:04.300,40.583666666666666,-124.08533333333334,17.0,2.29,NC.KKP..EHZ,P,1.0,2014-03-03 21:05:17.190
nc72178546,2014-03-03 21:05:04.300,40.583666666666666,-124.08533333333334,17.0,2.29,NC.KMPB..HHZ,P,1.0,2014-03-03 21:05:09.140
nc72178546,2014-03-03 21:05:04.300,40.583666666666666,-124.08533333333334,17.0,2.29,NC.KMR..HHZ,P,-1.0,2014-03-03 21:05:14.480
nc72178546,2014-03-03 21:05:04.300,40.583666666666666,-124.08533333333334,17.0,2.29,NC.KOM..EHZ,P,1.0,2014-03-03 21:05:19.450
nc72178546,2014-03-03 21:05:04.300,40.583666666666666,-124.08533333333334,17.0,2.29,NC.KRP..HHZ,P,,2014-03-03 21:05:15.540
nc72178546,2014-03-03 21:05:04.300,40.583666666666666,-124.08533333333334,17.0,2.29,NC.LBK..EHZ,P,-1.0,2014-03-03 21:05:24.730
nc72178546,2014-03-03 21:05:04.300,40.583666666666666,-124.08533333333334,17.0,2.29,NC.LBP..EHZ,P,-1.0,2014-03-03 21:05:21.220
nc72178546,2014-03-03 21:05:04.300,40.583666666666666,-124.08533333333334,17.0,2.29,NC.LGP..EHZ,P,1.0,2014-03-03 21:05:21.970
nc72178546,2014-03-03 21:05:04.300,40.583666666666666,-124.08533333333334,17.0,2.29,NC.LSR..EHZ,P,-1.0,2014-03-03 21:05:29.310
nc72178546,2014-03-03 21:05:04.300,40.583666666666666,-124.08533333333334,17.0,2.29,PB.B045..EHZ,P,-1.0,2014-03-03 21:05:09.110
nc72178546,2014-03-03 21:05:04.300,40.583666666666666,-124.08533333333334,17.0,2.29,PB.B046..EHZ,P,-1.0,2014-03-03 21:05:11.200
nc72178546,2014-03-03 21:05:04.300,40.583666666666666,-124.08533333333334,17.0,2.29,PB.B047..EHZ,P,-1.0,2014-03-03 21:05:11.790
nc72178546,2014-03-03 21:05:04.300,40.583666666666666,-124.08533333333334,17.0,2.29,PB.B049..EHZ,P,-1.0,2014-03-03 21:05:12.820
nc72178546,2014-03-03 21:05:04.300,40.583666666666666,-124.08533333333334,17.0,2.29,PB.B933..EHZ,P,1.0,2014-03-03 21:05:14.970
nc72178546,2014-03-03 21:05:04.300,40.583666666666666,-124.08533333333334,17.0,2.29,PB.B935..EHZ,P,-1.0,2014-03-03 21:05:13.030
nc72178546,2014-03-03 21:05:04.300,40.583666666666666,-124.08533333333334,17.0,2.29,TA.N02D..HHZ,P,-1.0,2014-03-03 21:05:23.520
nc72181106,2014-03-08 19:53:41.110,39.82866666666666,-123.13033333333334,1.79,1.46,BK.GASB..HHZ,P,-1.0,2014-03-08 19:53:48.690
nc72181106,2014-03-08 19:53:41.110,39.82866666666666,-123.13033333333334,1.79,1.46,BK.HOPS..HHZ,P,,2014-03-08 19:53:58.140
nc72181106,2014-03-08 19:53:41.110,39.82866666666666,-123.13033333333334,1.79,1.46,NC.GBB..EHZ,P,,2014-03-08 19:53:54.480
nc72181106,2014-03-08 19:53:41.110,39.82866666666666,-123.13033333333334,1.79,1.46,NC.GCK..EHZ,P,1.0,2014-03-08 19:53:53.890
nc72181106,2014-03-08 19:53:41.110,39.82866666666666,-123.13033333333334,1.79,1.46,NC.GHL..EHZ,P,,2014-03-08 19:53:57.030
nc72181106,2014-03-08 19:53:41.110,39.82866666666666,-123.13033333333334,1.79,1.46,NC.GHM..EHZ,P,-1.0,2014-03-08 19:53:48.860
nc72181106,2014-03-08 19:53:41.110,39.82866666666666,-123.13033333333334,1.79,1.46,NC.GNA..EHZ,P,1.0,2014-03-08 19:53:56.430
nc72181106,2014-03-08 19:53:41.110,39.82866666666666,-123.13033333333334,1.79,1.46,NC.GRO..EHZ,P,1.0,2014-03-08 19:53:48.700
nc72181106,2014-03-08 19:53:41.110,39.82866666666666,-123.13033333333334,1.79,1.46,NC.GSN..EHZ,P,-1.0,2014-03-08 19:53:59.820
nc72181106,2014-03-08 19:53:41.110,39.82866666666666,-123.13033333333334,1.79,1.46,NC.GTC..EHZ,P,-1.0,2014-03-08 19:53:52.020
nc72181106,2014-03-08 19:53:41.110,39.82866666666666,-123.13033333333334,1.79,1.46,NC.GTS..EHZ,P,-1.0,2014-03-08 19:53:54.340
nc72181106,2014-03-08 19:53:41.110,39.82866666666666,-123.13033333333334,1.79,1.46,NC.GVV..EHZ,P,1.0,2014-03-08 19:53:48.460
nc72181106,2014-03-08 19:53:41.110,39.82866666666666,-123.13033333333334,1.79,1.46,NC.KBN..EHZ,P,-1.0,2014-03-08 19:53:42.960
nc72181106,2014-03-08 19:53:41.110,39.82866666666666,-123.13033333333334,1.79,1.46,NC.KBS..EHZ,P,-1.0,2014-03-08 19:53:48.790
nc72181106,2014-03-08 19:53:41.110,39.82866666666666,-123.13033333333334,1.79,1.46,NC.KCPB..HHZ,P,-1.0,2014-03-08 19:53:49.010
nc72181106,2014-03-08 19:53:41.110,39.82866666666666,-123.13033333333334,1.79,1.46,NC.KFP..EHZ,P,1.0,2014-03-08 19:53:47.070
nc72181106,2014-03-08 19:53:41.110,39.82866666666666,-123.13033333333334,1.79,1.46,NC.KIP..EHZ,P,1.0,2014-03-08 19:53:46.610
nc72181106,2014-03-08 19:53:41.110,39.82866666666666,-123.13033333333334,1.79,1.46,NC.KKP..EHZ,P,,2014-03-08 19:53:49.990
nc72181106,2014-03-08 19:53:41.110,39.82866666666666,-123.13033333333334,1.79,1.46,NC.KMR..HHZ,P,-1.0,2014-03-08 19:53:53.250
nc72181106,2014-03-08 19:53:41.110,39.82866666666666,-123.13033333333334,1.79,1.46,NC.LBP..EHZ,P,-1.0,2014-03-08 19:53:51.630
nc72181106,2014-03-08 19:53:41.110,39.82866666666666,-123.13033333333334,1.79,1.46,NC.LPG..EHZ,P,-1.0,2014-03-08 19:53:50.780
nc72181106,2014-03-08 19:53:41.110,39.82866666666666,-123.13033333333334,1.79,1.46,NC.LVR..EHZ,P,-1.0,2014-03-08 19:53:49.640
nc72181106,2014-03-08 19:53:41.110,39.82866666666666,-123.13033333333334,1.79,1.46,PB.B047..EHZ,P,,2014-03-08 19:54:00.280
nc72181106,2014-03-08 19:53:41.110,39.82866666666666,-123.13033333333334,1.79,1.46,TA.O02D..HHZ,P,1.0,2014-03-08 19:53:50.080
nc72181456,2014-03-09 06:59:34.370,40.44866666666667,-123.574,5.98,1.62,BK.JCC..HHZ,P,-1.0,2014-03-09 06:59:45.500
nc72181456,2014-03-09 06:59:34.370,40.44866666666667,-123.574,5.98,1.62,NC.KCR..EHZ,P,-1.0,2014-03-09 06:59:39.020
nc72181456,2014-03-09 06:59:34.370,40.44866666666667,-123.574,5.98,1.62,NC.KCS..EHZ,P,-1.0,2014-03-09 06:59:37.470
nc72181456,2014-03-09 06:59:34.370,40.44866666666667,-123.574,5.98,1.62,NC.KHBB..HHZ,P,-1.0,2014-03-09 06:59:41.750
nc72181456,2014-03-09 06:59:34.370,40.44866666666667,-123.574,5.98,1.62,NC.KKP..EHZ,P,1.0,2014-03-09 06:59:42.200
nc72181456,2014-03-09 06:59:34.370,40.44866666666667,-123.574,5.98,1.62,NC.KMR..HHZ,P,-1.0,2014-03-09 06:59:40.790
nc72181456,2014-03-09 06:59:34.370,40.44866666666667,-123.574,5.98,1.62,NC.KPP..EHZ,P,1.0,2014-03-09 06:59:39.430
nc72181456,2014-03-09 06:59:34.370,40.44866666666667,-123.574,5.98,1.62,NC.LBP..EHZ,P,-1.0,2014-03-09 06:59:45.690
nc72181456,2014-03-09 06:59:34.370,40.44866666666667,-123.574,5.98,1.62,NC.LGP..EHZ,P,1.0,2014-03-09 06:59:48.640
nc72181456,2014-03-09 06:59:34.370,40.44866666666667,-123.574,5.98,1.62,NC.LSF..EHZ,P,1.0,2014-03-09 06:59:50.280
nc72181456,2014-03-09 06:59:34.370,40.44866666666667,-123.574,5.98,1.62,PB.B045..EHZ,P,1.0,2014-03-09 06:59:41.730
nc72181456,2014-03-09 06:59:34.370,40.44866666666667,-123.574,5.98,1.62,PB.B047..EHZ,P,-1.0,2014-03-09 06:59:45.260
nc72181456,2014-03-09 06:59:34.370,40.44866666666667,-123.574,5.98,1.62,PB.B049..EHZ,P,-1.0,2014-03-09 06:59:40.870
nc72181456,2014-03-09 06:59:34.370,40.44866666666667,-123.574,5.98,1.62,PB.B933..EHZ,P,-1.0,2014-03-09 06:59:45.210
nc72181456,2014-03-09 06:59:34.370,40.44866666666667,-123.574,5.98,1.62,PB.B935..EHZ,P,1.0,2014-03-09 06:59:36.130
nc72181456,2014-03-09 06:59:34.370,40.44866666666667,-123.574,5.98,1.62,TA.N02D..HHZ,P,1.0,2014-03-09 06:59:50.710
nc72182136,2014-03-10 06:22:45.880,40.718833333333336,-124.93716666666667,3.15,3.33,BK.GASB..HHZ,P,-1.0,2014-03-10 06:23:19.570
nc72182136,2014-03-10 06:22:45.880,40.718833333333336,-124.93716666666667,3.15,3.33,BK.JCC..HHZ,P,1.0,2014-03-10 06:23:00.180
nc72182136,2014-03-10 06:22:45.880,40.718833333333336,-124.93716666666667,3.15,3.33,BK.WDC..HHZ,P,-1.0,2014-03-10 06:23:17.040
nc72182136,2014-03-10 06:22:45.880,40.718833333333336,-124.93716666666667,3.15,3.33,BK.YBH..HHZ,P,1.0,2014-03-10 06:23:18.130
nc72182136,2014-03-10 06:22:45.880,40.718833333333336,-124.93716666666667,3.15,3.33,NC.GGU..EHZ,P,1.0,2014-03-10 06:23:19.690
nc72182136,2014-03-10 06:22:45.880,40.718833333333336,-124.93716666666667,3.15,3.33,NC.GHM..EHZ,P,-1.0,2014-03-10 06:23:18.660
nc72182136,2014-03-10 06:22:45.880,40.718833333333336,-124.93716666666667,3.15,3.33,NC.GHO..EHZ,P,-1.0,2014-03-10 06:23:17.470
nc72182136,2014-03-10 06:22:45.880,40.718833333333336,-124.93716666666667,3.15,3.33,NC.GNA..EHZ,P,-1.0,2014-03-10 06:23:14.980
nc72182136,2014-03-10 06:22:45.880,40.718833333333336,-124.93716666666667,3.15,3.33,NC.GRO..EHZ,P,-1.0,2014-03-10 06:23:18.670
nc72182136,2014-03-10 06:22:45.880,40.718833333333336,-124.93716666666667,3.15,3.33,NC.GSN..EHZ,P,1.0,2014-03-10 06:23:21.220
nc72182136,2014-03-10 06:22:45.880,40.718833333333336,-124.93716666666667,3.15,3.33,NC.GTC..EHZ,P,,2014-03-10 06:23:13.710
nc72182136,2014-03-10 06:22:45.880,40.718833333333336,-124.93716666666667,3.15,3.33,NC.GVV..EHZ,P,1.0,2014-03-10 06:23:19.410
nc72182136,2014-03-10 06:22:45.880,40.718833333333336,-124.93716666666667,3.15,3.33,NC.KBN..EHZ,P,,2014-03-10 06:23:13.750
nc72182136,2014-03-10 06:22:45.880,40.718833333333336,-124.93716666666667,3.15,3.33,NC.KBO..HHZ,P,1.0,2014-03-10 06:23:10.950
nc72182136,2014-03-10 06:22:45.880,40.718833333333336,-124.93716666666667,3.15,3.33,NC.KBS..EHZ,P,1.0,2014-03-10 06:23:09.280
nc72182136,2014-03-10 06:22:45.880,40.718833333333336,-124.93716666666667,3.15,3.33,NC.KCO..EHZ,P,-1.0,2014-03-10 06:23:00.080
nc72182136,2014-03-10 06:22:45.880,40.718833333333336,-124.93716666666667,3.15,3.33,NC.KCPB..HHZ,P,1.0,2014-03-10 06:23:11.090
nc72182136,2014-03-10 06:22:45.880,40.718833333333336,-124.93716666666667,3.15,3.33,NC.KCR..EHZ,P,1.0,2014-03-10 06:23:03.870
nc72182136,2014-03-10 06:22:45.880,40.718833333333336,-124.93716666666667,3.15,3.33,NC.KCS..EHZ,P,1.0,2014-03-10 06:23:06.890
nc72182136,2014-03-10 06:22:45.880,40.718833333333336,-124.93716666666667,3.15,3.33,NC.KEB..HHZ,P,-1.0,2014-03-10 06:23:19.180
nc72182136,2014-03-10 06:22:45.880,40.718833333333336,-124.93716666666667,3.15,3.33,NC.KFP..EHZ,P,-1.0,2014-03-10 06:23:12.740
nc72182136,2014-03-10 06:22:45.880,40.718833333333336,-124.93716666666667,3.15,3.33,NC.KHBB..HHZ,P,-1.0,2014-03-10 06:23:09.560
nc72182136,2014-03-10 06:22:45.880,40.718833333333336,-124.93716666666667,3.15,3.33,NC.KHMB..HHZ,P,-1.0,2014-03-10 06:23:04.120
nc72182136,2014-03-10 06:22:45.880,40.718833333333336,-124.93716666666667,3.15,3.33,NC.KKP..EHZ,P,-1.0,2014-03-10 06:23:09.430
nc72182136,2014-03-10 06:22:45.880,40.718833333333336,-124.93716666666667,3.15,3.33,NC.KMPB..HHZ,P,-1.0,2014-03-10 06:23:00.850
nc72182136,2014-03-10 06:22:45.880,40.718833333333336,-124.93716666666667,3.15,3.33,NC.KOM..EHZ,P,1.0,2014-03-10 06:23:08.260
nc72182136,2014-03-10 06:22:45.880,40.718833333333336,-124.93716666666667,3.15,3.33,NC.KRMB..HHZ,P,-1.0,2014-03-10 06:23:05.210
nc72182136,2014-03-10 06:22:45.880,40.718833333333336,-124.93716666666667,3.15,3.33,NC.KRP..HHZ,P,-1.0,2014-03-10 06:23:01.830
nc72182136,2014-03-10 06:22:45.880,40.718833333333336,-124.93716666666667,3.15,3.33,NC.KSXB..HHZ,P,-1.0,2014-03-10 06:23:08.560
nc72182136,2014-03-10 06:22:45.880,40.718833333333336,-124.93716666666667,3.15,3.33,NC.KTR..EHZ,P,1.0,2014-03-10 06:23:13.360
nc72182136,2014-03-10 06:22:45.880,40.718833333333336,-124.93716666666667,3.15,3.33,NC.LAMB..EHZ,P,-1.0,2014-03-10 06:23:18.610
nc72182136,2014-03-10 06:22:45.880,40.718833333333336,-124.93716666666667,3.15,3.33,NC.LBK..EHZ,P,1.0,2014-03-10 06:23:16.500
nc72182136,2014-03-10 06:22:45.880,40.718833333333336,-124.93716666666667,3.15,3.33,NC.LBP..EHZ,P,-1.0,2014-03-10 06:23:14.070
nc72182136,2014-03-10 06:22:45.880,40.718833333333336,-124.93716666666667,3.15,3.33,NC.LCSB..EHZ,P,1.0,2014-03-10 06:23:20.540
nc72182136,2014-03-10 06:22:45.880,40.718833333333336,-124.93716666666667,3.15,3.33,NC.LGP..EHZ,P,-1.0,2014-03-10 06:23:13.680
nc72182136,2014-03-10 06:22:45.880,40.718833333333336,-124.93716666666667,3.15,3.33,NC.LPG..EHZ,P,1.0,2014-03-10 06:23:17.270
nc72182136,2014-03-10 06:22:45.880,40.718833333333336,-124.93716666666667,3.15,3.33,NC.LPK..EHZ,P,,2014-03-10 06:23:19.180
nc72182136,2014-03-10 06:22:45.880,40.718833333333336,-124.93716666666667,3.15,3.33,NC.LRB..EHZ,P,-1.0,2014-03-10 06:23:18.710
nc72182136,2014-03-10 06:22:45.880,40.718833333333336,-124.93716666666667,3.15,3.33,NC.LSF..EHZ,P,,2014-03-10 06:23:17.250
nc72182136,2014-03-10 06:22:45.880,40.718833333333336,-124.93716666666667,3.15,3.33,NC.LSR..EHZ,P,,2014-03-10 06:23:21.460
nc72182136,2014-03-10 06:22:45.880,40.718833333333336,-124.93716666666667,3.15,3.33,NC.LVR..EHZ,P,1.0,2014-03-10 06:23:17.810
nc72182136,2014-03-10 06:22:45.880,40.718833333333336,-124.93716666666667,3.15,3.33,PB.B035..EHZ,P,-1.0,2014-03-10 06:23:19.650
nc72182136,2014-03-10 06:22:45.880,40.718833333333336,-124.93716666666667,3.15,3.33,PB.B036..EHZ,P,1.0,2014-03-10 06:23:19.580
nc72182136,2014-03-10 06:22:45.880,40.718833333333336,-124.93716666666667,3.15,3.33,PB.B039..EHZ,P,,2014-03-10 06:23:18.830
nc72182136,2014-03-10 06:22:45.880,40.718833333333336,-124.93716666666667,3.15,3.33,PB.B045..EHZ,P,1.0,2014-03-10 06:23:01.790
nc72182136,2014-03-10 06:22:45.880,40.718833333333336,-124.93716666666667,3.15,3.33,PB.B046..EHZ,P,-1.0,2014-03-10 06:22:59.400
nc72182136,2014-03-10 06:22:45.880,40.718833333333336,-124.93716666666667,3.15,3.33,PB.B049..EHZ,P,1.0,2014-03-10 06:23:05.030
nc72182136,2014-03-10 06:22:45.880,40.718833333333336,-124.93716666666667,3.15,3.33,PB.B933..EHZ,P,1.0,2014-03-10 06:23:04.350
nc72182136,2014-03-10 06:22:45.880,40.718833333333336,-124.93716666666667,3.15,3.33,PB.B935..EHZ,P,1.0,2014-03-10 06:23:06.160
nc72182136,2014-03-10 06:22:45.880,40.718833333333336,-124.93716666666667,3.15,3.33,TA.L02E..HHZ,P,-1.0,2014-03-10 06:23:14.320
nc72182136,2014-03-10 06:22:45.880,40.718833333333336,-124.93716666666667,3.15,3.33,TA.M02C..HHZ,P,1.0,2014-03-10 06:23:15.090
