event_id,etime,elat,elon,edep,emag,station_id,phase_type,phase_polarity,phase_time
nc72383101,2015-01-19 10:19:16.260,41.124,-124.48083333333334,6.78,2.16,BK.YBH..HHZ,P,-1.0,2015-01-19 10:19:41.700
nc72383101,2015-01-19 10:19:16.260,41.124,-124.48083333333334,6.78,2.16,NC.KBO..HHZ,P,-1.0,2015-01-19 10:19:35.430
nc72383101,2015-01-19 10:19:16.260,41.124,-124.48083333333334,6.78,2.16,NC.KBS..EHZ,P,-1.0,2015-01-19 10:19:40.720
nc72383101,2015-01-19 10:19:16.260,41.124,-124.48083333333334,6.78,2.16,NC.KCR..EHZ,P,-1.0,2015-01-19 10:19:32.810
nc72383101,2015-01-19 10:19:16.260,41.124,-124.48083333333334,6.78,2.16,NC.KCS..EHZ,P,-1.0,2015-01-19 10:19:34.130
nc72383101,2015-01-19 10:19:16.260,41.124,-124.48083333333334,6.78,2.16,NC.KCT..HHZ,P,1.0,2015-01-19 10:19:30.040
nc72383101,2015-01-19 10:19:16.260,41.124,-124.48083333333334,6.78,2.16,NC.KFP..EHZ,P,-1.0,2015-01-19 10:19:44.570
nc72383101,2015-01-19 10:19:16.260,41.124,-124.48083333333334,6.78,2.16,NC.KHBB..HHZ,P,1.0,2015-01-19 10:19:35.650
nc72383101,2015-01-19 10:19:16.260,41.124,-124.48083333333334,6.78,2.16,NC.KHMB..HHZ,P,-1.0,2015-01-19 10:19:29.340
nc72383101,2015-01-19 10:19:16.260,41.124,-124.48083333333334,6.78,2.16,NC.KIP..EHZ,P,1.0,2015-01-19 10:19:42.680
nc72383101,2015-01-19 10:19:16.260,41.124,-124.48083333333334,6.78,2.16,NC.KMPB..HHZ,P,-1.0,2015-01-19 10:19:31.250
nc72383101,2015-01-19 10:19:16.260,41.124,-124.48083333333334,6.78,2.16,NC.KMR..HHZ,P,,2015-01-19 10:19:36.400
nc72383101,2015-01-19 10:19:16.260,41.124,-124.48083333333334,6.78,2.16,NC.KOM..EHZ,P,1.0,2015-01-19 10:19:31.850
nc72383101,2015-01-19 10:19:16.260,41.124,-124.48083333333334,6.78,2.16,NC.KRMB..HHZ,P,1.0,2015-01-19 10:19:28.470
nc72383101,2015-01-19 10:19:16.260,41.124,-124.48083333333334,6.78,2.16,NC.KRP..HHZ,P,1.0,2015-01-19 10:19:25.270
nc72383101,2015-01-19 10:19:16.260,41.124,-124.48083333333334,6.78,2.16,NC.KSXB..HHZ,P,-1.0,2015-01-19 10:19:32.040
nc72383101,2015-01-19 10:19:16.260,41.124,-124.48083333333334,6.78,2.16,NC.KTR..EHZ,P,-1.0,2015-01-19 10:19:36.690
nc72383101,2015-01-19 10:19:16.260,41.124,-124.48083333333334,6.78,2.16,NC.LBK..EHZ,P,-1.0,2015-01-19 10:19:40.040
nc72383101,2015-01-19 10:19:16.260,41.124,-124.48083333333334,6.78,2.16,NC.LBO..EHZ,P,-1.0,2015-01-19 10:19:46.220
nc72383101,2015-01-19 10:19:16.260,41.124,-124.48083333333334,6.78,2.16,NC.LCSB..EHZ,P,1.0,2015-01-19 10:19:44.060
nc72383101,2015-01-19 10:19:16.260,41.124,-124.48083333333334,6.78,2.16,NC.LGB..EHZ,P,-1.0,2015-01-19 10:19:46.310
nc72383101,2015-01-19 10:19:16.260,41.124,-124.48083333333334,6.78,2.16,NC.LGP..EHZ,P,-1.0,2015-01-19 10:19:38.500
nc72383101,2015-01-19 10:19:16.260,41.124,-124.48083333333334,6.78,2.16,NC.LMC..HHZ,P,1.0,2015-01-19 10:19:46.460
nc72383101,2015-01-19 10:19:16.260,41.124,-124.48083333333334,6.78,2.16,NC.LSR..EHZ,P,,2015-01-19 10:19:44.380
nc72383101,2015-01-19 10:19:16.260,41.124,-124.48083333333334,6.78,2.16,PB.B035..EHZ,P,,2015-01-19 10:19:42.950
nc72383101,2015-01-19 10:19:16.260,41.124,-124.48083333333334,6.78,2.16,PB.B039..EHZ,P,1.0,2015-01-19 10:19:42.430
nc72383101,2015-01-19 10:19:16.260,41.124,-124.48083333333334,6.78,2.16,PB.B040..EHZ,P,,2015-01-19 10:19:45.060
nc72383101,2015-01-19 10:19:16.260,41.124,-124.48083333333334,6.78,2.16,PB.B045..EHZ,P,-1.0,2015-01-19 10:19:31.630
nc72383101,2015-01-19 10:19:16.260,41.124,-124.48083333333334,6.78,2.16,PB.B046..EHZ,P,-1.0,2015-01-19 10:19:32.010
nc72383101,2015-01-19 10:19:16.260,41.124,-124.48083333333334,6.78,2.16,PB.B047..EHZ,P,-1.0,2015-01-19 10:19:33.220
nc72383101,2015-01-19 10:19:16.260,41.124,-124.48083333333334,6.78,2.16,PB.B049..EHZ,P,1.0,2015-01-19 10:19:35.190
nc72383101,2015-01-19 10:19:16.260,41.124,-124.48083333333334,6.78,2.16,PB.B932..EHZ,P,-1.0,2015-01-19 10:19:32.670
nc72383101,2015-01-19 10:19:16.260,41.124,-124.48083333333334,6.78,2.16,PB.B933..EHZ,P,1.0,2015-01-19 10:19:36.950
nc72383101,2015-01-19 10:19:16.260,41.124,-124.48083333333334,6.78,2.16,PB.B935..EHZ,P,-1.0,2015-01-19 10:19:34.190
nc72383101,2015-01-19 10:19:16.260,41.124,-124.48083333333334,6.78,2.16,TA.M02C..HHZ,P,-1.0,2015-01-19 10:19:38.290
nc72383101,2015-01-19 10:19:16.260,41.124,-124.48083333333334,6.78,2.16,TA.N02D..HHZ,P,1.0,2015-01-19 10:19:39.500
nc72385936,2015-01-25 16:53:03.370,40.24316666666667,-124.17566666666667,11.0,2.22,BK.GASB..HHZ,P,-1.0,2015-01-25 16:53:25.000
nc72385936,2015-01-25 16:53:03.370,40.24316666666667,-124.17566666666667,11.0,2.22,BK.JCC..HHZ,P,1.0,2015-01-25 16:53:15.440
nc72385936,2015-01-25 16:53:03.370,40.24316666666667,-124.17566666666667,11.0,2.22,NC.GNA..EHZ,P,-1.0,2015-01-25 16:53:24.340
nc72385936,2015-01-25 16:53:03.370,40.24316666666667,-124.17566666666667,11.0,2.22,NC.GTC..EHZ,P,1.0,2015-01-25 16:53:20.410
nc72385936,2015-01-25 16:53:03.370,40.24316666666667,-124.17566666666667,11.0,2.22,NC.GVV..EHZ,P,-1.0,2015-01-25 16:53:25.080
nc72385936,2015-01-25 16:53:03.370,40.24316666666667,-124.17566666666667,11.0,2.22,NC.KBN..EHZ,P,-1.0,2015-01-25 16:53:19.520
nc72385936,2015-01-25 16:53:03.370,40.24316666666667,-124.17566666666667,11.0,2.22,NC.KBS..EHZ,P,1.0,2015-01-25 16:53:14.930
nc72385936,2015-01-25 16:53:03.370,40.24316666666667,-124.17566666666667,11.0,2.22,NC.KCO..EHZ,P,1.0,2015-01-25 16:53:06.230
nc72385936,2015-01-25 16:53:03.370,40.24316666666667,-124.17566666666667,11.0,2.22,NC.KCPB..HHZ,P,1.0,2015-01-25 16:53:18.020
nc72385936,2015-01-25 16:53:03.370,40.24316666666667,-124.17566666666667,11.0,2.22,NC.KCR..EHZ,P,1.0,2015-01-25 16:53:10.860
nc72385936,2015-01-25 16:53:03.370,40.24316666666667,-124.17566666666667,11.0,2.22,NC.KCS..EHZ,P,1.0,2015-01-25 16:53:16.120
nc72385936,2015-01-25 16:53:03.370,40.24316666666667,-124.17566666666667,11.0,2.22,NC.KCT..HHZ,P,-1.0,2015-01-25 16:53:09.870
nc72385936,2015-01-25 16:53:03.370,40.24316666666667,-124.17566666666667,11.0,2.22,NC.KFP..EHZ,P,1.0,2015-01-25 16:53:18.560
nc72385936,2015-01-25 16:53:03.370,40.24316666666667,-124.17566666666667,11.0,2.22,NC.KHBB..HHZ,P,-1.0,2015-01-25 16:53:19.380
nc72385936,2015-01-25 16:53:03.370,40.24316666666667,-124.17566666666667,11.0,2.22,NC.KIP..EHZ,P,-1.0,2015-01-25 16:53:17.140
nc72385936,2015-01-25 16:53:03.370,40.24316666666667,-124.17566666666667,11.0,2.22,NC.KKP..EHZ,P,1.0,2015-01-25 16:53:15.470
nc72385936,2015-01-25 16:53:03.370,40.24316666666667,-124.17566666666667,11.0,2.22,NC.KMPB..HHZ,P,-1.0,2015-01-25 16:53:07.830
nc72385936,2015-01-25 16:53:03.370,40.24316666666667,-124.17566666666667,11.0,2.22,NC.KMR..HHZ,P,-1.0,2015-01-25 16:53:11.500
nc72385936,2015-01-25 16:53:03.370,40.24316666666667,-124.17566666666667,11.0,2.22,NC.LBP..EHZ,P,1.0,2015-01-25 16:53:21.640
nc72385936,2015-01-25 16:53:03.370,40.24316666666667,-124.17566666666667,11.0,2.22,NC.LGP..EHZ,P,1.0,2015-01-25 16:53:25.070
nc72385936,2015-01-25 16:53:03.370,40.24316666666667,-124.17566666666667,11.0,2.22,NC.LVR..EHZ,P,-1.0,2015-01-25 16:53:24.760
nc72385936,2015-01-25 16:53:03.370,40.24316666666667,-124.17566666666667,11.0,2.22,PB.B045..EHZ,P,-1.0,2015-01-25 16:53:08.900
nc72385936,2015-01-25 16:53:03.370,40.24316666666667,-124.17566666666667,11.0,2.22,PB.B046..EHZ,P,-1.0,2015-01-25 16:53:06.700
nc72385936,2015-01-25 16:53:03.370,40.24316666666667,-124.17566666666667,11.0,2.22,PB.B047..EHZ,P,1.0,2015-01-25 16:53:05.650
nc72385936,2015-01-25 16:53:03.370,40.24316666666667,-124.17566666666667,11.0,2.22,PB.B049..EHZ,P,1.0,2015-01-25 16:53:09.600
nc72385936,2015-01-25 16:53:03.370,40.24316666666667,-124.17566666666667,11.0,2.22,PB.B932..EHZ,P,1.0,2015-01-25 16:53:05.730
nc72385936,2015-01-25 16:53:03.370,40.24316666666667,-124.17566666666667,11.0,2.22,PB.B933..EHZ,P,-1.0,2015-01-25 16:53:08.760
nc72385936,2015-01-25 16:53:03.370,40.24316666666667,-124.17566666666667,11.0,2.22,PB.B935..EHZ,P,-1.0,2015-01-25 16:53:14.750
nc72385936,2015-01-25 16:53:03.370,40.24316666666667,-124.17566666666667,11.0,2.22,TA.O02D..HHZ,P,1.0,2015-01-25 16:53:22.870
nc72385946,2015-01-25 17:07:57.070,40.2415,-124.17133333333334,11.39,1.52,BK.JCC..HHZ,P,1.0,2015-01-25 17:08:09.130
nc72385946,2015-01-25 17:07:57.070,40.2415,-124.17133333333334,11.39,1.52,NC.GTC..EHZ,P,,2015-01-25 17:08:14.200
nc72385946,2015-01-25 17:07:57.070,40.2415,-124.17133333333334,11.39,1.52,NC.KCO..EHZ,P,1.0,2015-01-25 17:07:59.990
nc72385946,2015-01-25 17:07:57.070,40.2415,-124.17133333333334,11.39,1.52,NC.KCR..EHZ,P,,2015-01-25 17:08:04.700
nc72385946,2015-01-25 17:07:57.070,40.2415,-124.17133333333334,11.39,1.52,NC.KCT..HHZ,P,-1.0,2015-01-25 17:08:03.600
nc72385946,2015-01-25 17:07:57.070,40.2415,-124.17133333333334,11.39,1.52,NC.KFP..EHZ,P,1.0,2015-01-25 17:08:12.420
nc72385946,2015-01-25 17:07:57.070,40.2415,-124.17133333333334,11.39,1.52,NC.KIP..EHZ,P,,2015-01-25 17:08:10.830
nc72385946,2015-01-25 17:07:57.070,40.2415,-124.17133333333334,11.39,1.52,NC.KMPB..HHZ,P,-1.0,2015-01-25 17:08:01.600
nc72385946,2015-01-25 17:07:57.070,40.2415,-124.17133333333334,11.39,1.52,PB.B045..EHZ,P,-1.0,2015-01-25 17:08:02.640
nc72385946,2015-01-25 17:07:57.070,40.2415,-124.17133333333334,11.39,1.52,PB.B046..EHZ,P,1.0,2015-01-25 17:08:00.490
nc72385946,2015-01-25 17:07:57.070,40.2415,-124.17133333333334,11.39,1.52,PB.B047..EHZ,P,1.0,2015-01-25 17:07:59.410
nc72385946,2015-01-25 17:07:57.070,40.2415,-124.17133333333334,11.39,1.52,PB.B049..EHZ,P,1.0,2015-01-25 17:08:03.310
nc72385946,2015-01-25 17:07:57.070,40.2415,-124.17133333333334,11.39,1.52,PB.B932..EHZ,P,1.0,2015-01-25 17:07:59.480
nc72385946,2015-01-25 17:07:57.070,40.2415,-124.17133333333334,11.39,1.52,PB.B933..EHZ,P,-1.0,2015-01-25 17:08:02.470
nc72386106,2015-01-25 23:12:59.650,40.24483333333333,-124.1685,10.57,1.91,BK.JCC..HHZ,P,1.0,2015-01-25 23:13:11.580
nc72386106,2015-01-25 23:12:59.650,40.24483333333333,-124.1685,10.57,1.91,NC.KBS..EHZ,P,-1.0,2015-01-25 23:13:11.060
nc72386106,2015-01-25 23:12:59.650,40.24483333333333,-124.1685,10.57,1.91,NC.KCO..EHZ,P,1.0,2015-01-25 23:13:02.410
nc72386106,2015-01-25 23:12:59.650,40.24483333333333,-124.1685,10.57,1.91,NC.KCPB..HHZ,P,1.0,2015-01-25 23:13:14.110
nc72386106,2015-01-25 23:12:59.650,40.24483333333333,-124.1685,10.57,1.91,NC.KCR..EHZ,P,-1.0,2015-01-25 23:13:07.020
nc72386106,2015-01-25 23:12:59.650,40.24483333333333,-124.1685,10.57,1.91,NC.KCS..EHZ,P,-1.0,2015-01-25 23:13:12.300
nc72386106,2015-01-25 23:12:59.650,40.24483333333333,-124.1685,10.57,1.91,NC.KCT..HHZ,P,-1.0,2015-01-25 23:13:06.040
nc72386106,2015-01-25 23:12:59.650,40.24483333333333,-124.1685,10.57,1.91,NC.KIP..EHZ,P,-1.0,2015-01-25 23:13:13.320
nc72386106,2015-01-25 23:12:59.650,40.24483333333333,-124.1685,10.57,1.91,NC.KKP..EHZ,P,1.0,2015-01-25 23:13:11.670
nc72386106,2015-01-25 23:12:59.650,40.24483333333333,-124.1685,10.57,1.91,NC.KMPB..HHZ,P,-1.0,2015-01-25 23:13:04.030
nc72386106,2015-01-25 23:12:59.650,40.24483333333333,-124.1685,10.57,1.91,NC.KMR..HHZ,P,1.0,2015-01-25 23:13:07.630
nc72386106,2015-01-25 23:12:59.650,40.24483333333333,-124.1685,10.57,1.91,NC.KPP..EHZ,P,1.0,2015-01-25 23:13:13.070
nc72386106,2015-01-25 23:12:59.650,40.24483333333333,-124.1685,10.57,1.91,NC.KSM..EHZ,P,1.0,2015-01-25 23:13:02.180
nc72386106,2015-01-25 23:12:59.650,40.24483333333333,-124.1685,10.57,1.91,PB.B045..EHZ,P,-1.0,2015-01-25 23:13:05.070
nc72386106,2015-01-25 23:12:59.650,40.24483333333333,-124.1685,10.57,1.91,PB.B046..EHZ,P,1.0,2015-01-25 23:13:02.940
nc72386106,2015-01-25 23:12:59.650,40.24483333333333,-124.1685,10.57,1.91,PB.B047..EHZ,P,1.0,2015-01-25 23:13:01.840
nc72386106,2015-01-25 23:12:59.650,40.24483333333333,-124.1685,10.57,1.91,PB.B049..EHZ,P,1.0,2015-01-25 23:13:05.790
nc72386106,2015-01-25 23:12:59.650,40.24483333333333,-124.1685,10.57,1.91,PB.B932..EHZ,P,1.0,2015-01-25 23:13:01.900
nc72386106,2015-01-25 23:12:59.650,40.24483333333333,-124.1685,10.57,1.91,PB.B933..EHZ,P,-1.0,2015-01-25 23:13:04.920
nc72386106,2015-01-25 23:12:59.650,40.24483333333333,-124.1685,10.57,1.91,PB.B935..EHZ,P,1.0,2015-01-25 23:13:10.930
nc71089504,2015-01-28 21:28:27.440,40.248666666666665,-124.32183333333333,14.44,0.42,NC.KCO..EHZ,P,1.0,2015-01-28 21:28:30.540
nc71089504,2015-01-28 21:28:27.440,40.248666666666665,-124.32183333333333,14.44,0.42,NC.KCT..HHZ,P,,2015-01-28 21:28:32.830
nc71089504,2015-01-28 21:28:27.440,40.248666666666665,-124.32183333333333,14.44,0.42,NC.KMPB..HHZ,P,1.0,2015-01-28 21:28:32.870
nc71089504,2015-01-28 21:28:27.440,40.248666666666665,-124.32183333333333,14.44,0.42,NC.KSM..EHZ,P,-1.0,2015-01-28 21:28:30.960
nc71089504,2015-01-28 21:28:27.440,40.248666666666665,-124.32183333333333,14.44,0.42,PB.B046..EHZ,P,,2015-01-28 21:28:30.900
nc71089504,2015-01-28 21:28:27.440,40.248666666666665,-124.32183333333333,14.44,0.42,PB.B047..EHZ,P,-1.0,2015-01-28 21:28:30.880
nc71089504,2015-01-28 21:28:27.440,40.248666666666665,-124.32183333333333,14.44,0.42,PB.B932..EHZ,P,,2015-01-28 21:28:30.190
nc71089504,2015-01-28 21:28:27.440,40.248666666666665,-124.32183333333333,14.44,0.42,PB.B933..EHZ,P,-1.0,2015-01-28 21:28:34.550
nc72388111,2015-01-28 23:20:49.910,40.24433333333333,-124.1685,10.33,2.16,BK.GASB..HHZ,P,-1.0,2015-01-28 23:21:11.450
nc72388111,2015-01-28 23:20:49.910,40.24433333333333,-124.1685,10.33,2.16,BK.JCC..HHZ,P,1.0,2015-01-28 23:21:01.770
nc72388111,2015-01-28 23:20:49.910,40.24433333333333,-124.1685,10.33,2.16,BK.WDC..HHZ,P,,2015-01-28 23:21:12.000
nc72388111,2015-01-28 23:20:49.910,40.24433333333333,-124.1685,10.33,2.16,NC.GHM..EHZ,P,,2015-01-28 23:21:10.420
nc72388111,2015-01-28 23:20:49.910,40.24433333333333,-124.1685,10.33,2.16,NC.GTC..EHZ,P,-1.0,2015-01-28 23:21:06.520
nc72388111,2015-01-28 23:20:49.910,40.24433333333333,-124.1685,10.33,2.16,NC.GVV..EHZ,P,-1.0,2015-01-28 23:21:11.410
nc72388111,2015-01-28 23:20:49.910,40.24433333333333,-124.1685,10.33,2.16,NC.KBN..EHZ,P,-1.0,2015-01-28 23:21:05.670
nc72388111,2015-01-28 23:20:49.910,40.24433333333333,-124.1685,10.33,2.16,NC.KBS..EHZ,P,-1.0,2015-01-28 23:21:01.180
nc72388111,2015-01-28 23:20:49.910,40.24433333333333,-124.1685,10.33,2.16,NC.KCO..EHZ,P,1.0,2015-01-28 23:20:52.700
nc72388111,2015-01-28 23:20:49.910,40.24433333333333,-124.1685,10.33,2.16,NC.KCPB..HHZ,P,1.0,2015-01-28 23:21:04.280
nc72388111,2015-01-28 23:20:49.910,40.24433333333333,-124.1685,10.33,2.16,NC.KCR..EHZ,P,1.0,2015-01-28 23:20:57.260
nc72388111,2015-01-28 23:20:49.910,40.24433333333333,-124.1685,10.33,2.16,NC.KCS..EHZ,P,1.0,2015-01-28 23:21:02.530
nc72388111,2015-01-28 23:20:49.910,40.24433333333333,-124.1685,10.33,2.16,NC.KCT..HHZ,P,-1.0,2015-01-28 23:20:56.300
nc72388111,2015-01-28 23:20:49.910,40.24433333333333,-124.1685,10.33,2.16,NC.KFP..EHZ,P,1.0,2015-01-28 23:21:04.910
nc72388111,2015-01-28 23:20:49.910,40.24433333333333,-124.1685,10.33,2.16,NC.KHBB..HHZ,P,-1.0,2015-01-28 23:21:05.670
nc72388111,2015-01-28 23:20:49.910,40.24433333333333,-124.1685,10.33,2.16,NC.KHMB..HHZ,P,1.0,2015-01-28 23:21:04.120
nc72388111,2015-01-28 23:20:49.910,40.24433333333333,-124.1685,10.33,2.16,NC.KIP..EHZ,P,1.0,2015-01-28 23:21:03.360
nc72388111,2015-01-28 23:20:49.910,40.24433333333333,-124.1685,10.33,2.16,NC.KKP..EHZ,P,1.0,2015-01-28 23:21:01.780
nc72388111,2015-01-28 23:20:49.910,40.24433333333333,-124.1685,10.33,2.16,NC.KMPB..HHZ,P,-1.0,2015-01-28 23:20:54.270
nc72388111,2015-01-28 23:20:49.910,40.24433333333333,-124.1685,10.33,2.16,NC.KMR..HHZ,P,,2015-01-28 23:20:55.310
nc72388111,2015-01-28 23:20:49.910,40.24433333333333,-124.1685,10.33,2.16,NC.KOM..EHZ,P,-1.0,2015-01-28 23:21:10.490
nc72388111,2015-01-28 23:20:49.910,40.24433333333333,-124.1685,10.33,2.16,NC.KPP..EHZ,P,1.0,2015-01-28 23:21:03.200
nc72388111,2015-01-28 23:20:49.910,40.24433333333333,-124.1685,10.33,2.16,NC.KSM..EHZ,P,-1.0,2015-01-28 23:20:52.430
nc72388111,2015-01-28 23:20:49.910,40.24433333333333,-124.1685,10.33,2.16,NC.LBP..EHZ,P,-1.0,2015-01-28 23:21:08.000
nc72388111,2015-01-28 23:20:49.910,40.24433333333333,-124.1685,10.33,2.16,NC.LGP..EHZ,P,-1.0,2015-01-28 23:21:11.380
nc72388111,2015-01-28 23:20:49.910,40.24433333333333,-124.1685,10.33,2.16,NC.LPG..EHZ,P,-1.0,2015-01-28 23:21:10.680
nc72388111,2015-01-28 23:20:49.910,40.24433333333333,-124.1685,10.33,2.16,NC.LVR..EHZ,P,1.0,2015-01-28 23:21:11.240
nc72388111,2015-01-28 23:20:49.910,40.24433333333333,-124.1685,10.33,2.16,PB.B045..EHZ,P,-1.0,2015-01-28 23:20:55.370
nc72388111,2015-01-28 23:20:49.910,40.24433333333333,-124.1685,10.33,2.16,PB.B046..EHZ,P,1.0,2015-01-28 23:20:53.170
nc72388111,2015-01-28 23:20:49.910,40.24433333333333,-124.1685,10.33,2.16,PB.B047..EHZ,P,1.0,2015-01-28 23:20:52.100
nc72388111,2015-01-28 23:20:49.910,40.24433333333333,-124.1685,10.33,2.16,PB.B049..EHZ,P,-1.0,2015-01-28 23:20:56.020
nc72388111,2015-01-28 23:20:49.910,40.24433333333333,-124.1685,10.33,2.16,PB.B932..EHZ,P,1.0,2015-01-28 23:20:52.180
nc72388111,2015-01-28 23:20:49.910,40.24433333333333,-124.1685,10.33,2.16,PB.B933..EHZ,P,-1.0,2015-01-28 23:20:55.140
nc72388111,2015-01-28 23:20:49.910,40.24433333333333,-124.1685,10.33,2.16,PB.B935..EHZ,P,1.0,2015-01-28 23:21:01.130
nc72388111,2015-01-28 23:20:49.910,40.24433333333333,-124.1685,10.33,2.16,TA.O02D..HHZ,P,-1.0,2015-01-28 23:21:09.240
nc71089524,2015-01-28 23:21:10.560,40.24633333333333,-124.1795,11.43,1.36,NC.KCO..EHZ,P,1.0,2015-01-28 23:21:13.410
nc71089524,2015-01-28 23:21:10.560,40.24633333333333,-124.1795,11.43,1.36,NC.KCT..HHZ,P,-1.0,2015-01-28 23:21:16.990
nc71089524,2015-01-28 23:21:10.560,40.24633333333333,-124.1795,11.43,1.36,NC.KMPB..HHZ,P,1.0,2015-01-28 23:21:15.040
nc71089524,2015-01-28 23:21:10.560,40.24633333333333,-124.1795,11.43,1.36,NC.KSM..EHZ,P,1.0,2015-01-28 23:21:13.150
nc71089524,2015-01-28 23:21:10.560,40.24633333333333,-124.1795,11.43,1.36,PB.B046..EHZ,P,1.0,2015-01-28 23:21:13.880
nc71089524,2015-01-28 23:21:10.560,40.24633333333333,-124.1795,11.43,1.36,PB.B047..EHZ,P,1.0,2015-01-28 23:21:12.830
nc71089524,2015-01-28 23:21:10.560,40.24633333333333,-124.1795,11.43,1.36,PB.B932..EHZ,P,1.0,2015-01-28 23:21:12.890
nc71089524,2015-01-28 23:21:10.560,40.24633333333333,-124.1795,11.43,1.36,PB.B933..EHZ,P,-1.0,2015-01-28 23:21:15.880
nc72389466,2015-01-31 05:58:27.800,40.288833333333336,-124.31316666666666,9.08,1.58,BK.JCC..HHZ,P,-1.0,2015-01-31 05:58:39.610
nc72389466,2015-01-31 05:58:27.800,40.288833333333336,-124.31316666666666,9.08,1.58,NC.GHO..EHZ,P,,2015-01-31 05:58:50.650
nc72389466,2015-01-31 05:58:27.800,40.288833333333336,-124.31316666666666,9.08,1.58,NC.GNA..EHZ,P,-1.0,2015-01-31 05:58:48.300
nc72389466,2015-01-31 05:58:27.800,40.288833333333336,-124.31316666666666,9.08,1.58,NC.GTC..EHZ,P,1.0,2015-01-31 05:58:46.480
nc72389466,2015-01-31 05:58:27.800,40.288833333333336,-124.31316666666666,9.08,1.58,NC.KBS..EHZ,P,,2015-01-31 05:58:41.440
nc72389466,2015-01-31 05:58:27.800,40.288833333333336,-124.31316666666666,9.08,1.58,NC.KCO..EHZ,P,-1.0,2015-01-31 05:58:30.220
nc72389466,2015-01-31 05:58:27.800,40.288833333333336,-124.31316666666666,9.08,1.58,NC.KCR..EHZ,P,1.0,2015-01-31 05:58:36.920
nc72389466,2015-01-31 05:58:27.800,40.288833333333336,-124.31316666666666,9.08,1.58,NC.KCT..HHZ,P,-1.0,2015-01-31 05:58:32.580
nc72389466,2015-01-31 05:58:27.800,40.288833333333336,-124.31316666666666,9.08,1.58,NC.KFP..EHZ,P,-1.0,2015-01-31 05:58:45.010
nc72389466,2015-01-31 05:58:27.800,40.288833333333336,-124.31316666666666,9.08,1.58,NC.KMPB..HNZ,P,1.0,2015-01-31 05:58:32.550
nc72389466,2015-01-31 05:58:27.800,40.288833333333336,-124.31316666666666,9.08,1.58,NC.KMR..HHZ,P,1.0,2015-01-31 05:58:38.170
nc72389466,2015-01-31 05:58:27.800,40.288833333333336,-124.31316666666666,9.08,1.58,PB.B045..EHZ,P,1.0,2015-01-31 05:58:34.290
nc72389466,2015-01-31 05:58:27.800,40.288833333333336,-124.31316666666666,9.08,1.58,PB.B046..EHZ,P,1.0,2015-01-31 05:58:29.830
nc72389466,2015-01-31 05:58:27.800,40.288833333333336,-124.31316666666666,9.08,1.58,PB.B047..EHZ,P,-1.0,2015-01-31 05:58:31.180
nc72389466,2015-01-31 05:58:27.800,40.288833333333336,-124.31316666666666,9.08,1.58,PB.B049..EHZ,P,,2015-01-31 05:58:36.270
nc72389466,2015-01-31 05:58:27.800,40.288833333333336,-124.31316666666666,9.08,1.58,PB.B932..EHZ,P,1.0,2015-01-31 05:58:30.260
