event_id,etime,elat,elon,edep,emag,station_id,phase_type,phase_polarity,phase_time
nc72389466,2015-01-31 05:58:27.800,40.288833333333336,-124.31316666666666,9.08,1.58,PB.B933..EHZ,P,-1.0,2015-01-31 05:58:35.200
nc72389476,2015-01-31 06:40:33.290,40.6705,-123.28566666666667,31.31,1.92,BK.JCC..HHZ,P,-1.0,2015-01-31 06:40:44.770
nc72389476,2015-01-31 06:40:33.290,40.6705,-123.28566666666667,31.31,1.92,BK.WDC..HHZ,P,1.0,2015-01-31 06:40:44.590
nc72389476,2015-01-31 06:40:33.290,40.6705,-123.28566666666667,31.31,1.92,BK.YBH..HHZ,P,1.0,2015-01-31 06:40:53.270
nc72389476,2015-01-31 06:40:33.290,40.6705,-123.28566666666667,31.31,1.92,NC.KBS..EHZ,P,1.0,2015-01-31 06:40:47.930
nc72389476,2015-01-31 06:40:33.290,40.6705,-123.28566666666667,31.31,1.92,NC.KCR..EHZ,P,-1.0,2015-01-31 06:40:43.530
nc72389476,2015-01-31 06:40:33.290,40.6705,-123.28566666666667,31.31,1.92,NC.KCS..EHZ,P,1.0,2015-01-31 06:40:40.160
nc72389476,2015-01-31 06:40:33.290,40.6705,-123.28566666666667,31.31,1.92,NC.KHBB..HHZ,P,1.0,2015-01-31 06:40:38.690
nc72389476,2015-01-31 06:40:33.290,40.6705,-123.28566666666667,31.31,1.92,NC.KHMB..HHZ,P,,2015-01-31 06:40:42.010
nc72389476,2015-01-31 06:40:33.290,40.6705,-123.28566666666667,31.31,1.92,NC.KKP..EHZ,P,,2015-01-31 06:40:44.670
nc72389476,2015-01-31 06:40:33.290,40.6705,-123.28566666666667,31.31,1.92,NC.KMR..HHZ,P,1.0,2015-01-31 06:40:44.660
nc72389476,2015-01-31 06:40:33.290,40.6705,-123.28566666666667,31.31,1.92,NC.KPP..EHZ,P,1.0,2015-01-31 06:40:41.490
nc72389476,2015-01-31 06:40:33.290,40.6705,-123.28566666666667,31.31,1.92,NC.LBK..EHZ,P,1.0,2015-01-31 06:40:45.180
nc72389476,2015-01-31 06:40:33.290,40.6705,-123.28566666666667,31.31,1.92,NC.LBP..EHZ,P,-1.0,2015-01-31 06:40:43.050
nc72389476,2015-01-31 06:40:33.290,40.6705,-123.28566666666667,31.31,1.92,NC.LGP..EHZ,P,-1.0,2015-01-31 06:40:42.360
nc72389476,2015-01-31 06:40:33.290,40.6705,-123.28566666666667,31.31,1.92,NC.LMI..EHZ,P,-1.0,2015-01-31 06:40:49.350
nc72389476,2015-01-31 06:40:33.290,40.6705,-123.28566666666667,31.31,1.92,NC.LPG..EHZ,P,1.0,2015-01-31 06:40:46.910
nc72389476,2015-01-31 06:40:33.290,40.6705,-123.28566666666667,31.31,1.92,NC.LPK..EHZ,P,1.0,2015-01-31 06:40:50.600
nc72389476,2015-01-31 06:40:33.290,40.6705,-123.28566666666667,31.31,1.92,NC.LSR..EHZ,P,1.0,2015-01-31 06:40:49.370
nc72389476,2015-01-31 06:40:33.290,40.6705,-123.28566666666667,31.31,1.92,PB.B039..EHZ,P,-1.0,2015-01-31 06:40:51.020
nc72389476,2015-01-31 06:40:33.290,40.6705,-123.28566666666667,31.31,1.92,PB.B040..EHZ,P,-1.0,2015-01-31 06:40:56.220
nc72389476,2015-01-31 06:40:33.290,40.6705,-123.28566666666667,31.31,1.92,PB.B045..EHZ,P,,2015-01-31 06:40:44.600
nc72389476,2015-01-31 06:40:33.290,40.6705,-123.28566666666667,31.31,1.92,PB.B047..EHZ,P,-1.0,2015-01-31 06:40:47.470
nc72389476,2015-01-31 06:40:33.290,40.6705,-123.28566666666667,31.31,1.92,PB.B049..EHZ,P,-1.0,2015-01-31 06:40:44.630
nc72389476,2015-01-31 06:40:33.290,40.6705,-123.28566666666667,31.31,1.92,PB.B933..EHZ,P,-1.0,2015-01-31 06:40:47.510
nc72389476,2015-01-31 06:40:33.290,40.6705,-123.28566666666667,31.31,1.92,PB.B935..EHZ,P,1.0,2015-01-31 06:40:40.810
nc72389476,2015-01-31 06:40:33.290,40.6705,-123.28566666666667,31.31,1.92,TA.M02C..HHZ,P,-1.0,2015-01-31 06:40:47.810
nc72389476,2015-01-31 06:40:33.290,40.6705,-123.28566666666667,31.31,1.92,TA.N02D..HHZ,P,-1.0,2015-01-31 06:40:43.860
nc72389476,2015-01-31 06:40:33.290,40.6705,-123.28566666666667,31.31,1.92,TA.O02D..HHZ,P,1.0,2015-01-31 06:40:45.410
nc72390166,2015-02-01 19:14:57.340,40.7015,-123.53,23.4,2.01,BK.JCC..HHZ,P,1.0,2015-02-01 19:15:05.470
nc72390166,2015-02-01 19:14:57.340,40.7015,-123.53,23.4,2.01,BK.WDC..HHZ,P,-1.0,2015-02-01 19:15:11.200
nc72390166,2015-02-01 19:14:57.340,40.7015,-123.53,23.4,2.01,BK.YBH..HHZ,P,-1.0,2015-02-01 19:15:18.110
nc72390166,2015-02-01 19:14:57.340,40.7015,-123.53,23.4,2.01,NC.GVV..EHZ,P,,2015-02-01 19:15:17.340
nc72390166,2015-02-01 19:14:57.340,40.7015,-123.53,23.4,2.01,NC.KBS..EHZ,P,1.0,2015-02-01 19:15:11.930
nc72390166,2015-02-01 19:14:57.340,40.7015,-123.53,23.4,2.01,NC.KCO..EHZ,P,1.0,2015-02-01 19:15:10.160
nc72390166,2015-02-01 19:14:57.340,40.7015,-123.53,23.4,2.01,NC.KCR..EHZ,P,1.0,2015-02-01 19:15:05.350
nc72390166,2015-02-01 19:14:57.340,40.7015,-123.53,23.4,2.01,NC.KCS..EHZ,P,1.0,2015-02-01 19:15:03.010
nc72390166,2015-02-01 19:14:57.340,40.7015,-123.53,23.4,2.01,NC.KHBB..HHZ,P,1.0,2015-02-01 19:15:03.580
nc72390166,2015-02-01 19:14:57.340,40.7015,-123.53,23.4,2.01,NC.KHMB..HHZ,P,-1.0,2015-02-01 19:15:03.410
nc72390166,2015-02-01 19:14:57.340,40.7015,-123.53,23.4,2.01,NC.KIP..EHZ,P,,2015-02-01 19:15:13.130
nc72390166,2015-02-01 19:14:57.340,40.7015,-123.53,23.4,2.01,NC.KKP..EHZ,P,-1.0,2015-02-01 19:15:08.670
nc72390166,2015-02-01 19:14:57.340,40.7015,-123.53,23.4,2.01,NC.KMR..HHZ,P,,2015-02-01 19:15:07.660
nc72390166,2015-02-01 19:14:57.340,40.7015,-123.53,23.4,2.01,NC.KOM..EHZ,P,-1.0,2015-02-01 19:15:08.130
nc72390166,2015-02-01 19:14:57.340,40.7015,-123.53,23.4,2.01,NC.KPP..EHZ,P,1.0,2015-02-01 19:15:05.810
nc72390166,2015-02-01 19:14:57.340,40.7015,-123.53,23.4,2.01,NC.KRMB..HHZ,P,1.0,2015-02-01 19:15:12.200
nc72390166,2015-02-01 19:14:57.340,40.7015,-123.53,23.4,2.01,NC.KRP..HHZ,P,1.0,2015-02-01 19:15:08.260
nc72390166,2015-02-01 19:14:57.340,40.7015,-123.53,23.4,2.01,NC.LBK..EHZ,P,1.0,2015-02-01 19:15:10.970
nc72390166,2015-02-01 19:14:57.340,40.7015,-123.53,23.4,2.01,NC.LBP..EHZ,P,-1.0,2015-02-01 19:15:09.400
nc72390166,2015-02-01 19:14:57.340,40.7015,-123.53,23.4,2.01,NC.LGP..EHZ,P,1.0,2015-02-01 19:15:08.200
nc72390166,2015-02-01 19:14:57.340,40.7015,-123.53,23.4,2.01,NC.LMI..EHZ,P,,2015-02-01 19:15:17.160
nc72390166,2015-02-01 19:14:57.340,40.7015,-123.53,23.4,2.01,NC.LPG..EHZ,P,-1.0,2015-02-01 19:15:13.040
nc72390166,2015-02-01 19:14:57.340,40.7015,-123.53,23.4,2.01,NC.LPK..EHZ,P,,2015-02-01 19:15:16.010
nc72390166,2015-02-01 19:14:57.340,40.7015,-123.53,23.4,2.01,NC.LSF..EHZ,P,,2015-02-01 19:15:11.570
nc72390166,2015-02-01 19:14:57.340,40.7015,-123.53,23.4,2.01,NC.LSR..EHZ,P,,2015-02-01 19:15:14.980
nc72390166,2015-02-01 19:14:57.340,40.7015,-123.53,23.4,2.01,NC.LVR..EHZ,P,,2015-02-01 19:15:14.060
nc72390166,2015-02-01 19:14:57.340,40.7015,-123.53,23.4,2.01,PB.B045..EHZ,P,1.0,2015-02-01 19:15:06.460
nc72390166,2015-02-01 19:14:57.340,40.7015,-123.53,23.4,2.01,PB.B046..EHZ,P,1.0,2015-02-01 19:15:09.710
nc72390166,2015-02-01 19:14:57.340,40.7015,-123.53,23.4,2.01,PB.B047..EHZ,P,1.0,2015-02-01 19:15:09.390
nc72390166,2015-02-01 19:14:57.340,40.7015,-123.53,23.4,2.01,PB.B049..EHZ,P,-1.0,2015-02-01 19:15:07.380
nc72390166,2015-02-01 19:14:57.340,40.7015,-123.53,23.4,2.01,PB.B932..EHZ,P,1.0,2015-02-01 19:15:09.400
nc72390166,2015-02-01 19:14:57.340,40.7015,-123.53,23.4,2.01,PB.B933..EHZ,P,,2015-02-01 19:15:10.430
nc72390166,2015-02-01 19:14:57.340,40.7015,-123.53,23.4,2.01,PB.B935..EHZ,P,1.0,2015-02-01 19:15:03.480
nc72390166,2015-02-01 19:14:57.340,40.7015,-123.53,23.4,2.01,TA.M02C..HHZ,P,-1.0,2015-02-01 19:15:12.410
nc72390166,2015-02-01 19:14:57.340,40.7015,-123.53,23.4,2.01,TA.N02D..HHZ,P,1.0,2015-02-01 19:15:09.780
nc72390166,2015-02-01 19:14:57.340,40.7015,-123.53,23.4,2.01,TA.O02D..HHZ,P,1.0,2015-02-01 19:15:11.650
nc72390171,2015-02-01 19:16:12.280,40.70466666666667,-123.52366666666667,23.75,1.68,BK.JCC..HHZ,P,1.0,2015-02-01 19:16:20.410
nc72390171,2015-02-01 19:16:12.280,40.70466666666667,-123.52366666666667,23.75,1.68,BK.WDC..HHZ,P,1.0,2015-02-01 19:16:26.090
nc72390171,2015-02-01 19:16:12.280,40.70466666666667,-123.52366666666667,23.75,1.68,NC.KCR..EHZ,P,-1.0,2015-02-01 19:16:20.390
nc72390171,2015-02-01 19:16:12.280,40.70466666666667,-123.52366666666667,23.75,1.68,NC.KCS..EHZ,P,1.0,2015-02-01 19:16:17.880
nc72390171,2015-02-01 19:16:12.280,40.70466666666667,-123.52366666666667,23.75,1.68,NC.KHBB..HHZ,P,1.0,2015-02-01 19:16:18.510
nc72390171,2015-02-01 19:16:12.280,40.70466666666667,-123.52366666666667,23.75,1.68,NC.KHMB..HHZ,P,-1.0,2015-02-01 19:16:18.380
nc72390171,2015-02-01 19:16:12.280,40.70466666666667,-123.52366666666667,23.75,1.68,NC.KKP..EHZ,P,-1.0,2015-02-01 19:16:23.570
nc72390171,2015-02-01 19:16:12.280,40.70466666666667,-123.52366666666667,23.75,1.68,NC.KMR..HHZ,P,1.0,2015-02-01 19:16:22.680
nc72390171,2015-02-01 19:16:12.280,40.70466666666667,-123.52366666666667,23.75,1.68,NC.KOM..EHZ,P,-1.0,2015-02-01 19:16:23.100
nc72390171,2015-02-01 19:16:12.280,40.70466666666667,-123.52366666666667,23.75,1.68,NC.KPP..EHZ,P,1.0,2015-02-01 19:16:20.760
nc72390171,2015-02-01 19:16:12.280,40.70466666666667,-123.52366666666667,23.75,1.68,NC.KRP..HHZ,P,-1.0,2015-02-01 19:16:23.550
nc72390171,2015-02-01 19:16:12.280,40.70466666666667,-123.52366666666667,23.75,1.68,NC.LBK..EHZ,P,-1.0,2015-02-01 19:16:26.090
nc72390171,2015-02-01 19:16:12.280,40.70466666666667,-123.52366666666667,23.75,1.68,NC.LBP..EHZ,P,-1.0,2015-02-01 19:16:24.390
nc72390171,2015-02-01 19:16:12.280,40.70466666666667,-123.52366666666667,23.75,1.68,NC.LGP..EHZ,P,1.0,2015-02-01 19:16:23.150
nc72390171,2015-02-01 19:16:12.280,40.70466666666667,-123.52366666666667,23.75,1.68,NC.LVR..EHZ,P,-1.0,2015-02-01 19:16:29.430
nc72390171,2015-02-01 19:16:12.280,40.70466666666667,-123.52366666666667,23.75,1.68,PB.B045..EHZ,P,1.0,2015-02-01 19:16:21.470
nc72390171,2015-02-01 19:16:12.280,40.70466666666667,-123.52366666666667,23.75,1.68,PB.B046..EHZ,P,1.0,2015-02-01 19:16:24.650
nc72390171,2015-02-01 19:16:12.280,40.70466666666667,-123.52366666666667,23.75,1.68,PB.B047..EHZ,P,,2015-02-01 19:16:25.060
nc72390171,2015-02-01 19:16:12.280,40.70466666666667,-123.52366666666667,23.75,1.68,PB.B049..EHZ,P,1.0,2015-02-01 19:16:22.400
nc72390171,2015-02-01 19:16:12.280,40.70466666666667,-123.52366666666667,23.75,1.68,PB.B932..EHZ,P,1.0,2015-02-01 19:16:24.450
nc72390171,2015-02-01 19:16:12.280,40.70466666666667,-123.52366666666667,23.75,1.68,PB.B935..EHZ,P,1.0,2015-02-01 19:16:18.430
nc72390171,2015-02-01 19:16:12.280,40.70466666666667,-123.52366666666667,23.75,1.68,TA.M02C..HHZ,P,,2015-02-01 19:16:27.440
nc72390171,2015-02-01 19:16:12.280,40.70466666666667,-123.52366666666667,23.75,1.68,TA.N02D..HHZ,P,-1.0,2015-02-01 19:16:24.850
nc72390171,2015-02-01 19:16:12.280,40.70466666666667,-123.52366666666667,23.75,1.68,TA.O02D..HHZ,P,-1.0,2015-02-01 19:16:26.620
nc72390536,2015-02-02 09:03:43.110,40.29416666666667,-124.423,13.94,2.18,BK.GASB..HHZ,P,-1.0,2015-02-02 09:04:07.530
nc72390536,2015-02-02 09:03:43.110,40.29416666666667,-124.423,13.94,2.18,BK.JCC..HHZ,P,,2015-02-02 09:03:54.700
nc72390536,2015-02-02 09:03:43.110,40.29416666666667,-124.423,13.94,2.18,BK.WDC..HHZ,P,,2015-02-02 09:04:07.830
nc72390536,2015-02-02 09:03:43.110,40.29416666666667,-124.423,13.94,2.18,NC.GNA..EHZ,P,-1.0,2015-02-02 09:04:03.740
nc72390536,2015-02-02 09:03:43.110,40.29416666666667,-124.423,13.94,2.18,NC.GTC..EHZ,P,-1.0,2015-02-02 09:04:02.330
nc72390536,2015-02-02 09:03:43.110,40.29416666666667,-124.423,13.94,2.18,NC.KBS..EHZ,P,,2015-02-02 09:03:57.110
nc72390536,2015-02-02 09:03:43.110,40.29416666666667,-124.423,13.94,2.18,NC.KCPB..HHZ,P,,2015-02-02 09:03:59.130
nc72390536,2015-02-02 09:03:43.110,40.29416666666667,-124.423,13.94,2.18,NC.KCR..EHZ,P,,2015-02-02 09:03:53.520
nc72390536,2015-02-02 09:03:43.110,40.29416666666667,-124.423,13.94,2.18,NC.KCT..HHZ,P,1.0,2015-02-02 09:03:48.330
nc72390536,2015-02-02 09:03:43.110,40.29416666666667,-124.423,13.94,2.18,NC.KFP..EHZ,P,-1.0,2015-02-02 09:04:00.650
nc72390536,2015-02-02 09:03:43.110,40.29416666666667,-124.423,13.94,2.18,NC.KHMB..HHZ,P,,2015-02-02 09:03:58.000
nc72390536,2015-02-02 09:03:43.110,40.29416666666667,-124.423,13.94,2.18,NC.KIP..EHZ,P,1.0,2015-02-02 09:03:59.270
nc72390536,2015-02-02 09:03:43.110,40.29416666666667,-124.423,13.94,2.18,NC.KMR..HHZ,P,,2015-02-02 09:03:54.810
nc72390536,2015-02-02 09:03:43.110,40.29416666666667,-124.423,13.94,2.18,NC.KOM..EHZ,P,,2015-02-02 09:04:04.010
nc72390536,2015-02-02 09:03:43.110,40.29416666666667,-124.423,13.94,2.18,NC.KRMB..HHZ,P,1.0,2015-02-02 09:04:04.820
nc72390536,2015-02-02 09:03:43.110,40.29416666666667,-124.423,13.94,2.18,NC.KSXB..HHZ,P,,2015-02-02 09:04:08.660
nc72390536,2015-02-02 09:03:43.110,40.29416666666667,-124.423,13.94,2.18,NC.LBK..EHZ,P,-1.0,2015-02-02 09:04:08.540
nc72390536,2015-02-02 09:03:43.110,40.29416666666667,-124.423,13.94,2.18,NC.LGP..EHZ,P,,2015-02-02 09:04:06.200
nc72390536,2015-02-02 09:03:43.110,40.29416666666667,-124.423,13.94,2.18,PB.B045..EHZ,P,1.0,2015-02-02 09:03:50.920
nc72390536,2015-02-02 09:03:43.110,40.29416666666667,-124.423,13.94,2.18,PB.B046..EHZ,P,1.0,2015-02-02 09:03:46.680
nc72390536,2015-02-02 09:03:43.110,40.29416666666667,-124.423,13.94,2.18,PB.B047..EHZ,P,1.0,2015-02-02 09:03:48.140
nc72390536,2015-02-02 09:03:43.110,40.29416666666667,-124.423,13.94,2.18,PB.B049..EHZ,P,-1.0,2015-02-02 09:03:52.930
nc72390536,2015-02-02 09:03:43.110,40.29416666666667,-124.423,13.94,2.18,PB.B932..EHZ,P,1.0,2015-02-02 09:03:47.270
nc72390536,2015-02-02 09:03:43.110,40.29416666666667,-124.423,13.94,2.18,PB.B933..EHZ,P,-1.0,2015-02-02 09:03:51.790
nc72390536,2015-02-02 09:03:43.110,40.29416666666667,-124.423,13.94,2.18,PB.B935..EHZ,P,-1.0,2015-02-02 09:03:56.740
nc72390536,2015-02-02 09:03:43.110,40.29416666666667,-124.423,13.94,2.18,TA.N02D..HHZ,P,,2015-02-02 09:04:07.060
nc72390536,2015-02-02 09:03:43.110,40.29416666666667,-124.423,13.94,2.18,TA.O02D..HHZ,P,1.0,2015-02-02 09:04:05.240
nc72393635,2015-02-13 22:46:02.310,40.623666666666665,-123.573,23.1,1.72,BK.GASB..HHZ,P,-1.0,2015-02-13 22:46:22.590
nc72393635,2015-02-13 22:46:02.310,40.623666666666665,-123.573,23.1,1.72,BK.JCC..HHZ,P,1.0,2015-02-13 22:46:10.550
nc72393635,2015-02-13 22:46:02.310,40.623666666666665,-123.573,23.1,1.72,NC.KBS..EHZ,P,1.0,2015-02-13 22:46:15.850
nc72393635,2015-02-13 22:46:02.310,40.623666666666665,-123.573,23.1,1.72,NC.KCR..EHZ,P,1.0,2015-02-13 22:46:09.100
nc72393635,2015-02-13 22:46:02.310,40.623666666666665,-123.573,23.1,1.72,NC.KCS..EHZ,P,1.0,2015-02-13 22:46:07.370
nc72393635,2015-02-13 22:46:02.310,40.623666666666665,-123.573,23.1,1.72,NC.KHBB..HHZ,P,1.0,2015-02-13 22:46:09.000
nc72393635,2015-02-13 22:46:02.310,40.623666666666665,-123.573,23.1,1.72,NC.KHMB..HHZ,P,-1.0,2015-02-13 22:46:09.130
nc72393635,2015-02-13 22:46:02.310,40.623666666666665,-123.573,23.1,1.72,NC.KKP..EHZ,P,1.0,2015-02-13 22:46:12.550
nc72393635,2015-02-13 22:46:02.310,40.623666666666665,-123.573,23.1,1.72,NC.KMPB..HHZ,P,-1.0,2015-02-13 22:46:11.690
nc72393635,2015-02-13 22:46:02.310,40.623666666666665,-123.573,23.1,1.72,NC.KMR..HHZ,P,1.0,2015-02-13 22:46:11.390
nc72393635,2015-02-13 22:46:02.310,40.623666666666665,-123.573,23.1,1.72,NC.KOM..EHZ,P,1.0,2015-02-13 22:46:14.480
nc72393635,2015-02-13 22:46:02.310,40.623666666666665,-123.573,23.1,1.72,NC.KPP..EHZ,P,1.0,2015-02-13 22:46:09.950
nc72393635,2015-02-13 22:46:02.310,40.623666666666665,-123.573,23.1,1.72,NC.KRMB..HHZ,P,-1.0,2015-02-13 22:46:18.180
nc72393635,2015-02-13 22:46:02.310,40.623666666666665,-123.573,23.1,1.72,NC.KRP..HHZ,P,1.0,2015-02-13 22:46:14.250
nc72393635,2015-02-13 22:46:02.310,40.623666666666665,-123.573,23.1,1.72,NC.KSM..EHZ,P,1.0,2015-02-13 22:46:13.910
nc72393635,2015-02-13 22:46:02.310,40.623666666666665,-123.573,23.1,1.72,NC.LBK..EHZ,P,1.0,2015-02-13 22:46:17.150
nc72393635,2015-02-13 22:46:02.310,40.623666666666665,-123.573,23.1,1.72,NC.LBP..EHZ,P,,2015-02-13 22:46:13.970
nc72393635,2015-02-13 22:46:02.310,40.623666666666665,-123.573,23.1,1.72,NC.LGP..EHZ,P,-1.0,2015-02-13 22:46:14.270
nc72393635,2015-02-13 22:46:02.310,40.623666666666665,-123.573,23.1,1.72,NC.LPK..EHZ,P,-1.0,2015-02-13 22:46:22.150
nc72393635,2015-02-13 22:46:02.310,40.623666666666665,-123.573,23.1,1.72,NC.LRB..EHZ,P,-1.0,2015-02-13 22:46:19.520
nc72393635,2015-02-13 22:46:02.310,40.623666666666665,-123.573,23.1,1.72,NC.LVR..EHZ,P,1.0,2015-02-13 22:46:18.870
nc72393635,2015-02-13 22:46:02.310,40.623666666666665,-123.573,23.1,1.72,PB.B045..EHZ,P,-1.0,2015-02-13 22:46:10.420
nc72393635,2015-02-13 22:46:02.310,40.623666666666665,-123.573,23.1,1.72,PB.B046..EHZ,P,1.0,2015-02-13 22:46:13.550
nc72393635,2015-02-13 22:46:02.310,40.623666666666665,-123.573,23.1,1.72,PB.B047..EHZ,P,-1.0,2015-02-13 22:46:13.220
nc72393635,2015-02-13 22:46:02.310,40.623666666666665,-123.573,23.1,1.72,PB.B049..EHZ,P,1.0,2015-02-13 22:46:11.070
nc72393635,2015-02-13 22:46:02.310,40.623666666666665,-123.573,23.1,1.72,PB.B932..EHZ,P,-1.0,2015-02-13 22:46:13.260
nc72393635,2015-02-13 22:46:02.310,40.623666666666665,-123.573,23.1,1.72,PB.B935..EHZ,P,1.0,2015-02-13 22:46:07.480
nc72393635,2015-02-13 22:46:02.310,40.623666666666665,-123.573,23.1,1.72,TA.M02C..HHZ,P,,2015-02-13 22:46:18.800
nc72393635,2015-02-13 22:46:02.310,40.623666666666665,-123.573,23.1,1.72,TA.N02D..HHZ,P,-1.0,2015-02-13 22:46:16.030
nc72393635,2015-02-13 22:46:02.310,40.623666666666665,-123.573,23.1,1.72,TA.O02D..HHZ,P,-1.0,2015-02-13 22:46:16.180
nc72395440,2015-02-16 15:50:19.580,40.304,-124.456,9.59,2.05,BK.JCC..HHZ,P,-1.0,2015-02-16 15:50:31.940
nc72395440,2015-02-16 15:50:19.580,40.304,-124.456,9.59,2.05,NC.GTC..EHZ,P,,2015-02-16 15:50:39.670
nc72395440,2015-02-16 15:50:19.580,40.304,-124.456,9.59,2.05,NC.KBS..EHZ,P,1.0,2015-02-16 15:50:35.090
nc72395440,2015-02-16 15:50:19.580,40.304,-124.456,9.59,2.05,NC.KCO..EHZ,P,-1.0,2015-02-16 15:50:23.750
nc72395440,2015-02-16 15:50:19.580,40.304,-124.456,9.59,2.05,NC.KCPB..HHZ,P,1.0,2015-02-16 15:50:38.140
nc72395440,2015-02-16 15:50:19.580,40.304,-124.456,9.59,2.05,NC.KCR..EHZ,P,1.0,2015-02-16 15:50:30.710
nc72395440,2015-02-16 15:50:19.580,40.304,-124.456,9.59,2.05,NC.KCT..HHZ,P,1.0,2015-02-16 15:50:24.550
nc72395440,2015-02-16 15:50:19.580,40.304,-124.456,9.59,2.05,NC.KFP..EHZ,P,-1.0,2015-02-16 15:50:38.460
nc72395440,2015-02-16 15:50:19.580,40.304,-124.456,9.59,2.05,NC.KHMB..HHZ,P,1.0,2015-02-16 15:50:35.210
nc72395440,2015-02-16 15:50:19.580,40.304,-124.456,9.59,2.05,NC.KIP..EHZ,P,1.0,2015-02-16 15:50:36.880
nc72395440,2015-02-16 15:50:19.580,40.304,-124.456,9.59,2.05,NC.KKP..EHZ,P,-1.0,2015-02-16 15:50:35.810
nc72395440,2015-02-16 15:50:19.580,40.304,-124.456,9.59,2.05,NC.KMPB..HHZ,P,1.0,2015-02-16 15:50:26.030
nc72395440,2015-02-16 15:50:19.580,40.304,-124.456,9.59,2.05,NC.KMR..HHZ,P,-1.0,2015-02-16 15:50:31.960
nc72395440,2015-02-16 15:50:19.580,40.304,-124.456,9.59,2.05,NC.KOM..EHZ,P,-1.0,2015-02-16 15:50:41.060
nc72395440,2015-02-16 15:50:19.580,40.304,-124.456,9.59,2.05,PB.B045..EHZ,P,1.0,2015-02-16 15:50:27.880
nc72395440,2015-02-16 15:50:19.580,40.304,-124.456,9.59,2.05,PB.B046..EHZ,P,1.0,2015-02-16 15:50:23.100
nc72395440,2015-02-16 15:50:19.580,40.304,-124.456,9.59,2.05,PB.B047..EHZ,P,-1.0,2015-02-16 15:50:24.980
nc72395440,2015-02-16 15:50:19.580,40.304,-124.456,9.59,2.05,PB.B049..EHZ,P,-1.0,2015-02-16 15:50:30.110
nc72395440,2015-02-16 15:50:19.580,40.304,-124.456,9.59,2.05,PB.B932..EHZ,P,-1.0,2015-02-16 15:50:23.990
nc72395440,2015-02-16 15:50:19.580,40.304,-124.456,9.59,2.05,PB.B933..EHZ,P,-1.0,2015-02-16 15:50:28.860
nc72395440,2015-02-16 15:50:19.580,40.304,-124.456,9.59,2.05,PB.B935..EHZ,P,-1.0,2015-02-16 15:50:34.160
nc72398060,2015-02-20 12:18:01.260,40.6875,-123.50633333333333,22.49,2.01,BK.GASB..HHZ,P,-1.0,2015-02-20 12:18:22.060
nc72398060,2015-02-20 12:18:01.260,40.6875,-123.50633333333333,22.49,2.01,BK.JCC..HHZ,P,1.0,2015-02-20 12:18:09.830
nc72398060,2015-02-20 12:18:01.260,40.6875,-123.50633333333333,22.49,2.01,BK.WDC..HHZ,P,,2015-02-20 12:18:14.770
nc72398060,2015-02-20 12:18:01.260,40.6875,-123.50633333333333,22.49,2.01,BK.YBH..HHZ,P,,2015-02-20 12:18:21.860
nc72398060,2015-02-20 12:18:01.260,40.6875,-123.50633333333333,22.49,2.01,NC.KBS..EHZ,P,,2015-02-20 12:18:15.780
nc72398060,2015-02-20 12:18:01.260,40.6875,-123.50633333333333,22.49,2.01,NC.KCR..EHZ,P,1.0,2015-02-20 12:18:09.340
nc72398060,2015-02-20 12:18:01.260,40.6875,-123.50633333333333,22.49,2.01,NC.KCS..EHZ,P,-1.0,2015-02-20 12:18:06.740
nc72398060,2015-02-20 12:18:01.260,40.6875,-123.50633333333333,22.49,2.01,NC.KHBB..HHZ,P,1.0,2015-02-20 12:18:07.210
