event_id,etime,elat,elon,edep,emag,station_id,phase_type,phase_polarity,phase_time
nc72377506,2015-01-08 10:02:17.380,40.29666666666667,-124.51166666666667,10.73,2.49,BK.JCC..HHZ,P,,2015-01-08 10:02:29.430
nc72377506,2015-01-08 10:02:17.380,40.29666666666667,-124.51166666666667,10.73,2.49,NC.GHO..EHZ,P,,2015-01-08 10:02:41.400
nc72377506,2015-01-08 10:02:17.380,40.29666666666667,-124.51166666666667,10.73,2.49,NC.GNA..EHZ,P,,2015-01-08 10:02:39.320
nc72377506,2015-01-08 10:02:17.380,40.29666666666667,-124.51166666666667,10.73,2.49,NC.GTC..EHZ,P,,2015-01-08 10:02:37.560
nc72377506,2015-01-08 10:02:17.380,40.29666666666667,-124.51166666666667,10.73,2.49,NC.GVV..EHZ,P,,2015-01-08 10:02:43.340
nc72377506,2015-01-08 10:02:17.380,40.29666666666667,-124.51166666666667,10.73,2.49,NC.GWR..EHZ,P,,2015-01-08 10:02:41.360
nc72377506,2015-01-08 10:02:17.380,40.29666666666667,-124.51166666666667,10.73,2.49,NC.KBN..EHZ,P,,2015-01-08 10:02:37.390
nc72377506,2015-01-08 10:02:17.380,40.29666666666667,-124.51166666666667,10.73,2.49,NC.KBS..EHZ,P,,2015-01-08 10:02:32.830
nc72377506,2015-01-08 10:02:17.380,40.29666666666667,-124.51166666666667,10.73,2.49,NC.KCO..EHZ,P,1.0,2015-01-08 10:02:22.400
nc72377506,2015-01-08 10:02:17.380,40.29666666666667,-124.51166666666667,10.73,2.49,NC.KCPB..HHZ,P,,2015-01-08 10:02:35.020
nc72377506,2015-01-08 10:02:17.380,40.29666666666667,-124.51166666666667,10.73,2.49,NC.KCR..EHZ,P,1.0,2015-01-08 10:02:29.080
nc72377506,2015-01-08 10:02:17.380,40.29666666666667,-124.51166666666667,10.73,2.49,NC.KCS..EHZ,P,,2015-01-08 10:02:33.130
nc72377506,2015-01-08 10:02:17.380,40.29666666666667,-124.51166666666667,10.73,2.49,NC.KCT..HHZ,P,1.0,2015-01-08 10:02:22.920
nc72377506,2015-01-08 10:02:17.380,40.29666666666667,-124.51166666666667,10.73,2.49,NC.KFP..EHZ,P,,2015-01-08 10:02:36.320
nc72377506,2015-01-08 10:02:17.380,40.29666666666667,-124.51166666666667,10.73,2.49,NC.KHBB..HHZ,P,,2015-01-08 10:02:36.300
nc72377506,2015-01-08 10:02:17.380,40.29666666666667,-124.51166666666667,10.73,2.49,NC.KHMB..HHZ,P,1.0,2015-01-08 10:02:32.960
nc72377506,2015-01-08 10:02:17.380,40.29666666666667,-124.51166666666667,10.73,2.49,NC.KIP..EHZ,P,,2015-01-08 10:02:35.110
nc72377506,2015-01-08 10:02:17.380,40.29666666666667,-124.51166666666667,10.73,2.49,NC.KKP..EHZ,P,,2015-01-08 10:02:33.650
nc72377506,2015-01-08 10:02:17.380,40.29666666666667,-124.51166666666667,10.73,2.49,NC.KMPB..HHZ,P,1.0,2015-01-08 10:02:24.580
nc72377506,2015-01-08 10:02:17.380,40.29666666666667,-124.51166666666667,10.73,2.49,NC.KOM..EHZ,P,1.0,2015-01-08 10:02:39.030
nc72377506,2015-01-08 10:02:17.380,40.29666666666667,-124.51166666666667,10.73,2.49,NC.KPP..EHZ,P,,2015-01-08 10:02:34.500
nc72377506,2015-01-08 10:02:17.380,40.29666666666667,-124.51166666666667,10.73,2.49,NC.KRK..EHZ,P,,2015-01-08 10:02:38.950
nc72377506,2015-01-08 10:02:17.380,40.29666666666667,-124.51166666666667,10.73,2.49,NC.LBK..EHZ,P,,2015-01-08 10:02:44.420
nc72377506,2015-01-08 10:02:17.380,40.29666666666667,-124.51166666666667,10.73,2.49,NC.LBP..EHZ,P,,2015-01-08 10:02:39.670
nc72377506,2015-01-08 10:02:17.380,40.29666666666667,-124.51166666666667,10.73,2.49,NC.LGP..EHZ,P,,2015-01-08 10:02:41.580
nc72377506,2015-01-08 10:02:17.380,40.29666666666667,-124.51166666666667,10.73,2.49,NC.LPG..EHZ,P,,2015-01-08 10:02:41.290
nc72377506,2015-01-08 10:02:17.380,40.29666666666667,-124.51166666666667,10.73,2.49,NC.LPK..EHZ,P,,2015-01-08 10:02:48.290
nc72377506,2015-01-08 10:02:17.380,40.29666666666667,-124.51166666666667,10.73,2.49,NC.LSF..EHZ,P,,2015-01-08 10:02:43.390
nc72377506,2015-01-08 10:02:17.380,40.29666666666667,-124.51166666666667,10.73,2.49,NC.LSR..EHZ,P,,2015-01-08 10:02:48.740
nc72377506,2015-01-08 10:02:17.380,40.29666666666667,-124.51166666666667,10.73,2.49,NC.LVR..EHZ,P,,2015-01-08 10:02:42.630
nc72377506,2015-01-08 10:02:17.380,40.29666666666667,-124.51166666666667,10.73,2.49,PB.B045..EHZ,P,1.0,2015-01-08 10:02:26.360
nc72377506,2015-01-08 10:02:17.380,40.29666666666667,-124.51166666666667,10.73,2.49,PB.B046..EHZ,P,1.0,2015-01-08 10:02:21.740
nc72377506,2015-01-08 10:02:17.380,40.29666666666667,-124.51166666666667,10.73,2.49,PB.B047..EHZ,P,1.0,2015-01-08 10:02:23.570
nc72377506,2015-01-08 10:02:17.380,40.29666666666667,-124.51166666666667,10.73,2.49,PB.B049..EHZ,P,,2015-01-08 10:02:28.430
nc72377506,2015-01-08 10:02:17.380,40.29666666666667,-124.51166666666667,10.73,2.49,PB.B932..EHZ,P,1.0,2015-01-08 10:02:22.590
nc72377506,2015-01-08 10:02:17.380,40.29666666666667,-124.51166666666667,10.73,2.49,PB.B933..EHZ,P,-1.0,2015-01-08 10:02:27.280
nc72377506,2015-01-08 10:02:17.380,40.29666666666667,-124.51166666666667,10.73,2.49,PB.B935..EHZ,P,,2015-01-08 10:02:32.100
nc72377506,2015-01-08 10:02:17.380,40.29666666666667,-124.51166666666667,10.73,2.49,TA.N02D..HHZ,P,,2015-01-08 10:02:43.070
nc72377506,2015-01-08 10:02:17.380,40.29666666666667,-124.51166666666667,10.73,2.49,TA.O02D..HHZ,P,,2015-01-08 10:02:40.900
nc72378446,2015-01-09 22:13:08.580,40.83316666666666,-123.60866666666666,20.75,1.82,BK.WDC..HHZ,P,-1.0,2015-01-09 22:13:24.210
nc72378446,2015-01-09 22:13:08.580,40.83316666666666,-123.60866666666666,20.75,1.82,NC.KCR..EHZ,P,1.0,2015-01-09 22:13:17.810
nc72378446,2015-01-09 22:13:08.580,40.83316666666666,-123.60866666666666,20.75,1.82,NC.KCS..EHZ,P,1.0,2015-01-09 22:13:15.990
nc72378446,2015-01-09 22:13:08.580,40.83316666666666,-123.60866666666666,20.75,1.82,NC.KHBB..HHZ,P,1.0,2015-01-09 22:13:16.050
nc72378446,2015-01-09 22:13:08.580,40.83316666666666,-123.60866666666666,20.75,1.82,NC.KOM..EHZ,P,-1.0,2015-01-09 22:13:17.860
nc72378446,2015-01-09 22:13:08.580,40.83316666666666,-123.60866666666666,20.75,1.82,NC.KPP..EHZ,P,-1.0,2015-01-09 22:13:19.150
nc72378446,2015-01-09 22:13:08.580,40.83316666666666,-123.60866666666666,20.75,1.82,NC.LBK..EHZ,P,1.0,2015-01-09 22:13:22.380
nc72378446,2015-01-09 22:13:08.580,40.83316666666666,-123.60866666666666,20.75,1.82,NC.LBP..EHZ,P,1.0,2015-01-09 22:13:22.430
nc72378446,2015-01-09 22:13:08.580,40.83316666666666,-123.60866666666666,20.75,1.82,NC.LGP..EHZ,P,1.0,2015-01-09 22:13:19.880
nc72378446,2015-01-09 22:13:08.580,40.83316666666666,-123.60866666666666,20.75,1.82,PB.B935..EHZ,P,1.0,2015-01-09 22:13:16.690
nc72378446,2015-01-09 22:13:08.580,40.83316666666666,-123.60866666666666,20.75,1.82,TA.N02D..HHZ,P,1.0,2015-01-09 22:13:21.330
nc72378641,2015-01-10 10:12:21.520,40.39116666666666,-124.265,10.83,2.86,BK.GASB..HHZ,P,1.0,2015-01-10 10:12:45.420
nc72378641,2015-01-10 10:12:21.520,40.39116666666666,-124.265,10.83,2.86,BK.HATC..HHZ,P,-1.0,2015-01-10 10:12:57.250
nc72378641,2015-01-10 10:12:21.520,40.39116666666666,-124.265,10.83,2.86,BK.HUMO..HHZ,P,-1.0,2015-01-10 10:12:59.600
nc72378641,2015-01-10 10:12:21.520,40.39116666666666,-124.265,10.83,2.86,BK.JCC..HHZ,P,1.0,2015-01-10 10:12:31.170
nc72378641,2015-01-10 10:12:21.520,40.39116666666666,-124.265,10.83,2.86,BK.MNRC..HHZ,P,1.0,2015-01-10 10:12:55.920
nc72378641,2015-01-10 10:12:21.520,40.39116666666666,-124.265,10.83,2.86,BK.ORV..HHZ,P,1.0,2015-01-10 10:12:57.250
nc72378641,2015-01-10 10:12:21.520,40.39116666666666,-124.265,10.83,2.86,BK.SUTB..HHZ,P,-1.0,2015-01-10 10:12:56.040
nc72378641,2015-01-10 10:12:21.520,40.39116666666666,-124.265,10.83,2.86,BK.WDC..HHZ,P,-1.0,2015-01-10 10:12:44.160
nc72378641,2015-01-10 10:12:21.520,40.39116666666666,-124.265,10.83,2.86,BK.YBH..HHZ,P,1.0,2015-01-10 10:12:50.630
nc72378641,2015-01-10 10:12:21.520,40.39116666666666,-124.265,10.83,2.86,NC.GCK..EHZ,P,1.0,2015-01-10 10:12:49.700
nc72378641,2015-01-10 10:12:21.520,40.39116666666666,-124.265,10.83,2.86,NC.GHL..EHZ,P,1.0,2015-01-10 10:12:48.600
nc72378641,2015-01-10 10:12:21.520,40.39116666666666,-124.265,10.83,2.86,NC.GHO..EHZ,P,1.0,2015-01-10 10:12:45.350
nc72378641,2015-01-10 10:12:21.520,40.39116666666666,-124.265,10.83,2.86,NC.GNA..EHZ,P,-1.0,2015-01-10 10:12:42.900
nc72378641,2015-01-10 10:12:21.520,40.39116666666666,-124.265,10.83,2.86,NC.GTC..EHZ,P,-1.0,2015-01-10 10:12:40.660
nc72378641,2015-01-10 10:12:21.520,40.39116666666666,-124.265,10.83,2.86,NC.GVV..EHZ,P,1.0,2015-01-10 10:12:45.350
nc72378641,2015-01-10 10:12:21.520,40.39116666666666,-124.265,10.83,2.86,NC.GWR..EHZ,P,1.0,2015-01-10 10:12:44.790
nc72378641,2015-01-10 10:12:21.520,40.39116666666666,-124.265,10.83,2.86,NC.KBN..EHZ,P,1.0,2015-01-10 10:12:39.800
nc72378641,2015-01-10 10:12:21.520,40.39116666666666,-124.265,10.83,2.86,NC.KBO..HHZ,P,-1.0,2015-01-10 10:12:49.950
nc72378641,2015-01-10 10:12:21.520,40.39116666666666,-124.265,10.83,2.86,NC.KBS..EHZ,P,1.0,2015-01-10 10:12:35.450
nc72378641,2015-01-10 10:12:21.520,40.39116666666666,-124.265,10.83,2.86,NC.KCO..EHZ,P,-1.0,2015-01-10 10:12:25.310
nc72378641,2015-01-10 10:12:21.520,40.39116666666666,-124.265,10.83,2.86,NC.KCPB..HHZ,P,-1.0,2015-01-10 10:12:37.630
nc72378641,2015-01-10 10:12:21.520,40.39116666666666,-124.265,10.83,2.86,NC.KCR..EHZ,P,-1.0,2015-01-10 10:12:29.280
nc72378641,2015-01-10 10:12:21.520,40.39116666666666,-124.265,10.83,2.86,NC.KCS..EHZ,P,1.0,2015-01-10 10:12:34.180
nc72378641,2015-01-10 10:12:21.520,40.39116666666666,-124.265,10.83,2.86,NC.KCT..HHZ,P,1.0,2015-01-10 10:12:24.850
nc72378641,2015-01-10 10:12:21.520,40.39116666666666,-124.265,10.83,2.86,NC.KFP..EHZ,P,1.0,2015-01-10 10:12:39.190
nc72378641,2015-01-10 10:12:21.520,40.39116666666666,-124.265,10.83,2.86,NC.KHBB..HHZ,P,1.0,2015-01-10 10:12:37.400
nc72378641,2015-01-10 10:12:21.520,40.39116666666666,-124.265,10.83,2.86,NC.KHMB..HHZ,P,1.0,2015-01-10 10:12:34.320
nc72378641,2015-01-10 10:12:21.520,40.39116666666666,-124.265,10.83,2.86,NC.KIP..EHZ,P,1.0,2015-01-10 10:12:37.460
nc72378641,2015-01-10 10:12:21.520,40.39116666666666,-124.265,10.83,2.86,NC.KKP..EHZ,P,1.0,2015-01-10 10:12:35.330
nc72378641,2015-01-10 10:12:21.520,40.39116666666666,-124.265,10.83,2.86,NC.KMPB..HHZ,P,-1.0,2015-01-10 10:12:24.910
nc72378641,2015-01-10 10:12:21.520,40.39116666666666,-124.265,10.83,2.86,NC.KMR..HHZ,P,1.0,2015-01-10 10:12:31.540
nc72378641,2015-01-10 10:12:21.520,40.39116666666666,-124.265,10.83,2.86,NC.KOM..EHZ,P,1.0,2015-01-10 10:12:40.540
nc72378641,2015-01-10 10:12:21.520,40.39116666666666,-124.265,10.83,2.86,NC.KPP..EHZ,P,1.0,2015-01-10 10:12:35.630
nc72378641,2015-01-10 10:12:21.520,40.39116666666666,-124.265,10.83,2.86,NC.KRK..EHZ,P,1.0,2015-01-10 10:12:41.930
nc72378641,2015-01-10 10:12:21.520,40.39116666666666,-124.265,10.83,2.86,NC.KRMB..HHZ,P,1.0,2015-01-10 10:12:41.340
nc72378641,2015-01-10 10:12:21.520,40.39116666666666,-124.265,10.83,2.86,NC.KRP..HHZ,P,1.0,2015-01-10 10:12:36.090
nc72378641,2015-01-10 10:12:21.520,40.39116666666666,-124.265,10.83,2.86,NC.KSXB..HHZ,P,1.0,2015-01-10 10:12:45.600
nc72378641,2015-01-10 10:12:21.520,40.39116666666666,-124.265,10.83,2.86,NC.KTR..EHZ,P,1.0,2015-01-10 10:12:48.530
nc72378641,2015-01-10 10:12:21.520,40.39116666666666,-124.265,10.83,2.86,NC.LAS..EHZ,P,-1.0,2015-01-10 10:12:59.500
nc72378641,2015-01-10 10:12:21.520,40.39116666666666,-124.265,10.83,2.86,NC.LBC..EHZ,P,1.0,2015-01-10 10:12:57.950
nc72378641,2015-01-10 10:12:21.520,40.39116666666666,-124.265,10.83,2.86,NC.LBF..EHZ,P,1.0,2015-01-10 10:12:55.210
nc72378641,2015-01-10 10:12:21.520,40.39116666666666,-124.265,10.83,2.86,NC.LBK..EHZ,P,1.0,2015-01-10 10:12:45.330
nc72378641,2015-01-10 10:12:21.520,40.39116666666666,-124.265,10.83,2.86,NC.LBO..EHZ,P,,2015-01-10 10:12:53.290
nc72378641,2015-01-10 10:12:21.520,40.39116666666666,-124.265,10.83,2.86,NC.LBP..EHZ,P,1.0,2015-01-10 10:12:40.360
nc72378641,2015-01-10 10:12:21.520,40.39116666666666,-124.265,10.83,2.86,NC.LCM..EHZ,P,,2015-01-10 10:12:55.500
nc72378641,2015-01-10 10:12:21.520,40.39116666666666,-124.265,10.83,2.86,NC.LCSB..EHZ,P,-1.0,2015-01-10 10:12:50.950
nc72378641,2015-01-10 10:12:21.520,40.39116666666666,-124.265,10.83,2.86,NC.LDB..EHZ,P,-1.0,2015-01-10 10:12:52.150
nc72378641,2015-01-10 10:12:21.520,40.39116666666666,-124.265,10.83,2.86,NC.LDH..HHZ,P,-1.0,2015-01-10 10:12:54.870
nc72378641,2015-01-10 10:12:21.520,40.39116666666666,-124.265,10.83,2.86,NC.LEL..EHZ,P,-1.0,2015-01-10 10:12:55.430
nc72378641,2015-01-10 10:12:21.520,40.39116666666666,-124.265,10.83,2.86,NC.LGB..EHZ,P,1.0,2015-01-10 10:12:52.380
nc72378641,2015-01-10 10:12:21.520,40.39116666666666,-124.265,10.83,2.86,NC.LGM..EHZ,P,1.0,2015-01-10 10:12:57.510
nc72378641,2015-01-10 10:12:21.520,40.39116666666666,-124.265,10.83,2.86,NC.LGP..EHZ,P,1.0,2015-01-10 10:12:42.660
nc72378641,2015-01-10 10:12:21.520,40.39116666666666,-124.265,10.83,2.86,NC.LHE..EHZ,P,1.0,2015-01-10 10:12:54.600
nc72378641,2015-01-10 10:12:21.520,40.39116666666666,-124.265,10.83,2.86,NC.LMH..EHZ,P,-1.0,2015-01-10 10:12:58.780
nc72378641,2015-01-10 10:12:21.520,40.39116666666666,-124.265,10.83,2.86,NC.LMI..EHZ,P,-1.0,2015-01-10 10:12:48.770
nc72378641,2015-01-10 10:12:21.520,40.39116666666666,-124.265,10.83,2.86,NC.LMP..EHZ,P,,2015-01-10 10:12:54.320
nc72378641,2015-01-10 10:12:21.520,40.39116666666666,-124.265,10.83,2.86,NC.LPG..EHZ,P,-1.0,2015-01-10 10:12:43.330
nc72378641,2015-01-10 10:12:21.520,40.39116666666666,-124.265,10.83,2.86,NC.LPK..EHZ,P,1.0,2015-01-10 10:12:49.410
nc72378641,2015-01-10 10:12:21.520,40.39116666666666,-124.265,10.83,2.86,NC.LRB..EHZ,P,1.0,2015-01-10 10:12:44.720
nc72378641,2015-01-10 10:12:21.520,40.39116666666666,-124.265,10.83,2.86,NC.LRD..EHZ,P,-1.0,2015-01-10 10:12:56.370
nc72378641,2015-01-10 10:12:21.520,40.39116666666666,-124.265,10.83,2.86,NC.LRR..EHZ,P,-1.0,2015-01-10 10:12:54.280
nc72378641,2015-01-10 10:12:21.520,40.39116666666666,-124.265,10.83,2.86,NC.LSF..EHZ,P,-1.0,2015-01-10 10:12:44.860
nc72378641,2015-01-10 10:12:21.520,40.39116666666666,-124.265,10.83,2.86,NC.LSI..EHZ,P,,2015-01-10 10:12:56.360
nc72378641,2015-01-10 10:12:21.520,40.39116666666666,-124.265,10.83,2.86,NC.LSR..EHZ,P,1.0,2015-01-10 10:12:49.800
nc72378641,2015-01-10 10:12:21.520,40.39116666666666,-124.265,10.83,2.86,NC.LTC..EHZ,P,-1.0,2015-01-10 10:12:49.030
nc72378641,2015-01-10 10:12:21.520,40.39116666666666,-124.265,10.83,2.86,NC.LTI..EHZ,P,1.0,2015-01-10 10:12:57.820
nc72378641,2015-01-10 10:12:21.520,40.39116666666666,-124.265,10.83,2.86,NC.LVR..EHZ,P,,2015-01-10 10:12:43.750
nc72378641,2015-01-10 10:12:21.520,40.39116666666666,-124.265,10.83,2.86,NC.LWH..EHZ,P,-1.0,2015-01-10 10:12:50.920
nc72378641,2015-01-10 10:12:21.520,40.39116666666666,-124.265,10.83,2.86,NC.NMC..EHZ,P,,2015-01-10 10:12:54.350
nc72378641,2015-01-10 10:12:21.520,40.39116666666666,-124.265,10.83,2.86,NC.NMT..EHZ,P,,2015-01-10 10:12:56.210
nc72378641,2015-01-10 10:12:21.520,40.39116666666666,-124.265,10.83,2.86,NC.OCR..EHZ,P,-1.0,2015-01-10 10:12:53.390
nc72378641,2015-01-10 10:12:21.520,40.39116666666666,-124.265,10.83,2.86,NC.OWY..EHZ,P,,2015-01-10 10:12:57.670
nc72378641,2015-01-10 10:12:21.520,40.39116666666666,-124.265,10.83,2.86,NN.LVO..EHZ,P,-1.0,2015-01-10 10:13:04.270
nc72378641,2015-01-10 10:12:21.520,40.39116666666666,-124.265,10.83,2.86,PB.B035..EHZ,P,,2015-01-10 10:12:54.780
nc72378641,2015-01-10 10:12:21.520,40.39116666666666,-124.265,10.83,2.86,PB.B039..EHZ,P,1.0,2015-01-10 10:12:49.870
nc72378641,2015-01-10 10:12:21.520,40.39116666666666,-124.265,10.83,2.86,PB.B045..EHZ,P,-1.0,2015-01-10 10:12:26.450
nc72378641,2015-01-10 10:12:21.520,40.39116666666666,-124.265,10.83,2.86,PB.B046..EHZ,P,1.0,2015-01-10 10:12:24.240
nc72378641,2015-01-10 10:12:21.520,40.39116666666666,-124.265,10.83,2.86,PB.B047..EHZ,P,-1.0,2015-01-10 10:12:25.580
nc72378641,2015-01-10 10:12:21.520,40.39116666666666,-124.265,10.83,2.86,PB.B049..EHZ,P,1.0,2015-01-10 10:12:29.680
nc72378641,2015-01-10 10:12:21.520,40.39116666666666,-124.265,10.83,2.86,PB.B932..EHZ,P,-1.0,2015-01-10 10:12:24.840
nc72378641,2015-01-10 10:12:21.520,40.39116666666666,-124.265,10.83,2.86,PB.B933..EHZ,P,-1.0,2015-01-10 10:12:30.000
nc72378641,2015-01-10 10:12:21.520,40.39116666666666,-124.265,10.83,2.86,PB.B935..EHZ,P,1.0,2015-01-10 10:12:33.050
nc72378641,2015-01-10 10:12:21.520,40.39116666666666,-124.265,10.83,2.86,TA.L02E..HHZ,P,-1.0,2015-01-10 10:12:51.130
nc72378641,2015-01-10 10:12:21.520,40.39116666666666,-124.265,10.83,2.86,TA.L04D..HHZ,P,1.0,2015-01-10 10:13:00.190
nc72378641,2015-01-10 10:12:21.520,40.39116666666666,-124.265,10.83,2.86,TA.M04C..HHZ,P,-1.0,2015-01-10 10:12:58.830
nc72378641,2015-01-10 10:12:21.520,40.39116666666666,-124.265,10.83,2.86,TA.N02D..HHZ,P,1.0,2015-01-10 10:12:44.220
nc72378641,2015-01-10 10:12:21.520,40.39116666666666,-124.265,10.83,2.86,TA.O02D..HHZ,P,1.0,2015-01-10 10:12:41.780
nc72378641,2015-01-10 10:12:21.520,40.39116666666666,-124.265,10.83,2.86,TA.O03E..HHZ,P,1.0,2015-01-10 10:12:52.070
nc72378641,2015-01-10 10:12:21.520,40.39116666666666,-124.265,10.83,2.86,UW.HOG..EHZ,P,-1.0,2015-01-10 10:13:03.910
nc72380931,2015-01-14 07:36:54.900,40.239,-124.16716666666666,11.39,1.92,BK.JCC..HHZ,P,,2015-01-14 07:37:06.970
nc72380931,2015-01-14 07:36:54.900,40.239,-124.16716666666666,11.39,1.92,NC.GTC..EHZ,P,,2015-01-14 07:37:11.870
nc72380931,2015-01-14 07:36:54.900,40.239,-124.16716666666666,11.39,1.92,NC.GVV..EHZ,P,,2015-01-14 07:37:16.220
nc72380931,2015-01-14 07:36:54.900,40.239,-124.16716666666666,11.39,1.92,NC.KBN..EHZ,P,,2015-01-14 07:37:10.770
nc72380931,2015-01-14 07:36:54.900,40.239,-124.16716666666666,11.39,1.92,NC.KBS..EHZ,P,1.0,2015-01-14 07:37:06.340
nc72380931,2015-01-14 07:36:54.900,40.239,-124.16716666666666,11.39,1.92,NC.KCO..EHZ,P,1.0,2015-01-14 07:36:57.850
nc72380931,2015-01-14 07:36:54.900,40.239,-124.16716666666666,11.39,1.92,NC.KCPB..HHZ,P,,2015-01-14 07:37:08.650
nc72380931,2015-01-14 07:36:54.900,40.239,-124.16716666666666,11.39,1.92,NC.KCR..EHZ,P,1.0,2015-01-14 07:37:02.380
nc72380931,2015-01-14 07:36:54.900,40.239,-124.16716666666666,11.39,1.92,NC.KCS..EHZ,P,,2015-01-14 07:37:07.520
nc72380931,2015-01-14 07:36:54.900,40.239,-124.16716666666666,11.39,1.92,NC.KCT..HHZ,P,-1.0,2015-01-14 07:37:01.480
nc72380931,2015-01-14 07:36:54.900,40.239,-124.16716666666666,11.39,1.92,NC.KFP..EHZ,P,,2015-01-14 07:37:10.000
nc72380931,2015-01-14 07:36:54.900,40.239,-124.16716666666666,11.39,1.92,NC.KHBB..HHZ,P,,2015-01-14 07:37:10.860
nc72380931,2015-01-14 07:36:54.900,40.239,-124.16716666666666,11.39,1.92,NC.KIP..EHZ,P,,2015-01-14 07:37:08.580
nc72380931,2015-01-14 07:36:54.900,40.239,-124.16716666666666,11.39,1.92,NC.KKP..EHZ,P,1.0,2015-01-14 07:37:06.890
nc72380931,2015-01-14 07:36:54.900,40.239,-124.16716666666666,11.39,1.92,NC.KMPB..HHZ,P,-1.0,2015-01-14 07:36:59.450
nc72380931,2015-01-14 07:36:54.900,40.239,-124.16716666666666,11.39,1.92,NC.KMR..HHZ,P,,2015-01-14 07:37:02.850
nc72380931,2015-01-14 07:36:54.900,40.239,-124.16716666666666,11.39,1.92,NC.KPP..EHZ,P,1.0,2015-01-14 07:37:08.330
nc72380931,2015-01-14 07:36:54.900,40.239,-124.16716666666666,11.39,1.92,NC.KRK..EHZ,P,,2015-01-14 07:37:12.850
nc72380931,2015-01-14 07:36:54.900,40.239,-124.16716666666666,11.39,1.92,NC.LBP..EHZ,P,,2015-01-14 07:37:12.900
nc72380931,2015-01-14 07:36:54.900,40.239,-124.16716666666666,11.39,1.92,NC.LVR..EHZ,P,,2015-01-14 07:37:16.250
nc72380931,2015-01-14 07:36:54.900,40.239,-124.16716666666666,11.39,1.92,PB.B045..EHZ,P,-1.0,2015-01-14 07:37:00.450
nc72380931,2015-01-14 07:36:54.900,40.239,-124.16716666666666,11.39,1.92,PB.B046..EHZ,P,-1.0,2015-01-14 07:36:58.360
nc72380931,2015-01-14 07:36:54.900,40.239,-124.16716666666666,11.39,1.92,PB.B047..EHZ,P,1.0,2015-01-14 07:36:57.260
nc72380931,2015-01-14 07:36:54.900,40.239,-124.16716666666666,11.39,1.92,PB.B049..EHZ,P,1.0,2015-01-14 07:37:01.040
nc72380931,2015-01-14 07:36:54.900,40.239,-124.16716666666666,11.39,1.92,PB.B932..EHZ,P,1.0,2015-01-14 07:36:57.350
nc72380931,2015-01-14 07:36:54.900,40.239,-124.16716666666666,11.39,1.92,PB.B933..EHZ,P,-1.0,2015-01-14 07:37:00.210
nc72380931,2015-01-14 07:36:54.900,40.239,-124.16716666666666,11.39,1.92,PB.B935..EHZ,P,1.0,2015-01-14 07:37:06.210
nc72380931,2015-01-14 07:36:54.900,40.239,-124.16716666666666,11.39,1.92,TA.O02D..HHZ,P,,2015-01-14 07:37:14.320
nc72383101,2015-01-19 10:19:16.260,41.124,-124.48083333333334,6.78,2.16,BK.JCC..HHZ,P,1.0,2015-01-19 10:19:26.800
