event_id,etime,elat,elon,edep,emag,station_id,phase_type,phase_polarity,phase_time
nc72398060,2015-02-20 12:18:01.260,40.6875,-123.50633333333333,22.49,2.01,NC.KHMB..HHZ,P,-1.0,2015-02-20 12:18:07.730
nc72398060,2015-02-20 12:18:01.260,40.6875,-123.50633333333333,22.49,2.01,NC.KKP..EHZ,P,,2015-02-20 12:18:12.420
nc72398060,2015-02-20 12:18:01.260,40.6875,-123.50633333333333,22.49,2.01,NC.KMPB..HHZ,P,,2015-02-20 12:18:11.780
nc72398060,2015-02-20 12:18:01.260,40.6875,-123.50633333333333,22.49,2.01,NC.KMR..HHZ,P,,2015-02-20 12:18:11.540
nc72398060,2015-02-20 12:18:01.260,40.6875,-123.50633333333333,22.49,2.01,NC.KOM..EHZ,P,,2015-02-20 12:18:12.290
nc72398060,2015-02-20 12:18:01.260,40.6875,-123.50633333333333,22.49,2.01,NC.LBK..EHZ,P,,2015-02-20 12:18:14.820
nc72398060,2015-02-20 12:18:01.260,40.6875,-123.50633333333333,22.49,2.01,NC.LBP..EHZ,P,,2015-02-20 12:18:12.830
nc72398060,2015-02-20 12:18:01.260,40.6875,-123.50633333333333,22.49,2.01,NC.LGP..EHZ,P,,2015-02-20 12:18:11.880
nc72398060,2015-02-20 12:18:01.260,40.6875,-123.50633333333333,22.49,2.01,NC.LMI..EHZ,P,1.0,2015-02-20 12:18:19.910
nc72398060,2015-02-20 12:18:01.260,40.6875,-123.50633333333333,22.49,2.01,NC.LPG..EHZ,P,,2015-02-20 12:18:16.350
nc72398060,2015-02-20 12:18:01.260,40.6875,-123.50633333333333,22.49,2.01,NC.LPK..EHZ,P,,2015-02-20 12:18:19.340
nc72398060,2015-02-20 12:18:01.260,40.6875,-123.50633333333333,22.49,2.01,NC.LRB..EHZ,P,-1.0,2015-02-20 12:18:17.710
nc72398060,2015-02-20 12:18:01.260,40.6875,-123.50633333333333,22.49,2.01,NC.LVR..EHZ,P,1.0,2015-02-20 12:18:17.580
nc72398060,2015-02-20 12:18:01.260,40.6875,-123.50633333333333,22.49,2.01,NC.LWH..EHZ,P,,2015-02-20 12:18:20.930
nc72398060,2015-02-20 12:18:01.260,40.6875,-123.50633333333333,22.49,2.01,PB.B039..EHZ,P,1.0,2015-02-20 12:18:19.970
nc72398060,2015-02-20 12:18:01.260,40.6875,-123.50633333333333,22.49,2.01,PB.B045..EHZ,P,1.0,2015-02-20 12:18:10.530
nc72398060,2015-02-20 12:18:01.260,40.6875,-123.50633333333333,22.49,2.01,PB.B046..EHZ,P,1.0,2015-02-20 12:18:13.780
nc72398060,2015-02-20 12:18:01.260,40.6875,-123.50633333333333,22.49,2.01,PB.B047..EHZ,P,1.0,2015-02-20 12:18:13.390
nc72398060,2015-02-20 12:18:01.260,40.6875,-123.50633333333333,22.49,2.01,PB.B049..EHZ,P,,2015-02-20 12:18:11.470
nc72398060,2015-02-20 12:18:01.260,40.6875,-123.50633333333333,22.49,2.01,PB.B932..EHZ,P,1.0,2015-02-20 12:18:13.390
nc72398060,2015-02-20 12:18:01.260,40.6875,-123.50633333333333,22.49,2.01,PB.B933..EHZ,P,1.0,2015-02-20 12:18:14.240
nc72398060,2015-02-20 12:18:01.260,40.6875,-123.50633333333333,22.49,2.01,PB.B935..EHZ,P,-1.0,2015-02-20 12:18:07.230
nc72398060,2015-02-20 12:18:01.260,40.6875,-123.50633333333333,22.49,2.01,TA.M02C..HHZ,P,-1.0,2015-02-20 12:18:16.400
nc72398060,2015-02-20 12:18:01.260,40.6875,-123.50633333333333,22.49,2.01,TA.N02D..HHZ,P,,2015-02-20 12:18:13.570
nc72398060,2015-02-20 12:18:01.260,40.6875,-123.50633333333333,22.49,2.01,TA.O02D..HHZ,P,-1.0,2015-02-20 12:18:15.190
nc72398060,2015-02-20 12:18:01.260,40.6875,-123.50633333333333,22.49,2.01,TA.O03E..HHZ,P,,2015-02-20 12:18:23.130
nc72400020,2015-02-23 02:16:49.160,40.2545,-124.15933333333334,11.8,2.2,BK.GASB..HHZ,P,1.0,2015-02-23 02:17:10.700
nc72400020,2015-02-23 02:16:49.160,40.2545,-124.15933333333334,11.8,2.2,BK.JCC..HHZ,P,1.0,2015-02-23 02:17:00.660
nc72400020,2015-02-23 02:16:49.160,40.2545,-124.15933333333334,11.8,2.2,BK.WDC..HHZ,P,1.0,2015-02-23 02:17:11.110
nc72400020,2015-02-23 02:16:49.160,40.2545,-124.15933333333334,11.8,2.2,NC.GTC..EHZ,P,-1.0,2015-02-23 02:17:05.860
nc72400020,2015-02-23 02:16:49.160,40.2545,-124.15933333333334,11.8,2.2,NC.GVV..EHZ,P,1.0,2015-02-23 02:17:10.520
nc72400020,2015-02-23 02:16:49.160,40.2545,-124.15933333333334,11.8,2.2,NC.KBN..EHZ,P,-1.0,2015-02-23 02:17:05.060
nc72400020,2015-02-23 02:16:49.160,40.2545,-124.15933333333334,11.8,2.2,NC.KBS..EHZ,P,1.0,2015-02-23 02:17:00.510
nc72400020,2015-02-23 02:16:49.160,40.2545,-124.15933333333334,11.8,2.2,NC.KCO..EHZ,P,1.0,2015-02-23 02:16:52.180
nc72400020,2015-02-23 02:16:49.160,40.2545,-124.15933333333334,11.8,2.2,NC.KCPB..HHZ,P,,2015-02-23 02:17:02.600
nc72400020,2015-02-23 02:16:49.160,40.2545,-124.15933333333334,11.8,2.2,NC.KCR..EHZ,P,-1.0,2015-02-23 02:16:56.240
nc72400020,2015-02-23 02:16:49.160,40.2545,-124.15933333333334,11.8,2.2,NC.KCS..EHZ,P,1.0,2015-02-23 02:17:01.560
nc72400020,2015-02-23 02:16:49.160,40.2545,-124.15933333333334,11.8,2.2,NC.KCT..HHZ,P,-1.0,2015-02-23 02:16:55.580
nc72400020,2015-02-23 02:16:49.160,40.2545,-124.15933333333334,11.8,2.2,NC.KFP..EHZ,P,1.0,2015-02-23 02:17:04.010
nc72400020,2015-02-23 02:16:49.160,40.2545,-124.15933333333334,11.8,2.2,NC.KHBB..HHZ,P,1.0,2015-02-23 02:17:04.820
nc72400020,2015-02-23 02:16:49.160,40.2545,-124.15933333333334,11.8,2.2,NC.KHMB..HHZ,P,-1.0,2015-02-23 02:17:03.190
nc72400020,2015-02-23 02:16:49.160,40.2545,-124.15933333333334,11.8,2.2,NC.KKP..EHZ,P,-1.0,2015-02-23 02:17:00.970
nc72400020,2015-02-23 02:16:49.160,40.2545,-124.15933333333334,11.8,2.2,NC.KMPB..HHZ,P,-1.0,2015-02-23 02:16:53.380
nc72400020,2015-02-23 02:16:49.160,40.2545,-124.15933333333334,11.8,2.2,NC.KMR..HHZ,P,-1.0,2015-02-23 02:16:56.890
nc72400020,2015-02-23 02:16:49.160,40.2545,-124.15933333333334,11.8,2.2,NC.KPP..EHZ,P,1.0,2015-02-23 02:17:02.320
nc72400020,2015-02-23 02:16:49.160,40.2545,-124.15933333333334,11.8,2.2,NC.KSM..EHZ,P,1.0,2015-02-23 02:16:51.990
nc72400020,2015-02-23 02:16:49.160,40.2545,-124.15933333333334,11.8,2.2,NC.LBP..EHZ,P,1.0,2015-02-23 02:17:07.100
nc72400020,2015-02-23 02:16:49.160,40.2545,-124.15933333333334,11.8,2.2,NC.LPG..EHZ,P,-1.0,2015-02-23 02:17:09.860
nc72400020,2015-02-23 02:16:49.160,40.2545,-124.15933333333334,11.8,2.2,NC.LVR..EHZ,P,-1.0,2015-02-23 02:17:10.320
nc72400020,2015-02-23 02:16:49.160,40.2545,-124.15933333333334,11.8,2.2,PB.B045..EHZ,P,-1.0,2015-02-23 02:16:54.320
nc72400020,2015-02-23 02:16:49.160,40.2545,-124.15933333333334,11.8,2.2,PB.B046..EHZ,P,1.0,2015-02-23 02:16:52.550
nc72400020,2015-02-23 02:16:49.160,40.2545,-124.15933333333334,11.8,2.2,PB.B047..EHZ,P,1.0,2015-02-23 02:16:51.510
nc72400020,2015-02-23 02:16:49.160,40.2545,-124.15933333333334,11.8,2.2,PB.B049..EHZ,P,-1.0,2015-02-23 02:16:55.070
nc72400020,2015-02-23 02:16:49.160,40.2545,-124.15933333333334,11.8,2.2,PB.B932..EHZ,P,1.0,2015-02-23 02:16:51.570
nc72400020,2015-02-23 02:16:49.160,40.2545,-124.15933333333334,11.8,2.2,PB.B933..EHZ,P,-1.0,2015-02-23 02:16:54.650
nc72400020,2015-02-23 02:16:49.160,40.2545,-124.15933333333334,11.8,2.2,PB.B935..EHZ,P,-1.0,2015-02-23 02:17:00.120
nc72400020,2015-02-23 02:16:49.160,40.2545,-124.15933333333334,11.8,2.2,TA.O02D..HHZ,P,-1.0,2015-02-23 02:17:08.380
nc72400565,2015-02-24 03:28:29.000,40.65716666666667,-123.69783333333334,20.53,2.14,BK.JCC..HHZ,P,1.0,2015-02-24 03:28:35.740
nc72400565,2015-02-24 03:28:29.000,40.65716666666667,-123.69783333333334,20.53,2.14,BK.WDC..HHZ,P,-1.0,2015-02-24 03:28:44.780
nc72400565,2015-02-24 03:28:29.000,40.65716666666667,-123.69783333333334,20.53,2.14,NC.KBN..EHZ,P,1.0,2015-02-24 03:28:44.730
nc72400565,2015-02-24 03:28:29.000,40.65716666666667,-123.69783333333334,20.53,2.14,NC.KBS..EHZ,P,,2015-02-24 03:28:43.000
nc72400565,2015-02-24 03:28:29.000,40.65716666666667,-123.69783333333334,20.53,2.14,NC.KCO..EHZ,P,-1.0,2015-02-24 03:28:40.310
nc72400565,2015-02-24 03:28:29.000,40.65716666666667,-123.69783333333334,20.53,2.14,NC.KCR..EHZ,P,1.0,2015-02-24 03:28:35.420
nc72400565,2015-02-24 03:28:29.000,40.65716666666667,-123.69783333333334,20.53,2.14,NC.KCS..EHZ,P,1.0,2015-02-24 03:28:34.680
nc72400565,2015-02-24 03:28:29.000,40.65716666666667,-123.69783333333334,20.53,2.14,NC.KFP..EHZ,P,1.0,2015-02-24 03:28:46.800
nc72400565,2015-02-24 03:28:29.000,40.65716666666667,-123.69783333333334,20.53,2.14,NC.KHBB..HHZ,P,1.0,2015-02-24 03:28:36.880
nc72400565,2015-02-24 03:28:29.000,40.65716666666667,-123.69783333333334,20.53,2.14,NC.KHMB..HHZ,P,-1.0,2015-02-24 03:28:34.860
nc72400565,2015-02-24 03:28:29.000,40.65716666666667,-123.69783333333334,20.53,2.14,NC.KIP..EHZ,P,1.0,2015-02-24 03:28:44.520
nc72400565,2015-02-24 03:28:29.000,40.65716666666667,-123.69783333333334,20.53,2.14,NC.KKP..EHZ,P,-1.0,2015-02-24 03:28:40.070
nc72400565,2015-02-24 03:28:29.000,40.65716666666667,-123.69783333333334,20.53,2.14,NC.KMR..HHZ,P,1.0,2015-02-24 03:28:38.530
nc72400565,2015-02-24 03:28:29.000,40.65716666666667,-123.69783333333334,20.53,2.14,NC.KPP..EHZ,P,1.0,2015-02-24 03:28:37.530
nc72400565,2015-02-24 03:28:29.000,40.65716666666667,-123.69783333333334,20.53,2.14,NC.KRMB..HHZ,P,1.0,2015-02-24 03:28:44.010
nc72400565,2015-02-24 03:28:29.000,40.65716666666667,-123.69783333333334,20.53,2.14,NC.KSM..EHZ,P,1.0,2015-02-24 03:28:40.430
nc72400565,2015-02-24 03:28:29.000,40.65716666666667,-123.69783333333334,20.53,2.14,NC.LBK..EHZ,P,1.0,2015-02-24 03:28:44.690
nc72400565,2015-02-24 03:28:29.000,40.65716666666667,-123.69783333333334,20.53,2.14,NC.LBP..EHZ,P,1.0,2015-02-24 03:28:42.200
nc72400565,2015-02-24 03:28:29.000,40.65716666666667,-123.69783333333334,20.53,2.14,NC.LGB..EHZ,P,-1.0,2015-02-24 03:28:52.330
nc72400565,2015-02-24 03:28:29.000,40.65716666666667,-123.69783333333334,20.53,2.14,NC.LGP..EHZ,P,-1.0,2015-02-24 03:28:41.890
nc72400565,2015-02-24 03:28:29.000,40.65716666666667,-123.69783333333334,20.53,2.14,NC.LPK..EHZ,P,-1.0,2015-02-24 03:28:49.280
nc72400565,2015-02-24 03:28:29.000,40.65716666666667,-123.69783333333334,20.53,2.14,NC.LSR..EHZ,P,1.0,2015-02-24 03:28:50.030
nc72400565,2015-02-24 03:28:29.000,40.65716666666667,-123.69783333333334,20.53,2.14,NC.LVR..EHZ,P,-1.0,2015-02-24 03:28:47.360
nc72400565,2015-02-24 03:28:29.000,40.65716666666667,-123.69783333333334,20.53,2.14,PB.B039..EHZ,P,-1.0,2015-02-24 03:28:49.670
nc72400565,2015-02-24 03:28:29.000,40.65716666666667,-123.69783333333334,20.53,2.14,PB.B040..EHZ,P,1.0,2015-02-24 03:28:54.280
nc72400565,2015-02-24 03:28:29.000,40.65716666666667,-123.69783333333334,20.53,2.14,PB.B045..EHZ,P,1.0,2015-02-24 03:28:36.290
nc72400565,2015-02-24 03:28:29.000,40.65716666666667,-123.69783333333334,20.53,2.14,PB.B046..EHZ,P,-1.0,2015-02-24 03:28:39.740
nc72400565,2015-02-24 03:28:29.000,40.65716666666667,-123.69783333333334,20.53,2.14,PB.B047..EHZ,P,1.0,2015-02-24 03:28:39.540
nc72400565,2015-02-24 03:28:29.000,40.65716666666667,-123.69783333333334,20.53,2.14,PB.B049..EHZ,P,1.0,2015-02-24 03:28:37.900
nc72400565,2015-02-24 03:28:29.000,40.65716666666667,-123.69783333333334,20.53,2.14,PB.B932..EHZ,P,-1.0,2015-02-24 03:28:39.540
nc72400565,2015-02-24 03:28:29.000,40.65716666666667,-123.69783333333334,20.53,2.14,PB.B933..EHZ,P,,2015-02-24 03:28:40.830
nc72400565,2015-02-24 03:28:29.000,40.65716666666667,-123.69783333333334,20.53,2.14,PB.B935..EHZ,P,1.0,2015-02-24 03:28:34.660
nc72400565,2015-02-24 03:28:29.000,40.65716666666667,-123.69783333333334,20.53,2.14,TA.M02C..HHZ,P,1.0,2015-02-24 03:28:45.780
nc72400565,2015-02-24 03:28:29.000,40.65716666666667,-123.69783333333334,20.53,2.14,TA.N02D..HHZ,P,1.0,2015-02-24 03:28:43.500
nc72400565,2015-02-24 03:28:29.000,40.65716666666667,-123.69783333333334,20.53,2.14,TA.O02D..HHZ,P,1.0,2015-02-24 03:28:44.070
nc72401530,2015-02-25 15:53:53.480,40.922666666666665,-123.45,27.71,2.01,BK.JCC..HHZ,P,1.0,2015-02-25 15:54:02.530
nc72401530,2015-02-25 15:53:53.480,40.922666666666665,-123.45,27.71,2.01,BK.WDC..HHZ,P,-1.0,2015-02-25 15:54:07.910
nc72401530,2015-02-25 15:53:53.480,40.922666666666665,-123.45,27.71,2.01,NC.KCS..EHZ,P,1.0,2015-02-25 15:54:02.130
nc72401530,2015-02-25 15:53:53.480,40.922666666666665,-123.45,27.71,2.01,NC.KHBB..HHZ,P,1.0,2015-02-25 15:54:00.960
nc72401530,2015-02-25 15:53:53.480,40.922666666666665,-123.45,27.71,2.01,NC.KHMB..HHZ,P,-1.0,2015-02-25 15:53:59.890
nc72401530,2015-02-25 15:53:53.480,40.922666666666665,-123.45,27.71,2.01,NC.KOM..EHZ,P,-1.0,2015-02-25 15:54:01.410
nc72401530,2015-02-25 15:53:53.480,40.922666666666665,-123.45,27.71,2.01,NC.KRMB..HHZ,P,1.0,2015-02-25 15:54:06.160
nc72401530,2015-02-25 15:53:53.480,40.922666666666665,-123.45,27.71,2.01,NC.LBK..EHZ,P,1.0,2015-02-25 15:54:05.150
nc72401530,2015-02-25 15:53:53.480,40.922666666666665,-123.45,27.71,2.01,NC.LBP..EHZ,P,-1.0,2015-02-25 15:54:07.530
nc72401530,2015-02-25 15:53:53.480,40.922666666666665,-123.45,27.71,2.01,NC.LGP..EHZ,P,1.0,2015-02-25 15:54:03.050
nc72401530,2015-02-25 15:53:53.480,40.922666666666665,-123.45,27.71,2.01,NC.LPK..EHZ,P,,2015-02-25 15:54:09.350
nc72401530,2015-02-25 15:53:53.480,40.922666666666665,-123.45,27.71,2.01,PB.B039..EHZ,P,,2015-02-25 15:54:09.940
nc72401530,2015-02-25 15:53:53.480,40.922666666666665,-123.45,27.71,2.01,PB.B046..EHZ,P,1.0,2015-02-25 15:54:08.410
nc72401530,2015-02-25 15:53:53.480,40.922666666666665,-123.45,27.71,2.01,PB.B935..EHZ,P,-1.0,2015-02-25 15:54:02.990
nc72401530,2015-02-25 15:53:53.480,40.922666666666665,-123.45,27.71,2.01,TA.N02D..HHZ,P,-1.0,2015-02-25 15:54:04.270
nc72401530,2015-02-25 15:53:53.480,40.922666666666665,-123.45,27.71,2.01,TA.O02D..HHZ,P,,2015-02-25 15:54:09.830
nc72404690,2015-03-03 12:06:25.320,40.31366666666667,-123.46616666666667,23.08,1.74,NC.KBN..EHZ,P,1.0,2015-03-03 12:06:35.360
nc72404690,2015-03-03 12:06:25.320,40.31366666666667,-123.46616666666667,23.08,1.74,NC.KBS..EHZ,P,1.0,2015-03-03 12:06:34.460
nc72404690,2015-03-03 12:06:25.320,40.31366666666667,-123.46616666666667,23.08,1.74,NC.KCR..EHZ,P,1.0,2015-03-03 12:06:32.370
nc72404690,2015-03-03 12:06:25.320,40.31366666666667,-123.46616666666667,23.08,1.74,NC.KCS..EHZ,P,1.0,2015-03-03 12:06:31.810
nc72404690,2015-03-03 12:06:25.320,40.31366666666667,-123.46616666666667,23.08,1.74,NC.KHBB..HHZ,P,1.0,2015-03-03 12:06:33.650
nc72404690,2015-03-03 12:06:25.320,40.31366666666667,-123.46616666666667,23.08,1.74,NC.KKP..EHZ,P,-1.0,2015-03-03 12:06:31.140
nc72404690,2015-03-03 12:06:25.320,40.31366666666667,-123.46616666666667,23.08,1.74,NC.KMR..HHZ,P,1.0,2015-03-03 12:06:31.440
nc72404690,2015-03-03 12:06:25.320,40.31366666666667,-123.46616666666667,23.08,1.74,NC.LBP..EHZ,P,1.0,2015-03-03 12:06:34.460
nc72404690,2015-03-03 12:06:25.320,40.31366666666667,-123.46616666666667,23.08,1.74,NC.LGP..EHZ,P,-1.0,2015-03-03 12:06:39.310
nc72404690,2015-03-03 12:06:25.320,40.31366666666667,-123.46616666666667,23.08,1.74,NC.LPG..EHZ,P,1.0,2015-03-03 12:06:37.110
nc72404690,2015-03-03 12:06:25.320,40.31366666666667,-123.46616666666667,23.08,1.74,NC.LVR..EHZ,P,1.0,2015-03-03 12:06:37.980
nc72404690,2015-03-03 12:06:25.320,40.31366666666667,-123.46616666666667,23.08,1.74,PB.B045..EHZ,P,1.0,2015-03-03 12:06:34.150
nc72404690,2015-03-03 12:06:25.320,40.31366666666667,-123.46616666666667,23.08,1.74,PB.B049..EHZ,P,1.0,2015-03-03 12:06:32.000
nc72404690,2015-03-03 12:06:25.320,40.31366666666667,-123.46616666666667,23.08,1.74,PB.B933..EHZ,P,1.0,2015-03-03 12:06:34.680
nc72404690,2015-03-03 12:06:25.320,40.31366666666667,-123.46616666666667,23.08,1.74,PB.B935..EHZ,P,1.0,2015-03-03 12:06:30.990
nc72404690,2015-03-03 12:06:25.320,40.31366666666667,-123.46616666666667,23.08,1.74,TA.O02D..HHZ,P,1.0,2015-03-03 12:06:35.890
nc72404695,2015-03-03 12:10:40.160,40.32183333333333,-123.46733333333333,21.95,2.9,BK.GASB..HHZ,P,,2015-03-03 12:10:56.390
nc72404695,2015-03-03 12:10:40.160,40.32183333333333,-123.46733333333333,21.95,2.9,BK.WDC..HHZ,P,1.0,2015-03-03 12:10:53.600
nc72404695,2015-03-03 12:10:40.160,40.32183333333333,-123.46733333333333,21.95,2.9,NC.GTC..EHZ,P,,2015-03-03 12:10:55.730
nc72404695,2015-03-03 12:10:40.160,40.32183333333333,-123.46733333333333,21.95,2.9,NC.GVV..EHZ,P,,2015-03-03 12:10:54.810
nc72404695,2015-03-03 12:10:40.160,40.32183333333333,-123.46733333333333,21.95,2.9,NC.KBN..EHZ,P,-1.0,2015-03-03 12:10:50.240
nc72404695,2015-03-03 12:10:40.160,40.32183333333333,-123.46733333333333,21.95,2.9,NC.KBS..EHZ,P,-1.0,2015-03-03 12:10:49.160
nc72404695,2015-03-03 12:10:40.160,40.32183333333333,-123.46733333333333,21.95,2.9,NC.KCPB..HHZ,P,1.0,2015-03-03 12:10:52.230
nc72404695,2015-03-03 12:10:40.160,40.32183333333333,-123.46733333333333,21.95,2.9,NC.KFP..EHZ,P,,2015-03-03 12:10:52.510
nc72404695,2015-03-03 12:10:40.160,40.32183333333333,-123.46733333333333,21.95,2.9,NC.KHBB..HHZ,P,1.0,2015-03-03 12:10:48.570
nc72404695,2015-03-03 12:10:40.160,40.32183333333333,-123.46733333333333,21.95,2.9,NC.KIP..EHZ,P,1.0,2015-03-03 12:10:50.380
nc72404695,2015-03-03 12:10:40.160,40.32183333333333,-123.46733333333333,21.95,2.9,NC.KKP..EHZ,P,-1.0,2015-03-03 12:10:46.000
nc72404695,2015-03-03 12:10:40.160,40.32183333333333,-123.46733333333333,21.95,2.9,NC.KMR..HHZ,P,1.0,2015-03-03 12:10:46.290
nc72404695,2015-03-03 12:10:40.160,40.32183333333333,-123.46733333333333,21.95,2.9,NC.LBP..EHZ,P,1.0,2015-03-03 12:10:49.330
nc72404695,2015-03-03 12:10:40.160,40.32183333333333,-123.46733333333333,21.95,2.9,NC.LGP..EHZ,P,-1.0,2015-03-03 12:10:54.170
nc72404695,2015-03-03 12:10:40.160,40.32183333333333,-123.46733333333333,21.95,2.9,NC.LPG..EHZ,P,1.0,2015-03-03 12:10:52.000
nc72404695,2015-03-03 12:10:40.160,40.32183333333333,-123.46733333333333,21.95,2.9,NC.LRB..EHZ,P,,2015-03-03 12:10:53.130
nc72404695,2015-03-03 12:10:40.160,40.32183333333333,-123.46733333333333,21.95,2.9,NC.LVR..EHZ,P,1.0,2015-03-03 12:10:52.830
nc72404695,2015-03-03 12:10:40.160,40.32183333333333,-123.46733333333333,21.95,2.9,PB.B045..EHZ,P,-1.0,2015-03-03 12:10:49.120
nc72404695,2015-03-03 12:10:40.160,40.32183333333333,-123.46733333333333,21.95,2.9,PB.B046..EHZ,P,,2015-03-03 12:10:52.040
nc72404695,2015-03-03 12:10:40.160,40.32183333333333,-123.46733333333333,21.95,2.9,PB.B047..EHZ,P,1.0,2015-03-03 12:10:50.520
nc72404695,2015-03-03 12:10:40.160,40.32183333333333,-123.46733333333333,21.95,2.9,PB.B049..EHZ,P,1.0,2015-03-03 12:10:46.890
nc72404695,2015-03-03 12:10:40.160,40.32183333333333,-123.46733333333333,21.95,2.9,PB.B932..EHZ,P,-1.0,2015-03-03 12:10:50.890
nc72404695,2015-03-03 12:10:40.160,40.32183333333333,-123.46733333333333,21.95,2.9,PB.B933..EHZ,P,1.0,2015-03-03 12:10:49.530
nc72404695,2015-03-03 12:10:40.160,40.32183333333333,-123.46733333333333,21.95,2.9,PB.B935..EHZ,P,-1.0,2015-03-03 12:10:45.860
nc72404695,2015-03-03 12:10:40.160,40.32183333333333,-123.46733333333333,21.95,2.9,TA.M02C..HHZ,P,,2015-03-03 12:10:59.960
nc72404695,2015-03-03 12:10:40.160,40.32183333333333,-123.46733333333333,21.95,2.9,TA.N02D..HHZ,P,1.0,2015-03-03 12:10:55.790
nc72404695,2015-03-03 12:10:40.160,40.32183333333333,-123.46733333333333,21.95,2.9,TA.O02D..HHZ,P,1.0,2015-03-03 12:10:50.770
nc72405815,2015-03-05 15:22:43.600,40.23683333333334,-124.38083333333333,6.91,2.03,BK.JCC..HHZ,P,-1.0,2015-03-05 15:22:56.790
nc72405815,2015-03-05 15:22:43.600,40.23683333333334,-124.38083333333333,6.91,2.03,NC.GGU..EHZ,P,-1.0,2015-03-05 15:23:08.690
nc72405815,2015-03-05 15:22:43.600,40.23683333333334,-124.38083333333333,6.91,2.03,NC.GTC..EHZ,P,-1.0,2015-03-05 15:23:02.110
nc72405815,2015-03-05 15:22:43.600,40.23683333333334,-124.38083333333333,6.91,2.03,NC.GVV..EHZ,P,-1.0,2015-03-05 15:23:07.940
nc72405815,2015-03-05 15:22:43.600,40.23683333333334,-124.38083333333333,6.91,2.03,NC.KBS..EHZ,P,1.0,2015-03-05 15:22:57.680
nc72405815,2015-03-05 15:22:43.600,40.23683333333334,-124.38083333333333,6.91,2.03,NC.KCO..EHZ,P,-1.0,2015-03-05 15:22:46.260
nc72405815,2015-03-05 15:22:43.600,40.23683333333334,-124.38083333333333,6.91,2.03,NC.KCPB..HHZ,P,-1.0,2015-03-05 15:23:00.020
nc72405815,2015-03-05 15:22:43.600,40.23683333333334,-124.38083333333333,6.91,2.03,NC.KCR..EHZ,P,1.0,2015-03-05 15:22:54.050
nc72405815,2015-03-05 15:22:43.600,40.23683333333334,-124.38083333333333,6.91,2.03,NC.KCS..EHZ,P,-1.0,2015-03-05 15:22:59.310
nc72405815,2015-03-05 15:22:43.600,40.23683333333334,-124.38083333333333,6.91,2.03,NC.KCT..HHZ,P,-1.0,2015-03-05 15:22:49.670
nc72405815,2015-03-05 15:22:43.600,40.23683333333334,-124.38083333333333,6.91,2.03,NC.KFP..EHZ,P,,2015-03-05 15:23:01.270
nc72405815,2015-03-05 15:22:43.600,40.23683333333334,-124.38083333333333,6.91,2.03,NC.KHBB..HHZ,P,-1.0,2015-03-05 15:23:02.610
nc72405815,2015-03-05 15:22:43.600,40.23683333333334,-124.38083333333333,6.91,2.03,NC.KHMB..HHZ,P,1.0,2015-03-05 15:22:59.880
