event_id,etime,elat,elon,edep,emag,station_id,phase_type,phase_polarity,phase_time
nc72429905,2015-04-17 13:26:18.080,40.135666666666665,-123.8155,22.33,1.42,PB.B932..EHZ,P,1.0,2015-04-17 13:26:25.400
nc72429905,2015-04-17 13:26:18.080,40.135666666666665,-123.8155,22.33,1.42,PB.B933..EHZ,P,1.0,2015-04-17 13:26:23.080
nc72429905,2015-04-17 13:26:18.080,40.135666666666665,-123.8155,22.33,1.42,PB.B935..EHZ,P,1.0,2015-04-17 13:26:26.650
nc72430035,2015-04-17 19:10:28.430,40.14083333333333,-123.82283333333334,21.95,1.9,NC.GRO..EHZ,P,-1.0,2015-04-17 19:10:45.050
nc72430035,2015-04-17 19:10:28.430,40.14083333333333,-123.82283333333334,21.95,1.9,NC.GVV..EHZ,P,1.0,2015-04-17 19:10:45.480
nc72430035,2015-04-17 19:10:28.430,40.14083333333333,-123.82283333333334,21.95,1.9,NC.KBN..EHZ,P,-1.0,2015-04-17 19:10:39.670
nc72430035,2015-04-17 19:10:28.430,40.14083333333333,-123.82283333333334,21.95,1.9,NC.KBS..EHZ,P,-1.0,2015-04-17 19:10:35.360
nc72430035,2015-04-17 19:10:28.430,40.14083333333333,-123.82283333333334,21.95,1.9,NC.KCO..EHZ,P,1.0,2015-04-17 19:10:36.310
nc72430035,2015-04-17 19:10:28.430,40.14083333333333,-123.82283333333334,21.95,1.9,NC.KCPB..HHZ,P,-1.0,2015-04-17 19:10:38.370
nc72430035,2015-04-17 19:10:28.430,40.14083333333333,-123.82283333333334,21.95,1.9,NC.KCR..EHZ,P,,2015-04-17 19:10:35.290
nc72430035,2015-04-17 19:10:28.430,40.14083333333333,-123.82283333333334,21.95,1.9,NC.KCS..EHZ,P,-1.0,2015-04-17 19:10:38.410
nc72430035,2015-04-17 19:10:28.430,40.14083333333333,-123.82283333333334,21.95,1.9,NC.KFP..EHZ,P,-1.0,2015-04-17 19:10:39.550
nc72430035,2015-04-17 19:10:28.430,40.14083333333333,-123.82283333333334,21.95,1.9,NC.KIP..EHZ,P,-1.0,2015-04-17 19:10:37.410
nc72430035,2015-04-17 19:10:28.430,40.14083333333333,-123.82283333333334,21.95,1.9,NC.KKP..EHZ,P,1.0,2015-04-17 19:10:35.440
nc72430035,2015-04-17 19:10:28.430,40.14083333333333,-123.82283333333334,21.95,1.9,NC.KSM..EHZ,P,1.0,2015-04-17 19:10:35.050
nc72430035,2015-04-17 19:10:28.430,40.14083333333333,-123.82283333333334,21.95,1.9,NC.LBP..EHZ,P,1.0,2015-04-17 19:10:42.030
nc72430035,2015-04-17 19:10:28.430,40.14083333333333,-123.82283333333334,21.95,1.9,NC.LPG..EHZ,P,-1.0,2015-04-17 19:10:44.320
nc72430035,2015-04-17 19:10:28.430,40.14083333333333,-123.82283333333334,21.95,1.9,NC.LVR..EHZ,P,1.0,2015-04-17 19:10:44.550
nc72430035,2015-04-17 19:10:28.430,40.14083333333333,-123.82283333333334,21.95,1.9,PB.B045..EHZ,P,-1.0,2015-04-17 19:10:36.050
nc72430035,2015-04-17 19:10:28.430,40.14083333333333,-123.82283333333334,21.95,1.9,PB.B046..EHZ,P,1.0,2015-04-17 19:10:36.750
nc72430035,2015-04-17 19:10:28.430,40.14083333333333,-123.82283333333334,21.95,1.9,PB.B047..EHZ,P,1.0,2015-04-17 19:10:35.350
nc72430035,2015-04-17 19:10:28.430,40.14083333333333,-123.82283333333334,21.95,1.9,PB.B049..EHZ,P,-1.0,2015-04-17 19:10:32.910
nc72430035,2015-04-17 19:10:28.430,40.14083333333333,-123.82283333333334,21.95,1.9,PB.B932..EHZ,P,1.0,2015-04-17 19:10:35.700
nc72430035,2015-04-17 19:10:28.430,40.14083333333333,-123.82283333333334,21.95,1.9,PB.B933..EHZ,P,1.0,2015-04-17 19:10:33.390
nc72430035,2015-04-17 19:10:28.430,40.14083333333333,-123.82283333333334,21.95,1.9,PB.B935..EHZ,P,1.0,2015-04-17 19:10:36.950
nc72430035,2015-04-17 19:10:28.430,40.14083333333333,-123.82283333333334,21.95,1.9,TA.O02D..HHZ,P,1.0,2015-04-17 19:10:43.130
nc72431300,2015-04-20 02:54:57.370,40.5005,-123.52616666666667,22.42,1.65,BK.JCC..HHZ,P,,2015-04-20 02:55:07.230
nc72431300,2015-04-20 02:54:57.370,40.5005,-123.52616666666667,22.42,1.65,NC.KBS..EHZ,P,,2015-04-20 02:55:08.890
nc72431300,2015-04-20 02:54:57.370,40.5005,-123.52616666666667,22.42,1.65,NC.KCO..EHZ,P,,2015-04-20 02:55:08.710
nc72431300,2015-04-20 02:54:57.370,40.5005,-123.52616666666667,22.42,1.65,NC.KCR..EHZ,P,1.0,2015-04-20 02:55:03.650
nc72431300,2015-04-20 02:54:57.370,40.5005,-123.52616666666667,22.42,1.65,NC.KCS..EHZ,P,-1.0,2015-04-20 02:55:02.000
nc72431300,2015-04-20 02:54:57.370,40.5005,-123.52616666666667,22.42,1.65,NC.KHBB..HHZ,P,1.0,2015-04-20 02:55:04.180
nc72431300,2015-04-20 02:54:57.370,40.5005,-123.52616666666667,22.42,1.65,NC.KKP..EHZ,P,,2015-04-20 02:55:05.680
nc72431300,2015-04-20 02:54:57.370,40.5005,-123.52616666666667,22.42,1.65,NC.KMPB..HHZ,P,1.0,2015-04-20 02:55:06.800
nc72431300,2015-04-20 02:54:57.370,40.5005,-123.52616666666667,22.42,1.65,NC.KMR..HHZ,P,,2015-04-20 02:55:04.910
nc72431300,2015-04-20 02:54:57.370,40.5005,-123.52616666666667,22.42,1.65,NC.KOM..EHZ,P,,2015-04-20 02:55:11.370
nc72431300,2015-04-20 02:54:57.370,40.5005,-123.52616666666667,22.42,1.65,NC.KPP..EHZ,P,1.0,2015-04-20 02:55:03.450
nc72431300,2015-04-20 02:54:57.370,40.5005,-123.52616666666667,22.42,1.65,NC.KSM..EHZ,P,,2015-04-20 02:55:08.490
nc72431300,2015-04-20 02:54:57.370,40.5005,-123.52616666666667,22.42,1.65,NC.LBK..EHZ,P,,2015-04-20 02:55:12.810
nc72431300,2015-04-20 02:54:57.370,40.5005,-123.52616666666667,22.42,1.65,NC.LBP..EHZ,P,1.0,2015-04-20 02:55:07.830
nc72431300,2015-04-20 02:54:57.370,40.5005,-123.52616666666667,22.42,1.65,NC.LGP..EHZ,P,,2015-04-20 02:55:09.890
nc72431300,2015-04-20 02:54:57.370,40.5005,-123.52616666666667,22.42,1.65,PB.B045..EHZ,P,1.0,2015-04-20 02:55:05.330
nc72431300,2015-04-20 02:54:57.370,40.5005,-123.52616666666667,22.42,1.65,PB.B046..EHZ,P,,2015-04-20 02:55:08.380
nc72431300,2015-04-20 02:54:57.370,40.5005,-123.52616666666667,22.42,1.65,PB.B047..EHZ,P,,2015-04-20 02:55:07.790
nc72431300,2015-04-20 02:54:57.370,40.5005,-123.52616666666667,22.42,1.65,PB.B049..EHZ,P,1.0,2015-04-20 02:55:04.940
nc72431300,2015-04-20 02:54:57.370,40.5005,-123.52616666666667,22.42,1.65,PB.B932..EHZ,P,,2015-04-20 02:55:07.930
nc72431300,2015-04-20 02:54:57.370,40.5005,-123.52616666666667,22.42,1.65,PB.B933..EHZ,P,,2015-04-20 02:55:08.270
nc72431300,2015-04-20 02:54:57.370,40.5005,-123.52616666666667,22.42,1.65,PB.B935..EHZ,P,-1.0,2015-04-20 02:55:01.760
nc72431300,2015-04-20 02:54:57.370,40.5005,-123.52616666666667,22.42,1.65,TA.N02D..HHZ,P,,2015-04-20 02:55:11.660
nc72435620,2015-04-26 08:45:11.870,40.412166666666664,-124.262,3.82,0.29,NC.KMPB..HHZ,P,,2015-04-26 08:45:14.540
nc72435620,2015-04-26 08:45:11.870,40.412166666666664,-124.262,3.82,0.29,PB.B046..EHZ,P,-1.0,2015-04-26 08:45:14.270
nc72435620,2015-04-26 08:45:11.870,40.412166666666664,-124.262,3.82,0.29,PB.B047..EHZ,P,-1.0,2015-04-26 08:45:16.160
nc72435620,2015-04-26 08:45:11.870,40.412166666666664,-124.262,3.82,0.29,PB.B932..EHZ,P,1.0,2015-04-26 08:45:15.200
nc72435925,2015-04-26 21:02:54.880,40.109833333333334,-123.77733333333333,21.05,1.37,NC.KBS..EHZ,P,-1.0,2015-04-26 21:03:01.150
nc72435925,2015-04-26 21:02:54.880,40.109833333333334,-123.77733333333333,21.05,1.37,NC.KCO..EHZ,P,,2015-04-26 21:03:03.400
nc72435925,2015-04-26 21:02:54.880,40.109833333333334,-123.77733333333333,21.05,1.37,NC.KFP..EHZ,P,1.0,2015-04-26 21:03:05.410
nc72435925,2015-04-26 21:02:54.880,40.109833333333334,-123.77733333333333,21.05,1.37,NC.KIP..EHZ,P,-1.0,2015-04-26 21:03:03.200
nc72435925,2015-04-26 21:02:54.880,40.109833333333334,-123.77733333333333,21.05,1.37,NC.KKP..EHZ,P,1.0,2015-04-26 21:03:01.400
nc72435925,2015-04-26 21:02:54.880,40.109833333333334,-123.77733333333333,21.05,1.37,NC.KMR..HHZ,P,1.0,2015-04-26 21:02:59.580
nc72435925,2015-04-26 21:02:54.880,40.109833333333334,-123.77733333333333,21.05,1.37,NC.KSM..EHZ,P,1.0,2015-04-26 21:03:02.050
nc72435925,2015-04-26 21:02:54.880,40.109833333333334,-123.77733333333333,21.05,1.37,PB.B045..EHZ,P,,2015-04-26 21:03:03.170
nc72435925,2015-04-26 21:02:54.880,40.109833333333334,-123.77733333333333,21.05,1.37,PB.B046..EHZ,P,1.0,2015-04-26 21:03:03.860
nc72435925,2015-04-26 21:02:54.880,40.109833333333334,-123.77733333333333,21.05,1.37,PB.B047..EHZ,P,1.0,2015-04-26 21:03:02.420
nc72435925,2015-04-26 21:02:54.880,40.109833333333334,-123.77733333333333,21.05,1.37,PB.B049..EHZ,P,1.0,2015-04-26 21:02:59.550
nc72435925,2015-04-26 21:02:54.880,40.109833333333334,-123.77733333333333,21.05,1.37,PB.B932..EHZ,P,1.0,2015-04-26 21:03:02.810
nc72435925,2015-04-26 21:02:54.880,40.109833333333334,-123.77733333333333,21.05,1.37,PB.B933..EHZ,P,1.0,2015-04-26 21:02:59.950
nc72435925,2015-04-26 21:02:54.880,40.109833333333334,-123.77733333333333,21.05,1.37,PB.B935..EHZ,P,-1.0,2015-04-26 21:03:03.650
nc72438320,2015-05-01 13:28:16.140,40.096,-123.75333333333333,19.69,1.57,NC.KBN..EHZ,P,1.0,2015-05-01 13:28:26.370
nc72438320,2015-05-01 13:28:16.140,40.096,-123.75333333333333,19.69,1.57,NC.KBS..EHZ,P,-1.0,2015-05-01 13:28:22.120
nc72438320,2015-05-01 13:28:16.140,40.096,-123.75333333333333,19.69,1.57,NC.KCO..EHZ,P,1.0,2015-05-01 13:28:24.890
nc72438320,2015-05-01 13:28:16.140,40.096,-123.75333333333333,19.69,1.57,NC.KCPB..HHZ,P,,2015-05-01 13:28:25.190
nc72438320,2015-05-01 13:28:16.140,40.096,-123.75333333333333,19.69,1.57,NC.KCR..EHZ,P,-1.0,2015-05-01 13:28:23.660
nc72438320,2015-05-01 13:28:16.140,40.096,-123.75333333333333,19.69,1.57,NC.KCS..EHZ,P,,2015-05-01 13:28:26.330
nc72438320,2015-05-01 13:28:16.140,40.096,-123.75333333333333,19.69,1.57,NC.KFP..EHZ,P,-1.0,2015-05-01 13:28:26.330
nc72438320,2015-05-01 13:28:16.140,40.096,-123.75333333333333,19.69,1.57,NC.KIP..EHZ,P,-1.0,2015-05-01 13:28:24.160
nc72438320,2015-05-01 13:28:16.140,40.096,-123.75333333333333,19.69,1.57,NC.KKP..EHZ,P,1.0,2015-05-01 13:28:22.340
nc72438320,2015-05-01 13:28:16.140,40.096,-123.75333333333333,19.69,1.57,NC.KMPB..HHZ,P,-1.0,2015-05-01 13:28:25.280
nc72438320,2015-05-01 13:28:16.140,40.096,-123.75333333333333,19.69,1.57,NC.KMR..HHZ,P,-1.0,2015-05-01 13:28:20.800
nc72438320,2015-05-01 13:28:16.140,40.096,-123.75333333333333,19.69,1.57,NC.KSM..EHZ,P,1.0,2015-05-01 13:28:23.510
nc72438320,2015-05-01 13:28:16.140,40.096,-123.75333333333333,19.69,1.57,NC.LBP..EHZ,P,,2015-05-01 13:28:29.330
nc72438320,2015-05-01 13:28:16.140,40.096,-123.75333333333333,19.69,1.57,NC.LPG..EHZ,P,,2015-05-01 13:28:31.390
nc72438320,2015-05-01 13:28:16.140,40.096,-123.75333333333333,19.69,1.57,PB.B045..EHZ,P,-1.0,2015-05-01 13:28:24.670
nc72438320,2015-05-01 13:28:16.140,40.096,-123.75333333333333,19.69,1.57,PB.B046..EHZ,P,1.0,2015-05-01 13:28:25.370
nc72438320,2015-05-01 13:28:16.140,40.096,-123.75333333333333,19.69,1.57,PB.B047..EHZ,P,1.0,2015-05-01 13:28:23.920
nc72438320,2015-05-01 13:28:16.140,40.096,-123.75333333333333,19.69,1.57,PB.B049..EHZ,P,1.0,2015-05-01 13:28:20.890
nc72438320,2015-05-01 13:28:16.140,40.096,-123.75333333333333,19.69,1.57,PB.B932..EHZ,P,1.0,2015-05-01 13:28:24.300
nc72438320,2015-05-01 13:28:16.140,40.096,-123.75333333333333,19.69,1.57,PB.B933..EHZ,P,1.0,2015-05-01 13:28:21.290
nc72438320,2015-05-01 13:28:16.140,40.096,-123.75333333333333,19.69,1.57,PB.B935..EHZ,P,-1.0,2015-05-01 13:28:24.910
nc72439685,2015-05-03 23:48:29.700,40.146,-123.83316666666667,22.58,1.86,NC.KBN..EHZ,P,1.0,2015-05-03 23:48:41.320
nc72439685,2015-05-03 23:48:29.700,40.146,-123.83316666666667,22.58,1.86,NC.KBS..EHZ,P,-1.0,2015-05-03 23:48:36.830
nc72439685,2015-05-03 23:48:29.700,40.146,-123.83316666666667,22.58,1.86,NC.KCO..EHZ,P,1.0,2015-05-03 23:48:37.460
nc72439685,2015-05-03 23:48:29.700,40.146,-123.83316666666667,22.58,1.86,NC.KCT..HHZ,P,-1.0,2015-05-03 23:48:40.750
nc72439685,2015-05-03 23:48:29.700,40.146,-123.83316666666667,22.58,1.86,NC.KFP..EHZ,P,1.0,2015-05-03 23:48:41.100
nc72439685,2015-05-03 23:48:29.700,40.146,-123.83316666666667,22.58,1.86,NC.KHBB..HHZ,P,,2015-05-03 23:48:43.230
nc72439685,2015-05-03 23:48:29.700,40.146,-123.83316666666667,22.58,1.86,NC.KKP..EHZ,P,1.0,2015-05-03 23:48:36.990
nc72439685,2015-05-03 23:48:29.700,40.146,-123.83316666666667,22.58,1.86,NC.KMPB..HHZ,P,-1.0,2015-05-03 23:48:37.690
nc72439685,2015-05-03 23:48:29.700,40.146,-123.83316666666667,22.58,1.86,NC.KMR..HHZ,P,-1.0,2015-05-03 23:48:34.600
nc72439685,2015-05-03 23:48:29.700,40.146,-123.83316666666667,22.58,1.86,NC.KSM..EHZ,P,1.0,2015-05-03 23:48:36.200
nc72439685,2015-05-03 23:48:29.700,40.146,-123.83316666666667,22.58,1.86,NC.LBP..EHZ,P,-1.0,2015-05-03 23:48:43.660
nc72439685,2015-05-03 23:48:29.700,40.146,-123.83316666666667,22.58,1.86,NC.LPG..EHZ,P,1.0,2015-05-03 23:48:46.270
nc72439685,2015-05-03 23:48:29.700,40.146,-123.83316666666667,22.58,1.86,NC.LVR..EHZ,P,1.0,2015-05-03 23:48:46.290
nc72439685,2015-05-03 23:48:29.700,40.146,-123.83316666666667,22.58,1.86,PB.B045..EHZ,P,1.0,2015-05-03 23:48:37.020
nc72439685,2015-05-03 23:48:29.700,40.146,-123.83316666666667,22.58,1.86,PB.B046..EHZ,P,1.0,2015-05-03 23:48:37.870
nc72439685,2015-05-03 23:48:29.700,40.146,-123.83316666666667,22.58,1.86,PB.B047..EHZ,P,1.0,2015-05-03 23:48:36.480
nc72439685,2015-05-03 23:48:29.700,40.146,-123.83316666666667,22.58,1.86,PB.B049..EHZ,P,-1.0,2015-05-03 23:48:34.140
nc72439685,2015-05-03 23:48:29.700,40.146,-123.83316666666667,22.58,1.86,PB.B932..EHZ,P,1.0,2015-05-03 23:48:36.840
nc72439685,2015-05-03 23:48:29.700,40.146,-123.83316666666667,22.58,1.86,PB.B933..EHZ,P,1.0,2015-05-03 23:48:34.640
nc72439685,2015-05-03 23:48:29.700,40.146,-123.83316666666667,22.58,1.86,PB.B935..EHZ,P,1.0,2015-05-03 23:48:38.370
nc72439685,2015-05-03 23:48:29.700,40.146,-123.83316666666667,22.58,1.86,TA.O02D..HHZ,P,-1.0,2015-05-03 23:48:44.650
nc72444356,2015-05-06 19:49:32.520,40.14233333333333,-123.82316666666667,21.73,2.73,BK.GASB..HHZ,P,-1.0,2015-05-06 19:49:49.270
nc72444356,2015-05-06 19:49:32.520,40.14233333333333,-123.82316666666667,21.73,2.73,BK.HOPS..HHZ,P,-1.0,2015-05-06 19:49:54.710
nc72444356,2015-05-06 19:49:32.520,40.14233333333333,-123.82316666666667,21.73,2.73,BK.JCC..HHZ,P,-1.0,2015-05-06 19:49:45.050
nc72444356,2015-05-06 19:49:32.520,40.14233333333333,-123.82316666666667,21.73,2.73,BK.WDC..HHZ,P,-1.0,2015-05-06 19:49:50.360
nc72444356,2015-05-06 19:49:32.520,40.14233333333333,-123.82316666666667,21.73,2.73,NC.GBB..EHZ,P,,2015-05-06 19:49:53.320
nc72444356,2015-05-06 19:49:32.520,40.14233333333333,-123.82316666666667,21.73,2.73,NC.GCK..EHZ,P,1.0,2015-05-06 19:49:53.660
nc72444356,2015-05-06 19:49:32.520,40.14233333333333,-123.82316666666667,21.73,2.73,NC.GHM..EHZ,P,-1.0,2015-05-06 19:49:48.590
nc72444356,2015-05-06 19:49:32.520,40.14233333333333,-123.82316666666667,21.73,2.73,NC.GHO..EHZ,P,-1.0,2015-05-06 19:49:50.380
nc72444356,2015-05-06 19:49:32.520,40.14233333333333,-123.82316666666667,21.73,2.73,NC.GRO..EHZ,P,-1.0,2015-05-06 19:49:48.710
nc72444356,2015-05-06 19:49:32.520,40.14233333333333,-123.82316666666667,21.73,2.73,NC.GTC..EHZ,P,-1.0,2015-05-06 19:49:45.800
nc72444356,2015-05-06 19:49:32.520,40.14233333333333,-123.82316666666667,21.73,2.73,NC.GTS..EHZ,P,-1.0,2015-05-06 19:49:53.190
nc72444356,2015-05-06 19:49:32.520,40.14233333333333,-123.82316666666667,21.73,2.73,NC.GVV..EHZ,P,-1.0,2015-05-06 19:49:49.290
nc72444356,2015-05-06 19:49:32.520,40.14233333333333,-123.82316666666667,21.73,2.73,NC.KBN..EHZ,P,1.0,2015-05-06 19:49:43.710
nc72444356,2015-05-06 19:49:32.520,40.14233333333333,-123.82316666666667,21.73,2.73,NC.KBS..EHZ,P,1.0,2015-05-06 19:49:39.470
nc72444356,2015-05-06 19:49:32.520,40.14233333333333,-123.82316666666667,21.73,2.73,NC.KCO..EHZ,P,1.0,2015-05-06 19:49:40.330
nc72444356,2015-05-06 19:49:32.520,40.14233333333333,-123.82316666666667,21.73,2.73,NC.KCPB..HHZ,P,1.0,2015-05-06 19:49:42.430
nc72444356,2015-05-06 19:49:32.520,40.14233333333333,-123.82316666666667,21.73,2.73,NC.KCR..EHZ,P,1.0,2015-05-06 19:49:39.340
nc72444356,2015-05-06 19:49:32.520,40.14233333333333,-123.82316666666667,21.73,2.73,NC.KCS..EHZ,P,1.0,2015-05-06 19:49:42.430
nc72444356,2015-05-06 19:49:32.520,40.14233333333333,-123.82316666666667,21.73,2.73,NC.KFP..EHZ,P,1.0,2015-05-06 19:49:43.580
nc72444356,2015-05-06 19:49:32.520,40.14233333333333,-123.82316666666667,21.73,2.73,NC.KHBB..HHZ,P,-1.0,2015-05-06 19:49:45.460
nc72444356,2015-05-06 19:49:32.520,40.14233333333333,-123.82316666666667,21.73,2.73,NC.KHMB..HHZ,P,1.0,2015-05-06 19:49:45.820
nc72444356,2015-05-06 19:49:32.520,40.14233333333333,-123.82316666666667,21.73,2.73,NC.KIP..EHZ,P,1.0,2015-05-06 19:49:41.360
nc72444356,2015-05-06 19:49:32.520,40.14233333333333,-123.82316666666667,21.73,2.73,NC.KKP..EHZ,P,1.0,2015-05-06 19:49:39.540
nc72444356,2015-05-06 19:49:32.520,40.14233333333333,-123.82316666666667,21.73,2.73,NC.KMPB..HHZ,P,1.0,2015-05-06 19:49:40.480
nc72444356,2015-05-06 19:49:32.520,40.14233333333333,-123.82316666666667,21.73,2.73,NC.KMR..HHZ,P,-1.0,2015-05-06 19:49:37.300
nc72444356,2015-05-06 19:49:32.520,40.14233333333333,-123.82316666666667,21.73,2.73,NC.KPP..EHZ,P,1.0,2015-05-06 19:49:41.510
nc72444356,2015-05-06 19:49:32.520,40.14233333333333,-123.82316666666667,21.73,2.73,NC.KRMB..HHZ,P,1.0,2015-05-06 19:49:54.760
nc72444356,2015-05-06 19:49:32.520,40.14233333333333,-123.82316666666667,21.73,2.73,NC.KSM..EHZ,P,1.0,2015-05-06 19:49:39.060
nc72444356,2015-05-06 19:49:32.520,40.14233333333333,-123.82316666666667,21.73,2.73,NC.LBC..EHZ,P,-1.0,2015-05-06 19:50:04.480
nc72444356,2015-05-06 19:49:32.520,40.14233333333333,-123.82316666666667,21.73,2.73,NC.LBK..EHZ,P,-1.0,2015-05-06 19:49:54.150
nc72444356,2015-05-06 19:49:32.520,40.14233333333333,-123.82316666666667,21.73,2.73,NC.LBP..EHZ,P,1.0,2015-05-06 19:49:46.100
nc72444356,2015-05-06 19:49:32.520,40.14233333333333,-123.82316666666667,21.73,2.73,NC.LDH..HHZ,P,1.0,2015-05-06 19:50:00.650
nc72444356,2015-05-06 19:49:32.520,40.14233333333333,-123.82316666666667,21.73,2.73,NC.LGP..EHZ,P,,2015-05-06 19:49:50.790
nc72444356,2015-05-06 19:49:32.520,40.14233333333333,-123.82316666666667,21.73,2.73,NC.LMI..EHZ,P,-1.0,2015-05-06 19:49:54.750
nc72444356,2015-05-06 19:49:32.520,40.14233333333333,-123.82316666666667,21.73,2.73,NC.LPG..EHZ,P,-1.0,2015-05-06 19:49:48.330
nc72444356,2015-05-06 19:49:32.520,40.14233333333333,-123.82316666666667,21.73,2.73,NC.LPK..EHZ,P,-1.0,2015-05-06 19:49:59.350
nc72444356,2015-05-06 19:49:32.520,40.14233333333333,-123.82316666666667,21.73,2.73,NC.LRB..EHZ,P,-1.0,2015-05-06 19:49:50.300
nc72444356,2015-05-06 19:49:32.520,40.14233333333333,-123.82316666666667,21.73,2.73,NC.LTC..EHZ,P,-1.0,2015-05-06 19:49:54.180
nc72444356,2015-05-06 19:49:32.520,40.14233333333333,-123.82316666666667,21.73,2.73,NC.LVR..EHZ,P,-1.0,2015-05-06 19:49:48.690
nc72444356,2015-05-06 19:49:32.520,40.14233333333333,-123.82316666666667,21.73,2.73,NC.OGO..EHZ,P,1.0,2015-05-06 19:50:00.090
nc72444356,2015-05-06 19:49:32.520,40.14233333333333,-123.82316666666667,21.73,2.73,NP.1725..HNZ,P,-1.0,2015-05-06 19:49:44.270
nc72444356,2015-05-06 19:49:32.520,40.14233333333333,-123.82316666666667,21.73,2.73,PB.B045..EHZ,P,1.0,2015-05-06 19:49:39.830
nc72444356,2015-05-06 19:49:32.520,40.14233333333333,-123.82316666666667,21.73,2.73,PB.B046..EHZ,P,1.0,2015-05-06 19:49:40.770
nc72444356,2015-05-06 19:49:32.520,40.14233333333333,-123.82316666666667,21.73,2.73,PB.B047..EHZ,P,1.0,2015-05-06 19:49:39.380
nc72444356,2015-05-06 19:49:32.520,40.14233333333333,-123.82316666666667,21.73,2.73,PB.B049..EHZ,P,-1.0,2015-05-06 19:49:36.950
nc72444356,2015-05-06 19:49:32.520,40.14233333333333,-123.82316666666667,21.73,2.73,PB.B932..EHZ,P,1.0,2015-05-06 19:49:39.730
nc72444356,2015-05-06 19:49:32.520,40.14233333333333,-123.82316666666667,21.73,2.73,PB.B933..EHZ,P,1.0,2015-05-06 19:49:37.440
nc72444356,2015-05-06 19:49:32.520,40.14233333333333,-123.82316666666667,21.73,2.73,PB.B934..EHZ,P,1.0,2015-05-06 19:49:39.540
nc72444356,2015-05-06 19:49:32.520,40.14233333333333,-123.82316666666667,21.73,2.73,TA.M02C..HHZ,P,1.0,2015-05-06 19:49:56.370
nc72444356,2015-05-06 19:49:32.520,40.14233333333333,-123.82316666666667,21.73,2.73,TA.N02D..HHZ,P,1.0,2015-05-06 19:49:52.800
nc72444356,2015-05-06 19:49:32.520,40.14233333333333,-123.82316666666667,21.73,2.73,TA.O02D..HHZ,P,1.0,2015-05-06 19:49:47.010
nc72444376,2015-05-06 20:20:48.330,40.142,-123.81916666666666,22.92,1.85,BK.GASB..HHZ,P,,2015-05-06 20:21:04.810
nc72444376,2015-05-06 20:20:48.330,40.142,-123.81916666666666,22.92,1.85,NC.GVV..EHZ,P,1.0,2015-05-06 20:21:05.490
nc72444376,2015-05-06 20:20:48.330,40.142,-123.81916666666666,22.92,1.85,NC.KBN..EHZ,P,-1.0,2015-05-06 20:20:59.750
nc72444376,2015-05-06 20:20:48.330,40.142,-123.81916666666666,22.92,1.85,NC.KBS..EHZ,P,1.0,2015-05-06 20:20:55.330
