event_id,etime,elat,elon,edep,emag,station_id,phase_type,phase_polarity,phase_time
nc72444376,2015-05-06 20:20:48.330,40.142,-123.81916666666666,22.92,1.85,NC.KCO..EHZ,P,1.0,2015-05-06 20:20:56.240
nc72444376,2015-05-06 20:20:48.330,40.142,-123.81916666666666,22.92,1.85,NC.KCPB..HHZ,P,,2015-05-06 20:20:58.300
nc72444376,2015-05-06 20:20:48.330,40.142,-123.81916666666666,22.92,1.85,NC.KFP..EHZ,P,1.0,2015-05-06 20:20:59.460
nc72444376,2015-05-06 20:20:48.330,40.142,-123.81916666666666,22.92,1.85,NC.KIP..EHZ,P,1.0,2015-05-06 20:20:57.370
nc72444376,2015-05-06 20:20:48.330,40.142,-123.81916666666666,22.92,1.85,NC.KKP..EHZ,P,1.0,2015-05-06 20:20:55.470
nc72444376,2015-05-06 20:20:48.330,40.142,-123.81916666666666,22.92,1.85,NC.KMR..HHZ,P,-1.0,2015-05-06 20:20:53.180
nc72444376,2015-05-06 20:20:48.330,40.142,-123.81916666666666,22.92,1.85,NC.KSM..EHZ,P,1.0,2015-05-06 20:20:55.030
nc72444376,2015-05-06 20:20:48.330,40.142,-123.81916666666666,22.92,1.85,NC.LPG..EHZ,P,-1.0,2015-05-06 20:21:04.500
nc72444376,2015-05-06 20:20:48.330,40.142,-123.81916666666666,22.92,1.85,PB.B045..EHZ,P,1.0,2015-05-06 20:20:55.770
nc72444376,2015-05-06 20:20:48.330,40.142,-123.81916666666666,22.92,1.85,PB.B046..EHZ,P,1.0,2015-05-06 20:20:56.680
nc72444376,2015-05-06 20:20:48.330,40.142,-123.81916666666666,22.92,1.85,PB.B047..EHZ,P,1.0,2015-05-06 20:20:55.290
nc72444376,2015-05-06 20:20:48.330,40.142,-123.81916666666666,22.92,1.85,PB.B049..EHZ,P,-1.0,2015-05-06 20:20:52.850
nc72444376,2015-05-06 20:20:48.330,40.142,-123.81916666666666,22.92,1.85,PB.B932..EHZ,P,1.0,2015-05-06 20:20:55.630
nc72444376,2015-05-06 20:20:48.330,40.142,-123.81916666666666,22.92,1.85,PB.B933..EHZ,P,-1.0,2015-05-06 20:20:53.320
nc72444376,2015-05-06 20:20:48.330,40.142,-123.81916666666666,22.92,1.85,TA.O02D..HHZ,P,-1.0,2015-05-06 20:21:03.180
nc72444386,2015-05-06 20:37:19.100,40.14183333333333,-123.82416666666667,22.21,2.75,BK.GASB..HHZ,P,1.0,2015-05-06 20:37:35.910
nc72444386,2015-05-06 20:37:19.100,40.14183333333333,-123.82416666666667,22.21,2.75,BK.HATC..HHZ,P,1.0,2015-05-06 20:37:49.980
nc72444386,2015-05-06 20:37:19.100,40.14183333333333,-123.82416666666667,22.21,2.75,BK.WDC..HHZ,P,-1.0,2015-05-06 20:37:36.980
nc72444386,2015-05-06 20:37:19.100,40.14183333333333,-123.82416666666667,22.21,2.75,NC.GCK..EHZ,P,1.0,2015-05-06 20:37:40.250
nc72444386,2015-05-06 20:37:19.100,40.14183333333333,-123.82416666666667,22.21,2.75,NC.GHM..EHZ,P,1.0,2015-05-06 20:37:35.130
nc72444386,2015-05-06 20:37:19.100,40.14183333333333,-123.82416666666667,22.21,2.75,NC.GHO..EHZ,P,-1.0,2015-05-06 20:37:36.940
nc72444386,2015-05-06 20:37:19.100,40.14183333333333,-123.82416666666667,22.21,2.75,NC.GRO..EHZ,P,-1.0,2015-05-06 20:37:35.410
nc72444386,2015-05-06 20:37:19.100,40.14183333333333,-123.82416666666667,22.21,2.75,NC.GTC..EHZ,P,-1.0,2015-05-06 20:37:32.400
nc72444386,2015-05-06 20:37:19.100,40.14183333333333,-123.82416666666667,22.21,2.75,NC.GVV..EHZ,P,-1.0,2015-05-06 20:37:35.870
nc72444386,2015-05-06 20:37:19.100,40.14183333333333,-123.82416666666667,22.21,2.75,NC.KBN..EHZ,P,1.0,2015-05-06 20:37:30.250
nc72444386,2015-05-06 20:37:19.100,40.14183333333333,-123.82416666666667,22.21,2.75,NC.KBS..EHZ,P,1.0,2015-05-06 20:37:26.070
nc72444386,2015-05-06 20:37:19.100,40.14183333333333,-123.82416666666667,22.21,2.75,NC.KCO..EHZ,P,1.0,2015-05-06 20:37:26.970
nc72444386,2015-05-06 20:37:19.100,40.14183333333333,-123.82416666666667,22.21,2.75,NC.KCPB..HHZ,P,1.0,2015-05-06 20:37:28.980
nc72444386,2015-05-06 20:37:19.100,40.14183333333333,-123.82416666666667,22.21,2.75,NC.KCR..EHZ,P,1.0,2015-05-06 20:37:25.930
nc72444386,2015-05-06 20:37:19.100,40.14183333333333,-123.82416666666667,22.21,2.75,NC.KCS..EHZ,P,1.0,2015-05-06 20:37:29.000
nc72444386,2015-05-06 20:37:19.100,40.14183333333333,-123.82416666666667,22.21,2.75,NC.KFP..EHZ,P,1.0,2015-05-06 20:37:30.150
nc72444386,2015-05-06 20:37:19.100,40.14183333333333,-123.82416666666667,22.21,2.75,NC.KHBB..HHZ,P,1.0,2015-05-06 20:37:31.990
nc72444386,2015-05-06 20:37:19.100,40.14183333333333,-123.82416666666667,22.21,2.75,NC.KIP..EHZ,P,1.0,2015-05-06 20:37:27.920
nc72444386,2015-05-06 20:37:19.100,40.14183333333333,-123.82416666666667,22.21,2.75,NC.KKP..EHZ,P,1.0,2015-05-06 20:37:26.150
nc72444386,2015-05-06 20:37:19.100,40.14183333333333,-123.82416666666667,22.21,2.75,NC.KMPB..HHZ,P,1.0,2015-05-06 20:37:27.080
nc72444386,2015-05-06 20:37:19.100,40.14183333333333,-123.82416666666667,22.21,2.75,NC.KMR..HHZ,P,-1.0,2015-05-06 20:37:23.910
nc72444386,2015-05-06 20:37:19.100,40.14183333333333,-123.82416666666667,22.21,2.75,NC.KOM..EHZ,P,1.0,2015-05-06 20:37:38.530
nc72444386,2015-05-06 20:37:19.100,40.14183333333333,-123.82416666666667,22.21,2.75,NC.KPP..EHZ,P,1.0,2015-05-06 20:37:28.110
nc72444386,2015-05-06 20:37:19.100,40.14183333333333,-123.82416666666667,22.21,2.75,NC.KRMB..HHZ,P,-1.0,2015-05-06 20:37:41.300
nc72444386,2015-05-06 20:37:19.100,40.14183333333333,-123.82416666666667,22.21,2.75,NC.KSM..EHZ,P,1.0,2015-05-06 20:37:25.680
nc72444386,2015-05-06 20:37:19.100,40.14183333333333,-123.82416666666667,22.21,2.75,NC.LBC..EHZ,P,1.0,2015-05-06 20:37:51.200
nc72444386,2015-05-06 20:37:19.100,40.14183333333333,-123.82416666666667,22.21,2.75,NC.LBK..EHZ,P,1.0,2015-05-06 20:37:40.720
nc72444386,2015-05-06 20:37:19.100,40.14183333333333,-123.82416666666667,22.21,2.75,NC.LBP..EHZ,P,1.0,2015-05-06 20:37:32.710
nc72444386,2015-05-06 20:37:19.100,40.14183333333333,-123.82416666666667,22.21,2.75,NC.LDH..HHZ,P,1.0,2015-05-06 20:37:47.180
nc72444386,2015-05-06 20:37:19.100,40.14183333333333,-123.82416666666667,22.21,2.75,NC.LEL..EHZ,P,-1.0,2015-05-06 20:37:47.470
nc72444386,2015-05-06 20:37:19.100,40.14183333333333,-123.82416666666667,22.21,2.75,NC.LGP..EHZ,P,1.0,2015-05-06 20:37:37.670
nc72444386,2015-05-06 20:37:19.100,40.14183333333333,-123.82416666666667,22.21,2.75,NC.LMI..EHZ,P,-1.0,2015-05-06 20:37:41.350
nc72444386,2015-05-06 20:37:19.100,40.14183333333333,-123.82416666666667,22.21,2.75,NC.LPG..EHZ,P,-1.0,2015-05-06 20:37:34.920
nc72444386,2015-05-06 20:37:19.100,40.14183333333333,-123.82416666666667,22.21,2.75,NC.LPK..EHZ,P,-1.0,2015-05-06 20:37:46.010
nc72444386,2015-05-06 20:37:19.100,40.14183333333333,-123.82416666666667,22.21,2.75,NC.LRB..EHZ,P,-1.0,2015-05-06 20:37:36.920
nc72444386,2015-05-06 20:37:19.100,40.14183333333333,-123.82416666666667,22.21,2.75,NC.LRD..EHZ,P,-1.0,2015-05-06 20:37:48.620
nc72444386,2015-05-06 20:37:19.100,40.14183333333333,-123.82416666666667,22.21,2.75,NC.LRR..EHZ,P,-1.0,2015-05-06 20:37:46.530
nc72444386,2015-05-06 20:37:19.100,40.14183333333333,-123.82416666666667,22.21,2.75,NC.LSI..EHZ,P,-1.0,2015-05-06 20:37:48.650
nc72444386,2015-05-06 20:37:19.100,40.14183333333333,-123.82416666666667,22.21,2.75,NC.LSR..EHZ,P,,2015-05-06 20:37:44.070
nc72444386,2015-05-06 20:37:19.100,40.14183333333333,-123.82416666666667,22.21,2.75,NC.LTC..EHZ,P,1.0,2015-05-06 20:37:40.610
nc72444386,2015-05-06 20:37:19.100,40.14183333333333,-123.82416666666667,22.21,2.75,NC.LVR..EHZ,P,-1.0,2015-05-06 20:37:35.110
nc72444386,2015-05-06 20:37:19.100,40.14183333333333,-123.82416666666667,22.21,2.75,NC.LWH..EHZ,P,1.0,2015-05-06 20:37:43.600
nc72444386,2015-05-06 20:37:19.100,40.14183333333333,-123.82416666666667,22.21,2.75,NC.OCR..EHZ,P,1.0,2015-05-06 20:37:44.370
nc72444386,2015-05-06 20:37:19.100,40.14183333333333,-123.82416666666667,22.21,2.75,NN.SBT..EHZ,P,-1.0,2015-05-06 20:37:58.590
nc72444386,2015-05-06 20:37:19.100,40.14183333333333,-123.82416666666667,22.21,2.75,NP.1582..HNZ,P,-1.0,2015-05-06 20:37:31.740
nc72444386,2015-05-06 20:37:19.100,40.14183333333333,-123.82416666666667,22.21,2.75,NP.1725..HNZ,P,-1.0,2015-05-06 20:37:30.830
nc72444386,2015-05-06 20:37:19.100,40.14183333333333,-123.82416666666667,22.21,2.75,PB.B045..EHZ,P,1.0,2015-05-06 20:37:26.460
nc72444386,2015-05-06 20:37:19.100,40.14183333333333,-123.82416666666667,22.21,2.75,PB.B046..EHZ,P,1.0,2015-05-06 20:37:27.360
nc72444386,2015-05-06 20:37:19.100,40.14183333333333,-123.82416666666667,22.21,2.75,PB.B047..EHZ,P,1.0,2015-05-06 20:37:26.000
nc72444386,2015-05-06 20:37:19.100,40.14183333333333,-123.82416666666667,22.21,2.75,PB.B049..EHZ,P,-1.0,2015-05-06 20:37:23.550
nc72444386,2015-05-06 20:37:19.100,40.14183333333333,-123.82416666666667,22.21,2.75,PB.B932..EHZ,P,1.0,2015-05-06 20:37:26.360
nc72444386,2015-05-06 20:37:19.100,40.14183333333333,-123.82416666666667,22.21,2.75,PB.B933..EHZ,P,1.0,2015-05-06 20:37:24.030
nc72444386,2015-05-06 20:37:19.100,40.14183333333333,-123.82416666666667,22.21,2.75,PB.B934..EHZ,P,1.0,2015-05-06 20:37:26.150
nc72444386,2015-05-06 20:37:19.100,40.14183333333333,-123.82416666666667,22.21,2.75,TA.M02C..HHZ,P,,2015-05-06 20:37:42.930
nc72444386,2015-05-06 20:37:19.100,40.14183333333333,-123.82416666666667,22.21,2.75,TA.N02D..HHZ,P,1.0,2015-05-06 20:37:39.290
nc72444386,2015-05-06 20:37:19.100,40.14183333333333,-123.82416666666667,22.21,2.75,TA.O02D..HHZ,P,-1.0,2015-05-06 20:37:33.750
nc72444571,2015-05-07 07:05:30.320,40.142,-123.82266666666666,22.35,2.03,BK.GASB..HHZ,P,,2015-05-07 07:05:47.130
nc72444571,2015-05-07 07:05:30.320,40.142,-123.82266666666666,22.35,2.03,BK.JCC..HHZ,P,-1.0,2015-05-07 07:05:42.760
nc72444571,2015-05-07 07:05:30.320,40.142,-123.82266666666666,22.35,2.03,NC.GRO..EHZ,P,-1.0,2015-05-07 07:05:47.010
nc72444571,2015-05-07 07:05:30.320,40.142,-123.82266666666666,22.35,2.03,NC.GVV..EHZ,P,-1.0,2015-05-07 07:05:47.750
nc72444571,2015-05-07 07:05:30.320,40.142,-123.82266666666666,22.35,2.03,NC.KBN..EHZ,P,1.0,2015-05-07 07:05:41.730
nc72444571,2015-05-07 07:05:30.320,40.142,-123.82266666666666,22.35,2.03,NC.KBS..EHZ,P,-1.0,2015-05-07 07:05:37.310
nc72444571,2015-05-07 07:05:30.320,40.142,-123.82266666666666,22.35,2.03,NC.KCO..EHZ,P,1.0,2015-05-07 07:05:38.210
nc72444571,2015-05-07 07:05:30.320,40.142,-123.82266666666666,22.35,2.03,NC.KCR..EHZ,P,-1.0,2015-05-07 07:05:37.140
nc72444571,2015-05-07 07:05:30.320,40.142,-123.82266666666666,22.35,2.03,NC.KCS..EHZ,P,-1.0,2015-05-07 07:05:40.250
nc72444571,2015-05-07 07:05:30.320,40.142,-123.82266666666666,22.35,2.03,NC.KFP..EHZ,P,1.0,2015-05-07 07:05:41.390
nc72444571,2015-05-07 07:05:30.320,40.142,-123.82266666666666,22.35,2.03,NC.KIP..EHZ,P,1.0,2015-05-07 07:05:39.220
nc72444571,2015-05-07 07:05:30.320,40.142,-123.82266666666666,22.35,2.03,NC.KKP..EHZ,P,1.0,2015-05-07 07:05:37.360
nc72444571,2015-05-07 07:05:30.320,40.142,-123.82266666666666,22.35,2.03,NC.KMPB..HHZ,P,1.0,2015-05-07 07:05:38.340
nc72444571,2015-05-07 07:05:30.320,40.142,-123.82266666666666,22.35,2.03,NC.KMR..HHZ,P,-1.0,2015-05-07 07:05:35.140
nc72444571,2015-05-07 07:05:30.320,40.142,-123.82266666666666,22.35,2.03,NC.KSM..EHZ,P,1.0,2015-05-07 07:05:36.970
nc72444571,2015-05-07 07:05:30.320,40.142,-123.82266666666666,22.35,2.03,NC.LBP..EHZ,P,1.0,2015-05-07 07:05:43.920
nc72444571,2015-05-07 07:05:30.320,40.142,-123.82266666666666,22.35,2.03,NC.LPG..EHZ,P,,2015-05-07 07:05:46.290
nc72444571,2015-05-07 07:05:30.320,40.142,-123.82266666666666,22.35,2.03,NC.LRB..EHZ,P,-1.0,2015-05-07 07:05:48.670
nc72444571,2015-05-07 07:05:30.320,40.142,-123.82266666666666,22.35,2.03,NC.LVR..EHZ,P,-1.0,2015-05-07 07:05:46.550
nc72444571,2015-05-07 07:05:30.320,40.142,-123.82266666666666,22.35,2.03,PB.B045..EHZ,P,1.0,2015-05-07 07:05:37.640
nc72444571,2015-05-07 07:05:30.320,40.142,-123.82266666666666,22.35,2.03,PB.B046..EHZ,P,1.0,2015-05-07 07:05:38.620
nc72444571,2015-05-07 07:05:30.320,40.142,-123.82266666666666,22.35,2.03,PB.B047..EHZ,P,-1.0,2015-05-07 07:05:37.240
nc72444571,2015-05-07 07:05:30.320,40.142,-123.82266666666666,22.35,2.03,PB.B049..EHZ,P,-1.0,2015-05-07 07:05:34.790
nc72444571,2015-05-07 07:05:30.320,40.142,-123.82266666666666,22.35,2.03,PB.B932..EHZ,P,1.0,2015-05-07 07:05:37.580
nc72444571,2015-05-07 07:05:30.320,40.142,-123.82266666666666,22.35,2.03,PB.B933..EHZ,P,-1.0,2015-05-07 07:05:35.270
nc72444571,2015-05-07 07:05:30.320,40.142,-123.82266666666666,22.35,2.03,PB.B934..EHZ,P,1.0,2015-05-07 07:05:37.410
nc72444571,2015-05-07 07:05:30.320,40.142,-123.82266666666666,22.35,2.03,TA.O02D..HHZ,P,1.0,2015-05-07 07:05:45.080
nc72444626,2015-05-07 08:19:50.630,40.147666666666666,-123.81816666666667,22.4,1.4,NC.KBS..EHZ,P,-1.0,2015-05-07 08:19:57.660
nc72444626,2015-05-07 08:19:50.630,40.147666666666666,-123.81816666666667,22.4,1.4,NC.KCO..EHZ,P,-1.0,2015-05-07 08:19:58.560
nc72444626,2015-05-07 08:19:50.630,40.147666666666666,-123.81816666666667,22.4,1.4,NC.KCR..EHZ,P,-1.0,2015-05-07 08:19:57.480
nc72444626,2015-05-07 08:19:50.630,40.147666666666666,-123.81816666666667,22.4,1.4,NC.KKP..EHZ,P,1.0,2015-05-07 08:19:57.730
nc72444626,2015-05-07 08:19:50.630,40.147666666666666,-123.81816666666667,22.4,1.4,NC.KMPB..HHZ,P,-1.0,2015-05-07 08:19:58.800
nc72444626,2015-05-07 08:19:50.630,40.147666666666666,-123.81816666666667,22.4,1.4,NC.KMR..HHZ,P,,2015-05-07 08:19:55.520
nc72444626,2015-05-07 08:19:50.630,40.147666666666666,-123.81816666666667,22.4,1.4,NC.KSM..EHZ,P,1.0,2015-05-07 08:19:57.270
nc72444626,2015-05-07 08:19:50.630,40.147666666666666,-123.81816666666667,22.4,1.4,PB.B045..EHZ,P,,2015-05-07 08:19:57.970
nc72444626,2015-05-07 08:19:50.630,40.147666666666666,-123.81816666666667,22.4,1.4,PB.B047..EHZ,P,1.0,2015-05-07 08:19:57.560
nc72444626,2015-05-07 08:19:50.630,40.147666666666666,-123.81816666666667,22.4,1.4,PB.B049..EHZ,P,1.0,2015-05-07 08:19:55.100
nc72444626,2015-05-07 08:19:50.630,40.147666666666666,-123.81816666666667,22.4,1.4,PB.B932..EHZ,P,1.0,2015-05-07 08:19:57.930
nc72444626,2015-05-07 08:19:50.630,40.147666666666666,-123.81816666666667,22.4,1.4,PB.B933..EHZ,P,1.0,2015-05-07 08:19:55.630
nc72445361,2015-05-08 15:47:54.640,40.143166666666666,-123.82066666666667,22.47,1.98,NC.GRO..EHZ,P,,2015-05-08 15:48:11.050
nc72445361,2015-05-08 15:47:54.640,40.143166666666666,-123.82066666666667,22.47,1.98,NC.GVV..EHZ,P,,2015-05-08 15:48:11.600
nc72445361,2015-05-08 15:47:54.640,40.143166666666666,-123.82066666666667,22.47,1.98,NC.KBN..EHZ,P,,2015-05-08 15:48:06.040
nc72445361,2015-05-08 15:47:54.640,40.143166666666666,-123.82066666666667,22.47,1.98,NC.KBS..EHZ,P,-1.0,2015-05-08 15:48:01.630
nc72445361,2015-05-08 15:47:54.640,40.143166666666666,-123.82066666666667,22.47,1.98,NC.KCO..EHZ,P,1.0,2015-05-08 15:48:02.530
nc72445361,2015-05-08 15:47:54.640,40.143166666666666,-123.82066666666667,22.47,1.98,NC.KCPB..HHZ,P,1.0,2015-05-08 15:48:04.670
nc72445361,2015-05-08 15:47:54.640,40.143166666666666,-123.82066666666667,22.47,1.98,NC.KCR..EHZ,P,-1.0,2015-05-08 15:48:01.460
nc72445361,2015-05-08 15:47:54.640,40.143166666666666,-123.82066666666667,22.47,1.98,NC.KFP..EHZ,P,1.0,2015-05-08 15:48:05.810
nc72445361,2015-05-08 15:47:54.640,40.143166666666666,-123.82066666666667,22.47,1.98,NC.KIP..EHZ,P,,2015-05-08 15:48:03.600
nc72445361,2015-05-08 15:47:54.640,40.143166666666666,-123.82066666666667,22.47,1.98,NC.KKP..EHZ,P,1.0,2015-05-08 15:48:01.690
nc72445361,2015-05-08 15:47:54.640,40.143166666666666,-123.82066666666667,22.47,1.98,NC.KMPB..HHZ,P,,2015-05-08 15:48:02.740
nc72445361,2015-05-08 15:47:54.640,40.143166666666666,-123.82066666666667,22.47,1.98,NC.KMR..HHZ,P,1.0,2015-05-08 15:47:59.460
nc72445361,2015-05-08 15:47:54.640,40.143166666666666,-123.82066666666667,22.47,1.98,NC.KSM..EHZ,P,1.0,2015-05-08 15:48:01.270
nc72445361,2015-05-08 15:47:54.640,40.143166666666666,-123.82066666666667,22.47,1.98,NC.LBP..EHZ,P,,2015-05-08 15:48:08.310
nc72445361,2015-05-08 15:47:54.640,40.143166666666666,-123.82066666666667,22.47,1.98,NC.LPG..EHZ,P,,2015-05-08 15:48:10.560
nc72445361,2015-05-08 15:47:54.640,40.143166666666666,-123.82066666666667,22.47,1.98,NC.LRB..EHZ,P,,2015-05-08 15:48:12.400
nc72445361,2015-05-08 15:47:54.640,40.143166666666666,-123.82066666666667,22.47,1.98,NC.LVR..EHZ,P,,2015-05-08 15:48:10.740
nc72445361,2015-05-08 15:47:54.640,40.143166666666666,-123.82066666666667,22.47,1.98,PB.B045..EHZ,P,-1.0,2015-05-08 15:48:01.990
nc72445361,2015-05-08 15:47:54.640,40.143166666666666,-123.82066666666667,22.47,1.98,PB.B046..EHZ,P,1.0,2015-05-08 15:48:02.950
nc72445361,2015-05-08 15:47:54.640,40.143166666666666,-123.82066666666667,22.47,1.98,PB.B047..EHZ,P,1.0,2015-05-08 15:48:01.540
nc72445361,2015-05-08 15:47:54.640,40.143166666666666,-123.82066666666667,22.47,1.98,PB.B049..EHZ,P,1.0,2015-05-08 15:47:59.080
nc72445361,2015-05-08 15:47:54.640,40.143166666666666,-123.82066666666667,22.47,1.98,PB.B932..EHZ,P,1.0,2015-05-08 15:48:01.910
nc72445361,2015-05-08 15:47:54.640,40.143166666666666,-123.82066666666667,22.47,1.98,PB.B933..EHZ,P,1.0,2015-05-08 15:47:59.610
nc72445361,2015-05-08 15:47:54.640,40.143166666666666,-123.82066666666667,22.47,1.98,PB.B935..EHZ,P,-1.0,2015-05-08 15:48:03.170
nc72445361,2015-05-08 15:47:54.640,40.143166666666666,-123.82066666666667,22.47,1.98,TA.O02D..HHZ,P,,2015-05-08 15:48:09.030
nc72446966,2015-05-11 03:42:16.330,40.86216666666667,-123.46283333333334,25.37,1.94,BK.JCC..HHZ,P,-1.0,2015-05-11 03:42:25.120
nc72446966,2015-05-11 03:42:16.330,40.86216666666667,-123.46283333333334,25.37,1.94,BK.WDC..HHZ,P,1.0,2015-05-11 03:42:30.510
nc72446966,2015-05-11 03:42:16.330,40.86216666666667,-123.46283333333334,25.37,1.94,NC.KCS..EHZ,P,1.0,2015-05-11 03:42:24.120
nc72446966,2015-05-11 03:42:16.330,40.86216666666667,-123.46283333333334,25.37,1.94,NC.KHBB..HHZ,P,-1.0,2015-05-11 03:42:23.190
nc72446966,2015-05-11 03:42:16.330,40.86216666666667,-123.46283333333334,25.37,1.94,NC.KHMB..HHZ,P,1.0,2015-05-11 03:42:22.310
nc72446966,2015-05-11 03:42:16.330,40.86216666666667,-123.46283333333334,25.37,1.94,NC.KOM..EHZ,P,1.0,2015-05-11 03:42:24.920
nc72446966,2015-05-11 03:42:16.330,40.86216666666667,-123.46283333333334,25.37,1.94,NC.KPP..EHZ,P,1.0,2015-05-11 03:42:26.970
nc72446966,2015-05-11 03:42:16.330,40.86216666666667,-123.46283333333334,25.37,1.94,NC.KRMB..HHZ,P,1.0,2015-05-11 03:42:29.640
nc72446966,2015-05-11 03:42:16.330,40.86216666666667,-123.46283333333334,25.37,1.94,NC.LBK..EHZ,P,-1.0,2015-05-11 03:42:28.390
nc72446966,2015-05-11 03:42:16.330,40.86216666666667,-123.46283333333334,25.37,1.94,NC.LBP..EHZ,P,-1.0,2015-05-11 03:42:29.800
nc72446966,2015-05-11 03:42:16.330,40.86216666666667,-123.46283333333334,25.37,1.94,NC.LGP..EHZ,P,-1.0,2015-05-11 03:42:25.990
nc72446966,2015-05-11 03:42:16.330,40.86216666666667,-123.46283333333334,25.37,1.94,NC.LPK..EHZ,P,-1.0,2015-05-11 03:42:32.750
nc72446966,2015-05-11 03:42:16.330,40.86216666666667,-123.46283333333334,25.37,1.94,PB.B046..EHZ,P,-1.0,2015-05-11 03:42:30.650
nc72446966,2015-05-11 03:42:16.330,40.86216666666667,-123.46283333333334,25.37,1.94,PB.B047..EHZ,P,-1.0,2015-05-11 03:42:30.730
nc72446966,2015-05-11 03:42:16.330,40.86216666666667,-123.46283333333334,25.37,1.94,PB.B932..EHZ,P,,2015-05-11 03:42:30.390
nc72446966,2015-05-11 03:42:16.330,40.86216666666667,-123.46283333333334,25.37,1.94,PB.B935..EHZ,P,1.0,2015-05-11 03:42:24.920
nc72446966,2015-05-11 03:42:16.330,40.86216666666667,-123.46283333333334,25.37,1.94,TA.M02C..HHZ,P,1.0,2015-05-11 03:42:29.090
nc72446966,2015-05-11 03:42:16.330,40.86216666666667,-123.46283333333334,25.37,1.94,TA.N02D..HHZ,P,-1.0,2015-05-11 03:42:27.350
nc72446966,2015-05-11 03:42:16.330,40.86216666666667,-123.46283333333334,25.37,1.94,TA.O02D..HHZ,P,-1.0,2015-05-11 03:42:32.150
nc72448331,2015-05-13 08:24:18.390,40.30316666666667,-124.38616666666667,9.27,1.55,NC.GTC..EHZ,P,1.0,2015-05-13 08:24:37.840
nc72448331,2015-05-13 08:24:18.390,40.30316666666667,-124.38616666666667,9.27,1.55,NC.KBS..EHZ,P,1.0,2015-05-13 08:24:33.010
nc72448331,2015-05-13 08:24:18.390,40.30316666666667,-124.38616666666667,9.27,1.55,NC.KCO..EHZ,P,-1.0,2015-05-13 08:24:21.580
nc72448331,2015-05-13 08:24:18.390,40.30316666666667,-124.38616666666667,9.27,1.55,NC.KCPB..HHZ,P,-1.0,2015-05-13 08:24:35.910
nc72448331,2015-05-13 08:24:18.390,40.30316666666667,-124.38616666666667,9.27,1.55,NC.KCR..EHZ,P,1.0,2015-05-13 08:24:28.520
nc72448331,2015-05-13 08:24:18.390,40.30316666666667,-124.38616666666667,9.27,1.55,NC.KFP..EHZ,P,-1.0,2015-05-13 08:24:36.440
nc72448331,2015-05-13 08:24:18.390,40.30316666666667,-124.38616666666667,9.27,1.55,NC.KIP..EHZ,P,1.0,2015-05-13 08:24:35.120
