event_id,etime,elat,elon,edep,emag,station_id,phase_type,phase_polarity,phase_time
nc72595535,2016-02-22 01:48:37.140,40.1415,-123.83516666666667,21.31,1.84,NC.KCR..EHZ,P,1.0,2016-02-22 01:48:44.020
nc72595535,2016-02-22 01:48:37.140,40.1415,-123.83516666666667,21.31,1.84,NC.KCS..EHZ,P,1.0,2016-02-22 01:48:47.090
nc72595535,2016-02-22 01:48:37.140,40.1415,-123.83516666666667,21.31,1.84,NC.KCT..HHZ,P,-1.0,2016-02-22 01:48:48.150
nc72595535,2016-02-22 01:48:37.140,40.1415,-123.83516666666667,21.31,1.84,NC.KFP..EHZ,P,,2016-02-22 01:48:48.270
nc72595535,2016-02-22 01:48:37.140,40.1415,-123.83516666666667,21.31,1.84,NC.KHBB..HHZ,P,1.0,2016-02-22 01:48:50.080
nc72595535,2016-02-22 01:48:37.140,40.1415,-123.83516666666667,21.31,1.84,NC.KIP..EHZ,P,-1.0,2016-02-22 01:48:46.270
nc72595535,2016-02-22 01:48:37.140,40.1415,-123.83516666666667,21.31,1.84,NC.KMPB..HHZ,P,1.0,2016-02-22 01:48:45.120
nc72595535,2016-02-22 01:48:37.140,40.1415,-123.83516666666667,21.31,1.84,NC.KMR..HHZ,P,-1.0,2016-02-22 01:48:41.870
nc72595535,2016-02-22 01:48:37.140,40.1415,-123.83516666666667,21.31,1.84,NC.KOM..EHZ,P,1.0,2016-02-22 01:48:56.650
nc72595535,2016-02-22 01:48:37.140,40.1415,-123.83516666666667,21.31,1.84,NC.KPP..EHZ,P,1.0,2016-02-22 01:48:46.190
nc72595535,2016-02-22 01:48:37.140,40.1415,-123.83516666666667,21.31,1.84,NC.LBK..EHZ,P,1.0,2016-02-22 01:48:58.740
nc72595535,2016-02-22 01:48:37.140,40.1415,-123.83516666666667,21.31,1.84,NC.LBP..EHZ,P,1.0,2016-02-22 01:48:50.830
nc72595535,2016-02-22 01:48:37.140,40.1415,-123.83516666666667,21.31,1.84,NC.LGP..EHZ,P,-1.0,2016-02-22 01:48:55.720
nc72595535,2016-02-22 01:48:37.140,40.1415,-123.83516666666667,21.31,1.84,NC.LPG..EHZ,P,-1.0,2016-02-22 01:48:53.130
nc72595535,2016-02-22 01:48:37.140,40.1415,-123.83516666666667,21.31,1.84,NC.LVR..EHZ,P,-1.0,2016-02-22 01:48:53.410
nc72595535,2016-02-22 01:48:37.140,40.1415,-123.83516666666667,21.31,1.84,PB.B045..EHZ,P,-1.0,2016-02-22 01:48:44.500
nc72595535,2016-02-22 01:48:37.140,40.1415,-123.83516666666667,21.31,1.84,PB.B046..EHZ,P,1.0,2016-02-22 01:48:45.380
nc72595535,2016-02-22 01:48:37.140,40.1415,-123.83516666666667,21.31,1.84,PB.B047..EHZ,P,1.0,2016-02-22 01:48:43.960
nc72595535,2016-02-22 01:48:37.140,40.1415,-123.83516666666667,21.31,1.84,PB.B049..EHZ,P,1.0,2016-02-22 01:48:41.510
nc72595535,2016-02-22 01:48:37.140,40.1415,-123.83516666666667,21.31,1.84,PB.B932..EHZ,P,1.0,2016-02-22 01:48:44.320
nc72595535,2016-02-22 01:48:37.140,40.1415,-123.83516666666667,21.31,1.84,PB.B933..EHZ,P,1.0,2016-02-22 01:48:41.970
nc72595535,2016-02-22 01:48:37.140,40.1415,-123.83516666666667,21.31,1.84,PB.B935..EHZ,P,1.0,2016-02-22 01:48:45.680
nc72595535,2016-02-22 01:48:37.140,40.1415,-123.83516666666667,21.31,1.84,TA.N02D..HHZ,P,1.0,2016-02-22 01:48:57.310
nc72595535,2016-02-22 01:48:37.140,40.1415,-123.83516666666667,21.31,1.84,TA.O02D..HHZ,P,1.0,2016-02-22 01:48:51.810
nc72596780,2016-02-24 08:12:33.420,40.899166666666666,-123.355,32.15,2.19,BK.JCC..HHZ,P,1.0,2016-02-24 08:12:43.580
nc72596780,2016-02-24 08:12:33.420,40.899166666666666,-123.355,32.15,2.19,BK.WDC..HHZ,P,1.0,2016-02-24 08:12:46.380
nc72596780,2016-02-24 08:12:33.420,40.899166666666666,-123.355,32.15,2.19,BK.YBH..HHZ,P,1.0,2016-02-24 08:12:50.310
nc72596780,2016-02-24 08:12:33.420,40.899166666666666,-123.355,32.15,2.19,NC.KCO..EHZ,P,1.0,2016-02-24 08:12:49.600
nc72596780,2016-02-24 08:12:33.420,40.899166666666666,-123.355,32.15,2.19,NC.KCR..EHZ,P,1.0,2016-02-24 08:12:44.920
nc72596780,2016-02-24 08:12:33.420,40.899166666666666,-123.355,32.15,2.19,NC.KCS..EHZ,P,1.0,2016-02-24 08:12:42.320
nc72596780,2016-02-24 08:12:33.420,40.899166666666666,-123.355,32.15,2.19,NC.KCT..HHZ,P,-1.0,2016-02-24 08:12:48.480
nc72596780,2016-02-24 08:12:33.420,40.899166666666666,-123.355,32.15,2.19,NC.KHBB..HHZ,P,-1.0,2016-02-24 08:12:40.600
nc72596780,2016-02-24 08:12:33.420,40.899166666666666,-123.355,32.15,2.19,NC.KHMB..HHZ,P,1.0,2016-02-24 08:12:40.950
nc72596780,2016-02-24 08:12:33.420,40.899166666666666,-123.355,32.15,2.19,NC.KMPB..HHZ,P,1.0,2016-02-24 08:12:47.070
nc72596780,2016-02-24 08:12:33.420,40.899166666666666,-123.355,32.15,2.19,NC.KOM..EHZ,P,1.0,2016-02-24 08:12:42.060
nc72596780,2016-02-24 08:12:33.420,40.899166666666666,-123.355,32.15,2.19,NC.LBF..EHZ,P,,2016-02-24 08:12:54.580
nc72596780,2016-02-24 08:12:33.420,40.899166666666666,-123.355,32.15,2.19,NC.LBK..EHZ,P,-1.0,2016-02-24 08:12:44.280
nc72596780,2016-02-24 08:12:33.420,40.899166666666666,-123.355,32.15,2.19,NC.LBO..EHZ,P,-1.0,2016-02-24 08:12:52.360
nc72596780,2016-02-24 08:12:33.420,40.899166666666666,-123.355,32.15,2.19,NC.LBP..EHZ,P,-1.0,2016-02-24 08:12:46.310
nc72596780,2016-02-24 08:12:33.420,40.899166666666666,-123.355,32.15,2.19,NC.LDB..EHZ,P,,2016-02-24 08:12:54.840
nc72596780,2016-02-24 08:12:33.420,40.899166666666666,-123.355,32.15,2.19,NC.LGP..EHZ,P,-1.0,2016-02-24 08:12:42.050
nc72596780,2016-02-24 08:12:33.420,40.899166666666666,-123.355,32.15,2.19,NC.LMI..EHZ,P,1.0,2016-02-24 08:12:50.670
nc72596780,2016-02-24 08:12:33.420,40.899166666666666,-123.355,32.15,2.19,NC.LMP..EHZ,P,-1.0,2016-02-24 08:12:52.550
nc72596780,2016-02-24 08:12:33.420,40.899166666666666,-123.355,32.15,2.19,NC.LPK..EHZ,P,1.0,2016-02-24 08:12:48.510
nc72596780,2016-02-24 08:12:33.420,40.899166666666666,-123.355,32.15,2.19,NC.LSF..EHZ,P,1.0,2016-02-24 08:12:46.280
nc72596780,2016-02-24 08:12:33.420,40.899166666666666,-123.355,32.15,2.19,NC.LSR..EHZ,P,-1.0,2016-02-24 08:12:48.900
nc72596780,2016-02-24 08:12:33.420,40.899166666666666,-123.355,32.15,2.19,NC.LWH..EHZ,P,-1.0,2016-02-24 08:12:52.130
nc72596780,2016-02-24 08:12:33.420,40.899166666666666,-123.355,32.15,2.19,PB.B039..EHZ,P,-1.0,2016-02-24 08:12:49.040
nc72596780,2016-02-24 08:12:33.420,40.899166666666666,-123.355,32.15,2.19,PB.B045..EHZ,P,1.0,2016-02-24 08:12:45.890
nc72596780,2016-02-24 08:12:33.420,40.899166666666666,-123.355,32.15,2.19,PB.B046..EHZ,P,1.0,2016-02-24 08:12:49.070
nc72596780,2016-02-24 08:12:33.420,40.899166666666666,-123.355,32.15,2.19,PB.B047..EHZ,P,1.0,2016-02-24 08:12:48.850
nc72596780,2016-02-24 08:12:33.420,40.899166666666666,-123.355,32.15,2.19,PB.B049..EHZ,P,1.0,2016-02-24 08:12:46.830
nc72596780,2016-02-24 08:12:33.420,40.899166666666666,-123.355,32.15,2.19,PB.B932..EHZ,P,1.0,2016-02-24 08:12:48.830
nc72596780,2016-02-24 08:12:33.420,40.899166666666666,-123.355,32.15,2.19,PB.B933..EHZ,P,1.0,2016-02-24 08:12:49.800
nc72596780,2016-02-24 08:12:33.420,40.899166666666666,-123.355,32.15,2.19,PB.B935..EHZ,P,1.0,2016-02-24 08:12:43.010
nc72596780,2016-02-24 08:12:33.420,40.899166666666666,-123.355,32.15,2.19,TA.M02C..HHZ,P,-1.0,2016-02-24 08:12:45.210
nc72596780,2016-02-24 08:12:33.420,40.899166666666666,-123.355,32.15,2.19,TA.N02D..HHZ,P,-1.0,2016-02-24 08:12:43.330
nc72596780,2016-02-24 08:12:33.420,40.899166666666666,-123.355,32.15,2.19,TA.O02D..HHZ,P,-1.0,2016-02-24 08:12:48.540
nc72598705,2016-02-27 08:28:39.670,40.3655,-123.37616666666666,27.98,1.83,BK.GASB..HHZ,P,-1.0,2016-02-27 08:28:55.690
nc72598705,2016-02-27 08:28:39.670,40.3655,-123.37616666666666,27.98,1.83,BK.WDC..HHZ,P,-1.0,2016-02-27 08:28:51.970
nc72598705,2016-02-27 08:28:39.670,40.3655,-123.37616666666666,27.98,1.83,NC.GVV..EHZ,P,-1.0,2016-02-27 08:28:54.540
nc72598705,2016-02-27 08:28:39.670,40.3655,-123.37616666666666,27.98,1.83,NC.KBN..EHZ,P,1.0,2016-02-27 08:28:49.890
nc72598705,2016-02-27 08:28:39.670,40.3655,-123.37616666666666,27.98,1.83,NC.KCR..EHZ,P,1.0,2016-02-27 08:28:47.650
nc72598705,2016-02-27 08:28:39.670,40.3655,-123.37616666666666,27.98,1.83,NC.KCS..EHZ,P,-1.0,2016-02-27 08:28:46.110
nc72598705,2016-02-27 08:28:39.670,40.3655,-123.37616666666666,27.98,1.83,NC.KHBB..HHZ,P,-1.0,2016-02-27 08:28:47.220
nc72598705,2016-02-27 08:28:39.670,40.3655,-123.37616666666666,27.98,1.83,NC.KMPB..HHZ,P,,2016-02-27 08:28:50.930
nc72598705,2016-02-27 08:28:39.670,40.3655,-123.37616666666666,27.98,1.83,NC.KMR..HHZ,P,1.0,2016-02-27 08:28:47.140
nc72598705,2016-02-27 08:28:39.670,40.3655,-123.37616666666666,27.98,1.83,NC.KPP..EHZ,P,-1.0,2016-02-27 08:28:44.970
nc72598705,2016-02-27 08:28:39.670,40.3655,-123.37616666666666,27.98,1.83,NC.LBK..EHZ,P,1.0,2016-02-27 08:28:55.930
nc72598705,2016-02-27 08:28:39.670,40.3655,-123.37616666666666,27.98,1.83,NC.LBP..EHZ,P,1.0,2016-02-27 08:28:48.020
nc72598705,2016-02-27 08:28:39.670,40.3655,-123.37616666666666,27.98,1.83,NC.LGP..EHZ,P,-1.0,2016-02-27 08:28:52.500
nc72598705,2016-02-27 08:28:39.670,40.3655,-123.37616666666666,27.98,1.83,NC.LPG..EHZ,P,1.0,2016-02-27 08:28:50.840
nc72598705,2016-02-27 08:28:39.670,40.3655,-123.37616666666666,27.98,1.83,NC.LVR..EHZ,P,1.0,2016-02-27 08:28:52.030
nc72598705,2016-02-27 08:28:39.670,40.3655,-123.37616666666666,27.98,1.83,PB.B045..EHZ,P,1.0,2016-02-27 08:28:49.110
nc72598705,2016-02-27 08:28:39.670,40.3655,-123.37616666666666,27.98,1.83,PB.B049..EHZ,P,,2016-02-27 08:28:47.610
nc72598705,2016-02-27 08:28:39.670,40.3655,-123.37616666666666,27.98,1.83,PB.B932..EHZ,P,-1.0,2016-02-27 08:28:51.440
nc72598705,2016-02-27 08:28:39.670,40.3655,-123.37616666666666,27.98,1.83,PB.B933..EHZ,P,1.0,2016-02-27 08:28:50.160
nc72598705,2016-02-27 08:28:39.670,40.3655,-123.37616666666666,27.98,1.83,PB.B935..EHZ,P,-1.0,2016-02-27 08:28:45.780
nc72598705,2016-02-27 08:28:39.670,40.3655,-123.37616666666666,27.98,1.83,TA.N02D..HHZ,P,-1.0,2016-02-27 08:28:54.330
nc72598705,2016-02-27 08:28:39.670,40.3655,-123.37616666666666,27.98,1.83,TA.O02D..HHZ,P,1.0,2016-02-27 08:28:49.550
nc72598785,2016-02-27 13:21:24.070,40.79516666666667,-123.38933333333334,27.06,2.06,BK.JCC..HHZ,P,-1.0,2016-02-27 13:21:33.710
nc72598785,2016-02-27 13:21:24.070,40.79516666666667,-123.38933333333334,27.06,2.06,BK.WDC..HHZ,P,,2016-02-27 13:21:36.670
nc72598785,2016-02-27 13:21:24.070,40.79516666666667,-123.38933333333334,27.06,2.06,NC.KCR..EHZ,P,,2016-02-27 13:21:34.230
nc72598785,2016-02-27 13:21:24.070,40.79516666666667,-123.38933333333334,27.06,2.06,NC.KCS..EHZ,P,-1.0,2016-02-27 13:21:31.230
nc72598785,2016-02-27 13:21:24.070,40.79516666666667,-123.38933333333334,27.06,2.06,NC.KHBB..HHZ,P,1.0,2016-02-27 13:21:29.960
nc72598785,2016-02-27 13:21:24.070,40.79516666666667,-123.38933333333334,27.06,2.06,NC.KHMB..HHZ,P,,2016-02-27 13:21:30.840
nc72598785,2016-02-27 13:21:24.070,40.79516666666667,-123.38933333333334,27.06,2.06,NC.KMPB..HHZ,P,,2016-02-27 13:21:36.550
nc72598785,2016-02-27 13:21:24.070,40.79516666666667,-123.38933333333334,27.06,2.06,NC.KOM..EHZ,P,1.0,2016-02-27 13:21:33.690
nc72598785,2016-02-27 13:21:24.070,40.79516666666667,-123.38933333333334,27.06,2.06,NC.KRP..HHZ,P,,2016-02-27 13:21:35.210
nc72598785,2016-02-27 13:21:24.070,40.79516666666667,-123.38933333333334,27.06,2.06,NC.LBK..EHZ,P,1.0,2016-02-27 13:21:35.800
nc72598785,2016-02-27 13:21:24.070,40.79516666666667,-123.38933333333334,27.06,2.06,NC.LBP..EHZ,P,,2016-02-27 13:21:35.920
nc72598785,2016-02-27 13:21:24.070,40.79516666666667,-123.38933333333334,27.06,2.06,NC.LGP..EHZ,P,1.0,2016-02-27 13:21:33.160
nc72598785,2016-02-27 13:21:24.070,40.79516666666667,-123.38933333333334,27.06,2.06,NC.LPK..EHZ,P,,2016-02-27 13:21:40.270
nc72598785,2016-02-27 13:21:24.070,40.79516666666667,-123.38933333333334,27.06,2.06,NC.LVR..EHZ,P,,2016-02-27 13:21:40.860
nc72598785,2016-02-27 13:21:24.070,40.79516666666667,-123.38933333333334,27.06,2.06,NC.LWH..EHZ,P,,2016-02-27 13:21:43.210
nc72598785,2016-02-27 13:21:24.070,40.79516666666667,-123.38933333333334,27.06,2.06,PB.B045..EHZ,P,,2016-02-27 13:21:35.280
nc72598785,2016-02-27 13:21:24.070,40.79516666666667,-123.38933333333334,27.06,2.06,PB.B935..EHZ,P,-1.0,2016-02-27 13:21:32.010
nc72598785,2016-02-27 13:21:24.070,40.79516666666667,-123.38933333333334,27.06,2.06,TA.M02C..HHZ,P,,2016-02-27 13:21:37.360
nc72598785,2016-02-27 13:21:24.070,40.79516666666667,-123.38933333333334,27.06,2.06,TA.N02D..HHZ,P,1.0,2016-02-27 13:21:34.650
nc72599715,2016-02-29 07:51:19.210,40.007333333333335,-123.68566666666666,8.37,2.31,BK.GASB..HHZ,P,1.0,2016-02-29 07:51:35.960
nc72599715,2016-02-29 07:51:19.210,40.007333333333335,-123.68566666666666,8.37,2.31,BK.JCC..HHZ,P,-1.0,2016-02-29 07:51:36.280
nc72599715,2016-02-29 07:51:19.210,40.007333333333335,-123.68566666666666,8.37,2.31,NC.GHM..EHZ,P,-1.0,2016-02-29 07:51:35.410
nc72599715,2016-02-29 07:51:19.210,40.007333333333335,-123.68566666666666,8.37,2.31,NC.GHO..EHZ,P,-1.0,2016-02-29 07:51:36.990
nc72599715,2016-02-29 07:51:19.210,40.007333333333335,-123.68566666666666,8.37,2.31,NC.GNA..EHZ,P,-1.0,2016-02-29 07:51:34.970
nc72599715,2016-02-29 07:51:19.210,40.007333333333335,-123.68566666666666,8.37,2.31,NC.GTC..EHZ,P,-1.0,2016-02-29 07:51:32.170
nc72599715,2016-02-29 07:51:19.210,40.007333333333335,-123.68566666666666,8.37,2.31,NC.GVV..EHZ,P,1.0,2016-02-29 07:51:36.010
nc72599715,2016-02-29 07:51:19.210,40.007333333333335,-123.68566666666666,8.37,2.31,NC.KBN..EHZ,P,1.0,2016-02-29 07:51:28.090
nc72599715,2016-02-29 07:51:19.210,40.007333333333335,-123.68566666666666,8.37,2.31,NC.KBS..EHZ,P,-1.0,2016-02-29 07:51:22.510
nc72599715,2016-02-29 07:51:19.210,40.007333333333335,-123.68566666666666,8.37,2.31,NC.KCO..EHZ,P,1.0,2016-02-29 07:51:30.720
nc72599715,2016-02-29 07:51:19.210,40.007333333333335,-123.68566666666666,8.37,2.31,NC.KCPB..HHZ,P,-1.0,2016-02-29 07:51:26.520
nc72599715,2016-02-29 07:51:19.210,40.007333333333335,-123.68566666666666,8.37,2.31,NC.KCR..EHZ,P,-1.0,2016-02-29 07:51:28.650
nc72599715,2016-02-29 07:51:19.210,40.007333333333335,-123.68566666666666,8.37,2.31,NC.KCS..EHZ,P,-1.0,2016-02-29 07:51:31.330
nc72599715,2016-02-29 07:51:19.210,40.007333333333335,-123.68566666666666,8.37,2.31,NC.KCT..HHZ,P,-1.0,2016-02-29 07:51:34.380
nc72599715,2016-02-29 07:51:19.210,40.007333333333335,-123.68566666666666,8.37,2.31,NC.KFP..EHZ,P,-1.0,2016-02-29 07:51:28.330
nc72599715,2016-02-29 07:51:19.210,40.007333333333335,-123.68566666666666,8.37,2.31,NC.KHBB..HHZ,P,1.0,2016-02-29 07:51:34.530
nc72599715,2016-02-29 07:51:19.210,40.007333333333335,-123.68566666666666,8.37,2.31,NC.KHMB..HHZ,P,1.0,2016-02-29 07:51:37.070
nc72599715,2016-02-29 07:51:19.210,40.007333333333335,-123.68566666666666,8.37,2.31,NC.KIP..EHZ,P,-1.0,2016-02-29 07:51:25.120
nc72599715,2016-02-29 07:51:19.210,40.007333333333335,-123.68566666666666,8.37,2.31,NC.KMPB..HHZ,P,-1.0,2016-02-29 07:51:30.710
nc72599715,2016-02-29 07:51:19.210,40.007333333333335,-123.68566666666666,8.37,2.31,NC.KMR..HHZ,P,-1.0,2016-02-29 07:51:24.260
nc72599715,2016-02-29 07:51:19.210,40.007333333333335,-123.68566666666666,8.37,2.31,NC.KOM..EHZ,P,,2016-02-29 07:51:42.730
nc72599715,2016-02-29 07:51:19.210,40.007333333333335,-123.68566666666666,8.37,2.31,NC.LBK..EHZ,P,1.0,2016-02-29 07:51:43.870
nc72599715,2016-02-29 07:51:19.210,40.007333333333335,-123.68566666666666,8.37,2.31,NC.LBP..EHZ,P,1.0,2016-02-29 07:51:33.530
nc72599715,2016-02-29 07:51:19.210,40.007333333333335,-123.68566666666666,8.37,2.31,NC.LGP..EHZ,P,-1.0,2016-02-29 07:51:40.540
nc72599715,2016-02-29 07:51:19.210,40.007333333333335,-123.68566666666666,8.37,2.31,NC.LPG..EHZ,P,1.0,2016-02-29 07:51:35.420
nc72599715,2016-02-29 07:51:19.210,40.007333333333335,-123.68566666666666,8.37,2.31,NC.LPK..EHZ,P,1.0,2016-02-29 07:51:49.310
nc72599715,2016-02-29 07:51:19.210,40.007333333333335,-123.68566666666666,8.37,2.31,NC.LVR..EHZ,P,1.0,2016-02-29 07:51:35.310
nc72599715,2016-02-29 07:51:19.210,40.007333333333335,-123.68566666666666,8.37,2.31,PB.B045..EHZ,P,-1.0,2016-02-29 07:51:29.830
nc72599715,2016-02-29 07:51:19.210,40.007333333333335,-123.68566666666666,8.37,2.31,PB.B046..EHZ,P,1.0,2016-02-29 07:51:31.550
nc72599715,2016-02-29 07:51:19.210,40.007333333333335,-123.68566666666666,8.37,2.31,PB.B047..EHZ,P,-1.0,2016-02-29 07:51:29.490
nc72599715,2016-02-29 07:51:19.210,40.007333333333335,-123.68566666666666,8.37,2.31,PB.B049..EHZ,P,-1.0,2016-02-29 07:51:25.040
nc72599715,2016-02-29 07:51:19.210,40.007333333333335,-123.68566666666666,8.37,2.31,PB.B932..EHZ,P,1.0,2016-02-29 07:51:30.230
nc72599715,2016-02-29 07:51:19.210,40.007333333333335,-123.68566666666666,8.37,2.31,PB.B933..EHZ,P,1.0,2016-02-29 07:51:24.750
nc72599715,2016-02-29 07:51:19.210,40.007333333333335,-123.68566666666666,8.37,2.31,PB.B934..EHZ,P,-1.0,2016-02-29 07:51:23.260
nc72599715,2016-02-29 07:51:19.210,40.007333333333335,-123.68566666666666,8.37,2.31,PB.B935..EHZ,P,-1.0,2016-02-29 07:51:29.620
nc72599715,2016-02-29 07:51:19.210,40.007333333333335,-123.68566666666666,8.37,2.31,TA.O02D..HHZ,P,1.0,2016-02-29 07:51:34.110
nc72601870,2016-03-04 09:04:23.170,40.3055,-124.41883333333334,10.72,1.57,BK.JCC..HHZ,P,1.0,2016-03-04 09:04:34.560
nc72601870,2016-03-04 09:04:23.170,40.3055,-124.41883333333334,10.72,1.57,NC.KBS..EHZ,P,,2016-03-04 09:04:37.410
nc72601870,2016-03-04 09:04:23.170,40.3055,-124.41883333333334,10.72,1.57,NC.KCO..EHZ,P,1.0,2016-03-04 09:04:26.960
nc72601870,2016-03-04 09:04:23.170,40.3055,-124.41883333333334,10.72,1.57,NC.KCR..EHZ,P,1.0,2016-03-04 09:04:33.480
nc72601870,2016-03-04 09:04:23.170,40.3055,-124.41883333333334,10.72,1.57,NC.KCT..HHZ,P,1.0,2016-03-04 09:04:27.940
nc72601870,2016-03-04 09:04:23.170,40.3055,-124.41883333333334,10.72,1.57,NC.KFP..EHZ,P,1.0,2016-03-04 09:04:40.680
nc72601870,2016-03-04 09:04:23.170,40.3055,-124.41883333333334,10.72,1.57,NC.KMPB..HHZ,P,1.0,2016-03-04 09:04:29.080
nc72601870,2016-03-04 09:04:23.170,40.3055,-124.41883333333334,10.72,1.57,NC.KMR..HHZ,P,,2016-03-04 09:04:34.800
nc72601870,2016-03-04 09:04:23.170,40.3055,-124.41883333333334,10.72,1.57,NC.LBK..EHZ,P,,2016-03-04 09:04:48.800
nc72601870,2016-03-04 09:04:23.170,40.3055,-124.41883333333334,10.72,1.57,NC.LGP..EHZ,P,-1.0,2016-03-04 09:04:46.330
nc72601870,2016-03-04 09:04:23.170,40.3055,-124.41883333333334,10.72,1.57,PB.B045..EHZ,P,1.0,2016-03-04 09:04:30.810
nc72601870,2016-03-04 09:04:23.170,40.3055,-124.41883333333334,10.72,1.57,PB.B046..EHZ,P,1.0,2016-03-04 09:04:26.360
nc72601870,2016-03-04 09:04:23.170,40.3055,-124.41883333333334,10.72,1.57,PB.B047..EHZ,P,1.0,2016-03-04 09:04:28.010
nc72601870,2016-03-04 09:04:23.170,40.3055,-124.41883333333334,10.72,1.57,PB.B049..EHZ,P,1.0,2016-03-04 09:04:32.770
nc72601870,2016-03-04 09:04:23.170,40.3055,-124.41883333333334,10.72,1.57,PB.B932..EHZ,P,1.0,2016-03-04 09:04:27.050
nc72601870,2016-03-04 09:04:23.170,40.3055,-124.41883333333334,10.72,1.57,PB.B933..EHZ,P,-1.0,2016-03-04 09:04:31.680
nc72601870,2016-03-04 09:04:23.170,40.3055,-124.41883333333334,10.72,1.57,PB.B935..EHZ,P,-1.0,2016-03-04 09:04:36.630
nc72601870,2016-03-04 09:04:23.170,40.3055,-124.41883333333334,10.72,1.57,TA.M02C..HHZ,P,-1.0,2016-03-04 09:04:49.760
nc72601895,2016-03-04 10:09:27.150,40.592,-123.204,28.98,1.92,BK.GASB..HHZ,P,1.0,2016-03-04 10:09:45.370
nc72601895,2016-03-04 10:09:27.150,40.592,-123.204,28.98,1.92,BK.JCC..HHZ,P,-1.0,2016-03-04 10:09:39.470
nc72601895,2016-03-04 10:09:27.150,40.592,-123.204,28.98,1.92,BK.WDC..HHZ,P,-1.0,2016-03-04 10:09:37.080
nc72601895,2016-03-04 10:09:27.150,40.592,-123.204,28.98,1.92,NC.GVV..EHZ,P,-1.0,2016-03-04 10:09:44.080
nc72601895,2016-03-04 10:09:27.150,40.592,-123.204,28.98,1.92,NC.KBN..EHZ,P,-1.0,2016-03-04 10:09:40.870
nc72601895,2016-03-04 10:09:27.150,40.592,-123.204,28.98,1.92,NC.KCR..EHZ,P,1.0,2016-03-04 10:09:37.260
nc72601895,2016-03-04 10:09:27.150,40.592,-123.204,28.98,1.92,NC.KCS..EHZ,P,1.0,2016-03-04 10:09:33.960
nc72601895,2016-03-04 10:09:27.150,40.592,-123.204,28.98,1.92,NC.KHBB..HHZ,P,-1.0,2016-03-04 10:09:32.300
nc72601895,2016-03-04 10:09:27.150,40.592,-123.204,28.98,1.92,NC.KHMB..HHZ,P,1.0,2016-03-04 10:09:36.880
nc72601895,2016-03-04 10:09:27.150,40.592,-123.204,28.98,1.92,NC.KIP..EHZ,P,,2016-03-04 10:09:41.840
nc72601895,2016-03-04 10:09:27.150,40.592,-123.204,28.98,1.92,NC.KOM..EHZ,P,-1.0,2016-03-04 10:09:40.190
nc72601895,2016-03-04 10:09:27.150,40.592,-123.204,28.98,1.92,NC.KPP..EHZ,P,-1.0,2016-03-04 10:09:34.590
nc72601895,2016-03-04 10:09:27.150,40.592,-123.204,28.98,1.92,NC.LBK..EHZ,P,1.0,2016-03-04 10:09:39.160
nc72601895,2016-03-04 10:09:27.150,40.592,-123.204,28.98,1.92,NC.LBP..EHZ,P,-1.0,2016-03-04 10:09:35.540
