event_id,etime,elat,elon,edep,emag,station_id,phase_type,phase_polarity,phase_time
nc72637855,2016-05-19 21:30:35.170,40.324666666666666,-124.43333333333334,6.59,1.78,NC.KMPB..HHZ,P,1.0,2016-05-19 21:30:41.280
nc72637855,2016-05-19 21:30:35.170,40.324666666666666,-124.43333333333334,6.59,1.78,NC.KMR..HHZ,P,1.0,2016-05-19 21:30:47.550
nc72637855,2016-05-19 21:30:35.170,40.324666666666666,-124.43333333333334,6.59,1.78,NC.KOM..EHZ,P,1.0,2016-05-19 21:30:56.400
nc72637855,2016-05-19 21:30:35.170,40.324666666666666,-124.43333333333334,6.59,1.78,NC.KSM..EHZ,P,-1.0,2016-05-19 21:30:40.680
nc72637855,2016-05-19 21:30:35.170,40.324666666666666,-124.43333333333334,6.59,1.78,PB.B045..EHZ,P,1.0,2016-05-19 21:30:43.080
nc72637855,2016-05-19 21:30:35.170,40.324666666666666,-124.43333333333334,6.59,1.78,PB.B046..EHZ,P,-1.0,2016-05-19 21:30:38.380
nc72637855,2016-05-19 21:30:35.170,40.324666666666666,-124.43333333333334,6.59,1.78,PB.B047..EHZ,P,1.0,2016-05-19 21:30:40.200
nc72637855,2016-05-19 21:30:35.170,40.324666666666666,-124.43333333333334,6.59,1.78,PB.B049..EHZ,P,1.0,2016-05-19 21:30:43.490
nc72637855,2016-05-19 21:30:35.170,40.324666666666666,-124.43333333333334,6.59,1.78,PB.B932..EHZ,P,1.0,2016-05-19 21:30:39.220
nc72637855,2016-05-19 21:30:35.170,40.324666666666666,-124.43333333333334,6.59,1.78,PB.B933..EHZ,P,-1.0,2016-05-19 21:30:43.890
nc72637855,2016-05-19 21:30:35.170,40.324666666666666,-124.43333333333334,6.59,1.78,PB.B935..EHZ,P,-1.0,2016-05-19 21:30:49.250
nc72638100,2016-05-20 17:15:21.120,40.78933333333333,-123.2505,35.12,2.09,NC.KCR..EHZ,P,1.0,2016-05-20 17:15:32.430
nc72638100,2016-05-20 17:15:21.120,40.78933333333333,-123.2505,35.12,2.09,NC.KHBB..HHZ,P,-1.0,2016-05-20 17:15:27.390
nc72638100,2016-05-20 17:15:21.120,40.78933333333333,-123.2505,35.12,2.09,NC.KHMB..HHZ,P,-1.0,2016-05-20 17:15:29.730
nc72638100,2016-05-20 17:15:21.120,40.78933333333333,-123.2505,35.12,2.09,NC.KOM..EHZ,P,1.0,2016-05-20 17:15:31.460
nc72638100,2016-05-20 17:15:21.120,40.78933333333333,-123.2505,35.12,2.09,NC.KPP..EHZ,P,-1.0,2016-05-20 17:15:31.090
nc72638100,2016-05-20 17:15:21.120,40.78933333333333,-123.2505,35.12,2.09,NC.KSM..EHZ,P,,2016-05-20 17:15:37.090
nc72638100,2016-05-20 17:15:21.120,40.78933333333333,-123.2505,35.12,2.09,NC.LBK..EHZ,P,-1.0,2016-05-20 17:15:31.760
nc72638100,2016-05-20 17:15:21.120,40.78933333333333,-123.2505,35.12,2.09,NC.LBP..EHZ,P,-1.0,2016-05-20 17:15:32.160
nc72638100,2016-05-20 17:15:21.120,40.78933333333333,-123.2505,35.12,2.09,NC.LGP..EHZ,P,1.0,2016-05-20 17:15:29.390
nc72638100,2016-05-20 17:15:21.120,40.78933333333333,-123.2505,35.12,2.09,NC.LMI..EHZ,P,1.0,2016-05-20 17:15:36.920
nc72638100,2016-05-20 17:15:21.120,40.78933333333333,-123.2505,35.12,2.09,NC.LPG..EHZ,P,-1.0,2016-05-20 17:15:35.740
nc72638100,2016-05-20 17:15:21.120,40.78933333333333,-123.2505,35.12,2.09,NC.LPK..EHZ,P,-1.0,2016-05-20 17:15:36.790
nc72638100,2016-05-20 17:15:21.120,40.78933333333333,-123.2505,35.12,2.09,NC.LSR..EHZ,P,1.0,2016-05-20 17:15:36.140
nc72638100,2016-05-20 17:15:21.120,40.78933333333333,-123.2505,35.12,2.09,PB.B039..EHZ,P,-1.0,2016-05-20 17:15:36.700
nc72638100,2016-05-20 17:15:21.120,40.78933333333333,-123.2505,35.12,2.09,PB.B046..EHZ,P,-1.0,2016-05-20 17:15:36.880
nc72638100,2016-05-20 17:15:21.120,40.78933333333333,-123.2505,35.12,2.09,PB.B047..EHZ,P,1.0,2016-05-20 17:15:36.450
nc72638100,2016-05-20 17:15:21.120,40.78933333333333,-123.2505,35.12,2.09,PB.B932..EHZ,P,1.0,2016-05-20 17:15:36.360
nc72638100,2016-05-20 17:15:21.120,40.78933333333333,-123.2505,35.12,2.09,PB.B935..EHZ,P,1.0,2016-05-20 17:15:30.140
nc72641376,2016-05-24 04:41:49.560,40.092166666666664,-123.992,20.48,1.49,BK.JCC..HHZ,P,1.0,2016-05-24 04:42:02.690
nc72641376,2016-05-24 04:41:49.560,40.092166666666664,-123.992,20.48,1.49,NC.GNA..EHZ,P,1.0,2016-05-24 04:42:07.450
nc72641376,2016-05-24 04:41:49.560,40.092166666666664,-123.992,20.48,1.49,NC.GTC..EHZ,P,1.0,2016-05-24 04:42:03.030
nc72641376,2016-05-24 04:41:49.560,40.092166666666664,-123.992,20.48,1.49,NC.GVV..EHZ,P,,2016-05-24 04:42:07.730
nc72641376,2016-05-24 04:41:49.560,40.092166666666664,-123.992,20.48,1.49,NC.KBN..EHZ,P,,2016-05-24 04:42:01.980
nc72641376,2016-05-24 04:41:49.560,40.092166666666664,-123.992,20.48,1.49,NC.KBS..EHZ,P,1.0,2016-05-24 04:41:57.510
nc72641376,2016-05-24 04:41:49.560,40.092166666666664,-123.992,20.48,1.49,NC.KCO..EHZ,P,1.0,2016-05-24 04:41:56.030
nc72641376,2016-05-24 04:41:49.560,40.092166666666664,-123.992,20.48,1.49,NC.KCPB..HHZ,P,-1.0,2016-05-24 04:42:00.290
nc72641376,2016-05-24 04:41:49.560,40.092166666666664,-123.992,20.48,1.49,NC.KCR..EHZ,P,-1.0,2016-05-24 04:41:57.740
nc72641376,2016-05-24 04:41:49.560,40.092166666666664,-123.992,20.48,1.49,NC.KCT..HHZ,P,,2016-05-24 04:41:59.220
nc72641376,2016-05-24 04:41:49.560,40.092166666666664,-123.992,20.48,1.49,NC.KFP..EHZ,P,1.0,2016-05-24 04:42:01.110
nc72641376,2016-05-24 04:41:49.560,40.092166666666664,-123.992,20.48,1.49,NC.KIP..EHZ,P,1.0,2016-05-24 04:41:59.690
nc72641376,2016-05-24 04:41:49.560,40.092166666666664,-123.992,20.48,1.49,NC.KMPB..HHZ,P,1.0,2016-05-24 04:41:57.210
nc72641376,2016-05-24 04:41:49.560,40.092166666666664,-123.992,20.48,1.49,NC.KMR..HHZ,P,1.0,2016-05-24 04:41:55.880
nc72641376,2016-05-24 04:41:49.560,40.092166666666664,-123.992,20.48,1.49,NC.KSM..EHZ,P,1.0,2016-05-24 04:41:54.620
nc72641376,2016-05-24 04:41:49.560,40.092166666666664,-123.992,20.48,1.49,PB.B045..EHZ,P,1.0,2016-05-24 04:41:56.660
nc72641376,2016-05-24 04:41:49.560,40.092166666666664,-123.992,20.48,1.49,PB.B046..EHZ,P,1.0,2016-05-24 04:41:56.680
nc72641376,2016-05-24 04:41:49.560,40.092166666666664,-123.992,20.48,1.49,PB.B047..EHZ,P,1.0,2016-05-24 04:41:55.210
nc72641376,2016-05-24 04:41:49.560,40.092166666666664,-123.992,20.48,1.49,PB.B049..EHZ,P,1.0,2016-05-24 04:41:54.980
nc72641376,2016-05-24 04:41:49.560,40.092166666666664,-123.992,20.48,1.49,PB.B932..EHZ,P,1.0,2016-05-24 04:41:55.600
nc72641376,2016-05-24 04:41:49.560,40.092166666666664,-123.992,20.48,1.49,PB.B935..EHZ,P,-1.0,2016-05-24 04:42:00.130
nc72641551,2016-05-24 19:46:26.170,40.123666666666665,-123.07916666666667,36.41,2.0,BK.GASB..HHZ,P,1.0,2016-05-24 19:46:37.590
nc72641551,2016-05-24 19:46:26.170,40.123666666666665,-123.07916666666667,36.41,2.0,NC.GNA..EHZ,P,-1.0,2016-05-24 19:46:42.970
nc72641551,2016-05-24 19:46:26.170,40.123666666666665,-123.07916666666667,36.41,2.0,NC.GRO..EHZ,P,1.0,2016-05-24 19:46:35.260
nc72641551,2016-05-24 19:46:26.170,40.123666666666665,-123.07916666666667,36.41,2.0,NC.GTC..EHZ,P,-1.0,2016-05-24 19:46:40.160
nc72641551,2016-05-24 19:46:26.170,40.123666666666665,-123.07916666666667,36.41,2.0,NC.GVV..EHZ,P,1.0,2016-05-24 19:46:36.350
nc72641551,2016-05-24 19:46:26.170,40.123666666666665,-123.07916666666667,36.41,2.0,NC.KBN..EHZ,P,-1.0,2016-05-24 19:46:33.900
nc72641551,2016-05-24 19:46:26.170,40.123666666666665,-123.07916666666667,36.41,2.0,NC.KBS..EHZ,P,1.0,2016-05-24 19:46:36.080
nc72641551,2016-05-24 19:46:26.170,40.123666666666665,-123.07916666666667,36.41,2.0,NC.KCO..EHZ,P,-1.0,2016-05-24 19:46:42.040
nc72641551,2016-05-24 19:46:26.170,40.123666666666665,-123.07916666666667,36.41,2.0,NC.KCPB..HHZ,P,,2016-05-24 19:46:37.540
nc72641551,2016-05-24 19:46:26.170,40.123666666666665,-123.07916666666667,36.41,2.0,NC.KCR..EHZ,P,1.0,2016-05-24 19:46:38.400
nc72641551,2016-05-24 19:46:26.170,40.123666666666665,-123.07916666666667,36.41,2.0,NC.KCT..HHZ,P,,2016-05-24 19:46:43.330
nc72641551,2016-05-24 19:46:26.170,40.123666666666665,-123.07916666666667,36.41,2.0,NC.KFP..EHZ,P,-1.0,2016-05-24 19:46:37.060
nc72641551,2016-05-24 19:46:26.170,40.123666666666665,-123.07916666666667,36.41,2.0,NC.KHBB..HHZ,P,-1.0,2016-05-24 19:46:37.060
nc72641551,2016-05-24 19:46:26.170,40.123666666666665,-123.07916666666667,36.41,2.0,NC.KIP..EHZ,P,-1.0,2016-05-24 19:46:35.800
nc72641551,2016-05-24 19:46:26.170,40.123666666666665,-123.07916666666667,36.41,2.0,NC.KKP..EHZ,P,-1.0,2016-05-24 19:46:34.750
nc72641551,2016-05-24 19:46:26.170,40.123666666666665,-123.07916666666667,36.41,2.0,NC.KMPB..HHZ,P,-1.0,2016-05-24 19:46:41.180
nc72641551,2016-05-24 19:46:26.170,40.123666666666665,-123.07916666666667,36.41,2.0,NC.KMR..HHZ,P,1.0,2016-05-24 19:46:36.500
nc72641551,2016-05-24 19:46:26.170,40.123666666666665,-123.07916666666667,36.41,2.0,NC.KOM..EHZ,P,1.0,2016-05-24 19:46:46.150
nc72641551,2016-05-24 19:46:26.170,40.123666666666665,-123.07916666666667,36.41,2.0,NC.KPP..EHZ,P,1.0,2016-05-24 19:46:34.590
nc72641551,2016-05-24 19:46:26.170,40.123666666666665,-123.07916666666667,36.41,2.0,NC.KSM..EHZ,P,-1.0,2016-05-24 19:46:40.580
nc72641551,2016-05-24 19:46:26.170,40.123666666666665,-123.07916666666667,36.41,2.0,NC.LBK..EHZ,P,1.0,2016-05-24 19:46:43.460
nc72641551,2016-05-24 19:46:26.170,40.123666666666665,-123.07916666666667,36.41,2.0,NC.LBP..EHZ,P,-1.0,2016-05-24 19:46:33.540
nc72641551,2016-05-24 19:46:26.170,40.123666666666665,-123.07916666666667,36.41,2.0,NC.LGP..EHZ,P,1.0,2016-05-24 19:46:40.760
nc72641551,2016-05-24 19:46:26.170,40.123666666666665,-123.07916666666667,36.41,2.0,NC.LRB..EHZ,P,,2016-05-24 19:46:35.840
nc72641551,2016-05-24 19:46:26.170,40.123666666666665,-123.07916666666667,36.41,2.0,NC.LVR..EHZ,P,1.0,2016-05-24 19:46:34.610
nc72641551,2016-05-24 19:46:26.170,40.123666666666665,-123.07916666666667,36.41,2.0,PB.B049..EHZ,P,1.0,2016-05-24 19:46:37.300
nc72641551,2016-05-24 19:46:26.170,40.123666666666665,-123.07916666666667,36.41,2.0,PB.B932..EHZ,P,1.0,2016-05-24 19:46:41.230
nc72641551,2016-05-24 19:46:26.170,40.123666666666665,-123.07916666666667,36.41,2.0,PB.B935..EHZ,P,1.0,2016-05-24 19:46:36.930
nc72642736,2016-05-28 12:47:55.630,40.311,-124.4665,10.8,1.85,BK.JCC..HHZ,P,1.0,2016-05-28 12:48:07.300
nc72642736,2016-05-28 12:47:55.630,40.311,-124.4665,10.8,1.85,NC.KBS..EHZ,P,-1.0,2016-05-28 12:48:10.410
nc72642736,2016-05-28 12:47:55.630,40.311,-124.4665,10.8,1.85,NC.KCO..EHZ,P,1.0,2016-05-28 12:47:59.990
nc72642736,2016-05-28 12:47:55.630,40.311,-124.4665,10.8,1.85,NC.KCR..EHZ,P,1.0,2016-05-28 12:48:06.650
nc72642736,2016-05-28 12:47:55.630,40.311,-124.4665,10.8,1.85,NC.KCT..HHZ,P,1.0,2016-05-28 12:48:00.770
nc72642736,2016-05-28 12:47:55.630,40.311,-124.4665,10.8,1.85,NC.KFP..EHZ,P,-1.0,2016-05-28 12:48:13.930
nc72642736,2016-05-28 12:47:55.630,40.311,-124.4665,10.8,1.85,NC.KIP..EHZ,P,,2016-05-28 12:48:12.520
nc72642736,2016-05-28 12:47:55.630,40.311,-124.4665,10.8,1.85,NC.KMPB..HHZ,P,1.0,2016-05-28 12:48:02.150
nc72642736,2016-05-28 12:47:55.630,40.311,-124.4665,10.8,1.85,NC.KMR..HHZ,P,1.0,2016-05-28 12:48:08.600
nc72642736,2016-05-28 12:47:55.630,40.311,-124.4665,10.8,1.85,NC.KSM..EHZ,P,-1.0,2016-05-28 12:48:01.550
nc72642736,2016-05-28 12:47:55.630,40.311,-124.4665,10.8,1.85,PB.B045..EHZ,P,1.0,2016-05-28 12:48:03.900
nc72642736,2016-05-28 12:47:55.630,40.311,-124.4665,10.8,1.85,PB.B046..EHZ,P,1.0,2016-05-28 12:47:59.370
nc72642736,2016-05-28 12:47:55.630,40.311,-124.4665,10.8,1.85,PB.B047..EHZ,P,1.0,2016-05-28 12:48:01.130
nc72642736,2016-05-28 12:47:55.630,40.311,-124.4665,10.8,1.85,PB.B049..EHZ,P,1.0,2016-05-28 12:48:05.940
nc72642736,2016-05-28 12:47:55.630,40.311,-124.4665,10.8,1.85,PB.B932..EHZ,P,1.0,2016-05-28 12:48:00.170
nc72642736,2016-05-28 12:47:55.630,40.311,-124.4665,10.8,1.85,PB.B933..EHZ,P,1.0,2016-05-28 12:48:04.760
nc72642736,2016-05-28 12:47:55.630,40.311,-124.4665,10.8,1.85,PB.B935..EHZ,P,-1.0,2016-05-28 12:48:09.730
nc72645406,2016-06-03 20:21:54.190,40.74766666666667,-123.48516666666667,29.15,1.81,BK.JCC..HHZ,P,1.0,2016-06-03 20:22:02.840
nc72645406,2016-06-03 20:21:54.190,40.74766666666667,-123.48516666666667,29.15,1.81,NC.KHBB..HHZ,P,-1.0,2016-06-03 20:22:00.550
nc72645406,2016-06-03 20:21:54.190,40.74766666666667,-123.48516666666667,29.15,1.81,NC.KHMB..HHZ,P,1.0,2016-06-03 20:22:00.540
nc72645406,2016-06-03 20:21:54.190,40.74766666666667,-123.48516666666667,29.15,1.81,NC.KMR..HHZ,P,1.0,2016-06-03 20:22:05.200
nc72645406,2016-06-03 20:21:54.190,40.74766666666667,-123.48516666666667,29.15,1.81,NC.KPP..EHZ,P,1.0,2016-06-03 20:22:03.470
nc72645406,2016-06-03 20:21:54.190,40.74766666666667,-123.48516666666667,29.15,1.81,NC.KRP..HHZ,P,1.0,2016-06-03 20:22:05.520
nc72645406,2016-06-03 20:21:54.190,40.74766666666667,-123.48516666666667,29.15,1.81,NC.LBK..EHZ,P,1.0,2016-06-03 20:22:07.240
nc72645406,2016-06-03 20:21:54.190,40.74766666666667,-123.48516666666667,29.15,1.81,NC.LGP..EHZ,P,-1.0,2016-06-03 20:22:04.710
nc72645406,2016-06-03 20:21:54.190,40.74766666666667,-123.48516666666667,29.15,1.81,PB.B935..EHZ,P,-1.0,2016-06-03 20:22:01.370
nc72646276,2016-06-05 11:39:14.330,40.965833333333336,-123.44216666666667,27.33,2.26,BK.JCC..HHZ,P,1.0,2016-06-05 11:39:23.630
nc72646276,2016-06-05 11:39:14.330,40.965833333333336,-123.44216666666667,27.33,2.26,NC.KHBB..HHZ,P,1.0,2016-06-05 11:39:22.230
nc72646276,2016-06-05 11:39:14.330,40.965833333333336,-123.44216666666667,27.33,2.26,NC.KHMB..HHZ,P,-1.0,2016-06-05 11:39:20.820
nc72646276,2016-06-05 11:39:14.330,40.965833333333336,-123.44216666666667,27.33,2.26,NC.KMPB..HHZ,P,1.0,2016-06-05 11:39:27.800
nc72646276,2016-06-05 11:39:14.330,40.965833333333336,-123.44216666666667,27.33,2.26,NC.KOM..EHZ,P,-1.0,2016-06-05 11:39:21.690
nc72646276,2016-06-05 11:39:14.330,40.965833333333336,-123.44216666666667,27.33,2.26,NC.KRP..HHZ,P,1.0,2016-06-05 11:39:24.030
nc72646276,2016-06-05 11:39:14.330,40.965833333333336,-123.44216666666667,27.33,2.26,NC.KSXB..HHZ,P,,2016-06-05 11:39:30.350
nc72646276,2016-06-05 11:39:14.330,40.965833333333336,-123.44216666666667,27.33,2.26,NC.KTR..EHZ,P,,2016-06-05 11:39:30.920
nc72646276,2016-06-05 11:39:14.330,40.965833333333336,-123.44216666666667,27.33,2.26,NC.LBK..EHZ,P,1.0,2016-06-05 11:39:25.690
nc72646276,2016-06-05 11:39:14.330,40.965833333333336,-123.44216666666667,27.33,2.26,NC.LBP..EHZ,P,,2016-06-05 11:39:28.970
nc72646276,2016-06-05 11:39:14.330,40.965833333333336,-123.44216666666667,27.33,2.26,NC.LGP..EHZ,P,1.0,2016-06-05 11:39:23.770
nc72646276,2016-06-05 11:39:14.330,40.965833333333336,-123.44216666666667,27.33,2.26,NC.LMC..HHZ,P,-1.0,2016-06-05 11:39:33.200
nc72646276,2016-06-05 11:39:14.330,40.965833333333336,-123.44216666666667,27.33,2.26,NC.LMI..EHZ,P,1.0,2016-06-05 11:39:33.500
nc72646276,2016-06-05 11:39:14.330,40.965833333333336,-123.44216666666667,27.33,2.26,NC.LPK..EHZ,P,-1.0,2016-06-05 11:39:29.520
nc72646276,2016-06-05 11:39:14.330,40.965833333333336,-123.44216666666667,27.33,2.26,PB.B039..EHZ,P,1.0,2016-06-05 11:39:29.870
nc72646276,2016-06-05 11:39:14.330,40.965833333333336,-123.44216666666667,27.33,2.26,PB.B040..EHZ,P,-1.0,2016-06-05 11:39:33.850
nc72646276,2016-06-05 11:39:14.330,40.965833333333336,-123.44216666666667,27.33,2.26,PB.B045..EHZ,P,1.0,2016-06-05 11:39:26.740
nc72646276,2016-06-05 11:39:14.330,40.965833333333336,-123.44216666666667,27.33,2.26,PB.B046..EHZ,P,1.0,2016-06-05 11:39:29.780
nc72646276,2016-06-05 11:39:14.330,40.965833333333336,-123.44216666666667,27.33,2.26,PB.B047..EHZ,P,1.0,2016-06-05 11:39:29.770
nc72646276,2016-06-05 11:39:14.330,40.965833333333336,-123.44216666666667,27.33,2.26,PB.B049..EHZ,P,1.0,2016-06-05 11:39:28.200
nc72646276,2016-06-05 11:39:14.330,40.965833333333336,-123.44216666666667,27.33,2.26,PB.B932..EHZ,P,1.0,2016-06-05 11:39:29.700
nc72646276,2016-06-05 11:39:14.330,40.965833333333336,-123.44216666666667,27.33,2.26,PB.B935..EHZ,P,1.0,2016-06-05 11:39:24.460
nc72652301,2016-06-17 17:14:04.580,40.247,-124.16533333333334,12.1,1.0,NC.KCO..EHZ,P,1.0,2016-06-17 17:14:07.610
nc72652301,2016-06-17 17:14:04.580,40.247,-124.16533333333334,12.1,1.0,NC.KCT..HHZ,P,,2016-06-17 17:14:11.060
nc72652301,2016-06-17 17:14:04.580,40.247,-124.16533333333334,12.1,1.0,NC.KMPB..HHZ,P,-1.0,2016-06-17 17:14:09.160
nc72652301,2016-06-17 17:14:04.580,40.247,-124.16533333333334,12.1,1.0,NC.KMR..HHZ,P,,2016-06-17 17:14:12.610
nc72652301,2016-06-17 17:14:04.580,40.247,-124.16533333333334,12.1,1.0,NC.KSM..EHZ,P,1.0,2016-06-17 17:14:07.270
nc72652301,2016-06-17 17:14:04.580,40.247,-124.16533333333334,12.1,1.0,PB.B046..EHZ,P,-1.0,2016-06-17 17:14:08.110
nc72652301,2016-06-17 17:14:04.580,40.247,-124.16533333333334,12.1,1.0,PB.B047..EHZ,P,1.0,2016-06-17 17:14:06.990
nc72652301,2016-06-17 17:14:04.580,40.247,-124.16533333333334,12.1,1.0,PB.B049..EHZ,P,-1.0,2016-06-17 17:14:10.780
nc72652301,2016-06-17 17:14:04.580,40.247,-124.16533333333334,12.1,1.0,PB.B932..EHZ,P,1.0,2016-06-17 17:14:07.090
nc72652741,2016-06-18 18:19:23.820,40.5755,-123.682,22.02,1.69,BK.JCC..HHZ,P,-1.0,2016-06-18 18:19:31.480
nc72652741,2016-06-18 18:19:23.820,40.5755,-123.682,22.02,1.69,NC.KBS..EHZ,P,,2016-06-18 18:19:36.580
nc72652741,2016-06-18 18:19:23.820,40.5755,-123.682,22.02,1.69,NC.KCO..EHZ,P,,2016-06-18 18:19:34.360
nc72652741,2016-06-18 18:19:23.820,40.5755,-123.682,22.02,1.69,NC.KCR..EHZ,P,1.0,2016-06-18 18:19:29.350
nc72652741,2016-06-18 18:19:23.820,40.5755,-123.682,22.02,1.69,NC.KHBB..HHZ,P,1.0,2016-06-18 18:19:31.870
nc72652741,2016-06-18 18:19:23.820,40.5755,-123.682,22.02,1.69,NC.KHMB..HHZ,P,,2016-06-18 18:19:31.080
nc72652741,2016-06-18 18:19:23.820,40.5755,-123.682,22.02,1.69,NC.KMPB..HHZ,P,1.0,2016-06-18 18:19:31.910
nc72652741,2016-06-18 18:19:23.820,40.5755,-123.682,22.02,1.69,NC.KMR..HHZ,P,1.0,2016-06-18 18:19:32.110
nc72652741,2016-06-18 18:19:23.820,40.5755,-123.682,22.02,1.69,NC.KOM..EHZ,P,,2016-06-18 18:19:37.110
nc72652741,2016-06-18 18:19:23.820,40.5755,-123.682,22.02,1.69,NC.KPP..EHZ,P,-1.0,2016-06-18 18:19:31.790
nc72652741,2016-06-18 18:19:23.820,40.5755,-123.682,22.02,1.69,NC.KRP..HHZ,P,,2016-06-18 18:19:35.500
nc72652741,2016-06-18 18:19:23.820,40.5755,-123.682,22.02,1.69,NC.KSM..EHZ,P,,2016-06-18 18:19:34.370
nc72652741,2016-06-18 18:19:23.820,40.5755,-123.682,22.02,1.69,NC.LBK..EHZ,P,,2016-06-18 18:19:39.770
nc72652741,2016-06-18 18:19:23.820,40.5755,-123.682,22.02,1.69,NC.LBP..EHZ,P,,2016-06-18 18:19:36.540
nc72652741,2016-06-18 18:19:23.820,40.5755,-123.682,22.02,1.69,NC.LGP..EHZ,P,,2016-06-18 18:19:37.380
nc72652741,2016-06-18 18:19:23.820,40.5755,-123.682,22.02,1.69,PB.B045..EHZ,P,1.0,2016-06-18 18:19:30.520
nc72652741,2016-06-18 18:19:23.820,40.5755,-123.682,22.02,1.69,PB.B046..EHZ,P,,2016-06-18 18:19:33.970
nc72652741,2016-06-18 18:19:23.820,40.5755,-123.682,22.02,1.69,PB.B047..EHZ,P,,2016-06-18 18:19:33.580
nc72652741,2016-06-18 18:19:23.820,40.5755,-123.682,22.02,1.69,PB.B049..EHZ,P,,2016-06-18 18:19:31.560
nc72652741,2016-06-18 18:19:23.820,40.5755,-123.682,22.02,1.69,PB.B932..EHZ,P,1.0,2016-06-18 18:19:33.600
nc72652741,2016-06-18 18:19:23.820,40.5755,-123.682,22.02,1.69,PB.B935..EHZ,P,-1.0,2016-06-18 18:19:28.740
nc72652971,2016-06-19 05:05:25.180,40.902833333333334,-123.62183333333333,24.34,2.21,BK.GASB..HHZ,P,,2016-06-19 05:05:49.160
nc72652971,2016-06-19 05:05:25.180,40.902833333333334,-123.62183333333333,24.34,2.21,BK.JCC..HHZ,P,1.0,2016-06-19 05:05:32.270
nc72652971,2016-06-19 05:05:25.180,40.902833333333334,-123.62183333333333,24.34,2.21,BK.YBH..HHZ,P,1.0,2016-06-19 05:05:43.450
nc72652971,2016-06-19 05:05:25.180,40.902833333333334,-123.62183333333333,24.34,2.21,NC.KCR..EHZ,P,1.0,2016-06-19 05:05:35.330
nc72652971,2016-06-19 05:05:25.180,40.902833333333334,-123.62183333333333,24.34,2.21,NC.KHBB..HHZ,P,-1.0,2016-06-19 05:05:33.320
nc72652971,2016-06-19 05:05:25.180,40.902833333333334,-123.62183333333333,24.34,2.21,NC.KHMB..HHZ,P,1.0,2016-06-19 05:05:29.930
nc72652971,2016-06-19 05:05:25.180,40.902833333333334,-123.62183333333333,24.34,2.21,NC.KMR..HHZ,P,1.0,2016-06-19 05:05:38.220
nc72652971,2016-06-19 05:05:25.180,40.902833333333334,-123.62183333333333,24.34,2.21,NC.KOM..EHZ,P,-1.0,2016-06-19 05:05:33.040
nc72652971,2016-06-19 05:05:25.180,40.902833333333334,-123.62183333333333,24.34,2.21,NC.KPP..EHZ,P,1.0,2016-06-19 05:05:36.950
nc72652971,2016-06-19 05:05:25.180,40.902833333333334,-123.62183333333333,24.34,2.21,NC.KRP..HHZ,P,1.0,2016-06-19 05:05:33.280
nc72652971,2016-06-19 05:05:25.180,40.902833333333334,-123.62183333333333,24.34,2.21,NC.KSXB..HHZ,P,,2016-06-19 05:05:42.620
nc72652971,2016-06-19 05:05:25.180,40.902833333333334,-123.62183333333333,24.34,2.21,NC.LBK..EHZ,P,1.0,2016-06-19 05:05:38.480
