event_id,etime,elat,elon,edep,emag,station_id,phase_type,phase_polarity,phase_time
nc72814121,2017-06-11 12:51:07.870,39.83166666666666,-123.15866666666666,9.61,1.45,NC.GHM..EHZ,P,1.0,2017-06-11 12:51:15.770
nc72814121,2017-06-11 12:51:07.870,39.83166666666666,-123.15866666666666,9.61,1.45,NC.GRO..EHZ,P,-1.0,2017-06-11 12:51:15.800
nc72814121,2017-06-11 12:51:07.870,39.83166666666666,-123.15866666666666,9.61,1.45,NC.GTC..EHZ,P,-1.0,2017-06-11 12:51:18.470
nc72814121,2017-06-11 12:51:07.870,39.83166666666666,-123.15866666666666,9.61,1.45,NC.GTS..EHZ,P,1.0,2017-06-11 12:51:20.960
nc72814121,2017-06-11 12:51:07.870,39.83166666666666,-123.15866666666666,9.61,1.45,NC.GVV..EHZ,P,-1.0,2017-06-11 12:51:15.620
nc72814121,2017-06-11 12:51:07.870,39.83166666666666,-123.15866666666666,9.61,1.45,NC.KBN..EHZ,P,1.0,2017-06-11 12:51:10.490
nc72814121,2017-06-11 12:51:07.870,39.83166666666666,-123.15866666666666,9.61,1.45,NC.KCPB..HHZ,P,1.0,2017-06-11 12:51:15.400
nc72814121,2017-06-11 12:51:07.870,39.83166666666666,-123.15866666666666,9.61,1.45,NC.KFP..EHZ,P,1.0,2017-06-11 12:51:13.660
nc72814121,2017-06-11 12:51:07.870,39.83166666666666,-123.15866666666666,9.61,1.45,NC.KHBB..HHZ,P,,2017-06-11 12:51:23.690
nc72814121,2017-06-11 12:51:07.870,39.83166666666666,-123.15866666666666,9.61,1.45,NC.KIP..EHZ,P,1.0,2017-06-11 12:51:13.040
nc72814121,2017-06-11 12:51:07.870,39.83166666666666,-123.15866666666666,9.61,1.45,NC.KKP..EHZ,P,-1.0,2017-06-11 12:51:15.990
nc72814121,2017-06-11 12:51:07.870,39.83166666666666,-123.15866666666666,9.61,1.45,NC.KMR..HHZ,P,-1.0,2017-06-11 12:51:19.690
nc72814121,2017-06-11 12:51:07.870,39.83166666666666,-123.15866666666666,9.61,1.45,NC.KSM..EHZ,P,1.0,2017-06-11 12:51:23.570
nc72814121,2017-06-11 12:51:07.870,39.83166666666666,-123.15866666666666,9.61,1.45,NC.LBP..EHZ,P,-1.0,2017-06-11 12:51:18.470
nc72814121,2017-06-11 12:51:07.870,39.83166666666666,-123.15866666666666,9.61,1.45,NC.LPG..EHZ,P,-1.0,2017-06-11 12:51:17.730
nc72814121,2017-06-11 12:51:07.870,39.83166666666666,-123.15866666666666,9.61,1.45,NC.LRB..EHZ,P,1.0,2017-06-11 12:51:19.600
nc72814121,2017-06-11 12:51:07.870,39.83166666666666,-123.15866666666666,9.61,1.45,NC.LVR..EHZ,P,-1.0,2017-06-11 12:51:16.540
nc72814121,2017-06-11 12:51:07.870,39.83166666666666,-123.15866666666666,9.61,1.45,PB.B049..EHZ,P,-1.0,2017-06-11 12:51:20.990
nc72815501,2017-06-13 22:45:42.570,39.97416666666667,-123.56966666666666,1.25,1.82,NC.GHM..EHZ,P,1.0,2017-06-13 22:45:57.550
nc72815501,2017-06-13 22:45:42.570,39.97416666666667,-123.56966666666666,1.25,1.82,NC.GRO..EHZ,P,,2017-06-13 22:45:57.650
nc72815501,2017-06-13 22:45:42.570,39.97416666666667,-123.56966666666666,1.25,1.82,NC.GTC..EHZ,P,-1.0,2017-06-13 22:45:54.990
nc72815501,2017-06-13 22:45:42.570,39.97416666666667,-123.56966666666666,1.25,1.82,NC.GVV..EHZ,P,-1.0,2017-06-13 22:45:58.040
nc72815501,2017-06-13 22:45:42.570,39.97416666666667,-123.56966666666666,1.25,1.82,NC.KCPB..HHZ,P,-1.0,2017-06-13 22:45:49.400
nc72815501,2017-06-13 22:45:42.570,39.97416666666667,-123.56966666666666,1.25,1.82,NC.KCR..EHZ,P,-1.0,2017-06-13 22:45:53.760
nc72815501,2017-06-13 22:45:42.570,39.97416666666667,-123.56966666666666,1.25,1.82,NC.KFP..EHZ,P,1.0,2017-06-13 22:45:50.910
nc72815501,2017-06-13 22:45:42.570,39.97416666666667,-123.56966666666666,1.25,1.82,NC.KIP..EHZ,P,-1.0,2017-06-13 22:45:47.310
nc72815501,2017-06-13 22:45:42.570,39.97416666666667,-123.56966666666666,1.25,1.82,NC.KKP..EHZ,P,-1.0,2017-06-13 22:45:47.850
nc72815501,2017-06-13 22:45:42.570,39.97416666666667,-123.56966666666666,1.25,1.82,NC.KMR..HHZ,P,-1.0,2017-06-13 22:45:49.110
nc72815501,2017-06-13 22:45:42.570,39.97416666666667,-123.56966666666666,1.25,1.82,NC.KPP..EHZ,P,-1.0,2017-06-13 22:45:52.500
nc72815501,2017-06-13 22:45:42.570,39.97416666666667,-123.56966666666666,1.25,1.82,NC.KSM..EHZ,P,1.0,2017-06-13 22:45:54.120
nc72815501,2017-06-13 22:45:42.570,39.97416666666667,-123.56966666666666,1.25,1.82,NC.LPG..EHZ,P,,2017-06-13 22:45:57.810
nc72815501,2017-06-13 22:45:42.570,39.97416666666667,-123.56966666666666,1.25,1.82,NC.LVR..EHZ,P,,2017-06-13 22:45:57.700
nc72815501,2017-06-13 22:45:42.570,39.97416666666667,-123.56966666666666,1.25,1.82,PB.B045..EHZ,P,,2017-06-13 22:45:55.600
nc72815501,2017-06-13 22:45:42.570,39.97416666666667,-123.56966666666666,1.25,1.82,PB.B046..EHZ,P,,2017-06-13 22:45:57.150
nc72815501,2017-06-13 22:45:42.570,39.97416666666667,-123.56966666666666,1.25,1.82,PB.B047..EHZ,P,1.0,2017-06-13 22:45:54.830
nc72815501,2017-06-13 22:45:42.570,39.97416666666667,-123.56966666666666,1.25,1.82,PB.B049..EHZ,P,-1.0,2017-06-13 22:45:50.290
nc72815501,2017-06-13 22:45:42.570,39.97416666666667,-123.56966666666666,1.25,1.82,PB.B932..EHZ,P,1.0,2017-06-13 22:45:55.530
nc72815501,2017-06-13 22:45:42.570,39.97416666666667,-123.56966666666666,1.25,1.82,PB.B935..EHZ,P,1.0,2017-06-13 22:45:54.150
nc72816546,2017-06-15 20:07:33.940,40.87316666666667,-123.54416666666667,25.82,2.55,BK.DANT..HHZ,P,,2017-06-15 20:07:58.830
nc72816546,2017-06-15 20:07:33.940,40.87316666666667,-123.54416666666667,25.82,2.55,BK.JCC..HHZ,P,1.0,2017-06-15 20:07:41.810
nc72816546,2017-06-15 20:07:33.940,40.87316666666667,-123.54416666666667,25.82,2.55,BK.YBH..HHZ,P,-1.0,2017-06-15 20:07:52.240
nc72816546,2017-06-15 20:07:33.940,40.87316666666667,-123.54416666666667,25.82,2.55,NC.GVV..EHZ,P,,2017-06-15 20:07:55.620
nc72816546,2017-06-15 20:07:33.940,40.87316666666667,-123.54416666666667,25.82,2.55,NC.KCO..EHZ,P,1.0,2017-06-15 20:07:48.250
nc72816546,2017-06-15 20:07:33.940,40.87316666666667,-123.54416666666667,25.82,2.55,NC.KCR..EHZ,P,1.0,2017-06-15 20:07:43.980
nc72816546,2017-06-15 20:07:33.940,40.87316666666667,-123.54416666666667,25.82,2.55,NC.KCT..HHZ,P,1.0,2017-06-15 20:07:46.810
nc72816546,2017-06-15 20:07:33.940,40.87316666666667,-123.54416666666667,25.82,2.55,NC.KHBB..HHZ,P,1.0,2017-06-15 20:07:41.390
nc72816546,2017-06-15 20:07:33.940,40.87316666666667,-123.54416666666667,25.82,2.55,NC.KHMB..HHZ,P,-1.0,2017-06-15 20:07:39.240
nc72816546,2017-06-15 20:07:33.940,40.87316666666667,-123.54416666666667,25.82,2.55,NC.KIP..EHZ,P,-1.0,2017-06-15 20:07:52.120
nc72816546,2017-06-15 20:07:33.940,40.87316666666667,-123.54416666666667,25.82,2.55,NC.KKP..EHZ,P,-1.0,2017-06-15 20:07:47.660
nc72816546,2017-06-15 20:07:33.940,40.87316666666667,-123.54416666666667,25.82,2.55,NC.KMPB..HHZ,P,1.0,2017-06-15 20:07:45.660
nc72816546,2017-06-15 20:07:33.940,40.87316666666667,-123.54416666666667,25.82,2.55,NC.KMR..HHZ,P,-1.0,2017-06-15 20:07:46.600
nc72816546,2017-06-15 20:07:33.940,40.87316666666667,-123.54416666666667,25.82,2.55,NC.KOM..EHZ,P,-1.0,2017-06-15 20:07:42.290
nc72816546,2017-06-15 20:07:33.940,40.87316666666667,-123.54416666666667,25.82,2.55,NC.KPP..EHZ,P,-1.0,2017-06-15 20:07:44.970
nc72816546,2017-06-15 20:07:33.940,40.87316666666667,-123.54416666666667,25.82,2.55,NC.KRMB..HHZ,P,1.0,2017-06-15 20:07:46.520
nc72816546,2017-06-15 20:07:33.940,40.87316666666667,-123.54416666666667,25.82,2.55,NC.KRP..HHZ,P,1.0,2017-06-15 20:07:43.120
nc72816546,2017-06-15 20:07:33.940,40.87316666666667,-123.54416666666667,25.82,2.55,NC.KSXB..HHZ,P,,2017-06-15 20:07:50.510
nc72816546,2017-06-15 20:07:33.940,40.87316666666667,-123.54416666666667,25.82,2.55,NC.LAMB..EHZ,P,1.0,2017-06-15 20:07:51.600
nc72816546,2017-06-15 20:07:33.940,40.87316666666667,-123.54416666666667,25.82,2.55,NC.LBF..EHZ,P,,2017-06-15 20:07:56.920
nc72816546,2017-06-15 20:07:33.940,40.87316666666667,-123.54416666666667,25.82,2.55,NC.LBK..EHZ,P,1.0,2017-06-15 20:07:46.790
nc72816546,2017-06-15 20:07:33.940,40.87316666666667,-123.54416666666667,25.82,2.55,NC.LBO..EHZ,P,1.0,2017-06-15 20:07:54.550
nc72816546,2017-06-15 20:07:33.940,40.87316666666667,-123.54416666666667,25.82,2.55,NC.LBP..EHZ,P,1.0,2017-06-15 20:07:47.920
nc72816546,2017-06-15 20:07:33.940,40.87316666666667,-123.54416666666667,25.82,2.55,NC.LGP..EHZ,P,1.0,2017-06-15 20:07:44.460
nc72816546,2017-06-15 20:07:33.940,40.87316666666667,-123.54416666666667,25.82,2.55,NC.LHE..EHZ,P,1.0,2017-06-15 20:07:56.170
nc72816546,2017-06-15 20:07:33.940,40.87316666666667,-123.54416666666667,25.82,2.55,NC.LMI..EHZ,P,-1.0,2017-06-15 20:07:54.300
nc72816546,2017-06-15 20:07:33.940,40.87316666666667,-123.54416666666667,25.82,2.55,NC.LMP..EHZ,P,-1.0,2017-06-15 20:07:55.820
nc72816546,2017-06-15 20:07:33.940,40.87316666666667,-123.54416666666667,25.82,2.55,NC.LPG..EHZ,P,,2017-06-15 20:07:51.510
nc72816546,2017-06-15 20:07:33.940,40.87316666666667,-123.54416666666667,25.82,2.55,NC.LPK..EHZ,P,1.0,2017-06-15 20:07:50.560
nc72816546,2017-06-15 20:07:33.940,40.87316666666667,-123.54416666666667,25.82,2.55,NC.LSF..EHZ,P,1.0,2017-06-15 20:07:48.920
nc72816546,2017-06-15 20:07:33.940,40.87316666666667,-123.54416666666667,25.82,2.55,NC.LSH..EHZ,P,-1.0,2017-06-15 20:07:54.220
nc72816546,2017-06-15 20:07:33.940,40.87316666666667,-123.54416666666667,25.82,2.55,NC.LSR..EHZ,P,,2017-06-15 20:07:51.670
nc72816546,2017-06-15 20:07:33.940,40.87316666666667,-123.54416666666667,25.82,2.55,NC.LWH..EHZ,P,1.0,2017-06-15 20:07:54.590
nc72816546,2017-06-15 20:07:33.940,40.87316666666667,-123.54416666666667,25.82,2.55,PB.B039..EHZ,P,1.0,2017-06-15 20:07:51.170
nc72816546,2017-06-15 20:07:33.940,40.87316666666667,-123.54416666666667,25.82,2.55,PB.B040..EHZ,P,-1.0,2017-06-15 20:07:55.860
nc72816546,2017-06-15 20:07:33.940,40.87316666666667,-123.54416666666667,25.82,2.55,PB.B045..EHZ,P,-1.0,2017-06-15 20:07:44.480
nc72816546,2017-06-15 20:07:33.940,40.87316666666667,-123.54416666666667,25.82,2.55,PB.B046..EHZ,P,1.0,2017-06-15 20:07:47.680
nc72816546,2017-06-15 20:07:33.940,40.87316666666667,-123.54416666666667,25.82,2.55,PB.B047..EHZ,P,1.0,2017-06-15 20:07:47.680
nc72816546,2017-06-15 20:07:33.940,40.87316666666667,-123.54416666666667,25.82,2.55,PB.B049..EHZ,P,-1.0,2017-06-15 20:07:46.200
nc72816546,2017-06-15 20:07:33.940,40.87316666666667,-123.54416666666667,25.82,2.55,PB.B932..EHZ,P,1.0,2017-06-15 20:07:47.580
nc72816546,2017-06-15 20:07:33.940,40.87316666666667,-123.54416666666667,25.82,2.55,PB.B935..EHZ,P,-1.0,2017-06-15 20:07:42.580
nc72819781,2017-06-23 05:01:20.190,40.24933333333333,-124.25983333333333,4.59,1.18,BK.JCC..HHZ,P,,2017-06-23 05:01:32.530
nc72819781,2017-06-23 05:01:20.190,40.24933333333333,-124.25983333333333,4.59,1.18,NC.KCO..EHZ,P,1.0,2017-06-23 05:01:21.450
nc72819781,2017-06-23 05:01:20.190,40.24933333333333,-124.25983333333333,4.59,1.18,NC.KCT..HHZ,P,-1.0,2017-06-23 05:01:26.010
nc72819781,2017-06-23 05:01:20.190,40.24933333333333,-124.25983333333333,4.59,1.18,NC.KMPB..HHZ,P,-1.0,2017-06-23 05:01:24.940
nc72819781,2017-06-23 05:01:20.190,40.24933333333333,-124.25983333333333,4.59,1.18,NC.KMR..HHZ,P,,2017-06-23 05:01:29.940
nc72819781,2017-06-23 05:01:20.190,40.24933333333333,-124.25983333333333,4.59,1.18,NC.KSM..EHZ,P,-1.0,2017-06-23 05:01:22.440
nc72819781,2017-06-23 05:01:20.190,40.24933333333333,-124.25983333333333,4.59,1.18,PB.B045..EHZ,P,,2017-06-23 05:01:26.050
nc72819781,2017-06-23 05:01:20.190,40.24933333333333,-124.25983333333333,4.59,1.18,PB.B046..EHZ,P,-1.0,2017-06-23 05:01:22.320
nc72819781,2017-06-23 05:01:20.190,40.24933333333333,-124.25983333333333,4.59,1.18,PB.B047..EHZ,P,1.0,2017-06-23 05:01:22.220
nc72819781,2017-06-23 05:01:20.190,40.24933333333333,-124.25983333333333,4.59,1.18,PB.B049..EHZ,P,1.0,2017-06-23 05:01:27.910
nc72819781,2017-06-23 05:01:20.190,40.24933333333333,-124.25983333333333,4.59,1.18,PB.B932..EHZ,P,1.0,2017-06-23 05:01:21.650
nc72819781,2017-06-23 05:01:20.190,40.24933333333333,-124.25983333333333,4.59,1.18,PB.B935..EHZ,P,-1.0,2017-06-23 05:01:32.880
nc72820761,2017-06-24 21:22:03.060,40.28783333333333,-124.29883333333333,9.14,4.03,BG.AL1..DPZ,P,-1.0,2017-06-24 21:22:32.290
nc72820761,2017-06-24 21:22:03.060,40.28783333333333,-124.29883333333333,9.14,4.03,BG.AL3..DPZ,P,-1.0,2017-06-24 21:22:32.550
nc72820761,2017-06-24 21:22:03.060,40.28783333333333,-124.29883333333333,9.14,4.03,BK.CVS..HHZ,P,-1.0,2017-06-24 21:22:40.210
nc72820761,2017-06-24 21:22:03.060,40.28783333333333,-124.29883333333333,9.14,4.03,BK.DANT..HHZ,P,1.0,2017-06-24 21:22:34.010
nc72820761,2017-06-24 21:22:03.060,40.28783333333333,-124.29883333333333,9.14,4.03,BK.HATC..HHZ,P,1.0,2017-06-24 21:22:39.590
nc72820761,2017-06-24 21:22:03.060,40.28783333333333,-124.29883333333333,9.14,4.03,BK.HOPS..HHZ,P,-1.0,2017-06-24 21:22:29.000
nc72820761,2017-06-24 21:22:03.060,40.28783333333333,-124.29883333333333,9.14,4.03,BK.HUMO..HHZ,P,1.0,2017-06-24 21:22:42.910
nc72820761,2017-06-24 21:22:03.060,40.28783333333333,-124.29883333333333,9.14,4.03,BK.JCC..HHZ,P,1.0,2017-06-24 21:22:14.660
nc72820761,2017-06-24 21:22:03.060,40.28783333333333,-124.29883333333333,9.14,4.03,BK.MCCM..HHZ,P,1.0,2017-06-24 21:22:40.450
nc72820761,2017-06-24 21:22:03.060,40.28783333333333,-124.29883333333333,9.14,4.03,BK.MNRC..HHZ,P,1.0,2017-06-24 21:22:35.730
nc72820761,2017-06-24 21:22:03.060,40.28783333333333,-124.29883333333333,9.14,4.03,BK.ORV..HHZ,P,1.0,2017-06-24 21:22:38.750
nc72820761,2017-06-24 21:22:03.060,40.28783333333333,-124.29883333333333,9.14,4.03,BK.SHEP..HHZ,P,-1.0,2017-06-24 21:22:41.850
nc72820761,2017-06-24 21:22:03.060,40.28783333333333,-124.29883333333333,9.14,4.03,BK.SUTB..HHZ,P,1.0,2017-06-24 21:22:37.350
nc72820761,2017-06-24 21:22:03.060,40.28783333333333,-124.29883333333333,9.14,4.03,BK.YBH..HHZ,P,1.0,2017-06-24 21:22:33.930
nc72820761,2017-06-24 21:22:03.060,40.28783333333333,-124.29883333333333,9.14,4.03,CE.89101..HNZ,P,1.0,2017-06-24 21:22:05.140
nc72820761,2017-06-24 21:22:03.060,40.28783333333333,-124.29883333333333,9.14,4.03,CE.89255..HNZ,P,-1.0,2017-06-24 21:22:11.040
nc72820761,2017-06-24 21:22:03.060,40.28783333333333,-124.29883333333333,9.14,4.03,NC.CPM..EHZ,P,-1.0,2017-06-24 21:22:45.540
nc72820761,2017-06-24 21:22:03.060,40.28783333333333,-124.29883333333333,9.14,4.03,NC.G002..HNZ,P,1.0,2017-06-24 21:22:17.870
nc72820761,2017-06-24 21:22:03.060,40.28783333333333,-124.29883333333333,9.14,4.03,NC.GAXB..EHZ,P,1.0,2017-06-24 21:22:34.790
nc72820761,2017-06-24 21:22:03.060,40.28783333333333,-124.29883333333333,9.14,4.03,NC.GBB..EHZ,P,1.0,2017-06-24 21:22:29.480
nc72820761,2017-06-24 21:22:03.060,40.28783333333333,-124.29883333333333,9.14,4.03,NC.GBG..EHZ,P,1.0,2017-06-24 21:22:34.990
nc72820761,2017-06-24 21:22:03.060,40.28783333333333,-124.29883333333333,9.14,4.03,NC.GCK..EHZ,P,1.0,2017-06-24 21:22:30.500
nc72820761,2017-06-24 21:22:03.060,40.28783333333333,-124.29883333333333,9.14,4.03,NC.GCR..EHZ,P,1.0,2017-06-24 21:22:34.390
nc72820761,2017-06-24 21:22:03.060,40.28783333333333,-124.29883333333333,9.14,4.03,NC.GDXB..HHZ,P,-1.0,2017-06-24 21:22:33.230
nc72820761,2017-06-24 21:22:03.060,40.28783333333333,-124.29883333333333,9.14,4.03,NC.GGPB..EHZ,P,-1.0,2017-06-24 21:22:33.310
nc72820761,2017-06-24 21:22:03.060,40.28783333333333,-124.29883333333333,9.14,4.03,NC.GGU..EHZ,P,1.0,2017-06-24 21:22:28.080
nc72820761,2017-06-24 21:22:03.060,40.28783333333333,-124.29883333333333,9.14,4.03,NC.GHC..EHZ,P,-1.0,2017-06-24 21:22:32.730
nc72820761,2017-06-24 21:22:03.060,40.28783333333333,-124.29883333333333,9.14,4.03,NC.GHL..EHZ,P,-1.0,2017-06-24 21:22:28.840
nc72820761,2017-06-24 21:22:03.060,40.28783333333333,-124.29883333333333,9.14,4.03,NC.GMR..EHZ,P,-1.0,2017-06-24 21:22:24.800
nc72820761,2017-06-24 21:22:03.060,40.28783333333333,-124.29883333333333,9.14,4.03,NC.GPM..EHZ,P,-1.0,2017-06-24 21:22:31.820
nc72820761,2017-06-24 21:22:03.060,40.28783333333333,-124.29883333333333,9.14,4.03,NC.GRO..EHZ,P,1.0,2017-06-24 21:22:25.760
nc72820761,2017-06-24 21:22:03.060,40.28783333333333,-124.29883333333333,9.14,4.03,NC.GRT..EHZ,P,1.0,2017-06-24 21:22:33.010
nc72820761,2017-06-24 21:22:03.060,40.28783333333333,-124.29883333333333,9.14,4.03,NC.GSS..EHZ,P,-1.0,2017-06-24 21:22:32.730
nc72820761,2017-06-24 21:22:03.060,40.28783333333333,-124.29883333333333,9.14,4.03,NC.GTC..EHZ,P,1.0,2017-06-24 21:22:21.360
nc72820761,2017-06-24 21:22:03.060,40.28783333333333,-124.29883333333333,9.14,4.03,NC.GTS..EHZ,P,1.0,2017-06-24 21:22:29.930
nc72820761,2017-06-24 21:22:03.060,40.28783333333333,-124.29883333333333,9.14,4.03,NC.GVV..EHZ,P,1.0,2017-06-24 21:22:26.280
nc72820761,2017-06-24 21:22:03.060,40.28783333333333,-124.29883333333333,9.14,4.03,NC.GWK..EHZ,P,-1.0,2017-06-24 21:22:33.300
nc72820761,2017-06-24 21:22:03.060,40.28783333333333,-124.29883333333333,9.14,4.03,NC.GWR..EHZ,P,1.0,2017-06-24 21:22:25.160
nc72820761,2017-06-24 21:22:03.060,40.28783333333333,-124.29883333333333,9.14,4.03,NC.KBN..EHZ,P,1.0,2017-06-24 21:22:20.720
nc72820761,2017-06-24 21:22:03.060,40.28783333333333,-124.29883333333333,9.14,4.03,NC.KCO..EHZ,P,1.0,2017-06-24 21:22:05.300
nc72820761,2017-06-24 21:22:03.060,40.28783333333333,-124.29883333333333,9.14,4.03,NC.KCPB..HHZ,P,1.0,2017-06-24 21:22:18.300
nc72820761,2017-06-24 21:22:03.060,40.28783333333333,-124.29883333333333,9.14,4.03,NC.KCR..EHZ,P,1.0,2017-06-24 21:22:11.880
nc72820761,2017-06-24 21:22:03.060,40.28783333333333,-124.29883333333333,9.14,4.03,NC.KCT..HHZ,P,-1.0,2017-06-24 21:22:07.950
nc72820761,2017-06-24 21:22:03.060,40.28783333333333,-124.29883333333333,9.14,4.03,NC.KFP..EHZ,P,1.0,2017-06-24 21:22:19.910
nc72820761,2017-06-24 21:22:03.060,40.28783333333333,-124.29883333333333,9.14,4.03,NC.KHBB..HHZ,P,1.0,2017-06-24 21:22:20.090
nc72820761,2017-06-24 21:22:03.060,40.28783333333333,-124.29883333333333,9.14,4.03,NC.KHMB..HHZ,P,1.0,2017-06-24 21:22:17.700
nc72820761,2017-06-24 21:22:03.060,40.28783333333333,-124.29883333333333,9.14,4.03,NC.KIP..EHZ,P,1.0,2017-06-24 21:22:18.180
nc72820761,2017-06-24 21:22:03.060,40.28783333333333,-124.29883333333333,9.14,4.03,NC.KKP..EHZ,P,1.0,2017-06-24 21:22:16.980
nc72820761,2017-06-24 21:22:03.060,40.28783333333333,-124.29883333333333,9.14,4.03,NC.KMPB..HHZ,P,-1.0,2017-06-24 21:22:07.610
nc72820761,2017-06-24 21:22:03.060,40.28783333333333,-124.29883333333333,9.14,4.03,NC.KMR..HHZ,P,1.0,2017-06-24 21:22:13.040
nc72820761,2017-06-24 21:22:03.060,40.28783333333333,-124.29883333333333,9.14,4.03,NC.KOM..EHZ,P,1.0,2017-06-24 21:22:23.920
nc72820761,2017-06-24 21:22:03.060,40.28783333333333,-124.29883333333333,9.14,4.03,NC.KPP..EHZ,P,1.0,2017-06-24 21:22:17.990
nc72820761,2017-06-24 21:22:03.060,40.28783333333333,-124.29883333333333,9.14,4.03,NC.KRMB..HHZ,P,1.0,2017-06-24 21:22:24.770
nc72820761,2017-06-24 21:22:03.060,40.28783333333333,-124.29883333333333,9.14,4.03,NC.KRP..HHZ,P,1.0,2017-06-24 21:22:19.540
nc72820761,2017-06-24 21:22:03.060,40.28783333333333,-124.29883333333333,9.14,4.03,NC.KSM..EHZ,P,-1.0,2017-06-24 21:22:06.720
nc72820761,2017-06-24 21:22:03.060,40.28783333333333,-124.29883333333333,9.14,4.03,NC.KSXB..HHZ,P,1.0,2017-06-24 21:22:29.040
nc72820761,2017-06-24 21:22:03.060,40.28783333333333,-124.29883333333333,9.14,4.03,NC.KTR..EHZ,P,-1.0,2017-06-24 21:22:32.040
nc72820761,2017-06-24 21:22:03.060,40.28783333333333,-124.29883333333333,9.14,4.03,NC.LAMB..EHZ,P,1.0,2017-06-24 21:22:33.530
nc72820761,2017-06-24 21:22:03.060,40.28783333333333,-124.29883333333333,9.14,4.03,NC.LBC..EHZ,P,1.0,2017-06-24 21:22:40.490
nc72820761,2017-06-24 21:22:03.060,40.28783333333333,-124.29883333333333,9.14,4.03,NC.LBK..EHZ,P,1.0,2017-06-24 21:22:28.400
nc72820761,2017-06-24 21:22:03.060,40.28783333333333,-124.29883333333333,9.14,4.03,NC.LBP..EHZ,P,1.0,2017-06-24 21:22:22.750
nc72820761,2017-06-24 21:22:03.060,40.28783333333333,-124.29883333333333,9.14,4.03,NC.LCSB..EHZ,P,1.0,2017-06-24 21:22:34.050
nc72820761,2017-06-24 21:22:03.060,40.28783333333333,-124.29883333333333,9.14,4.03,NC.LDB..EHZ,P,1.0,2017-06-24 21:22:34.330
nc72820761,2017-06-24 21:22:03.060,40.28783333333333,-124.29883333333333,9.14,4.03,NC.LDH..HHZ,P,1.0,2017-06-24 21:22:36.930
nc72820761,2017-06-24 21:22:03.060,40.28783333333333,-124.29883333333333,9.14,4.03,NC.LGM..EHZ,P,1.0,2017-06-24 21:22:40.550
nc72820761,2017-06-24 21:22:03.060,40.28783333333333,-124.29883333333333,9.14,4.03,NC.LGP..EHZ,P,-1.0,2017-06-24 21:22:25.420
nc72820761,2017-06-24 21:22:03.060,40.28783333333333,-124.29883333333333,9.14,4.03,NC.LHE..EHZ,P,-1.0,2017-06-24 21:22:37.670
