event_id,etime,elat,elon,edep,emag,station_id,phase_type,phase_polarity,phase_time
nc72785701,2017-04-06 21:15:24.300,40.312,-124.4255,7.4,3.07,PB.B049..EHZ,P,1.0,2017-04-06 21:15:34.290
nc72785701,2017-04-06 21:15:24.300,40.312,-124.4255,7.4,3.07,PB.B932..EHZ,P,-1.0,2017-04-06 21:15:28.190
nc72785701,2017-04-06 21:15:24.300,40.312,-124.4255,7.4,3.07,PB.B933..EHZ,P,1.0,2017-04-06 21:15:33.180
nc72785701,2017-04-06 21:15:24.300,40.312,-124.4255,7.4,3.07,PB.B934..EHZ,P,-1.0,2017-04-06 21:15:39.270
nc72785701,2017-04-06 21:15:24.300,40.312,-124.4255,7.4,3.07,PB.B935..EHZ,P,1.0,2017-04-06 21:15:38.300
nc72785701,2017-04-06 21:15:24.300,40.312,-124.4255,7.4,3.07,UO.DBO..BHZ,P,-1.0,2017-04-06 21:16:10.660
nc72785826,2017-04-07 03:13:16.130,40.3255,-124.415,6.88,2.47,BK.JCC..HHZ,P,1.0,2017-04-07 03:13:28.180
nc72785826,2017-04-07 03:13:16.130,40.3255,-124.415,6.88,2.47,NC.GTC..EHZ,P,-1.0,2017-04-07 03:13:35.970
nc72785826,2017-04-07 03:13:16.130,40.3255,-124.415,6.88,2.47,NC.KCO..EHZ,P,-1.0,2017-04-07 03:13:19.690
nc72785826,2017-04-07 03:13:16.130,40.3255,-124.415,6.88,2.47,NC.KCPB..HHZ,P,-1.0,2017-04-07 03:13:34.230
nc72785826,2017-04-07 03:13:16.130,40.3255,-124.415,6.88,2.47,NC.KCR..EHZ,P,1.0,2017-04-07 03:13:26.630
nc72785826,2017-04-07 03:13:16.130,40.3255,-124.415,6.88,2.47,NC.KCT..HHZ,P,-1.0,2017-04-07 03:13:20.600
nc72785826,2017-04-07 03:13:16.130,40.3255,-124.415,6.88,2.47,NC.KFP..EHZ,P,-1.0,2017-04-07 03:13:34.600
nc72785826,2017-04-07 03:13:16.130,40.3255,-124.415,6.88,2.47,NC.KMPB..HHZ,P,,2017-04-07 03:13:21.860
nc72785826,2017-04-07 03:13:16.130,40.3255,-124.415,6.88,2.47,NC.KSM..EHZ,P,1.0,2017-04-07 03:13:21.430
nc72785826,2017-04-07 03:13:16.130,40.3255,-124.415,6.88,2.47,NC.LBK..EHZ,P,1.0,2017-04-07 03:13:42.820
nc72785826,2017-04-07 03:13:16.130,40.3255,-124.415,6.88,2.47,PB.B045..EHZ,P,-1.0,2017-04-07 03:13:23.740
nc72785826,2017-04-07 03:13:16.130,40.3255,-124.415,6.88,2.47,PB.B046..EHZ,P,-1.0,2017-04-07 03:13:18.880
nc72785826,2017-04-07 03:13:16.130,40.3255,-124.415,6.88,2.47,PB.B047..EHZ,P,1.0,2017-04-07 03:13:20.960
nc72785826,2017-04-07 03:13:16.130,40.3255,-124.415,6.88,2.47,PB.B049..EHZ,P,1.0,2017-04-07 03:13:26.100
nc72785826,2017-04-07 03:13:16.130,40.3255,-124.415,6.88,2.47,PB.B932..EHZ,P,-1.0,2017-04-07 03:13:19.890
nc72785826,2017-04-07 03:13:16.130,40.3255,-124.415,6.88,2.47,PB.B935..EHZ,P,1.0,2017-04-07 03:13:30.180
nc72785941,2017-04-07 09:47:16.770,40.32333333333333,-124.39783333333334,5.91,2.66,BK.JCC..HHZ,P,1.0,2017-04-07 09:47:28.510
nc72785941,2017-04-07 09:47:16.770,40.32333333333333,-124.39783333333334,5.91,2.66,NC.GMR..EHZ,P,-1.0,2017-04-07 09:47:39.560
nc72785941,2017-04-07 09:47:16.770,40.32333333333333,-124.39783333333334,5.91,2.66,NC.GTC..EHZ,P,1.0,2017-04-07 09:47:36.160
nc72785941,2017-04-07 09:47:16.770,40.32333333333333,-124.39783333333334,5.91,2.66,NC.KCO..EHZ,P,-1.0,2017-04-07 09:47:20.090
nc72785941,2017-04-07 09:47:16.770,40.32333333333333,-124.39783333333334,5.91,2.66,NC.KCPB..HHZ,P,1.0,2017-04-07 09:47:33.340
nc72785941,2017-04-07 09:47:16.770,40.32333333333333,-124.39783333333334,5.91,2.66,NC.KCR..EHZ,P,1.0,2017-04-07 09:47:26.950
nc72785941,2017-04-07 09:47:16.770,40.32333333333333,-124.39783333333334,5.91,2.66,NC.KCT..HHZ,P,-1.0,2017-04-07 09:47:20.940
nc72785941,2017-04-07 09:47:16.770,40.32333333333333,-124.39783333333334,5.91,2.66,NC.KFP..EHZ,P,-1.0,2017-04-07 09:47:35.040
nc72785941,2017-04-07 09:47:16.770,40.32333333333333,-124.39783333333334,5.91,2.66,NC.KHBB..HHZ,P,1.0,2017-04-07 09:47:34.450
nc72785941,2017-04-07 09:47:16.770,40.32333333333333,-124.39783333333334,5.91,2.66,NC.KHMB..HHZ,P,,2017-04-07 09:47:31.890
nc72785941,2017-04-07 09:47:16.770,40.32333333333333,-124.39783333333334,5.91,2.66,NC.KIP..EHZ,P,1.0,2017-04-07 09:47:33.390
nc72785941,2017-04-07 09:47:16.770,40.32333333333333,-124.39783333333334,5.91,2.66,NC.KKP..EHZ,P,1.0,2017-04-07 09:47:32.110
nc72785941,2017-04-07 09:47:16.770,40.32333333333333,-124.39783333333334,5.91,2.66,NC.KMPB..HHZ,P,-1.0,2017-04-07 09:47:22.230
nc72785941,2017-04-07 09:47:16.770,40.32333333333333,-124.39783333333334,5.91,2.66,NC.KMR..HHZ,P,-1.0,2017-04-07 09:47:28.610
nc72785941,2017-04-07 09:47:16.770,40.32333333333333,-124.39783333333334,5.91,2.66,NC.KOM..EHZ,P,-1.0,2017-04-07 09:47:37.890
nc72785941,2017-04-07 09:47:16.770,40.32333333333333,-124.39783333333334,5.91,2.66,NC.KSM..EHZ,P,1.0,2017-04-07 09:47:21.810
nc72785941,2017-04-07 09:47:16.770,40.32333333333333,-124.39783333333334,5.91,2.66,NC.LBP..EHZ,P,-1.0,2017-04-07 09:47:38.330
nc72785941,2017-04-07 09:47:16.770,40.32333333333333,-124.39783333333334,5.91,2.66,NC.LGP..EHZ,P,-1.0,2017-04-07 09:47:40.270
nc72785941,2017-04-07 09:47:16.770,40.32333333333333,-124.39783333333334,5.91,2.66,NC.LPG..EHZ,P,-1.0,2017-04-07 09:47:40.410
nc72785941,2017-04-07 09:47:16.770,40.32333333333333,-124.39783333333334,5.91,2.66,NC.LRB..EHZ,P,-1.0,2017-04-07 09:47:42.780
nc72785941,2017-04-07 09:47:16.770,40.32333333333333,-124.39783333333334,5.91,2.66,NC.LVR..EHZ,P,-1.0,2017-04-07 09:47:41.060
nc72785941,2017-04-07 09:47:16.770,40.32333333333333,-124.39783333333334,5.91,2.66,NP.1582..HNZ,P,1.0,2017-04-07 09:47:26.410
nc72785941,2017-04-07 09:47:16.770,40.32333333333333,-124.39783333333334,5.91,2.66,NP.1586..HNZ,P,1.0,2017-04-07 09:47:25.420
nc72785941,2017-04-07 09:47:16.770,40.32333333333333,-124.39783333333334,5.91,2.66,NP.1746..HNZ,P,-1.0,2017-04-07 09:47:24.800
nc72785941,2017-04-07 09:47:16.770,40.32333333333333,-124.39783333333334,5.91,2.66,PB.B045..EHZ,P,-1.0,2017-04-07 09:47:24.150
nc72785941,2017-04-07 09:47:16.770,40.32333333333333,-124.39783333333334,5.91,2.66,PB.B046..EHZ,P,-1.0,2017-04-07 09:47:19.260
nc72785941,2017-04-07 09:47:16.770,40.32333333333333,-124.39783333333334,5.91,2.66,PB.B049..EHZ,P,1.0,2017-04-07 09:47:26.350
nc72785941,2017-04-07 09:47:16.770,40.32333333333333,-124.39783333333334,5.91,2.66,PB.B932..EHZ,P,-1.0,2017-04-07 09:47:20.270
nc72785941,2017-04-07 09:47:16.770,40.32333333333333,-124.39783333333334,5.91,2.66,PB.B935..EHZ,P,1.0,2017-04-07 09:47:30.530
nc72790391,2017-04-18 20:12:35.930,40.24433333333333,-124.1715,11.33,2.39,BK.JCC..HHZ,P,1.0,2017-04-18 20:12:47.910
nc72790391,2017-04-18 20:12:35.930,40.24433333333333,-124.1715,11.33,2.39,NC.GHM..EHZ,P,-1.0,2017-04-18 20:12:56.660
nc72790391,2017-04-18 20:12:35.930,40.24433333333333,-124.1715,11.33,2.39,NC.GRO..EHZ,P,,2017-04-18 20:12:57.170
nc72790391,2017-04-18 20:12:35.930,40.24433333333333,-124.1715,11.33,2.39,NC.GTC..EHZ,P,1.0,2017-04-18 20:12:52.600
nc72790391,2017-04-18 20:12:35.930,40.24433333333333,-124.1715,11.33,2.39,NC.GVV..EHZ,P,1.0,2017-04-18 20:12:57.570
nc72790391,2017-04-18 20:12:35.930,40.24433333333333,-124.1715,11.33,2.39,NC.KBN..EHZ,P,1.0,2017-04-18 20:12:51.860
nc72790391,2017-04-18 20:12:35.930,40.24433333333333,-124.1715,11.33,2.39,NC.KBS..EHZ,P,1.0,2017-04-18 20:12:47.420
nc72790391,2017-04-18 20:12:35.930,40.24433333333333,-124.1715,11.33,2.39,NC.KCO..EHZ,P,1.0,2017-04-18 20:12:38.770
nc72790391,2017-04-18 20:12:35.930,40.24433333333333,-124.1715,11.33,2.39,NC.KCPB..HHZ,P,-1.0,2017-04-18 20:12:49.540
nc72790391,2017-04-18 20:12:35.930,40.24433333333333,-124.1715,11.33,2.39,NC.KCR..EHZ,P,1.0,2017-04-18 20:12:43.390
nc72790391,2017-04-18 20:12:35.930,40.24433333333333,-124.1715,11.33,2.39,NC.KCT..HHZ,P,-1.0,2017-04-18 20:12:42.370
nc72790391,2017-04-18 20:12:35.930,40.24433333333333,-124.1715,11.33,2.39,NC.KFP..EHZ,P,,2017-04-18 20:12:51.050
nc72790391,2017-04-18 20:12:35.930,40.24433333333333,-124.1715,11.33,2.39,NC.KHBB..HHZ,P,1.0,2017-04-18 20:12:51.840
nc72790391,2017-04-18 20:12:35.930,40.24433333333333,-124.1715,11.33,2.39,NC.KHMB..HHZ,P,1.0,2017-04-18 20:12:50.260
nc72790391,2017-04-18 20:12:35.930,40.24433333333333,-124.1715,11.33,2.39,NC.KIP..EHZ,P,1.0,2017-04-18 20:12:49.350
nc72790391,2017-04-18 20:12:35.930,40.24433333333333,-124.1715,11.33,2.39,NC.KKP..EHZ,P,1.0,2017-04-18 20:12:47.950
nc72790391,2017-04-18 20:12:35.930,40.24433333333333,-124.1715,11.33,2.39,NC.KMPB..HHZ,P,-1.0,2017-04-18 20:12:40.390
nc72790391,2017-04-18 20:12:35.930,40.24433333333333,-124.1715,11.33,2.39,NC.KMR..HHZ,P,-1.0,2017-04-18 20:12:43.950
nc72790391,2017-04-18 20:12:35.930,40.24433333333333,-124.1715,11.33,2.39,NC.KOM..EHZ,P,1.0,2017-04-18 20:12:56.510
nc72790391,2017-04-18 20:12:35.930,40.24433333333333,-124.1715,11.33,2.39,NC.KSM..EHZ,P,1.0,2017-04-18 20:12:38.550
nc72790391,2017-04-18 20:12:35.930,40.24433333333333,-124.1715,11.33,2.39,NC.LBK..EHZ,P,1.0,2017-04-18 20:13:00.550
nc72790391,2017-04-18 20:12:35.930,40.24433333333333,-124.1715,11.33,2.39,NC.LBP..EHZ,P,1.0,2017-04-18 20:12:54.160
nc72790391,2017-04-18 20:12:35.930,40.24433333333333,-124.1715,11.33,2.39,NC.LGP..EHZ,P,1.0,2017-04-18 20:12:57.550
nc72790391,2017-04-18 20:12:35.930,40.24433333333333,-124.1715,11.33,2.39,NC.LPG..EHZ,P,1.0,2017-04-18 20:12:56.620
nc72790391,2017-04-18 20:12:35.930,40.24433333333333,-124.1715,11.33,2.39,NC.LSF..EHZ,P,,2017-04-18 20:12:58.760
nc72790391,2017-04-18 20:12:35.930,40.24433333333333,-124.1715,11.33,2.39,NC.LSH..EHZ,P,1.0,2017-04-18 20:13:04.900
nc72790391,2017-04-18 20:12:35.930,40.24433333333333,-124.1715,11.33,2.39,NC.LSR..EHZ,P,-1.0,2017-04-18 20:13:04.540
nc72790391,2017-04-18 20:12:35.930,40.24433333333333,-124.1715,11.33,2.39,NC.LVR..EHZ,P,1.0,2017-04-18 20:12:57.050
nc72790391,2017-04-18 20:12:35.930,40.24433333333333,-124.1715,11.33,2.39,NC.LWH..EHZ,P,,2017-04-18 20:13:05.630
nc72790391,2017-04-18 20:12:35.930,40.24433333333333,-124.1715,11.33,2.39,PB.B045..EHZ,P,1.0,2017-04-18 20:12:41.430
nc72790391,2017-04-18 20:12:35.930,40.24433333333333,-124.1715,11.33,2.39,PB.B046..EHZ,P,-1.0,2017-04-18 20:12:39.260
nc72790391,2017-04-18 20:12:35.930,40.24433333333333,-124.1715,11.33,2.39,PB.B047..EHZ,P,1.0,2017-04-18 20:12:38.210
nc72790391,2017-04-18 20:12:35.930,40.24433333333333,-124.1715,11.33,2.39,PB.B049..EHZ,P,-1.0,2017-04-18 20:12:42.100
nc72790391,2017-04-18 20:12:35.930,40.24433333333333,-124.1715,11.33,2.39,PB.B932..EHZ,P,1.0,2017-04-18 20:12:38.270
nc72790391,2017-04-18 20:12:35.930,40.24433333333333,-124.1715,11.33,2.39,PB.B933..EHZ,P,1.0,2017-04-18 20:12:41.140
nc72790391,2017-04-18 20:12:35.930,40.24433333333333,-124.1715,11.33,2.39,PB.B935..EHZ,P,1.0,2017-04-18 20:12:47.260
nc72790431,2017-04-18 21:17:39.760,40.2435,-124.17433333333334,11.47,1.7,BK.JCC..HHZ,P,1.0,2017-04-18 21:17:51.750
nc72790431,2017-04-18 21:17:39.760,40.2435,-124.17433333333334,11.47,1.7,NC.KBS..EHZ,P,1.0,2017-04-18 21:17:51.300
nc72790431,2017-04-18 21:17:39.760,40.2435,-124.17433333333334,11.47,1.7,NC.KCO..EHZ,P,1.0,2017-04-18 21:17:42.610
nc72790431,2017-04-18 21:17:39.760,40.2435,-124.17433333333334,11.47,1.7,NC.KCPB..HHZ,P,,2017-04-18 21:17:54.300
nc72790431,2017-04-18 21:17:39.760,40.2435,-124.17433333333334,11.47,1.7,NC.KCR..EHZ,P,1.0,2017-04-18 21:17:47.230
nc72790431,2017-04-18 21:17:39.760,40.2435,-124.17433333333334,11.47,1.7,NC.KCT..HHZ,P,-1.0,2017-04-18 21:17:46.240
nc72790431,2017-04-18 21:17:39.760,40.2435,-124.17433333333334,11.47,1.7,NC.KIP..EHZ,P,-1.0,2017-04-18 21:17:53.500
nc72790431,2017-04-18 21:17:39.760,40.2435,-124.17433333333334,11.47,1.7,NC.KKP..EHZ,P,1.0,2017-04-18 21:17:51.830
nc72790431,2017-04-18 21:17:39.760,40.2435,-124.17433333333334,11.47,1.7,NC.KMPB..HHZ,P,-1.0,2017-04-18 21:17:44.230
nc72790431,2017-04-18 21:17:39.760,40.2435,-124.17433333333334,11.47,1.7,NC.KMR..HHZ,P,1.0,2017-04-18 21:17:47.890
nc72790431,2017-04-18 21:17:39.760,40.2435,-124.17433333333334,11.47,1.7,NC.KSM..EHZ,P,1.0,2017-04-18 21:17:42.400
nc72790431,2017-04-18 21:17:39.760,40.2435,-124.17433333333334,11.47,1.7,PB.B045..EHZ,P,1.0,2017-04-18 21:17:45.280
nc72790431,2017-04-18 21:17:39.760,40.2435,-124.17433333333334,11.47,1.7,PB.B046..EHZ,P,-1.0,2017-04-18 21:17:43.100
nc72790431,2017-04-18 21:17:39.760,40.2435,-124.17433333333334,11.47,1.7,PB.B047..EHZ,P,1.0,2017-04-18 21:17:42.060
nc72790431,2017-04-18 21:17:39.760,40.2435,-124.17433333333334,11.47,1.7,PB.B049..EHZ,P,-1.0,2017-04-18 21:17:45.940
nc72790431,2017-04-18 21:17:39.760,40.2435,-124.17433333333334,11.47,1.7,PB.B932..EHZ,P,1.0,2017-04-18 21:17:42.120
nc72790431,2017-04-18 21:17:39.760,40.2435,-124.17433333333334,11.47,1.7,PB.B935..EHZ,P,1.0,2017-04-18 21:17:51.110
nc72791686,2017-04-21 06:28:49.580,40.135,-123.84866666666667,21.75,2.03,BK.JCC..HHZ,P,1.0,2017-04-21 06:29:02.670
nc72791686,2017-04-21 06:28:49.580,40.135,-123.84866666666667,21.75,2.03,NC.GRO..EHZ,P,1.0,2017-04-21 06:29:06.570
nc72791686,2017-04-21 06:28:49.580,40.135,-123.84866666666667,21.75,2.03,NC.GTC..EHZ,P,1.0,2017-04-21 06:29:03.010
nc72791686,2017-04-21 06:28:49.580,40.135,-123.84866666666667,21.75,2.03,NC.GVV..EHZ,P,-1.0,2017-04-21 06:29:06.980
nc72791686,2017-04-21 06:28:49.580,40.135,-123.84866666666667,21.75,2.03,NC.KBN..EHZ,P,1.0,2017-04-21 06:29:01.220
nc72791686,2017-04-21 06:28:49.580,40.135,-123.84866666666667,21.75,2.03,NC.KBS..EHZ,P,1.0,2017-04-21 06:28:56.670
nc72791686,2017-04-21 06:28:49.580,40.135,-123.84866666666667,21.75,2.03,NC.KCO..EHZ,P,1.0,2017-04-21 06:28:57.200
nc72791686,2017-04-21 06:28:49.580,40.135,-123.84866666666667,21.75,2.03,NC.KCPB..HHZ,P,,2017-04-21 06:28:59.490
nc72791686,2017-04-21 06:28:49.580,40.135,-123.84866666666667,21.75,2.03,NC.KCR..EHZ,P,-1.0,2017-04-21 06:28:56.570
nc72791686,2017-04-21 06:28:49.580,40.135,-123.84866666666667,21.75,2.03,NC.KCT..HHZ,P,1.0,2017-04-21 06:29:00.420
nc72791686,2017-04-21 06:28:49.580,40.135,-123.84866666666667,21.75,2.03,NC.KFP..EHZ,P,-1.0,2017-04-21 06:29:00.830
nc72791686,2017-04-21 06:28:49.580,40.135,-123.84866666666667,21.75,2.03,NC.KHBB..HHZ,P,-1.0,2017-04-21 06:29:02.880
nc72791686,2017-04-21 06:28:49.580,40.135,-123.84866666666667,21.75,2.03,NC.KIP..EHZ,P,1.0,2017-04-21 06:28:58.840
nc72791686,2017-04-21 06:28:49.580,40.135,-123.84866666666667,21.75,2.03,NC.KKP..EHZ,P,1.0,2017-04-21 06:28:56.910
nc72791686,2017-04-21 06:28:49.580,40.135,-123.84866666666667,21.75,2.03,NC.KMPB..HHZ,P,1.0,2017-04-21 06:28:57.570
nc72791686,2017-04-21 06:28:49.580,40.135,-123.84866666666667,21.75,2.03,NC.KMR..HHZ,P,-1.0,2017-04-21 06:28:54.470
nc72791686,2017-04-21 06:28:49.580,40.135,-123.84866666666667,21.75,2.03,NC.KPP..EHZ,P,1.0,2017-04-21 06:28:58.990
nc72791686,2017-04-21 06:28:49.580,40.135,-123.84866666666667,21.75,2.03,NC.KSM..EHZ,P,1.0,2017-04-21 06:28:55.930
nc72791686,2017-04-21 06:28:49.580,40.135,-123.84866666666667,21.75,2.03,NC.LBK..EHZ,P,-1.0,2017-04-21 06:29:11.650
nc72791686,2017-04-21 06:28:49.580,40.135,-123.84866666666667,21.75,2.03,NC.LBP..EHZ,P,1.0,2017-04-21 06:29:03.670
nc72791686,2017-04-21 06:28:49.580,40.135,-123.84866666666667,21.75,2.03,NC.LGP..EHZ,P,-1.0,2017-04-21 06:29:08.820
nc72791686,2017-04-21 06:28:49.580,40.135,-123.84866666666667,21.75,2.03,NC.LPG..EHZ,P,-1.0,2017-04-21 06:29:05.960
nc72791686,2017-04-21 06:28:49.580,40.135,-123.84866666666667,21.75,2.03,NC.LSH..EHZ,P,,2017-04-21 06:29:14.530
nc72791686,2017-04-21 06:28:49.580,40.135,-123.84866666666667,21.75,2.03,NC.LVR..EHZ,P,1.0,2017-04-21 06:29:06.150
nc72791686,2017-04-21 06:28:49.580,40.135,-123.84866666666667,21.75,2.03,PB.B045..EHZ,P,-1.0,2017-04-21 06:28:56.960
nc72791686,2017-04-21 06:28:49.580,40.135,-123.84866666666667,21.75,2.03,PB.B046..EHZ,P,1.0,2017-04-21 06:28:57.650
nc72791686,2017-04-21 06:28:49.580,40.135,-123.84866666666667,21.75,2.03,PB.B047..EHZ,P,1.0,2017-04-21 06:28:56.240
nc72791686,2017-04-21 06:28:49.580,40.135,-123.84866666666667,21.75,2.03,PB.B049..EHZ,P,-1.0,2017-04-21 06:28:54.000
nc72791686,2017-04-21 06:28:49.580,40.135,-123.84866666666667,21.75,2.03,PB.B932..EHZ,P,1.0,2017-04-21 06:28:56.620
nc72791686,2017-04-21 06:28:49.580,40.135,-123.84866666666667,21.75,2.03,PB.B933..EHZ,P,1.0,2017-04-21 06:28:54.320
nc72791686,2017-04-21 06:28:49.580,40.135,-123.84866666666667,21.75,2.03,PB.B935..EHZ,P,1.0,2017-04-21 06:28:58.450
nc72793316,2017-04-24 16:16:21.990,40.312333333333335,-124.41516666666666,9.33,2.37,BK.JCC..HHZ,P,-1.0,2017-04-24 16:16:33.270
nc72793316,2017-04-24 16:16:21.990,40.312333333333335,-124.41516666666666,9.33,2.37,NC.GTC..EHZ,P,1.0,2017-04-24 16:16:41.040
nc72793316,2017-04-24 16:16:21.990,40.312333333333335,-124.41516666666666,9.33,2.37,NC.KBN..EHZ,P,-1.0,2017-04-24 16:16:40.880
nc72793316,2017-04-24 16:16:21.990,40.312333333333335,-124.41516666666666,9.33,2.37,NC.KBS..EHZ,P,1.0,2017-04-24 16:16:36.140
nc72793316,2017-04-24 16:16:21.990,40.312333333333335,-124.41516666666666,9.33,2.37,NC.KCO..EHZ,P,1.0,2017-04-24 16:16:25.590
nc72793316,2017-04-24 16:16:21.990,40.312333333333335,-124.41516666666666,9.33,2.37,NC.KCPB..HHZ,P,1.0,2017-04-24 16:16:39.400
nc72793316,2017-04-24 16:16:21.990,40.312333333333335,-124.41516666666666,9.33,2.37,NC.KCR..EHZ,P,1.0,2017-04-24 16:16:32.250
nc72793316,2017-04-24 16:16:21.990,40.312333333333335,-124.41516666666666,9.33,2.37,NC.KCT..HHZ,P,1.0,2017-04-24 16:16:26.590
nc72793316,2017-04-24 16:16:21.990,40.312333333333335,-124.41516666666666,9.33,2.37,NC.KFP..EHZ,P,-1.0,2017-04-24 16:16:39.620
nc72793316,2017-04-24 16:16:21.990,40.312333333333335,-124.41516666666666,9.33,2.37,NC.KHBB..HHZ,P,-1.0,2017-04-24 16:16:39.790
nc72793316,2017-04-24 16:16:21.990,40.312333333333335,-124.41516666666666,9.33,2.37,NC.KHMB..HHZ,P,1.0,2017-04-24 16:16:36.540
nc72793316,2017-04-24 16:16:21.990,40.312333333333335,-124.41516666666666,9.33,2.37,NC.KKP..EHZ,P,1.0,2017-04-24 16:16:37.110
nc72793316,2017-04-24 16:16:21.990,40.312333333333335,-124.41516666666666,9.33,2.37,NC.KMPB..HHZ,P,1.0,2017-04-24 16:16:27.750
nc72793316,2017-04-24 16:16:21.990,40.312333333333335,-124.41516666666666,9.33,2.37,NC.KMR..HHZ,P,1.0,2017-04-24 16:16:33.850
nc72793316,2017-04-24 16:16:21.990,40.312333333333335,-124.41516666666666,9.33,2.37,NC.KOM..EHZ,P,1.0,2017-04-24 16:16:42.740
nc72793316,2017-04-24 16:16:21.990,40.312333333333335,-124.41516666666666,9.33,2.37,NC.KSM..EHZ,P,-1.0,2017-04-24 16:16:27.170
nc72793316,2017-04-24 16:16:21.990,40.312333333333335,-124.41516666666666,9.33,2.37,NC.LBK..EHZ,P,-1.0,2017-04-24 16:16:48.030
nc72793316,2017-04-24 16:16:21.990,40.312333333333335,-124.41516666666666,9.33,2.37,NC.LGP..EHZ,P,-1.0,2017-04-24 16:16:45.160
nc72793316,2017-04-24 16:16:21.990,40.312333333333335,-124.41516666666666,9.33,2.37,NC.LSF..EHZ,P,,2017-04-24 16:16:46.450
nc72793316,2017-04-24 16:16:21.990,40.312333333333335,-124.41516666666666,9.33,2.37,NC.LSH..EHZ,P,-1.0,2017-04-24 16:16:53.100
nc72793316,2017-04-24 16:16:21.990,40.312333333333335,-124.41516666666666,9.33,2.37,PB.B045..EHZ,P,1.0,2017-04-24 16:16:29.550
nc72793316,2017-04-24 16:16:21.990,40.312333333333335,-124.41516666666666,9.33,2.37,PB.B046..EHZ,P,1.0,2017-04-24 16:16:25.020
nc72793316,2017-04-24 16:16:21.990,40.312333333333335,-124.41516666666666,9.33,2.37,PB.B049..EHZ,P,-1.0,2017-04-24 16:16:31.600
nc72793316,2017-04-24 16:16:21.990,40.312333333333335,-124.41516666666666,9.33,2.37,PB.B932..EHZ,P,1.0,2017-04-24 16:16:25.790
nc72793316,2017-04-24 16:16:21.990,40.312333333333335,-124.41516666666666,9.33,2.37,PB.B933..EHZ,P,-1.0,2017-04-24 16:16:30.430
nc72793316,2017-04-24 16:16:21.990,40.312333333333335,-124.41516666666666,9.33,2.37,PB.B935..EHZ,P,-1.0,2017-04-24 16:16:35.570
nc71106189,2017-05-01 12:32:56.060,40.489,-124.25583333333333,-0.22,1.32,NC.KSM..EHZ,P,-1.0,2017-05-01 12:33:02.850
nc71106189,2017-05-01 12:32:56.060,40.489,-124.25583333333333,-0.22,1.32,PB.B046..EHZ,P,-1.0,2017-05-01 12:33:00.640
nc71106189,2017-05-01 12:32:56.060,40.489,-124.25583333333333,-0.22,1.32,PB.B047..EHZ,P,-1.0,2017-05-01 12:33:02.290
nc71106189,2017-05-01 12:32:56.060,40.489,-124.25583333333333,-0.22,1.32,PB.B049..EHZ,P,1.0,2017-05-01 12:33:06.920
nc71106189,2017-05-01 12:32:56.060,40.489,-124.25583333333333,-0.22,1.32,PB.B932..EHZ,P,-1.0,2017-05-01 12:33:01.370
nc71106189,2017-05-01 12:32:56.060,40.489,-124.25583333333333,-0.22,1.32,PB.B935..EHZ,P,1.0,2017-05-01 12:33:08.450
nc72796505,2017-05-04 05:21:16.410,39.949666666666666,-123.484,6.18,1.75,NC.GHL..EHZ,P,-1.0,2017-05-04 05:21:36.440
nc72796505,2017-05-04 05:21:16.410,39.949666666666666,-123.484,6.18,1.75,NC.GHM..EHZ,P,1.0,2017-05-04 05:21:29.870
