event_id,etime,elat,elon,edep,emag,station_id,phase_type,phase_polarity,phase_time
nc72783931,2017-04-03 09:08:34.500,39.998666666666665,-123.40816666666667,7.06,2.1,NC.GTC..EHZ,P,1.0,2017-04-03 09:08:47.700
nc72783931,2017-04-03 09:08:34.500,39.998666666666665,-123.40816666666667,7.06,2.1,NC.GTS..EHZ,P,1.0,2017-04-03 09:08:53.520
nc72783931,2017-04-03 09:08:34.500,39.998666666666665,-123.40816666666667,7.06,2.1,NC.GVV..EHZ,P,1.0,2017-04-03 09:08:47.500
nc72783931,2017-04-03 09:08:34.500,39.998666666666665,-123.40816666666667,7.06,2.1,NC.KBN..EHZ,P,1.0,2017-04-03 09:08:39.770
nc72783931,2017-04-03 09:08:34.500,39.998666666666665,-123.40816666666667,7.06,2.1,NC.KBS..EHZ,P,1.0,2017-04-03 09:08:38.880
nc72783931,2017-04-03 09:08:34.500,39.998666666666665,-123.40816666666667,7.06,2.1,NC.KCO..EHZ,P,,2017-04-03 09:08:50.070
nc72783931,2017-04-03 09:08:34.500,39.998666666666665,-123.40816666666667,7.06,2.1,NC.KCPB..HHZ,P,1.0,2017-04-03 09:08:42.500
nc72783931,2017-04-03 09:08:34.500,39.998666666666665,-123.40816666666667,7.06,2.1,NC.KCR..EHZ,P,1.0,2017-04-03 09:08:46.070
nc72783931,2017-04-03 09:08:34.500,39.998666666666665,-123.40816666666667,7.06,2.1,NC.KFP..EHZ,P,-1.0,2017-04-03 09:08:42.380
nc72783931,2017-04-03 09:08:34.500,39.998666666666665,-123.40816666666667,7.06,2.1,NC.KHBB..HHZ,P,1.0,2017-04-03 09:08:48.560
nc72783931,2017-04-03 09:08:34.500,39.998666666666665,-123.40816666666667,7.06,2.1,NC.KIP..EHZ,P,-1.0,2017-04-03 09:08:39.410
nc72783931,2017-04-03 09:08:34.500,39.998666666666665,-123.40816666666667,7.06,2.1,NC.KKP..EHZ,P,-1.0,2017-04-03 09:08:38.950
nc72783931,2017-04-03 09:08:34.500,39.998666666666665,-123.40816666666667,7.06,2.1,NC.KMPB..HHZ,P,1.0,2017-04-03 09:08:50.020
nc72783931,2017-04-03 09:08:34.500,39.998666666666665,-123.40816666666667,7.06,2.1,NC.KMR..HHZ,P,1.0,2017-04-03 09:08:41.720
nc72783931,2017-04-03 09:08:34.500,39.998666666666665,-123.40816666666667,7.06,2.1,NC.KPP..EHZ,P,-1.0,2017-04-03 09:08:42.820
nc72783931,2017-04-03 09:08:34.500,39.998666666666665,-123.40816666666667,7.06,2.1,NC.KSM..EHZ,P,-1.0,2017-04-03 09:08:48.290
nc72783931,2017-04-03 09:08:34.500,39.998666666666665,-123.40816666666667,7.06,2.1,NC.LBP..EHZ,P,1.0,2017-04-03 09:08:45.970
nc72783931,2017-04-03 09:08:34.500,39.998666666666665,-123.40816666666667,7.06,2.1,NC.LGP..EHZ,P,-1.0,2017-04-03 09:08:54.900
nc72783931,2017-04-03 09:08:34.500,39.998666666666665,-123.40816666666667,7.06,2.1,NC.LPG..EHZ,P,1.0,2017-04-03 09:08:46.860
nc72783931,2017-04-03 09:08:34.500,39.998666666666665,-123.40816666666667,7.06,2.1,NC.LRB..EHZ,P,-1.0,2017-04-03 09:08:49.140
nc72783931,2017-04-03 09:08:34.500,39.998666666666665,-123.40816666666667,7.06,2.1,NC.LVR..EHZ,P,1.0,2017-04-03 09:08:46.640
nc72783931,2017-04-03 09:08:34.500,39.998666666666665,-123.40816666666667,7.06,2.1,PB.B045..EHZ,P,-1.0,2017-04-03 09:08:48.040
nc72783931,2017-04-03 09:08:34.500,39.998666666666665,-123.40816666666667,7.06,2.1,PB.B046..EHZ,P,1.0,2017-04-03 09:08:50.220
nc72783931,2017-04-03 09:08:34.500,39.998666666666665,-123.40816666666667,7.06,2.1,PB.B047..EHZ,P,1.0,2017-04-03 09:08:48.660
nc72783931,2017-04-03 09:08:34.500,39.998666666666665,-123.40816666666667,7.06,2.1,PB.B049..EHZ,P,1.0,2017-04-03 09:08:43.380
nc72783931,2017-04-03 09:08:34.500,39.998666666666665,-123.40816666666667,7.06,2.1,PB.B932..EHZ,P,-1.0,2017-04-03 09:08:49.340
nc72783931,2017-04-03 09:08:34.500,39.998666666666665,-123.40816666666667,7.06,2.1,PB.B935..EHZ,P,1.0,2017-04-03 09:08:45.340
nc72784031,2017-04-03 16:23:08.520,40.31283333333333,-124.342,8.94,1.68,BK.JCC..BHZ,P,-1.0,2017-04-03 16:23:20.210
nc72784031,2017-04-03 16:23:08.520,40.31283333333333,-124.342,8.94,1.68,NC.KBS..EHZ,P,1.0,2017-04-03 16:23:22.760
nc72784031,2017-04-03 16:23:08.520,40.31283333333333,-124.342,8.94,1.68,NC.KCO..EHZ,P,-1.0,2017-04-03 16:23:11.290
nc72784031,2017-04-03 16:23:08.520,40.31283333333333,-124.342,8.94,1.68,NC.KCR..EHZ,P,1.0,2017-04-03 16:23:18.240
nc72784031,2017-04-03 16:23:08.520,40.31283333333333,-124.342,8.94,1.68,NC.KCT..HHZ,P,-1.0,2017-04-03 16:23:12.840
nc72784031,2017-04-03 16:23:08.520,40.31283333333333,-124.342,8.94,1.68,NC.KFP..EHZ,P,1.0,2017-04-03 16:23:26.180
nc72784031,2017-04-03 16:23:08.520,40.31283333333333,-124.342,8.94,1.68,NC.KIP..EHZ,P,1.0,2017-04-03 16:23:24.910
nc72784031,2017-04-03 16:23:08.520,40.31283333333333,-124.342,8.94,1.68,NC.KMPB..HHZ,P,-1.0,2017-04-03 16:23:13.600
nc72784031,2017-04-03 16:23:08.520,40.31283333333333,-124.342,8.94,1.68,NC.KMR..HHZ,P,1.0,2017-04-03 16:23:19.250
nc72784031,2017-04-03 16:23:08.520,40.31283333333333,-124.342,8.94,1.68,NC.KSM..EHZ,P,1.0,2017-04-03 16:23:13.090
nc72784031,2017-04-03 16:23:08.520,40.31283333333333,-124.342,8.94,1.68,PB.B046..EHZ,P,-1.0,2017-04-03 16:23:10.630
nc72784031,2017-04-03 16:23:08.520,40.31283333333333,-124.342,8.94,1.68,PB.B047..EHZ,P,-1.0,2017-04-03 16:23:12.490
nc72784031,2017-04-03 16:23:08.520,40.31283333333333,-124.342,8.94,1.68,PB.B932..EHZ,P,-1.0,2017-04-03 16:23:11.460
nc72784066,2017-04-03 18:41:47.500,39.99916666666667,-123.40833333333333,6.51,1.73,NC.GHL..EHZ,P,1.0,2017-04-03 18:42:07.830
nc72784066,2017-04-03 18:41:47.500,39.99916666666667,-123.40833333333333,6.51,1.73,NC.GHM..EHZ,P,-1.0,2017-04-03 18:42:01.410
nc72784066,2017-04-03 18:41:47.500,39.99916666666667,-123.40833333333333,6.51,1.73,NC.GRO..EHZ,P,1.0,2017-04-03 18:41:59.710
nc72784066,2017-04-03 18:41:47.500,39.99916666666667,-123.40833333333333,6.51,1.73,NC.GTC..EHZ,P,1.0,2017-04-03 18:42:00.620
nc72784066,2017-04-03 18:41:47.500,39.99916666666667,-123.40833333333333,6.51,1.73,NC.GVV..EHZ,P,1.0,2017-04-03 18:42:00.440
nc72784066,2017-04-03 18:41:47.500,39.99916666666667,-123.40833333333333,6.51,1.73,NC.KBN..EHZ,P,1.0,2017-04-03 18:41:52.720
nc72784066,2017-04-03 18:41:47.500,39.99916666666667,-123.40833333333333,6.51,1.73,NC.KBS..EHZ,P,1.0,2017-04-03 18:41:51.810
nc72784066,2017-04-03 18:41:47.500,39.99916666666667,-123.40833333333333,6.51,1.73,NC.KCO..EHZ,P,1.0,2017-04-03 18:42:02.920
nc72784066,2017-04-03 18:41:47.500,39.99916666666667,-123.40833333333333,6.51,1.73,NC.KCPB..HHZ,P,-1.0,2017-04-03 18:41:55.350
nc72784066,2017-04-03 18:41:47.500,39.99916666666667,-123.40833333333333,6.51,1.73,NC.KCR..EHZ,P,1.0,2017-04-03 18:41:59.220
nc72784066,2017-04-03 18:41:47.500,39.99916666666667,-123.40833333333333,6.51,1.73,NC.KFP..EHZ,P,1.0,2017-04-03 18:41:55.470
nc72784066,2017-04-03 18:41:47.500,39.99916666666667,-123.40833333333333,6.51,1.73,NC.KHBB..HHZ,P,1.0,2017-04-03 18:42:01.460
nc72784066,2017-04-03 18:41:47.500,39.99916666666667,-123.40833333333333,6.51,1.73,NC.KIP..EHZ,P,-1.0,2017-04-03 18:41:52.360
nc72784066,2017-04-03 18:41:47.500,39.99916666666667,-123.40833333333333,6.51,1.73,NC.KKP..EHZ,P,-1.0,2017-04-03 18:41:51.880
nc72784066,2017-04-03 18:41:47.500,39.99916666666667,-123.40833333333333,6.51,1.73,NC.KMPB..HHZ,P,,2017-04-03 18:42:02.870
nc72784066,2017-04-03 18:41:47.500,39.99916666666667,-123.40833333333333,6.51,1.73,NC.KMR..HHZ,P,1.0,2017-04-03 18:41:54.590
nc72784066,2017-04-03 18:41:47.500,39.99916666666667,-123.40833333333333,6.51,1.73,NC.KPP..EHZ,P,,2017-04-03 18:41:55.550
nc72784066,2017-04-03 18:41:47.500,39.99916666666667,-123.40833333333333,6.51,1.73,NC.KSM..EHZ,P,-1.0,2017-04-03 18:42:01.110
nc72784066,2017-04-03 18:41:47.500,39.99916666666667,-123.40833333333333,6.51,1.73,PB.B045..EHZ,P,1.0,2017-04-03 18:42:01.200
nc72784066,2017-04-03 18:41:47.500,39.99916666666667,-123.40833333333333,6.51,1.73,PB.B046..EHZ,P,-1.0,2017-04-03 18:42:03.720
nc72784066,2017-04-03 18:41:47.500,39.99916666666667,-123.40833333333333,6.51,1.73,PB.B047..EHZ,P,-1.0,2017-04-03 18:42:01.710
nc72784066,2017-04-03 18:41:47.500,39.99916666666667,-123.40833333333333,6.51,1.73,PB.B049..EHZ,P,1.0,2017-04-03 18:41:56.280
nc72784066,2017-04-03 18:41:47.500,39.99916666666667,-123.40833333333333,6.51,1.73,PB.B932..EHZ,P,1.0,2017-04-03 18:42:02.120
nc72784066,2017-04-03 18:41:47.500,39.99916666666667,-123.40833333333333,6.51,1.73,PB.B935..EHZ,P,-1.0,2017-04-03 18:41:58.940
nc72784436,2017-04-04 15:15:57.930,39.99933333333333,-123.40833333333333,6.19,1.69,NC.GHM..EHZ,P,,2017-04-04 15:16:11.820
nc72784436,2017-04-04 15:15:57.930,39.99933333333333,-123.40833333333333,6.19,1.69,NC.GRO..EHZ,P,1.0,2017-04-04 15:16:10.130
nc72784436,2017-04-04 15:15:57.930,39.99933333333333,-123.40833333333333,6.19,1.69,NC.GTC..EHZ,P,1.0,2017-04-04 15:16:11.060
nc72784436,2017-04-04 15:15:57.930,39.99933333333333,-123.40833333333333,6.19,1.69,NC.GVV..EHZ,P,1.0,2017-04-04 15:16:10.910
nc72784436,2017-04-04 15:15:57.930,39.99933333333333,-123.40833333333333,6.19,1.69,NC.KBN..EHZ,P,1.0,2017-04-04 15:16:03.170
nc72784436,2017-04-04 15:15:57.930,39.99933333333333,-123.40833333333333,6.19,1.69,NC.KBS..EHZ,P,1.0,2017-04-04 15:16:02.310
nc72784436,2017-04-04 15:15:57.930,39.99933333333333,-123.40833333333333,6.19,1.69,NC.KCO..EHZ,P,,2017-04-04 15:16:12.890
nc72784436,2017-04-04 15:15:57.930,39.99933333333333,-123.40833333333333,6.19,1.69,NC.KFP..EHZ,P,-1.0,2017-04-04 15:16:05.760
nc72784436,2017-04-04 15:15:57.930,39.99933333333333,-123.40833333333333,6.19,1.69,NC.KIP..EHZ,P,-1.0,2017-04-04 15:16:02.760
nc72784436,2017-04-04 15:15:57.930,39.99933333333333,-123.40833333333333,6.19,1.69,NC.KKP..EHZ,P,-1.0,2017-04-04 15:16:02.330
nc72784436,2017-04-04 15:15:57.930,39.99933333333333,-123.40833333333333,6.19,1.69,NC.KMR..HHZ,P,1.0,2017-04-04 15:16:05.100
nc72784436,2017-04-04 15:15:57.930,39.99933333333333,-123.40833333333333,6.19,1.69,NC.KPP..EHZ,P,1.0,2017-04-04 15:16:06.200
nc72784436,2017-04-04 15:15:57.930,39.99933333333333,-123.40833333333333,6.19,1.69,NC.KSM..EHZ,P,-1.0,2017-04-04 15:16:11.660
nc72784436,2017-04-04 15:15:57.930,39.99933333333333,-123.40833333333333,6.19,1.69,NC.LBP..EHZ,P,,2017-04-04 15:16:09.150
nc72784436,2017-04-04 15:15:57.930,39.99933333333333,-123.40833333333333,6.19,1.69,NC.LPG..EHZ,P,-1.0,2017-04-04 15:16:10.220
nc72784436,2017-04-04 15:15:57.930,39.99933333333333,-123.40833333333333,6.19,1.69,NC.LVR..EHZ,P,1.0,2017-04-04 15:16:09.990
nc72784436,2017-04-04 15:15:57.930,39.99933333333333,-123.40833333333333,6.19,1.69,PB.B045..EHZ,P,1.0,2017-04-04 15:16:11.730
nc72784436,2017-04-04 15:15:57.930,39.99933333333333,-123.40833333333333,6.19,1.69,PB.B047..EHZ,P,1.0,2017-04-04 15:16:12.430
nc72784436,2017-04-04 15:15:57.930,39.99933333333333,-123.40833333333333,6.19,1.69,PB.B049..EHZ,P,-1.0,2017-04-04 15:16:06.820
nc72784436,2017-04-04 15:15:57.930,39.99933333333333,-123.40833333333333,6.19,1.69,PB.B932..EHZ,P,-1.0,2017-04-04 15:16:12.720
nc72784436,2017-04-04 15:15:57.930,39.99933333333333,-123.40833333333333,6.19,1.69,PB.B935..EHZ,P,1.0,2017-04-04 15:16:08.880
nc72784536,2017-04-04 18:48:41.060,39.995333333333335,-123.41,6.43,1.01,NC.GTC..EHZ,P,1.0,2017-04-04 18:48:54.200
nc72784536,2017-04-04 18:48:41.060,39.995333333333335,-123.41,6.43,1.01,NC.GVV..EHZ,P,1.0,2017-04-04 18:48:54.040
nc72784536,2017-04-04 18:48:41.060,39.995333333333335,-123.41,6.43,1.01,NC.KBN..EHZ,P,,2017-04-04 18:48:46.260
nc72784536,2017-04-04 18:48:41.060,39.995333333333335,-123.41,6.43,1.01,NC.KBS..EHZ,P,1.0,2017-04-04 18:48:45.410
nc72784536,2017-04-04 18:48:41.060,39.995333333333335,-123.41,6.43,1.01,NC.KCPB..HHZ,P,1.0,2017-04-04 18:48:48.970
nc72784536,2017-04-04 18:48:41.060,39.995333333333335,-123.41,6.43,1.01,NC.KFP..EHZ,P,1.0,2017-04-04 18:48:49.030
nc72784536,2017-04-04 18:48:41.060,39.995333333333335,-123.41,6.43,1.01,NC.KHBB..HHZ,P,1.0,2017-04-04 18:48:55.060
nc72784536,2017-04-04 18:48:41.060,39.995333333333335,-123.41,6.43,1.01,NC.KIP..EHZ,P,-1.0,2017-04-04 18:48:45.890
nc72784536,2017-04-04 18:48:41.060,39.995333333333335,-123.41,6.43,1.01,NC.KKP..EHZ,P,-1.0,2017-04-04 18:48:45.440
nc72784536,2017-04-04 18:48:41.060,39.995333333333335,-123.41,6.43,1.01,NC.KMR..HHZ,P,1.0,2017-04-04 18:48:48.230
nc72784536,2017-04-04 18:48:41.060,39.995333333333335,-123.41,6.43,1.01,NC.KPP..EHZ,P,1.0,2017-04-04 18:48:49.420
nc72784536,2017-04-04 18:48:41.060,39.995333333333335,-123.41,6.43,1.01,NC.KSM..EHZ,P,,2017-04-04 18:48:54.680
nc72784536,2017-04-04 18:48:41.060,39.995333333333335,-123.41,6.43,1.01,PB.B932..EHZ,P,,2017-04-04 18:48:55.860
nc72785081,2017-04-05 16:26:56.260,39.998333333333335,-123.40633333333334,5.66,1.46,NC.GHM..EHZ,P,,2017-04-05 16:27:10.230
nc72785081,2017-04-05 16:26:56.260,39.998333333333335,-123.40633333333334,5.66,1.46,NC.GTC..EHZ,P,-1.0,2017-04-05 16:27:09.400
nc72785081,2017-04-05 16:26:56.260,39.998333333333335,-123.40633333333334,5.66,1.46,NC.GVV..EHZ,P,1.0,2017-04-05 16:27:09.270
nc72785081,2017-04-05 16:26:56.260,39.998333333333335,-123.40633333333334,5.66,1.46,NC.KBN..EHZ,P,,2017-04-05 16:27:01.400
nc72785081,2017-04-05 16:26:56.260,39.998333333333335,-123.40633333333334,5.66,1.46,NC.KBS..EHZ,P,1.0,2017-04-05 16:27:00.650
nc72785081,2017-04-05 16:26:56.260,39.998333333333335,-123.40633333333334,5.66,1.46,NC.KCPB..HHZ,P,,2017-04-05 16:27:04.160
nc72785081,2017-04-05 16:26:56.260,39.998333333333335,-123.40633333333334,5.66,1.46,NC.KFP..EHZ,P,-1.0,2017-04-05 16:27:04.220
nc72785081,2017-04-05 16:26:56.260,39.998333333333335,-123.40633333333334,5.66,1.46,NC.KHBB..HHZ,P,1.0,2017-04-05 16:27:10.340
nc72785081,2017-04-05 16:26:56.260,39.998333333333335,-123.40633333333334,5.66,1.46,NC.KIP..EHZ,P,-1.0,2017-04-05 16:27:01.150
nc72785081,2017-04-05 16:26:56.260,39.998333333333335,-123.40633333333334,5.66,1.46,NC.KKP..EHZ,P,-1.0,2017-04-05 16:27:00.710
nc72785081,2017-04-05 16:26:56.260,39.998333333333335,-123.40633333333334,5.66,1.46,NC.KMR..HHZ,P,-1.0,2017-04-05 16:27:03.600
nc72785081,2017-04-05 16:26:56.260,39.998333333333335,-123.40633333333334,5.66,1.46,NC.KSM..EHZ,P,-1.0,2017-04-05 16:27:10.060
nc72785081,2017-04-05 16:26:56.260,39.998333333333335,-123.40633333333334,5.66,1.46,NC.LPG..EHZ,P,,2017-04-05 16:27:08.400
nc72785081,2017-04-05 16:26:56.260,39.998333333333335,-123.40633333333334,5.66,1.46,PB.B047..EHZ,P,-1.0,2017-04-05 16:27:10.580
nc72785701,2017-04-06 21:15:24.300,40.312,-124.4255,7.4,3.07,BK.HATC..HHZ,P,,2017-04-06 21:16:02.400
nc72785701,2017-04-06 21:15:24.300,40.312,-124.4255,7.4,3.07,BK.HOPS..HHZ,P,1.0,2017-04-06 21:15:51.770
nc72785701,2017-04-06 21:15:24.300,40.312,-124.4255,7.4,3.07,BK.HUMO..HHZ,P,-1.0,2017-04-06 21:16:04.810
nc72785701,2017-04-06 21:15:24.300,40.312,-124.4255,7.4,3.07,BK.JCC..HHZ,P,1.0,2017-04-06 21:15:36.370
nc72785701,2017-04-06 21:15:24.300,40.312,-124.4255,7.4,3.07,BK.YBH..HHZ,P,1.0,2017-04-06 21:15:56.000
nc72785701,2017-04-06 21:15:24.300,40.312,-124.4255,7.4,3.07,NC.GCK..EHZ,P,,2017-04-06 21:15:53.610
nc72785701,2017-04-06 21:15:24.300,40.312,-124.4255,7.4,3.07,NC.GGU..EHZ,P,1.0,2017-04-06 21:15:50.690
nc72785701,2017-04-06 21:15:24.300,40.312,-124.4255,7.4,3.07,NC.GHL..EHZ,P,1.0,2017-04-06 21:15:51.680
nc72785701,2017-04-06 21:15:24.300,40.312,-124.4255,7.4,3.07,NC.GHM..EHZ,P,1.0,2017-04-06 21:15:48.240
nc72785701,2017-04-06 21:15:24.300,40.312,-124.4255,7.4,3.07,NC.GMR..EHZ,P,1.0,2017-04-06 21:15:47.510
nc72785701,2017-04-06 21:15:24.300,40.312,-124.4255,7.4,3.07,NC.GRO..EHZ,P,,2017-04-06 21:15:48.870
nc72785701,2017-04-06 21:15:24.300,40.312,-124.4255,7.4,3.07,NC.GTC..EHZ,P,1.0,2017-04-06 21:15:44.110
nc72785701,2017-04-06 21:15:24.300,40.312,-124.4255,7.4,3.07,NC.GTS..EHZ,P,,2017-04-06 21:15:53.060
nc72785701,2017-04-06 21:15:24.300,40.312,-124.4255,7.4,3.07,NC.GVV..EHZ,P,-1.0,2017-04-06 21:15:49.280
nc72785701,2017-04-06 21:15:24.300,40.312,-124.4255,7.4,3.07,NC.KBN..EHZ,P,1.0,2017-04-06 21:15:43.640
nc72785701,2017-04-06 21:15:24.300,40.312,-124.4255,7.4,3.07,NC.KBS..EHZ,P,1.0,2017-04-06 21:15:39.230
nc72785701,2017-04-06 21:15:24.300,40.312,-124.4255,7.4,3.07,NC.KCO..EHZ,P,-1.0,2017-04-06 21:15:27.990
nc72785701,2017-04-06 21:15:24.300,40.312,-124.4255,7.4,3.07,NC.KCPB..HHZ,P,-1.0,2017-04-06 21:15:41.250
nc72785701,2017-04-06 21:15:24.300,40.312,-124.4255,7.4,3.07,NC.KCR..EHZ,P,1.0,2017-04-06 21:15:34.890
nc72785701,2017-04-06 21:15:24.300,40.312,-124.4255,7.4,3.07,NC.KCT..HHZ,P,-1.0,2017-04-06 21:15:28.890
nc72785701,2017-04-06 21:15:24.300,40.312,-124.4255,7.4,3.07,NC.KFP..EHZ,P,1.0,2017-04-06 21:15:42.800
nc72785701,2017-04-06 21:15:24.300,40.312,-124.4255,7.4,3.07,NC.KHBB..HHZ,P,1.0,2017-04-06 21:15:42.730
nc72785701,2017-04-06 21:15:24.300,40.312,-124.4255,7.4,3.07,NC.KHMB..HHZ,P,1.0,2017-04-06 21:15:39.730
nc72785701,2017-04-06 21:15:24.300,40.312,-124.4255,7.4,3.07,NC.KIP..EHZ,P,1.0,2017-04-06 21:15:41.110
nc72785701,2017-04-06 21:15:24.300,40.312,-124.4255,7.4,3.07,NC.KKP..EHZ,P,1.0,2017-04-06 21:15:40.000
nc72785701,2017-04-06 21:15:24.300,40.312,-124.4255,7.4,3.07,NC.KMPB..HHZ,P,-1.0,2017-04-06 21:15:30.180
nc72785701,2017-04-06 21:15:24.300,40.312,-124.4255,7.4,3.07,NC.KMR..HHZ,P,1.0,2017-04-06 21:15:36.150
nc72785701,2017-04-06 21:15:24.300,40.312,-124.4255,7.4,3.07,NC.KOM..EHZ,P,1.0,2017-04-06 21:15:45.870
nc72785701,2017-04-06 21:15:24.300,40.312,-124.4255,7.4,3.07,NC.KPP..EHZ,P,1.0,2017-04-06 21:15:41.020
nc72785701,2017-04-06 21:15:24.300,40.312,-124.4255,7.4,3.07,NC.KSM..EHZ,P,1.0,2017-04-06 21:15:29.710
nc72785701,2017-04-06 21:15:24.300,40.312,-124.4255,7.4,3.07,NC.KTR..EHZ,P,-1.0,2017-04-06 21:15:54.040
nc72785701,2017-04-06 21:15:24.300,40.312,-124.4255,7.4,3.07,NC.LBC..EHZ,P,-1.0,2017-04-06 21:16:03.540
nc72785701,2017-04-06 21:15:24.300,40.312,-124.4255,7.4,3.07,NC.LBF..EHZ,P,-1.0,2017-04-06 21:16:01.080
nc72785701,2017-04-06 21:15:24.300,40.312,-124.4255,7.4,3.07,NC.LBK..EHZ,P,1.0,2017-04-06 21:15:50.730
nc72785701,2017-04-06 21:15:24.300,40.312,-124.4255,7.4,3.07,NC.LBP..EHZ,P,,2017-04-06 21:15:45.670
nc72785701,2017-04-06 21:15:24.300,40.312,-124.4255,7.4,3.07,NC.LGM..EHZ,P,1.0,2017-04-06 21:16:01.240
nc72785701,2017-04-06 21:15:24.300,40.312,-124.4255,7.4,3.07,NC.LGP..EHZ,P,1.0,2017-04-06 21:15:48.020
nc72785701,2017-04-06 21:15:24.300,40.312,-124.4255,7.4,3.07,NC.LHE..EHZ,P,-1.0,2017-04-06 21:16:00.150
nc72785701,2017-04-06 21:15:24.300,40.312,-124.4255,7.4,3.07,NC.LMC..HHZ,P,-1.0,2017-04-06 21:15:58.050
nc72785701,2017-04-06 21:15:24.300,40.312,-124.4255,7.4,3.07,NC.LMI..EHZ,P,-1.0,2017-04-06 21:15:53.930
nc72785701,2017-04-06 21:15:24.300,40.312,-124.4255,7.4,3.07,NC.LPG..EHZ,P,1.0,2017-04-06 21:15:48.220
nc72785701,2017-04-06 21:15:24.300,40.312,-124.4255,7.4,3.07,NC.LPK..EHZ,P,-1.0,2017-04-06 21:15:55.020
nc72785701,2017-04-06 21:15:24.300,40.312,-124.4255,7.4,3.07,NC.LRB..EHZ,P,,2017-04-06 21:15:50.250
nc72785701,2017-04-06 21:15:24.300,40.312,-124.4255,7.4,3.07,NC.LSF..EHZ,P,,2017-04-06 21:15:50.320
nc72785701,2017-04-06 21:15:24.300,40.312,-124.4255,7.4,3.07,NC.LSH..EHZ,P,-1.0,2017-04-06 21:15:55.920
nc72785701,2017-04-06 21:15:24.300,40.312,-124.4255,7.4,3.07,NC.LTI..EHZ,P,1.0,2017-04-06 21:16:03.130
nc72785701,2017-04-06 21:15:24.300,40.312,-124.4255,7.4,3.07,NC.LVR..EHZ,P,1.0,2017-04-06 21:15:48.720
nc72785701,2017-04-06 21:15:24.300,40.312,-124.4255,7.4,3.07,NC.LWH..EHZ,P,1.0,2017-04-06 21:15:55.870
nc72785701,2017-04-06 21:15:24.300,40.312,-124.4255,7.4,3.07,NC.OCR..EHZ,P,1.0,2017-04-06 21:15:58.130
nc72785701,2017-04-06 21:15:24.300,40.312,-124.4255,7.4,3.07,NC.OGO..EHZ,P,,2017-04-06 21:16:00.700
nc72785701,2017-04-06 21:15:24.300,40.312,-124.4255,7.4,3.07,NP.1582..HNZ,P,1.0,2017-04-06 21:15:34.370
nc72785701,2017-04-06 21:15:24.300,40.312,-124.4255,7.4,3.07,NP.1746..HNZ,P,1.0,2017-04-06 21:15:33.170
nc72785701,2017-04-06 21:15:24.300,40.312,-124.4255,7.4,3.07,PB.B035..EHZ,P,1.0,2017-04-06 21:16:01.290
nc72785701,2017-04-06 21:15:24.300,40.312,-124.4255,7.4,3.07,PB.B036..EHZ,P,-1.0,2017-04-06 21:16:01.870
nc72785701,2017-04-06 21:15:24.300,40.312,-124.4255,7.4,3.07,PB.B039..EHZ,P,,2017-04-06 21:15:54.910
nc72785701,2017-04-06 21:15:24.300,40.312,-124.4255,7.4,3.07,PB.B040..EHZ,P,1.0,2017-04-06 21:15:59.670
nc72785701,2017-04-06 21:15:24.300,40.312,-124.4255,7.4,3.07,PB.B045..EHZ,P,-1.0,2017-04-06 21:15:32.060
nc72785701,2017-04-06 21:15:24.300,40.312,-124.4255,7.4,3.07,PB.B046..EHZ,P,-1.0,2017-04-06 21:15:27.190
nc72785701,2017-04-06 21:15:24.300,40.312,-124.4255,7.4,3.07,PB.B047..EHZ,P,-1.0,2017-04-06 21:15:29.220
