event_id,etime,elat,elon,edep,emag,station_id,phase_type,phase_polarity,phase_time
nc72796505,2017-05-04 05:21:16.410,39.949666666666666,-123.484,6.18,1.75,NC.GRO..EHZ,P,1.0,2017-05-04 05:21:29.850
nc72796505,2017-05-04 05:21:16.410,39.949666666666666,-123.484,6.18,1.75,NC.GTC..EHZ,P,1.0,2017-05-04 05:21:28.080
nc72796505,2017-05-04 05:21:16.410,39.949666666666666,-123.484,6.18,1.75,NC.GTS..EHZ,P,-1.0,2017-05-04 05:21:35.070
nc72796505,2017-05-04 05:21:16.410,39.949666666666666,-123.484,6.18,1.75,NC.GVV..EHZ,P,1.0,2017-05-04 05:21:30.120
nc72796505,2017-05-04 05:21:16.410,39.949666666666666,-123.484,6.18,1.75,NC.KBN..EHZ,P,1.0,2017-05-04 05:21:22.370
nc72796505,2017-05-04 05:21:16.410,39.949666666666666,-123.484,6.18,1.75,NC.KCPB..HHZ,P,-1.0,2017-05-04 05:21:22.730
nc72796505,2017-05-04 05:21:16.410,39.949666666666666,-123.484,6.18,1.75,NC.KCR..EHZ,P,1.0,2017-05-04 05:21:28.140
nc72796505,2017-05-04 05:21:16.410,39.949666666666666,-123.484,6.18,1.75,NC.KFP..EHZ,P,-1.0,2017-05-04 05:21:23.260
nc72796505,2017-05-04 05:21:16.410,39.949666666666666,-123.484,6.18,1.75,NC.KHBB..HHZ,P,-1.0,2017-05-04 05:21:31.800
nc72796505,2017-05-04 05:21:16.410,39.949666666666666,-123.484,6.18,1.75,NC.KIP..EHZ,P,-1.0,2017-05-04 05:21:20.120
nc72796505,2017-05-04 05:21:16.410,39.949666666666666,-123.484,6.18,1.75,NC.KKP..EHZ,P,-1.0,2017-05-04 05:21:21.690
nc72796505,2017-05-04 05:21:16.410,39.949666666666666,-123.484,6.18,1.75,NC.KMR..HHZ,P,-1.0,2017-05-04 05:21:23.770
nc72796505,2017-05-04 05:21:16.410,39.949666666666666,-123.484,6.18,1.75,NC.KPP..EHZ,P,-1.0,2017-05-04 05:21:26.040
nc72796505,2017-05-04 05:21:16.410,39.949666666666666,-123.484,6.18,1.75,NC.KSM..EHZ,P,1.0,2017-05-04 05:21:29.010
nc72796505,2017-05-04 05:21:16.410,39.949666666666666,-123.484,6.18,1.75,NC.LPG..EHZ,P,-1.0,2017-05-04 05:21:30.390
nc72796505,2017-05-04 05:21:16.410,39.949666666666666,-123.484,6.18,1.75,NC.LRB..EHZ,P,-1.0,2017-05-04 05:21:32.580
nc72796505,2017-05-04 05:21:16.410,39.949666666666666,-123.484,6.18,1.75,NC.LVR..EHZ,P,1.0,2017-05-04 05:21:29.990
nc72796505,2017-05-04 05:21:16.410,39.949666666666666,-123.484,6.18,1.75,PB.B045..EHZ,P,1.0,2017-05-04 05:21:29.830
nc72796505,2017-05-04 05:21:16.410,39.949666666666666,-123.484,6.18,1.75,PB.B047..EHZ,P,1.0,2017-05-04 05:21:29.570
nc72796505,2017-05-04 05:21:16.410,39.949666666666666,-123.484,6.18,1.75,PB.B049..EHZ,P,1.0,2017-05-04 05:21:25.010
nc72796505,2017-05-04 05:21:16.410,39.949666666666666,-123.484,6.18,1.75,PB.B932..EHZ,P,-1.0,2017-05-04 05:21:30.200
nc72796505,2017-05-04 05:21:16.410,39.949666666666666,-123.484,6.18,1.75,PB.B935..EHZ,P,-1.0,2017-05-04 05:21:27.880
nc72799581,2017-05-09 20:40:34.410,40.419666666666664,-123.6545,22.01,2.9,BK.HATC..HHZ,P,1.0,2017-05-09 20:41:02.530
nc72799581,2017-05-09 20:40:34.410,40.419666666666664,-123.6545,22.01,2.9,BK.HOPS..HHZ,P,-1.0,2017-05-09 20:40:58.490
nc72799581,2017-05-09 20:40:34.410,40.419666666666664,-123.6545,22.01,2.9,BK.HUMO..HHZ,P,,2017-05-09 20:41:09.660
nc72799581,2017-05-09 20:40:34.410,40.419666666666664,-123.6545,22.01,2.9,BK.JCC..HHZ,P,1.0,2017-05-09 20:40:43.890
nc72799581,2017-05-09 20:40:34.410,40.419666666666664,-123.6545,22.01,2.9,BK.SHEP..HHZ,P,-1.0,2017-05-09 20:41:05.690
nc72799581,2017-05-09 20:40:34.410,40.419666666666664,-123.6545,22.01,2.9,BK.YBH..HHZ,P,-1.0,2017-05-09 20:40:58.860
nc72799581,2017-05-09 20:40:34.410,40.419666666666664,-123.6545,22.01,2.9,NC.GBB..EHZ,P,,2017-05-09 20:40:55.680
nc72799581,2017-05-09 20:40:34.410,40.419666666666664,-123.6545,22.01,2.9,NC.GCK..EHZ,P,,2017-05-09 20:40:57.230
nc72799581,2017-05-09 20:40:34.410,40.419666666666664,-123.6545,22.01,2.9,NC.GGU..EHZ,P,,2017-05-09 20:40:58.710
nc72799581,2017-05-09 20:40:34.410,40.419666666666664,-123.6545,22.01,2.9,NC.GRO..EHZ,P,1.0,2017-05-09 20:40:50.630
nc72799581,2017-05-09 20:40:34.410,40.419666666666664,-123.6545,22.01,2.9,NC.GTC..EHZ,P,-1.0,2017-05-09 20:40:51.420
nc72799581,2017-05-09 20:40:34.410,40.419666666666664,-123.6545,22.01,2.9,NC.GTS..EHZ,P,,2017-05-09 20:40:57.780
nc72799581,2017-05-09 20:40:34.410,40.419666666666664,-123.6545,22.01,2.9,NC.GVV..EHZ,P,-1.0,2017-05-09 20:40:52.260
nc72799581,2017-05-09 20:40:34.410,40.419666666666664,-123.6545,22.01,2.9,NC.KBN..EHZ,P,1.0,2017-05-09 20:40:47.130
nc72799581,2017-05-09 20:40:34.410,40.419666666666664,-123.6545,22.01,2.9,NC.KCO..EHZ,P,1.0,2017-05-09 20:40:44.080
nc72799581,2017-05-09 20:40:34.410,40.419666666666664,-123.6545,22.01,2.9,NC.KCPB..HHZ,P,-1.0,2017-05-09 20:40:48.010
nc72799581,2017-05-09 20:40:34.410,40.419666666666664,-123.6545,22.01,2.9,NC.KCR..EHZ,P,1.0,2017-05-09 20:40:39.260
nc72799581,2017-05-09 20:40:34.410,40.419666666666664,-123.6545,22.01,2.9,NC.KCT..HHZ,P,1.0,2017-05-09 20:40:44.840
nc72799581,2017-05-09 20:40:34.410,40.419666666666664,-123.6545,22.01,2.9,NC.KFP..EHZ,P,-1.0,2017-05-09 20:40:48.790
nc72799581,2017-05-09 20:40:34.410,40.419666666666664,-123.6545,22.01,2.9,NC.KHBB..HHZ,P,1.0,2017-05-09 20:40:42.950
nc72799581,2017-05-09 20:40:34.410,40.419666666666664,-123.6545,22.01,2.9,NC.KHMB..HHZ,P,1.0,2017-05-09 20:40:43.950
nc72799581,2017-05-09 20:40:34.410,40.419666666666664,-123.6545,22.01,2.9,NC.KIP..EHZ,P,-1.0,2017-05-09 20:40:46.680
nc72799581,2017-05-09 20:40:34.410,40.419666666666664,-123.6545,22.01,2.9,NC.KKP..EHZ,P,1.0,2017-05-09 20:40:41.990
nc72799581,2017-05-09 20:40:34.410,40.419666666666664,-123.6545,22.01,2.9,NC.KMPB..HHZ,P,1.0,2017-05-09 20:40:42.240
nc72799581,2017-05-09 20:40:34.410,40.419666666666664,-123.6545,22.01,2.9,NC.KMR..HHZ,P,1.0,2017-05-09 20:40:40.550
nc72799581,2017-05-09 20:40:34.410,40.419666666666664,-123.6545,22.01,2.9,NC.KOM..EHZ,P,-1.0,2017-05-09 20:40:49.630
nc72799581,2017-05-09 20:40:34.410,40.419666666666664,-123.6545,22.01,2.9,NC.KPP..EHZ,P,1.0,2017-05-09 20:40:40.970
nc72799581,2017-05-09 20:40:34.410,40.419666666666664,-123.6545,22.01,2.9,NC.KRMB..HHZ,P,-1.0,2017-05-09 20:40:52.700
nc72799581,2017-05-09 20:40:34.410,40.419666666666664,-123.6545,22.01,2.9,NC.KRP..HHZ,P,,2017-05-09 20:40:49.080
nc72799581,2017-05-09 20:40:34.410,40.419666666666664,-123.6545,22.01,2.9,NC.KSM..EHZ,P,1.0,2017-05-09 20:40:43.710
nc72799581,2017-05-09 20:40:34.410,40.419666666666664,-123.6545,22.01,2.9,NC.LAMB..EHZ,P,1.0,2017-05-09 20:40:58.000
nc72799581,2017-05-09 20:40:34.410,40.419666666666664,-123.6545,22.01,2.9,NC.LBC..EHZ,P,1.0,2017-05-09 20:41:03.470
nc72799581,2017-05-09 20:40:34.410,40.419666666666664,-123.6545,22.01,2.9,NC.LBF..EHZ,P,1.0,2017-05-09 20:41:01.490
nc72799581,2017-05-09 20:40:34.410,40.419666666666664,-123.6545,22.01,2.9,NC.LBK..EHZ,P,1.0,2017-05-09 20:40:51.630
nc72799581,2017-05-09 20:40:34.410,40.419666666666664,-123.6545,22.01,2.9,NC.LBO..EHZ,P,1.0,2017-05-09 20:41:00.030
nc72799581,2017-05-09 20:40:34.410,40.419666666666664,-123.6545,22.01,2.9,NC.LBP..EHZ,P,1.0,2017-05-09 20:40:45.970
nc72799581,2017-05-09 20:40:34.410,40.419666666666664,-123.6545,22.01,2.9,NC.LCSB..EHZ,P,1.0,2017-05-09 20:40:58.490
nc72799581,2017-05-09 20:40:34.410,40.419666666666664,-123.6545,22.01,2.9,NC.LDB..EHZ,P,,2017-05-09 20:40:57.590
nc72799581,2017-05-09 20:40:34.410,40.419666666666664,-123.6545,22.01,2.9,NC.LDH..HHZ,P,1.0,2017-05-09 20:41:01.350
nc72799581,2017-05-09 20:40:34.410,40.419666666666664,-123.6545,22.01,2.9,NC.LGM..EHZ,P,1.0,2017-05-09 20:41:03.940
nc72799581,2017-05-09 20:40:34.410,40.419666666666664,-123.6545,22.01,2.9,NC.LGP..EHZ,P,1.0,2017-05-09 20:40:48.660
nc72799581,2017-05-09 20:40:34.410,40.419666666666664,-123.6545,22.01,2.9,NC.LHE..EHZ,P,1.0,2017-05-09 20:41:01.760
nc72799581,2017-05-09 20:40:34.410,40.419666666666664,-123.6545,22.01,2.9,NC.LMC..HHZ,P,-1.0,2017-05-09 20:40:58.640
nc72799581,2017-05-09 20:40:34.410,40.419666666666664,-123.6545,22.01,2.9,NC.LME..EHZ,P,,2017-05-09 20:41:01.540
nc72799581,2017-05-09 20:40:34.410,40.419666666666664,-123.6545,22.01,2.9,NC.LMH..EHZ,P,-1.0,2017-05-09 20:41:05.130
nc72799581,2017-05-09 20:40:34.410,40.419666666666664,-123.6545,22.01,2.9,NC.LMP..EHZ,P,1.0,2017-05-09 20:41:00.940
nc72799581,2017-05-09 20:40:34.410,40.419666666666664,-123.6545,22.01,2.9,NC.LPG..EHZ,P,1.0,2017-05-09 20:40:48.790
nc72799581,2017-05-09 20:40:34.410,40.419666666666664,-123.6545,22.01,2.9,NC.LPK..EHZ,P,1.0,2017-05-09 20:40:56.800
nc72799581,2017-05-09 20:40:34.410,40.419666666666664,-123.6545,22.01,2.9,NC.LRB..EHZ,P,-1.0,2017-05-09 20:40:50.440
nc72799581,2017-05-09 20:40:34.410,40.419666666666664,-123.6545,22.01,2.9,NC.LSF..EHZ,P,1.0,2017-05-09 20:40:50.000
nc72799581,2017-05-09 20:40:34.410,40.419666666666664,-123.6545,22.01,2.9,NC.LSH..EHZ,P,1.0,2017-05-09 20:40:55.860
nc72799581,2017-05-09 20:40:34.410,40.419666666666664,-123.6545,22.01,2.9,NC.LSR..EHZ,P,1.0,2017-05-09 20:40:55.670
nc72799581,2017-05-09 20:40:34.410,40.419666666666664,-123.6545,22.01,2.9,NC.LTC..EHZ,P,,2017-05-09 20:40:55.940
nc72799581,2017-05-09 20:40:34.410,40.419666666666664,-123.6545,22.01,2.9,NC.LTI..EHZ,P,1.0,2017-05-09 20:41:03.500
nc72799581,2017-05-09 20:40:34.410,40.419666666666664,-123.6545,22.01,2.9,NC.LVR..EHZ,P,1.0,2017-05-09 20:40:49.660
nc72799581,2017-05-09 20:40:34.410,40.419666666666664,-123.6545,22.01,2.9,NC.LWH..EHZ,P,1.0,2017-05-09 20:40:56.080
nc72799581,2017-05-09 20:40:34.410,40.419666666666664,-123.6545,22.01,2.9,NC.OCR..EHZ,P,1.0,2017-05-09 20:41:00.090
nc72799581,2017-05-09 20:40:34.410,40.419666666666664,-123.6545,22.01,2.9,NP.1582..HNZ,P,-1.0,2017-05-09 20:40:44.620
nc72799581,2017-05-09 20:40:34.410,40.419666666666664,-123.6545,22.01,2.9,NP.1586..HNZ,P,,2017-05-09 20:40:44.710
nc72799581,2017-05-09 20:40:34.410,40.419666666666664,-123.6545,22.01,2.9,NP.1746..HNZ,P,1.0,2017-05-09 20:40:43.520
nc72799581,2017-05-09 20:40:34.410,40.419666666666664,-123.6545,22.01,2.9,PB.B039..EHZ,P,1.0,2017-05-09 20:40:57.260
nc72799581,2017-05-09 20:40:34.410,40.419666666666664,-123.6545,22.01,2.9,PB.B040..EHZ,P,,2017-05-09 20:41:00.590
nc72799581,2017-05-09 20:40:34.410,40.419666666666664,-123.6545,22.01,2.9,PB.B045..EHZ,P,1.0,2017-05-09 20:40:40.820
nc72799581,2017-05-09 20:40:34.410,40.419666666666664,-123.6545,22.01,2.9,PB.B046..EHZ,P,1.0,2017-05-09 20:40:43.840
nc72799581,2017-05-09 20:40:34.410,40.419666666666664,-123.6545,22.01,2.9,PB.B047..EHZ,P,1.0,2017-05-09 20:40:43.200
nc72799581,2017-05-09 20:40:34.410,40.419666666666664,-123.6545,22.01,2.9,PB.B049..EHZ,P,1.0,2017-05-09 20:40:40.280
nc72799581,2017-05-09 20:40:34.410,40.419666666666664,-123.6545,22.01,2.9,PB.B932..EHZ,P,1.0,2017-05-09 20:40:43.320
nc72799581,2017-05-09 20:40:34.410,40.419666666666664,-123.6545,22.01,2.9,PB.B933..EHZ,P,1.0,2017-05-09 20:40:43.530
nc72799581,2017-05-09 20:40:34.410,40.419666666666664,-123.6545,22.01,2.9,PB.B935..EHZ,P,-1.0,2017-05-09 20:40:38.950
nc72803286,2017-05-19 11:47:48.120,40.31,-124.46216666666666,8.3,2.16,BK.JCC..HHZ,P,1.0,2017-05-19 11:48:00.380
nc72803286,2017-05-19 11:47:48.120,40.31,-124.46216666666666,8.3,2.16,NC.KCO..EHZ,P,,2017-05-19 11:47:52.290
nc72803286,2017-05-19 11:47:48.120,40.31,-124.46216666666666,8.3,2.16,NC.KCPB..HHZ,P,-1.0,2017-05-19 11:48:06.580
nc72803286,2017-05-19 11:47:48.120,40.31,-124.46216666666666,8.3,2.16,NC.KCR..EHZ,P,1.0,2017-05-19 11:47:59.200
nc72803286,2017-05-19 11:47:48.120,40.31,-124.46216666666666,8.3,2.16,NC.KCT..HHZ,P,1.0,2017-05-19 11:47:53.170
nc72803286,2017-05-19 11:47:48.120,40.31,-124.46216666666666,8.3,2.16,NC.KFP..EHZ,P,1.0,2017-05-19 11:48:07.130
nc72803286,2017-05-19 11:47:48.120,40.31,-124.46216666666666,8.3,2.16,NC.KHMB..HHZ,P,1.0,2017-05-19 11:48:03.780
nc72803286,2017-05-19 11:47:48.120,40.31,-124.46216666666666,8.3,2.16,NC.KIP..EHZ,P,-1.0,2017-05-19 11:48:05.530
nc72803286,2017-05-19 11:47:48.120,40.31,-124.46216666666666,8.3,2.16,NC.KKP..EHZ,P,-1.0,2017-05-19 11:48:04.460
nc72803286,2017-05-19 11:47:48.120,40.31,-124.46216666666666,8.3,2.16,NC.KMPB..HHZ,P,1.0,2017-05-19 11:47:54.600
nc72803286,2017-05-19 11:47:48.120,40.31,-124.46216666666666,8.3,2.16,NC.KMR..HHZ,P,,2017-05-19 11:48:00.570
nc72803286,2017-05-19 11:47:48.120,40.31,-124.46216666666666,8.3,2.16,NC.KSM..EHZ,P,-1.0,2017-05-19 11:47:53.990
nc72803286,2017-05-19 11:47:48.120,40.31,-124.46216666666666,8.3,2.16,PB.B045..EHZ,P,1.0,2017-05-19 11:47:56.450
nc72803286,2017-05-19 11:47:48.120,40.31,-124.46216666666666,8.3,2.16,PB.B046..EHZ,P,1.0,2017-05-19 11:47:51.670
nc72803286,2017-05-19 11:47:48.120,40.31,-124.46216666666666,8.3,2.16,PB.B047..EHZ,P,-1.0,2017-05-19 11:47:53.550
nc72803286,2017-05-19 11:47:48.120,40.31,-124.46216666666666,8.3,2.16,PB.B049..EHZ,P,-1.0,2017-05-19 11:47:58.700
nc72803286,2017-05-19 11:47:48.120,40.31,-124.46216666666666,8.3,2.16,PB.B932..EHZ,P,-1.0,2017-05-19 11:47:52.560
nc72803286,2017-05-19 11:47:48.120,40.31,-124.46216666666666,8.3,2.16,PB.B935..EHZ,P,-1.0,2017-05-19 11:48:02.750
nc72805971,2017-05-24 14:50:19.830,40.04266666666667,-123.74833333333333,16.37,1.78,NC.GTC..EHZ,P,1.0,2017-05-24 14:50:31.850
nc72805971,2017-05-24 14:50:19.830,40.04266666666667,-123.74833333333333,16.37,1.78,NC.KBN..EHZ,P,1.0,2017-05-24 14:50:29.920
nc72805971,2017-05-24 14:50:19.830,40.04266666666667,-123.74833333333333,16.37,1.78,NC.KCO..EHZ,P,-1.0,2017-05-24 14:50:29.350
nc72805971,2017-05-24 14:50:19.830,40.04266666666667,-123.74833333333333,16.37,1.78,NC.KCPB..HHZ,P,1.0,2017-05-24 14:50:28.090
nc72805971,2017-05-24 14:50:19.830,40.04266666666667,-123.74833333333333,16.37,1.78,NC.KCR..EHZ,P,-1.0,2017-05-24 14:50:28.340
nc72805971,2017-05-24 14:50:19.830,40.04266666666667,-123.74833333333333,16.37,1.78,NC.KFP..EHZ,P,-1.0,2017-05-24 14:50:29.710
nc72805971,2017-05-24 14:50:19.830,40.04266666666667,-123.74833333333333,16.37,1.78,NC.KHBB..HHZ,P,1.0,2017-05-24 14:50:34.060
nc72805971,2017-05-24 14:50:19.830,40.04266666666667,-123.74833333333333,16.37,1.78,NC.KHMB..HHZ,P,-1.0,2017-05-24 14:50:35.360
nc72805971,2017-05-24 14:50:19.830,40.04266666666667,-123.74833333333333,16.37,1.78,NC.KIP..EHZ,P,-1.0,2017-05-24 14:50:26.990
nc72805971,2017-05-24 14:50:19.830,40.04266666666667,-123.74833333333333,16.37,1.78,NC.KKP..EHZ,P,1.0,2017-05-24 14:50:26.120
nc72805971,2017-05-24 14:50:19.830,40.04266666666667,-123.74833333333333,16.37,1.78,NC.KMPB..HHZ,P,,2017-05-24 14:50:29.730
nc72805971,2017-05-24 14:50:19.830,40.04266666666667,-123.74833333333333,16.37,1.78,NC.KMR..HHZ,P,-1.0,2017-05-24 14:50:24.750
nc72805971,2017-05-24 14:50:19.830,40.04266666666667,-123.74833333333333,16.37,1.78,NC.KPP..EHZ,P,1.0,2017-05-24 14:50:29.460
nc72805971,2017-05-24 14:50:19.830,40.04266666666667,-123.74833333333333,16.37,1.78,NC.KSM..EHZ,P,1.0,2017-05-24 14:50:27.480
nc72805971,2017-05-24 14:50:19.830,40.04266666666667,-123.74833333333333,16.37,1.78,NC.LBK..EHZ,P,,2017-05-24 14:50:42.540
nc72805971,2017-05-24 14:50:19.830,40.04266666666667,-123.74833333333333,16.37,1.78,NC.LBP..EHZ,P,1.0,2017-05-24 14:50:33.860
nc72805971,2017-05-24 14:50:19.830,40.04266666666667,-123.74833333333333,16.37,1.78,NC.LPG..EHZ,P,1.0,2017-05-24 14:50:35.580
nc72805971,2017-05-24 14:50:19.830,40.04266666666667,-123.74833333333333,16.37,1.78,NC.LVR..EHZ,P,-1.0,2017-05-24 14:50:35.740
nc72805971,2017-05-24 14:50:19.830,40.04266666666667,-123.74833333333333,16.37,1.78,PB.B045..EHZ,P,,2017-05-24 14:50:28.560
nc72805971,2017-05-24 14:50:19.830,40.04266666666667,-123.74833333333333,16.37,1.78,PB.B046..EHZ,P,1.0,2017-05-24 14:50:29.800
nc72805971,2017-05-24 14:50:19.830,40.04266666666667,-123.74833333333333,16.37,1.78,PB.B047..EHZ,P,1.0,2017-05-24 14:50:28.090
nc72805971,2017-05-24 14:50:19.830,40.04266666666667,-123.74833333333333,16.37,1.78,PB.B049..EHZ,P,-1.0,2017-05-24 14:50:25.010
nc72805971,2017-05-24 14:50:19.830,40.04266666666667,-123.74833333333333,16.37,1.78,PB.B932..EHZ,P,-1.0,2017-05-24 14:50:28.430
nc72805971,2017-05-24 14:50:19.830,40.04266666666667,-123.74833333333333,16.37,1.78,PB.B933..EHZ,P,1.0,2017-05-24 14:50:24.470
nc72805971,2017-05-24 14:50:19.830,40.04266666666667,-123.74833333333333,16.37,1.78,PB.B935..EHZ,P,1.0,2017-05-24 14:50:29.940
nc72806241,2017-05-25 01:16:00.080,40.0425,-123.7475,15.75,1.76,NC.GTC..EHZ,P,-1.0,2017-05-25 01:16:12.380
nc72806241,2017-05-25 01:16:00.080,40.0425,-123.7475,15.75,1.76,NC.KBN..EHZ,P,1.0,2017-05-25 01:16:10.080
nc72806241,2017-05-25 01:16:00.080,40.0425,-123.7475,15.75,1.76,NC.KCPB..HHZ,P,-1.0,2017-05-25 01:16:08.130
nc72806241,2017-05-25 01:16:00.080,40.0425,-123.7475,15.75,1.76,NC.KCR..EHZ,P,-1.0,2017-05-25 01:16:08.540
nc72806241,2017-05-25 01:16:00.080,40.0425,-123.7475,15.75,1.76,NC.KFP..EHZ,P,1.0,2017-05-25 01:16:09.940
nc72806241,2017-05-25 01:16:00.080,40.0425,-123.7475,15.75,1.76,NC.KIP..EHZ,P,-1.0,2017-05-25 01:16:07.210
nc72806241,2017-05-25 01:16:00.080,40.0425,-123.7475,15.75,1.76,NC.KKP..EHZ,P,1.0,2017-05-25 01:16:06.340
nc72806241,2017-05-25 01:16:00.080,40.0425,-123.7475,15.75,1.76,NC.KMPB..HHZ,P,1.0,2017-05-25 01:16:10.250
nc72806241,2017-05-25 01:16:00.080,40.0425,-123.7475,15.75,1.76,NC.KMR..HHZ,P,-1.0,2017-05-25 01:16:04.970
nc72806241,2017-05-25 01:16:00.080,40.0425,-123.7475,15.75,1.76,NC.KPP..EHZ,P,1.0,2017-05-25 01:16:09.690
nc72806241,2017-05-25 01:16:00.080,40.0425,-123.7475,15.75,1.76,NC.KSM..EHZ,P,-1.0,2017-05-25 01:16:07.430
nc72806241,2017-05-25 01:16:00.080,40.0425,-123.7475,15.75,1.76,NC.LGP..EHZ,P,1.0,2017-05-25 01:16:19.820
nc72806241,2017-05-25 01:16:00.080,40.0425,-123.7475,15.75,1.76,NC.LPG..EHZ,P,-1.0,2017-05-25 01:16:15.980
nc72806241,2017-05-25 01:16:00.080,40.0425,-123.7475,15.75,1.76,NC.LVR..EHZ,P,-1.0,2017-05-25 01:16:15.870
nc72806241,2017-05-25 01:16:00.080,40.0425,-123.7475,15.75,1.76,PB.B045..EHZ,P,-1.0,2017-05-25 01:16:09.360
nc72806241,2017-05-25 01:16:00.080,40.0425,-123.7475,15.75,1.76,PB.B046..EHZ,P,-1.0,2017-05-25 01:16:09.820
nc72806241,2017-05-25 01:16:00.080,40.0425,-123.7475,15.75,1.76,PB.B047..EHZ,P,-1.0,2017-05-25 01:16:08.120
nc72806241,2017-05-25 01:16:00.080,40.0425,-123.7475,15.75,1.76,PB.B049..EHZ,P,-1.0,2017-05-25 01:16:05.210
nc72806241,2017-05-25 01:16:00.080,40.0425,-123.7475,15.75,1.76,PB.B932..EHZ,P,1.0,2017-05-25 01:16:08.590
nc72806241,2017-05-25 01:16:00.080,40.0425,-123.7475,15.75,1.76,PB.B935..EHZ,P,1.0,2017-05-25 01:16:10.120
nc72807961,2017-05-29 19:34:09.640,40.72516666666667,-124.846,3.91,2.62,BG.FNF..DPZ,P,-1.0,2017-05-29 19:34:46.920
nc72807961,2017-05-29 19:34:09.640,40.72516666666667,-124.846,3.91,2.62,BG.PFR..DPZ,P,1.0,2017-05-29 19:34:46.860
nc72807961,2017-05-29 19:34:09.640,40.72516666666667,-124.846,3.91,2.62,BK.JCC..HHZ,P,1.0,2017-05-29 19:34:22.790
nc72807961,2017-05-29 19:34:09.640,40.72516666666667,-124.846,3.91,2.62,BK.ORV..HHZ,P,-1.0,2017-05-29 19:34:53.700
nc72807961,2017-05-29 19:34:09.640,40.72516666666667,-124.846,3.91,2.62,BK.SUTB..HHZ,P,-1.0,2017-05-29 19:34:52.720
nc72807961,2017-05-29 19:34:09.640,40.72516666666667,-124.846,3.91,2.62,NC.GBB..EHZ,P,1.0,2017-05-29 19:34:45.740
nc72807961,2017-05-29 19:34:09.640,40.72516666666667,-124.846,3.91,2.62,NC.GCK..EHZ,P,-1.0,2017-05-29 19:34:46.550
nc72807961,2017-05-29 19:34:09.640,40.72516666666667,-124.846,3.91,2.62,NC.GHM..EHZ,P,-1.0,2017-05-29 19:34:41.370
nc72807961,2017-05-29 19:34:09.640,40.72516666666667,-124.846,3.91,2.62,NC.GRO..EHZ,P,1.0,2017-05-29 19:34:41.070
nc72807961,2017-05-29 19:34:09.640,40.72516666666667,-124.846,3.91,2.62,NC.GTC..EHZ,P,-1.0,2017-05-29 19:34:37.700
nc72807961,2017-05-29 19:34:09.640,40.72516666666667,-124.846,3.91,2.62,NC.GTS..EHZ,P,-1.0,2017-05-29 19:34:46.530
nc72807961,2017-05-29 19:34:09.640,40.72516666666667,-124.846,3.91,2.62,NC.GVV..EHZ,P,-1.0,2017-05-29 19:34:42.130
nc72807961,2017-05-29 19:34:09.640,40.72516666666667,-124.846,3.91,2.62,NC.KBN..EHZ,P,1.0,2017-05-29 19:34:36.770
nc72807961,2017-05-29 19:34:09.640,40.72516666666667,-124.846,3.91,2.62,NC.KCO..EHZ,P,1.0,2017-05-29 19:34:23.350
nc72807961,2017-05-29 19:34:09.640,40.72516666666667,-124.846,3.91,2.62,NC.KCPB..HHZ,P,1.0,2017-05-29 19:34:34.570
nc72807961,2017-05-29 19:34:09.640,40.72516666666667,-124.846,3.91,2.62,NC.KCR..EHZ,P,1.0,2017-05-29 19:34:26.350
nc72807961,2017-05-29 19:34:09.640,40.72516666666667,-124.846,3.91,2.62,NC.KCT..HHZ,P,1.0,2017-05-29 19:34:21.180
