event_id,etime,elat,elon,edep,emag,station_id,phase_type,phase_polarity,phase_time
nc72771756,2017-03-08 17:31:10.480,40.24333333333333,-124.15183333333333,13.2,1.16,NC.KMR..HHZ,P,-1.0,2017-03-08 17:31:17.600
nc72771756,2017-03-08 17:31:10.480,40.24333333333333,-124.15183333333333,13.2,1.16,NC.KSM..EHZ,P,1.0,2017-03-08 17:31:13.310
nc72771756,2017-03-08 17:31:10.480,40.24333333333333,-124.15183333333333,13.2,1.16,PB.B046..EHZ,P,-1.0,2017-03-08 17:31:14.290
nc72771756,2017-03-08 17:31:10.480,40.24333333333333,-124.15183333333333,13.2,1.16,PB.B047..EHZ,P,1.0,2017-03-08 17:31:13.000
nc72771756,2017-03-08 17:31:10.480,40.24333333333333,-124.15183333333333,13.2,1.16,PB.B049..EHZ,P,-1.0,2017-03-08 17:31:15.790
nc72771756,2017-03-08 17:31:10.480,40.24333333333333,-124.15183333333333,13.2,1.16,PB.B932..EHZ,P,1.0,2017-03-08 17:31:13.210
nc72771756,2017-03-08 17:31:10.480,40.24333333333333,-124.15183333333333,13.2,1.16,PB.B935..EHZ,P,1.0,2017-03-08 17:31:21.120
nc72772021,2017-03-09 08:02:58.550,40.004,-123.38616666666667,29.95,1.85,NC.GHM..EHZ,P,1.0,2017-03-09 08:03:09.830
nc72772021,2017-03-09 08:02:58.550,40.004,-123.38616666666667,29.95,1.85,NC.GRO..EHZ,P,1.0,2017-03-09 08:03:09.590
nc72772021,2017-03-09 08:02:58.550,40.004,-123.38616666666667,29.95,1.85,NC.GTC..EHZ,P,-1.0,2017-03-09 08:03:09.760
nc72772021,2017-03-09 08:02:58.550,40.004,-123.38616666666667,29.95,1.85,NC.GVV..EHZ,P,1.0,2017-03-09 08:03:10.330
nc72772021,2017-03-09 08:02:58.550,40.004,-123.38616666666667,29.95,1.85,NC.KBN..EHZ,P,-1.0,2017-03-09 08:03:05.040
nc72772021,2017-03-09 08:02:58.550,40.004,-123.38616666666667,29.95,1.85,NC.KBS..EHZ,P,1.0,2017-03-09 08:03:04.830
nc72772021,2017-03-09 08:02:58.550,40.004,-123.38616666666667,29.95,1.85,NC.KCO..EHZ,P,1.0,2017-03-09 08:03:10.960
nc72772021,2017-03-09 08:02:58.550,40.004,-123.38616666666667,29.95,1.85,NC.KCPB..HHZ,P,,2017-03-09 08:03:06.570
nc72772021,2017-03-09 08:02:58.550,40.004,-123.38616666666667,29.95,1.85,NC.KCR..EHZ,P,-1.0,2017-03-09 08:03:09.030
nc72772021,2017-03-09 08:02:58.550,40.004,-123.38616666666667,29.95,1.85,NC.KFP..EHZ,P,-1.0,2017-03-09 08:03:06.610
nc72772021,2017-03-09 08:02:58.550,40.004,-123.38616666666667,29.95,1.85,NC.KIP..EHZ,P,1.0,2017-03-09 08:03:05.020
nc72772021,2017-03-09 08:02:58.550,40.004,-123.38616666666667,29.95,1.85,NC.KMR..HHZ,P,-1.0,2017-03-09 08:03:06.200
nc72772021,2017-03-09 08:02:58.550,40.004,-123.38616666666667,29.95,1.85,NC.KPP..EHZ,P,-1.0,2017-03-09 08:03:06.890
nc72772021,2017-03-09 08:02:58.550,40.004,-123.38616666666667,29.95,1.85,NC.LBP..EHZ,P,1.0,2017-03-09 08:03:08.580
nc72772021,2017-03-09 08:02:58.550,40.004,-123.38616666666667,29.95,1.85,NC.LPG..EHZ,P,-1.0,2017-03-09 08:03:09.730
nc72772021,2017-03-09 08:02:58.550,40.004,-123.38616666666667,29.95,1.85,NC.LRB..EHZ,P,1.0,2017-03-09 08:03:11.670
nc72772021,2017-03-09 08:02:58.550,40.004,-123.38616666666667,29.95,1.85,NC.LVR..EHZ,P,1.0,2017-03-09 08:03:09.470
nc72772021,2017-03-09 08:02:58.550,40.004,-123.38616666666667,29.95,1.85,PB.B045..EHZ,P,1.0,2017-03-09 08:03:10.500
nc72772021,2017-03-09 08:02:58.550,40.004,-123.38616666666667,29.95,1.85,PB.B046..EHZ,P,,2017-03-09 08:03:11.600
nc72772021,2017-03-09 08:02:58.550,40.004,-123.38616666666667,29.95,1.85,PB.B047..EHZ,P,-1.0,2017-03-09 08:03:10.410
nc72772021,2017-03-09 08:02:58.550,40.004,-123.38616666666667,29.95,1.85,PB.B049..EHZ,P,-1.0,2017-03-09 08:03:07.090
nc72772021,2017-03-09 08:02:58.550,40.004,-123.38616666666667,29.95,1.85,PB.B932..EHZ,P,-1.0,2017-03-09 08:03:10.660
nc72772021,2017-03-09 08:02:58.550,40.004,-123.38616666666667,29.95,1.85,PB.B935..EHZ,P,-1.0,2017-03-09 08:03:08.620
nc72773106,2017-03-12 00:34:57.140,40.1415,-123.13216666666666,35.65,1.84,NC.GTC..EHZ,P,-1.0,2017-03-12 00:35:11.120
nc72773106,2017-03-12 00:34:57.140,40.1415,-123.13216666666666,35.65,1.84,NC.GVV..EHZ,P,,2017-03-12 00:35:07.920
nc72773106,2017-03-12 00:34:57.140,40.1415,-123.13216666666666,35.65,1.84,NC.KBN..EHZ,P,-1.0,2017-03-12 00:35:04.830
nc72773106,2017-03-12 00:34:57.140,40.1415,-123.13216666666666,35.65,1.84,NC.KBS..EHZ,P,1.0,2017-03-12 00:35:06.750
nc72773106,2017-03-12 00:34:57.140,40.1415,-123.13216666666666,35.65,1.84,NC.KCR..EHZ,P,1.0,2017-03-12 00:35:08.750
nc72773106,2017-03-12 00:34:57.140,40.1415,-123.13216666666666,35.65,1.84,NC.KFP..EHZ,P,1.0,2017-03-12 00:35:08.040
nc72773106,2017-03-12 00:34:57.140,40.1415,-123.13216666666666,35.65,1.84,NC.KHBB..HHZ,P,1.0,2017-03-12 00:35:07.730
nc72773106,2017-03-12 00:34:57.140,40.1415,-123.13216666666666,35.65,1.84,NC.KIP..EHZ,P,-1.0,2017-03-12 00:35:06.700
nc72773106,2017-03-12 00:34:57.140,40.1415,-123.13216666666666,35.65,1.84,NC.KKP..EHZ,P,1.0,2017-03-12 00:35:05.220
nc72773106,2017-03-12 00:34:57.140,40.1415,-123.13216666666666,35.65,1.84,NC.KMR..HHZ,P,1.0,2017-03-12 00:35:06.840
nc72773106,2017-03-12 00:34:57.140,40.1415,-123.13216666666666,35.65,1.84,NC.KPP..EHZ,P,1.0,2017-03-12 00:35:05.000
nc72773106,2017-03-12 00:34:57.140,40.1415,-123.13216666666666,35.65,1.84,NC.LBK..EHZ,P,1.0,2017-03-12 00:35:14.810
nc72773106,2017-03-12 00:34:57.140,40.1415,-123.13216666666666,35.65,1.84,NC.LBP..EHZ,P,-1.0,2017-03-12 00:35:04.560
nc72773106,2017-03-12 00:34:57.140,40.1415,-123.13216666666666,35.65,1.84,NC.LGP..EHZ,P,-1.0,2017-03-12 00:35:11.630
nc72773106,2017-03-12 00:34:57.140,40.1415,-123.13216666666666,35.65,1.84,NC.LPG..EHZ,P,-1.0,2017-03-12 00:35:05.820
nc72773106,2017-03-12 00:34:57.140,40.1415,-123.13216666666666,35.65,1.84,NC.LSF..EHZ,P,1.0,2017-03-12 00:35:10.390
nc72773106,2017-03-12 00:34:57.140,40.1415,-123.13216666666666,35.65,1.84,NC.LSH..EHZ,P,-1.0,2017-03-12 00:35:14.930
nc72773106,2017-03-12 00:34:57.140,40.1415,-123.13216666666666,35.65,1.84,NC.LVR..EHZ,P,1.0,2017-03-12 00:35:06.090
nc72773106,2017-03-12 00:34:57.140,40.1415,-123.13216666666666,35.65,1.84,PB.B049..EHZ,P,1.0,2017-03-12 00:35:07.640
nc72773106,2017-03-12 00:34:57.140,40.1415,-123.13216666666666,35.65,1.84,PB.B932..EHZ,P,,2017-03-12 00:35:10.290
nc72773106,2017-03-12 00:34:57.140,40.1415,-123.13216666666666,35.65,1.84,PB.B935..EHZ,P,1.0,2017-03-12 00:35:07.270
nc72773131,2017-03-12 01:40:31.320,40.139833333333335,-123.1335,35.84,2.18,BK.JCC..HHZ,P,1.0,2017-03-12 01:40:47.640
nc72773131,2017-03-12 01:40:31.320,40.139833333333335,-123.1335,35.84,2.18,NC.GBB..EHZ,P,,2017-03-12 01:40:45.030
nc72773131,2017-03-12 01:40:31.320,40.139833333333335,-123.1335,35.84,2.18,NC.GGU..EHZ,P,1.0,2017-03-12 01:40:52.010
nc72773131,2017-03-12 01:40:31.320,40.139833333333335,-123.1335,35.84,2.18,NC.GHM..EHZ,P,-1.0,2017-03-12 01:40:44.080
nc72773131,2017-03-12 01:40:31.320,40.139833333333335,-123.1335,35.84,2.18,NC.GMR..EHZ,P,-1.0,2017-03-12 01:40:48.370
nc72773131,2017-03-12 01:40:31.320,40.139833333333335,-123.1335,35.84,2.18,NC.GRO..EHZ,P,1.0,2017-03-12 01:40:40.920
nc72773131,2017-03-12 01:40:31.320,40.139833333333335,-123.1335,35.84,2.18,NC.GTC..EHZ,P,-1.0,2017-03-12 01:40:45.270
nc72773131,2017-03-12 01:40:31.320,40.139833333333335,-123.1335,35.84,2.18,NC.GVV..EHZ,P,1.0,2017-03-12 01:40:42.070
nc72773131,2017-03-12 01:40:31.320,40.139833333333335,-123.1335,35.84,2.18,NC.KBN..EHZ,P,-1.0,2017-03-12 01:40:38.970
nc72773131,2017-03-12 01:40:31.320,40.139833333333335,-123.1335,35.84,2.18,NC.KBS..EHZ,P,-1.0,2017-03-12 01:40:40.840
nc72773131,2017-03-12 01:40:31.320,40.139833333333335,-123.1335,35.84,2.18,NC.KCO..EHZ,P,-1.0,2017-03-12 01:40:46.430
nc72773131,2017-03-12 01:40:31.320,40.139833333333335,-123.1335,35.84,2.18,NC.KCPB..HHZ,P,-1.0,2017-03-12 01:40:42.440
nc72773131,2017-03-12 01:40:31.320,40.139833333333335,-123.1335,35.84,2.18,NC.KCR..EHZ,P,1.0,2017-03-12 01:40:42.900
nc72773131,2017-03-12 01:40:31.320,40.139833333333335,-123.1335,35.84,2.18,NC.KCT..HHZ,P,,2017-03-12 01:40:47.850
nc72773131,2017-03-12 01:40:31.320,40.139833333333335,-123.1335,35.84,2.18,NC.KFP..EHZ,P,-1.0,2017-03-12 01:40:42.070
nc72773131,2017-03-12 01:40:31.320,40.139833333333335,-123.1335,35.84,2.18,NC.KHBB..HHZ,P,1.0,2017-03-12 01:40:41.970
nc72773131,2017-03-12 01:40:31.320,40.139833333333335,-123.1335,35.84,2.18,NC.KIP..EHZ,P,-1.0,2017-03-12 01:40:40.750
nc72773131,2017-03-12 01:40:31.320,40.139833333333335,-123.1335,35.84,2.18,NC.KKP..EHZ,P,1.0,2017-03-12 01:40:39.370
nc72773131,2017-03-12 01:40:31.320,40.139833333333335,-123.1335,35.84,2.18,NC.KMR..HHZ,P,1.0,2017-03-12 01:40:40.990
nc72773131,2017-03-12 01:40:31.320,40.139833333333335,-123.1335,35.84,2.18,NC.KOM..EHZ,P,-1.0,2017-03-12 01:40:50.770
nc72773131,2017-03-12 01:40:31.320,40.139833333333335,-123.1335,35.84,2.18,NC.KPP..EHZ,P,1.0,2017-03-12 01:40:39.180
nc72773131,2017-03-12 01:40:31.320,40.139833333333335,-123.1335,35.84,2.18,NC.KSM..EHZ,P,-1.0,2017-03-12 01:40:45.460
nc72773131,2017-03-12 01:40:31.320,40.139833333333335,-123.1335,35.84,2.18,NC.LBF..EHZ,P,,2017-03-12 01:40:56.860
nc72773131,2017-03-12 01:40:31.320,40.139833333333335,-123.1335,35.84,2.18,NC.LBK..EHZ,P,-1.0,2017-03-12 01:40:48.800
nc72773131,2017-03-12 01:40:31.320,40.139833333333335,-123.1335,35.84,2.18,NC.LBO..EHZ,P,1.0,2017-03-12 01:40:56.990
nc72773131,2017-03-12 01:40:31.320,40.139833333333335,-123.1335,35.84,2.18,NC.LBP..EHZ,P,-1.0,2017-03-12 01:40:38.690
nc72773131,2017-03-12 01:40:31.320,40.139833333333335,-123.1335,35.84,2.18,NC.LGP..EHZ,P,-1.0,2017-03-12 01:40:45.720
nc72773131,2017-03-12 01:40:31.320,40.139833333333335,-123.1335,35.84,2.18,NC.LPG..EHZ,P,1.0,2017-03-12 01:40:39.770
nc72773131,2017-03-12 01:40:31.320,40.139833333333335,-123.1335,35.84,2.18,NC.LPK..EHZ,P,,2017-03-12 01:40:54.210
nc72773131,2017-03-12 01:40:31.320,40.139833333333335,-123.1335,35.84,2.18,NC.LRB..EHZ,P,-1.0,2017-03-12 01:40:41.430
nc72773131,2017-03-12 01:40:31.320,40.139833333333335,-123.1335,35.84,2.18,NC.LSF..EHZ,P,1.0,2017-03-12 01:40:44.510
nc72773131,2017-03-12 01:40:31.320,40.139833333333335,-123.1335,35.84,2.18,NC.LSH..EHZ,P,-1.0,2017-03-12 01:40:49.090
nc72773131,2017-03-12 01:40:31.320,40.139833333333335,-123.1335,35.84,2.18,NC.LSR..EHZ,P,1.0,2017-03-12 01:40:50.930
nc72773131,2017-03-12 01:40:31.320,40.139833333333335,-123.1335,35.84,2.18,NC.LVR..EHZ,P,1.0,2017-03-12 01:40:40.250
nc72773131,2017-03-12 01:40:31.320,40.139833333333335,-123.1335,35.84,2.18,NC.OCR..EHZ,P,1.0,2017-03-12 01:40:49.020
nc72773131,2017-03-12 01:40:31.320,40.139833333333335,-123.1335,35.84,2.18,NC.OGO..EHZ,P,-1.0,2017-03-12 01:40:51.400
nc72773131,2017-03-12 01:40:31.320,40.139833333333335,-123.1335,35.84,2.18,PB.B046..EHZ,P,1.0,2017-03-12 01:40:46.620
nc72773131,2017-03-12 01:40:31.320,40.139833333333335,-123.1335,35.84,2.18,PB.B047..EHZ,P,1.0,2017-03-12 01:40:45.430
nc72773131,2017-03-12 01:40:31.320,40.139833333333335,-123.1335,35.84,2.18,PB.B049..EHZ,P,1.0,2017-03-12 01:40:41.790
nc72773131,2017-03-12 01:40:31.320,40.139833333333335,-123.1335,35.84,2.18,PB.B932..EHZ,P,1.0,2017-03-12 01:40:45.710
nc72773131,2017-03-12 01:40:31.320,40.139833333333335,-123.1335,35.84,2.18,PB.B935..EHZ,P,1.0,2017-03-12 01:40:41.400
nc71105909,2017-03-16 21:21:06.730,39.99916666666667,-123.42166666666667,7.21,1.2,NC.GVV..EHZ,P,1.0,2017-03-16 21:21:19.770
nc71105909,2017-03-16 21:21:06.730,39.99916666666667,-123.42166666666667,7.21,1.2,NC.KBN..EHZ,P,1.0,2017-03-16 21:21:12.020
nc71105909,2017-03-16 21:21:06.730,39.99916666666667,-123.42166666666667,7.21,1.2,NC.KBS..EHZ,P,1.0,2017-03-16 21:21:11.120
nc71105909,2017-03-16 21:21:06.730,39.99916666666667,-123.42166666666667,7.21,1.2,NC.KFP..EHZ,P,1.0,2017-03-16 21:21:14.750
nc71105909,2017-03-16 21:21:06.730,39.99916666666667,-123.42166666666667,7.21,1.2,NC.KIP..EHZ,P,-1.0,2017-03-16 21:21:11.650
nc71105909,2017-03-16 21:21:06.730,39.99916666666667,-123.42166666666667,7.21,1.2,NC.KKP..EHZ,P,-1.0,2017-03-16 21:21:11.170
nc71105909,2017-03-16 21:21:06.730,39.99916666666667,-123.42166666666667,7.21,1.2,NC.KRK..EHZ,P,-1.0,2017-03-16 21:21:17.330
nc71105909,2017-03-16 21:21:06.730,39.99916666666667,-123.42166666666667,7.21,1.2,NC.KSM..EHZ,P,-1.0,2017-03-16 21:21:20.510
nc71105909,2017-03-16 21:21:06.730,39.99916666666667,-123.42166666666667,7.21,1.2,PB.B932..EHZ,P,-1.0,2017-03-16 21:21:21.580
nc72783636,2017-04-02 09:09:41.030,40.002833333333335,-123.402,6.19,2.19,BK.HOPS..HHZ,P,-1.0,2017-04-02 09:10:02.100
nc72783636,2017-04-02 09:09:41.030,40.002833333333335,-123.402,6.19,2.19,NC.GCK..EHZ,P,-1.0,2017-04-02 09:09:59.890
nc72783636,2017-04-02 09:09:41.030,40.002833333333335,-123.402,6.19,2.19,NC.GHG..EHZ,P,-1.0,2017-04-02 09:10:00.890
nc72783636,2017-04-02 09:09:41.030,40.002833333333335,-123.402,6.19,2.19,NC.GHL..EHZ,P,-1.0,2017-04-02 09:10:00.310
nc72783636,2017-04-02 09:09:41.030,40.002833333333335,-123.402,6.19,2.19,NC.GHM..EHZ,P,-1.0,2017-04-02 09:09:54.480
nc72783636,2017-04-02 09:09:41.030,40.002833333333335,-123.402,6.19,2.19,NC.GMR..EHZ,P,1.0,2017-04-02 09:09:58.520
nc72783636,2017-04-02 09:09:41.030,40.002833333333335,-123.402,6.19,2.19,NC.GRO..EHZ,P,1.0,2017-04-02 09:09:53.320
nc72783636,2017-04-02 09:09:41.030,40.002833333333335,-123.402,6.19,2.19,NC.GTC..EHZ,P,-1.0,2017-04-02 09:09:54.200
nc72783636,2017-04-02 09:09:41.030,40.002833333333335,-123.402,6.19,2.19,NC.GTS..EHZ,P,-1.0,2017-04-02 09:09:59.950
nc72783636,2017-04-02 09:09:41.030,40.002833333333335,-123.402,6.19,2.19,NC.GVV..EHZ,P,1.0,2017-04-02 09:09:54.110
nc72783636,2017-04-02 09:09:41.030,40.002833333333335,-123.402,6.19,2.19,NC.GWR..EHZ,P,1.0,2017-04-02 09:09:57.310
nc72783636,2017-04-02 09:09:41.030,40.002833333333335,-123.402,6.19,2.19,NC.KBN..EHZ,P,1.0,2017-04-02 09:09:46.350
nc72783636,2017-04-02 09:09:41.030,40.002833333333335,-123.402,6.19,2.19,NC.KBS..EHZ,P,1.0,2017-04-02 09:09:45.430
nc72783636,2017-04-02 09:09:41.030,40.002833333333335,-123.402,6.19,2.19,NC.KCPB..HHZ,P,1.0,2017-04-02 09:09:48.980
nc72783636,2017-04-02 09:09:41.030,40.002833333333335,-123.402,6.19,2.19,NC.KCR..EHZ,P,1.0,2017-04-02 09:09:52.650
nc72783636,2017-04-02 09:09:41.030,40.002833333333335,-123.402,6.19,2.19,NC.KCT..HHZ,P,1.0,2017-04-02 09:09:59.570
nc72783636,2017-04-02 09:09:41.030,40.002833333333335,-123.402,6.19,2.19,NC.KFP..EHZ,P,-1.0,2017-04-02 09:09:48.960
nc72783636,2017-04-02 09:09:41.030,40.002833333333335,-123.402,6.19,2.19,NC.KHBB..HHZ,P,-1.0,2017-04-02 09:09:55.040
nc72783636,2017-04-02 09:09:41.030,40.002833333333335,-123.402,6.19,2.19,NC.KIP..EHZ,P,-1.0,2017-04-02 09:09:45.950
nc72783636,2017-04-02 09:09:41.030,40.002833333333335,-123.402,6.19,2.19,NC.KKP..EHZ,P,-1.0,2017-04-02 09:09:45.450
nc72783636,2017-04-02 09:09:41.030,40.002833333333335,-123.402,6.19,2.19,NC.KMPB..HHZ,P,-1.0,2017-04-02 09:09:56.440
nc72783636,2017-04-02 09:09:41.030,40.002833333333335,-123.402,6.19,2.19,NC.KMR..HHZ,P,1.0,2017-04-02 09:09:48.260
nc72783636,2017-04-02 09:09:41.030,40.002833333333335,-123.402,6.19,2.19,NC.KPP..EHZ,P,-1.0,2017-04-02 09:09:49.280
nc72783636,2017-04-02 09:09:41.030,40.002833333333335,-123.402,6.19,2.19,NC.KSM..EHZ,P,1.0,2017-04-02 09:09:54.610
nc72783636,2017-04-02 09:09:41.030,40.002833333333335,-123.402,6.19,2.19,NC.LBP..EHZ,P,-1.0,2017-04-02 09:09:52.310
nc72783636,2017-04-02 09:09:41.030,40.002833333333335,-123.402,6.19,2.19,NC.LGP..EHZ,P,-1.0,2017-04-02 09:10:01.430
nc72783636,2017-04-02 09:09:41.030,40.002833333333335,-123.402,6.19,2.19,NC.LPG..EHZ,P,1.0,2017-04-02 09:09:53.410
nc72783636,2017-04-02 09:09:41.030,40.002833333333335,-123.402,6.19,2.19,NC.LRB..EHZ,P,-1.0,2017-04-02 09:09:55.720
nc72783636,2017-04-02 09:09:41.030,40.002833333333335,-123.402,6.19,2.19,NC.LTC..EHZ,P,-1.0,2017-04-02 09:10:01.760
nc72783636,2017-04-02 09:09:41.030,40.002833333333335,-123.402,6.19,2.19,NC.LVR..EHZ,P,1.0,2017-04-02 09:09:53.150
nc72783636,2017-04-02 09:09:41.030,40.002833333333335,-123.402,6.19,2.19,PB.B045..EHZ,P,1.0,2017-04-02 09:09:54.460
nc72783636,2017-04-02 09:09:41.030,40.002833333333335,-123.402,6.19,2.19,PB.B046..EHZ,P,1.0,2017-04-02 09:09:56.500
nc72783636,2017-04-02 09:09:41.030,40.002833333333335,-123.402,6.19,2.19,PB.B047..EHZ,P,1.0,2017-04-02 09:09:55.170
nc72783636,2017-04-02 09:09:41.030,40.002833333333335,-123.402,6.19,2.19,PB.B049..EHZ,P,1.0,2017-04-02 09:09:49.930
nc72783636,2017-04-02 09:09:41.030,40.002833333333335,-123.402,6.19,2.19,PB.B932..EHZ,P,1.0,2017-04-02 09:09:55.570
nc72783636,2017-04-02 09:09:41.030,40.002833333333335,-123.402,6.19,2.19,PB.B935..EHZ,P,1.0,2017-04-02 09:09:51.870
nc72783796,2017-04-02 23:25:42.590,40.005833333333335,-123.387,0.9,1.78,BK.HOPS..HHZ,P,1.0,2017-04-02 23:26:04.400
nc72783796,2017-04-02 23:25:42.590,40.005833333333335,-123.387,0.9,1.78,NC.GHL..EHZ,P,1.0,2017-04-02 23:26:03.270
nc72783796,2017-04-02 23:25:42.590,40.005833333333335,-123.387,0.9,1.78,NC.GHM..EHZ,P,-1.0,2017-04-02 23:25:56.770
nc72783796,2017-04-02 23:25:42.590,40.005833333333335,-123.387,0.9,1.78,NC.GMR..EHZ,P,-1.0,2017-04-02 23:26:00.540
nc72783796,2017-04-02 23:25:42.590,40.005833333333335,-123.387,0.9,1.78,NC.GRO..EHZ,P,-1.0,2017-04-02 23:25:55.210
nc72783796,2017-04-02 23:25:42.590,40.005833333333335,-123.387,0.9,1.78,NC.GTC..EHZ,P,1.0,2017-04-02 23:25:56.000
nc72783796,2017-04-02 23:25:42.590,40.005833333333335,-123.387,0.9,1.78,NC.GTS..EHZ,P,1.0,2017-04-02 23:26:02.130
nc72783796,2017-04-02 23:25:42.590,40.005833333333335,-123.387,0.9,1.78,NC.GVV..EHZ,P,1.0,2017-04-02 23:25:55.940
nc72783796,2017-04-02 23:25:42.590,40.005833333333335,-123.387,0.9,1.78,NC.KBN..EHZ,P,1.0,2017-04-02 23:25:48.190
nc72783796,2017-04-02 23:25:42.590,40.005833333333335,-123.387,0.9,1.78,NC.KBS..EHZ,P,1.0,2017-04-02 23:25:47.310
nc72783796,2017-04-02 23:25:42.590,40.005833333333335,-123.387,0.9,1.78,NC.KCPB..HHZ,P,-1.0,2017-04-02 23:25:50.810
nc72783796,2017-04-02 23:25:42.590,40.005833333333335,-123.387,0.9,1.78,NC.KCR..EHZ,P,1.0,2017-04-02 23:25:54.480
nc72783796,2017-04-02 23:25:42.590,40.005833333333335,-123.387,0.9,1.78,NC.KFP..EHZ,P,-1.0,2017-04-02 23:25:50.810
nc72783796,2017-04-02 23:25:42.590,40.005833333333335,-123.387,0.9,1.78,NC.KIP..EHZ,P,-1.0,2017-04-02 23:25:47.810
nc72783796,2017-04-02 23:25:42.590,40.005833333333335,-123.387,0.9,1.78,NC.KKP..EHZ,P,-1.0,2017-04-02 23:25:47.330
nc72783796,2017-04-02 23:25:42.590,40.005833333333335,-123.387,0.9,1.78,NC.KMR..HHZ,P,-1.0,2017-04-02 23:25:50.140
nc72783796,2017-04-02 23:25:42.590,40.005833333333335,-123.387,0.9,1.78,NC.KPP..EHZ,P,-1.0,2017-04-02 23:25:51.200
nc72783796,2017-04-02 23:25:42.590,40.005833333333335,-123.387,0.9,1.78,NC.KSM..EHZ,P,-1.0,2017-04-02 23:25:56.670
nc72783796,2017-04-02 23:25:42.590,40.005833333333335,-123.387,0.9,1.78,NC.LBP..EHZ,P,1.0,2017-04-02 23:25:54.360
nc72783796,2017-04-02 23:25:42.590,40.005833333333335,-123.387,0.9,1.78,NC.LPG..EHZ,P,1.0,2017-04-02 23:25:55.280
nc72783796,2017-04-02 23:25:42.590,40.005833333333335,-123.387,0.9,1.78,NC.LRB..EHZ,P,-1.0,2017-04-02 23:25:57.600
nc72783796,2017-04-02 23:25:42.590,40.005833333333335,-123.387,0.9,1.78,NC.LVR..EHZ,P,1.0,2017-04-02 23:25:55.040
nc72783796,2017-04-02 23:25:42.590,40.005833333333335,-123.387,0.9,1.78,PB.B046..EHZ,P,1.0,2017-04-02 23:25:59.280
nc72783796,2017-04-02 23:25:42.590,40.005833333333335,-123.387,0.9,1.78,PB.B047..EHZ,P,,2017-04-02 23:25:57.180
nc72783796,2017-04-02 23:25:42.590,40.005833333333335,-123.387,0.9,1.78,PB.B049..EHZ,P,1.0,2017-04-02 23:25:51.740
nc72783796,2017-04-02 23:25:42.590,40.005833333333335,-123.387,0.9,1.78,PB.B932..EHZ,P,-1.0,2017-04-02 23:25:57.730
nc72783796,2017-04-02 23:25:42.590,40.005833333333335,-123.387,0.9,1.78,PB.B935..EHZ,P,,2017-04-02 23:25:52.940
nc72783931,2017-04-03 09:08:34.500,39.998666666666665,-123.40816666666667,7.06,2.1,BK.HOPS..HHZ,P,,2017-04-03 09:08:55.390
nc72783931,2017-04-03 09:08:34.500,39.998666666666665,-123.40816666666667,7.06,2.1,NC.GCK..EHZ,P,-1.0,2017-04-03 09:08:53.370
nc72783931,2017-04-03 09:08:34.500,39.998666666666665,-123.40816666666667,7.06,2.1,NC.GHL..EHZ,P,1.0,2017-04-03 09:08:54.510
nc72783931,2017-04-03 09:08:34.500,39.998666666666665,-123.40816666666667,7.06,2.1,NC.GHM..EHZ,P,-1.0,2017-04-03 09:08:48.470
nc72783931,2017-04-03 09:08:34.500,39.998666666666665,-123.40816666666667,7.06,2.1,NC.GRO..EHZ,P,1.0,2017-04-03 09:08:46.750
