event_id,etime,elat,elon,edep,emag,station_id,phase_type,phase_polarity,phase_time
nc73024456,2018-06-02 23:18:23.380,40.79216666666667,-123.63266666666667,24.4,2.43,BK.PETY..HHZ,P,1.0,2018-06-02 23:18:39.560
nc73024456,2018-06-02 23:18:23.380,40.79216666666667,-123.63266666666667,24.4,2.43,BK.SCOT..HHZ,P,1.0,2018-06-02 23:18:38.220
nc73024456,2018-06-02 23:18:23.380,40.79216666666667,-123.63266666666667,24.4,2.43,BK.TRIN..HHZ,P,1.0,2018-06-02 23:18:36.460
nc73024456,2018-06-02 23:18:23.380,40.79216666666667,-123.63266666666667,24.4,2.43,BK.YBH..HHZ,P,,2018-06-02 23:18:43.710
nc73024456,2018-06-02 23:18:23.380,40.79216666666667,-123.63266666666667,24.4,2.43,CE.89781..HNZ,P,-1.0,2018-06-02 23:18:31.310
nc73024456,2018-06-02 23:18:23.380,40.79216666666667,-123.63266666666667,24.4,2.43,NC.KBN..EHZ,P,1.0,2018-06-02 23:18:40.470
nc73024456,2018-06-02 23:18:23.380,40.79216666666667,-123.63266666666667,24.4,2.43,NC.KCPB..HHZ,P,1.0,2018-06-02 23:18:41.980
nc73024456,2018-06-02 23:18:23.380,40.79216666666667,-123.63266666666667,24.4,2.43,NC.KCR..EHZ,P,-1.0,2018-06-02 23:18:31.930
nc73024456,2018-06-02 23:18:23.380,40.79216666666667,-123.63266666666667,24.4,2.43,NC.KHBB..HHZ,P,1.0,2018-06-02 23:18:30.930
nc73024456,2018-06-02 23:18:23.380,40.79216666666667,-123.63266666666667,24.4,2.43,NC.KHMB..HHZ,P,-1.0,2018-06-02 23:18:28.320
nc73024456,2018-06-02 23:18:23.380,40.79216666666667,-123.63266666666667,24.4,2.43,NC.KIP..EHZ,P,-1.0,2018-06-02 23:18:40.450
nc73024456,2018-06-02 23:18:23.380,40.79216666666667,-123.63266666666667,24.4,2.43,NC.KKP..EHZ,P,-1.0,2018-06-02 23:18:35.960
nc73024456,2018-06-02 23:18:23.380,40.79216666666667,-123.63266666666667,24.4,2.43,NC.KMPB..HHZ,P,,2018-06-02 23:18:33.660
nc73024456,2018-06-02 23:18:23.380,40.79216666666667,-123.63266666666667,24.4,2.43,NC.KMR..HHZ,P,-1.0,2018-06-02 23:18:34.700
nc73024456,2018-06-02 23:18:23.380,40.79216666666667,-123.63266666666667,24.4,2.43,NC.KOM..EHZ,P,-1.0,2018-06-02 23:18:33.070
nc73024456,2018-06-02 23:18:23.380,40.79216666666667,-123.63266666666667,24.4,2.43,NC.KPP..EHZ,P,1.0,2018-06-02 23:18:33.600
nc73024456,2018-06-02 23:18:23.380,40.79216666666667,-123.63266666666667,24.4,2.43,NC.KRMB..HHZ,P,1.0,2018-06-02 23:18:36.660
nc73024456,2018-06-02 23:18:23.380,40.79216666666667,-123.63266666666667,24.4,2.43,NC.KRP..HHZ,P,1.0,2018-06-02 23:18:32.680
nc73024456,2018-06-02 23:18:23.380,40.79216666666667,-123.63266666666667,24.4,2.43,NC.KSM..EHZ,P,1.0,2018-06-02 23:18:36.520
nc73024456,2018-06-02 23:18:23.380,40.79216666666667,-123.63266666666667,24.4,2.43,NC.KSXB..HHZ,P,1.0,2018-06-02 23:18:40.670
nc73024456,2018-06-02 23:18:23.380,40.79216666666667,-123.63266666666667,24.4,2.43,NC.LAMB..EHZ,P,-1.0,2018-06-02 23:18:42.820
nc73024456,2018-06-02 23:18:23.380,40.79216666666667,-123.63266666666667,24.4,2.43,NC.LBF..EHZ,P,-1.0,2018-06-02 23:18:49.190
nc73024456,2018-06-02 23:18:23.380,40.79216666666667,-123.63266666666667,24.4,2.43,NC.LBK..EHZ,P,1.0,2018-06-02 23:18:37.540
nc73024456,2018-06-02 23:18:23.380,40.79216666666667,-123.63266666666667,24.4,2.43,NC.LBO..EHZ,P,,2018-06-02 23:18:45.670
nc73024456,2018-06-02 23:18:23.380,40.79216666666667,-123.63266666666667,24.4,2.43,NC.LBP..EHZ,P,1.0,2018-06-02 23:18:37.070
nc73024456,2018-06-02 23:18:23.380,40.79216666666667,-123.63266666666667,24.4,2.43,NC.LDB..EHZ,P,,2018-06-02 23:18:49.200
nc73024456,2018-06-02 23:18:23.380,40.79216666666667,-123.63266666666667,24.4,2.43,NC.LDH..HHZ,P,,2018-06-02 23:18:52.160
nc73024456,2018-06-02 23:18:23.380,40.79216666666667,-123.63266666666667,24.4,2.43,NC.LGM..EHZ,P,1.0,2018-06-02 23:18:51.190
nc73024456,2018-06-02 23:18:23.380,40.79216666666667,-123.63266666666667,24.4,2.43,NC.LGP..EHZ,P,1.0,2018-06-02 23:18:34.970
nc73024456,2018-06-02 23:18:23.380,40.79216666666667,-123.63266666666667,24.4,2.43,NC.LMC..HHZ,P,,2018-06-02 23:18:45.180
nc73024456,2018-06-02 23:18:23.380,40.79216666666667,-123.63266666666667,24.4,2.43,NC.LMI..EHZ,P,1.0,2018-06-02 23:18:44.140
nc73024456,2018-06-02 23:18:23.380,40.79216666666667,-123.63266666666667,24.4,2.43,NC.LPG..EHZ,P,1.0,2018-06-02 23:18:41.210
nc73024456,2018-06-02 23:18:23.380,40.79216666666667,-123.63266666666667,24.4,2.43,NC.LRB..EHZ,P,,2018-06-02 23:18:42.580
nc73024456,2018-06-02 23:18:23.380,40.79216666666667,-123.63266666666667,24.4,2.43,NC.LSF..EHZ,P,1.0,2018-06-02 23:18:39.040
nc73024456,2018-06-02 23:18:23.380,40.79216666666667,-123.63266666666667,24.4,2.43,NC.LSH..EHZ,P,-1.0,2018-06-02 23:18:44.630
nc73024456,2018-06-02 23:18:23.380,40.79216666666667,-123.63266666666667,24.4,2.43,NC.LSR..EHZ,P,-1.0,2018-06-02 23:18:42.260
nc73024456,2018-06-02 23:18:23.380,40.79216666666667,-123.63266666666667,24.4,2.43,NC.LVR..EHZ,P,,2018-06-02 23:18:42.050
nc73024456,2018-06-02 23:18:23.380,40.79216666666667,-123.63266666666667,24.4,2.43,NC.LWH..EHZ,P,,2018-06-02 23:18:45.640
nc73024456,2018-06-02 23:18:23.380,40.79216666666667,-123.63266666666667,24.4,2.43,NP.1582..HNZ,P,,2018-06-02 23:18:32.480
nc73024456,2018-06-02 23:18:23.380,40.79216666666667,-123.63266666666667,24.4,2.43,PB.B039..EHZ,P,-1.0,2018-06-02 23:18:42.340
nc73024456,2018-06-02 23:18:23.380,40.79216666666667,-123.63266666666667,24.4,2.43,PB.B045..EHZ,P,1.0,2018-06-02 23:18:32.620
nc73024456,2018-06-02 23:18:23.380,40.79216666666667,-123.63266666666667,24.4,2.43,PB.B046..EHZ,P,1.0,2018-06-02 23:18:35.680
nc73024456,2018-06-02 23:18:23.380,40.79216666666667,-123.63266666666667,24.4,2.43,PB.B047..EHZ,P,1.0,2018-06-02 23:18:35.760
nc73024456,2018-06-02 23:18:23.380,40.79216666666667,-123.63266666666667,24.4,2.43,PB.B049..EHZ,P,-1.0,2018-06-02 23:18:34.220
nc73024456,2018-06-02 23:18:23.380,40.79216666666667,-123.63266666666667,24.4,2.43,PB.B932..EHZ,P,1.0,2018-06-02 23:18:35.590
nc73024456,2018-06-02 23:18:23.380,40.79216666666667,-123.63266666666667,24.4,2.43,PB.B935..EHZ,P,1.0,2018-06-02 23:18:30.750
nc73024816,2018-06-03 10:04:55.690,40.62566666666667,-123.21116666666667,29.41,3.0,BK.DANT..HHZ,P,1.0,2018-06-03 10:05:14.210
nc73024816,2018-06-03 10:04:55.690,40.62566666666667,-123.21116666666667,29.41,3.0,BK.DCMP..HHZ,P,-1.0,2018-06-03 10:05:14.380
nc73024816,2018-06-03 10:04:55.690,40.62566666666667,-123.21116666666667,29.41,3.0,BK.HATC..HHZ,P,,2018-06-03 10:05:18.820
nc73024816,2018-06-03 10:04:55.690,40.62566666666667,-123.21116666666667,29.41,3.0,BK.HOPS..HHZ,P,-1.0,2018-06-03 10:05:21.500
nc73024816,2018-06-03 10:04:55.690,40.62566666666667,-123.21116666666667,29.41,3.0,BK.HUMO..HHZ,P,1.0,2018-06-03 10:05:27.450
nc73024816,2018-06-03 10:04:55.690,40.62566666666667,-123.21116666666667,29.41,3.0,BK.JCC..HHZ,P,1.0,2018-06-03 10:05:07.310
nc73024816,2018-06-03 10:04:55.690,40.62566666666667,-123.21116666666667,29.41,3.0,BK.ORV..HHZ,P,-1.0,2018-06-03 10:05:22.180
nc73024816,2018-06-03 10:04:55.690,40.62566666666667,-123.21116666666667,29.41,3.0,BK.PETY..HHZ,P,1.0,2018-06-03 10:05:06.540
nc73024816,2018-06-03 10:04:55.690,40.62566666666667,-123.21116666666667,29.41,3.0,BK.SCOT..HHZ,P,1.0,2018-06-03 10:05:10.160
nc73024816,2018-06-03 10:04:55.690,40.62566666666667,-123.21116666666667,29.41,3.0,BK.SHEP..HHZ,P,1.0,2018-06-03 10:05:21.940
nc73024816,2018-06-03 10:04:55.690,40.62566666666667,-123.21116666666667,29.41,3.0,BK.SUTB..HHZ,P,1.0,2018-06-03 10:05:23.050
nc73024816,2018-06-03 10:04:55.690,40.62566666666667,-123.21116666666667,29.41,3.0,BK.TRIN..HHZ,P,-1.0,2018-06-03 10:05:05.990
nc73024816,2018-06-03 10:04:55.690,40.62566666666667,-123.21116666666667,29.41,3.0,BK.YBH..HHZ,P,-1.0,2018-06-03 10:05:16.070
nc73024816,2018-06-03 10:04:55.690,40.62566666666667,-123.21116666666667,29.41,3.0,CE.77352..EHZ,P,,2018-06-03 10:05:22.650
nc73024816,2018-06-03 10:04:55.690,40.62566666666667,-123.21116666666667,29.41,3.0,CE.88059..HNZ,P,-1.0,2018-06-03 10:05:07.460
nc73024816,2018-06-03 10:04:55.690,40.62566666666667,-123.21116666666667,29.41,3.0,CE.89255..HNZ,P,1.0,2018-06-03 10:05:08.700
nc73024816,2018-06-03 10:04:55.690,40.62566666666667,-123.21116666666667,29.41,3.0,CE.89462..HNZ,P,-1.0,2018-06-03 10:05:08.390
nc73024816,2018-06-03 10:04:55.690,40.62566666666667,-123.21116666666667,29.41,3.0,CE.89464..HNZ,P,,2018-06-03 10:05:09.400
nc73024816,2018-06-03 10:04:55.690,40.62566666666667,-123.21116666666667,29.41,3.0,CE.89781..HNZ,P,,2018-06-03 10:05:08.900
nc73024816,2018-06-03 10:04:55.690,40.62566666666667,-123.21116666666667,29.41,3.0,NC.GBB..EHZ,P,-1.0,2018-06-03 10:05:14.700
nc73024816,2018-06-03 10:04:55.690,40.62566666666667,-123.21116666666667,29.41,3.0,NC.GCK..EHZ,P,,2018-06-03 10:05:17.330
nc73024816,2018-06-03 10:04:55.690,40.62566666666667,-123.21116666666667,29.41,3.0,NC.GFC..EHZ,P,1.0,2018-06-03 10:05:20.200
nc73024816,2018-06-03 10:04:55.690,40.62566666666667,-123.21116666666667,29.41,3.0,NC.GGU..EHZ,P,,2018-06-03 10:05:22.740
nc73024816,2018-06-03 10:04:55.690,40.62566666666667,-123.21116666666667,29.41,3.0,NC.GHM..EHZ,P,-1.0,2018-06-03 10:05:15.180
nc73024816,2018-06-03 10:04:55.690,40.62566666666667,-123.21116666666667,29.41,3.0,NC.GMR..EHZ,P,-1.0,2018-06-03 10:05:19.020
nc73024816,2018-06-03 10:04:55.690,40.62566666666667,-123.21116666666667,29.41,3.0,NC.GTC..EHZ,P,-1.0,2018-06-03 10:05:15.670
nc73024816,2018-06-03 10:04:55.690,40.62566666666667,-123.21116666666667,29.41,3.0,NC.GTS..EHZ,P,1.0,2018-06-03 10:05:18.850
nc73024816,2018-06-03 10:04:55.690,40.62566666666667,-123.21116666666667,29.41,3.0,NC.GVV..EHZ,P,1.0,2018-06-03 10:05:12.670
nc73024816,2018-06-03 10:04:55.690,40.62566666666667,-123.21116666666667,29.41,3.0,NC.GWR..EHZ,P,-1.0,2018-06-03 10:05:18.130
nc73024816,2018-06-03 10:04:55.690,40.62566666666667,-123.21116666666667,29.41,3.0,NC.K003..HNZ,P,-1.0,2018-06-03 10:05:09.030
nc73024816,2018-06-03 10:04:55.690,40.62566666666667,-123.21116666666667,29.41,3.0,NC.KBN..EHZ,P,-1.0,2018-06-03 10:05:09.440
nc73024816,2018-06-03 10:04:55.690,40.62566666666667,-123.21116666666667,29.41,3.0,NC.KBO..HHZ,P,-1.0,2018-06-03 10:05:23.030
nc73024816,2018-06-03 10:04:55.690,40.62566666666667,-123.21116666666667,29.41,3.0,NC.KCPB..HHZ,P,-1.0,2018-06-03 10:05:12.360
nc73024816,2018-06-03 10:04:55.690,40.62566666666667,-123.21116666666667,29.41,3.0,NC.KCR..EHZ,P,1.0,2018-06-03 10:05:05.930
nc73024816,2018-06-03 10:04:55.690,40.62566666666667,-123.21116666666667,29.41,3.0,NC.KCT..HHZ,P,-1.0,2018-06-03 10:05:11.040
nc73024816,2018-06-03 10:04:55.690,40.62566666666667,-123.21116666666667,29.41,3.0,NC.KHBB..HHZ,P,-1.0,2018-06-03 10:05:00.870
nc73024816,2018-06-03 10:04:55.690,40.62566666666667,-123.21116666666667,29.41,3.0,NC.KHMB..HHZ,P,1.0,2018-06-03 10:05:05.230
nc73024816,2018-06-03 10:04:55.690,40.62566666666667,-123.21116666666667,29.41,3.0,NC.KIP..EHZ,P,-1.0,2018-06-03 10:05:10.670
nc73024816,2018-06-03 10:04:55.690,40.62566666666667,-123.21116666666667,29.41,3.0,NC.KKP..EHZ,P,-1.0,2018-06-03 10:05:06.760
nc73024816,2018-06-03 10:04:55.690,40.62566666666667,-123.21116666666667,29.41,3.0,NC.KMPB..HHZ,P,1.0,2018-06-03 10:05:08.650
nc73024816,2018-06-03 10:04:55.690,40.62566666666667,-123.21116666666667,29.41,3.0,NC.KMR..HHZ,P,1.0,2018-06-03 10:05:06.950
nc73024816,2018-06-03 10:04:55.690,40.62566666666667,-123.21116666666667,29.41,3.0,NC.KOM..EHZ,P,1.0,2018-06-03 10:05:08.070
nc73024816,2018-06-03 10:04:55.690,40.62566666666667,-123.21116666666667,29.41,3.0,NC.KPP..EHZ,P,1.0,2018-06-03 10:05:03.300
nc73024816,2018-06-03 10:04:55.690,40.62566666666667,-123.21116666666667,29.41,3.0,NC.KRMB..HHZ,P,1.0,2018-06-03 10:05:13.000
nc73024816,2018-06-03 10:04:55.690,40.62566666666667,-123.21116666666667,29.41,3.0,NC.KRP..HHZ,P,-1.0,2018-06-03 10:05:09.870
nc73024816,2018-06-03 10:04:55.690,40.62566666666667,-123.21116666666667,29.41,3.0,NC.KSM..EHZ,P,1.0,2018-06-03 10:05:10.330
nc73024816,2018-06-03 10:04:55.690,40.62566666666667,-123.21116666666667,29.41,3.0,NC.KSXB..HHZ,P,1.0,2018-06-03 10:05:16.640
nc73024816,2018-06-03 10:04:55.690,40.62566666666667,-123.21116666666667,29.41,3.0,NC.LAMB..EHZ,P,-1.0,2018-06-03 10:05:14.690
nc73024816,2018-06-03 10:04:55.690,40.62566666666667,-123.21116666666667,29.41,3.0,NC.LAS..EHZ,P,1.0,2018-06-03 10:05:21.990
nc73024816,2018-06-03 10:04:55.690,40.62566666666667,-123.21116666666667,29.41,3.0,NC.LBC..EHZ,P,1.0,2018-06-03 10:05:19.900
nc73024816,2018-06-03 10:04:55.690,40.62566666666667,-123.21116666666667,29.41,3.0,NC.LBF..EHZ,P,1.0,2018-06-03 10:05:17.380
nc73024816,2018-06-03 10:04:55.690,40.62566666666667,-123.21116666666667,29.41,3.0,NC.LBK..EHZ,P,-1.0,2018-06-03 10:05:07.520
nc73024816,2018-06-03 10:04:55.690,40.62566666666667,-123.21116666666667,29.41,3.0,NC.LBO..EHZ,P,1.0,2018-06-03 10:05:15.930
nc73024816,2018-06-03 10:04:55.690,40.62566666666667,-123.21116666666667,29.41,3.0,NC.LBP..EHZ,P,1.0,2018-06-03 10:05:04.230
nc73024816,2018-06-03 10:04:55.690,40.62566666666667,-123.21116666666667,29.41,3.0,NC.LBR..HHZ,P,1.0,2018-06-03 10:05:16.270
nc73024816,2018-06-03 10:04:55.690,40.62566666666667,-123.21116666666667,29.41,3.0,NC.LCM..EHZ,P,-1.0,2018-06-03 10:05:18.500
nc73024816,2018-06-03 10:04:55.690,40.62566666666667,-123.21116666666667,29.41,3.0,NC.LCSB..EHZ,P,-1.0,2018-06-03 10:05:13.580
nc73024816,2018-06-03 10:04:55.690,40.62566666666667,-123.21116666666667,29.41,3.0,NC.LDB..EHZ,P,1.0,2018-06-03 10:05:14.160
nc73024816,2018-06-03 10:04:55.690,40.62566666666667,-123.21116666666667,29.41,3.0,NC.LDH..HHZ,P,-1.0,2018-06-03 10:05:16.860
nc73024816,2018-06-03 10:04:55.690,40.62566666666667,-123.21116666666667,29.41,3.0,NC.LDL..HHZ,P,1.0,2018-06-03 10:05:14.060
nc73024816,2018-06-03 10:04:55.690,40.62566666666667,-123.21116666666667,29.41,3.0,NC.LGM..EHZ,P,1.0,2018-06-03 10:05:19.920
nc73024816,2018-06-03 10:04:55.690,40.62566666666667,-123.21116666666667,29.41,3.0,NC.LGP..EHZ,P,-1.0,2018-06-03 10:05:04.420
nc73024816,2018-06-03 10:04:55.690,40.62566666666667,-123.21116666666667,29.41,3.0,NC.LHE..EHZ,P,1.0,2018-06-03 10:05:17.830
nc73024816,2018-06-03 10:04:55.690,40.62566666666667,-123.21116666666667,29.41,3.0,NC.LMC..HHZ,P,1.0,2018-06-03 10:05:14.230
nc73024816,2018-06-03 10:04:55.690,40.62566666666667,-123.21116666666667,29.41,3.0,NC.LME..EHZ,P,-1.0,2018-06-03 10:05:16.940
nc73024816,2018-06-03 10:04:55.690,40.62566666666667,-123.21116666666667,29.41,3.0,NC.LMH..EHZ,P,,2018-06-03 10:05:21.230
nc73024816,2018-06-03 10:04:55.690,40.62566666666667,-123.21116666666667,29.41,3.0,NC.LMI..EHZ,P,1.0,2018-06-03 10:05:10.540
nc73024816,2018-06-03 10:04:55.690,40.62566666666667,-123.21116666666667,29.41,3.0,NC.LMP..EHZ,P,1.0,2018-06-03 10:05:16.710
nc73024816,2018-06-03 10:04:55.690,40.62566666666667,-123.21116666666667,29.41,3.0,NC.LPG..EHZ,P,1.0,2018-06-03 10:05:07.800
nc73024816,2018-06-03 10:04:55.690,40.62566666666667,-123.21116666666667,29.41,3.0,NC.LRB..EHZ,P,-1.0,2018-06-03 10:05:09.160
nc73024816,2018-06-03 10:04:55.690,40.62566666666667,-123.21116666666667,29.41,3.0,NC.LRD..EHZ,P,-1.0,2018-06-03 10:05:18.300
nc73024816,2018-06-03 10:04:55.690,40.62566666666667,-123.21116666666667,29.41,3.0,NC.LSF..EHZ,P,1.0,2018-06-03 10:05:06.000
nc73024816,2018-06-03 10:04:55.690,40.62566666666667,-123.21116666666667,29.41,3.0,NC.LSH..EHZ,P,1.0,2018-06-03 10:05:11.770
nc73024816,2018-06-03 10:04:55.690,40.62566666666667,-123.21116666666667,29.41,3.0,NC.LSR..EHZ,P,1.0,2018-06-03 10:05:11.360
nc73024816,2018-06-03 10:04:55.690,40.62566666666667,-123.21116666666667,29.41,3.0,NC.LTC..EHZ,P,1.0,2018-06-03 10:05:12.130
nc73024816,2018-06-03 10:04:55.690,40.62566666666667,-123.21116666666667,29.41,3.0,NC.LTI..EHZ,P,1.0,2018-06-03 10:05:19.360
nc73024816,2018-06-03 10:04:55.690,40.62566666666667,-123.21116666666667,29.41,3.0,NC.LVR..EHZ,P,1.0,2018-06-03 10:05:09.090
nc73024816,2018-06-03 10:04:55.690,40.62566666666667,-123.21116666666667,29.41,3.0,NC.OBHB..HHZ,P,-1.0,2018-06-03 10:05:22.160
nc73024816,2018-06-03 10:04:55.690,40.62566666666667,-123.21116666666667,29.41,3.0,NC.OCR..EHZ,P,1.0,2018-06-03 10:05:17.640
nc73024816,2018-06-03 10:04:55.690,40.62566666666667,-123.21116666666667,29.41,3.0,NC.OGO..EHZ,P,-1.0,2018-06-03 10:05:20.320
nc73024816,2018-06-03 10:04:55.690,40.62566666666667,-123.21116666666667,29.41,3.0,NC.OST..EHZ,P,1.0,2018-06-03 10:05:23.150
nc73024816,2018-06-03 10:04:55.690,40.62566666666667,-123.21116666666667,29.41,3.0,NC.OSU..EHZ,P,-1.0,2018-06-03 10:05:22.540
nc73024816,2018-06-03 10:04:55.690,40.62566666666667,-123.21116666666667,29.41,3.0,NC.OWY..EHZ,P,-1.0,2018-06-03 10:05:23.280
nc73024816,2018-06-03 10:04:55.690,40.62566666666667,-123.21116666666667,29.41,3.0,NP.1582..HNZ,P,,2018-06-03 10:05:09.210
nc73024816,2018-06-03 10:04:55.690,40.62566666666667,-123.21116666666667,29.41,3.0,PB.B035..EHZ,P,,2018-06-03 10:05:28.180
nc73024816,2018-06-03 10:04:55.690,40.62566666666667,-123.21116666666667,29.41,3.0,PB.B036..EHZ,P,,2018-06-03 10:05:28.460
nc73024816,2018-06-03 10:04:55.690,40.62566666666667,-123.21116666666667,29.41,3.0,PB.B039..EHZ,P,1.0,2018-06-03 10:05:13.270
nc73024816,2018-06-03 10:04:55.690,40.62566666666667,-123.21116666666667,29.41,3.0,PB.B040..EHZ,P,1.0,2018-06-03 10:05:18.630
nc73024816,2018-06-03 10:04:55.690,40.62566666666667,-123.21116666666667,29.41,3.0,PB.B045..EHZ,P,1.0,2018-06-03 10:05:07.340
nc73024816,2018-06-03 10:04:55.690,40.62566666666667,-123.21116666666667,29.41,3.0,PB.B046..EHZ,P,1.0,2018-06-03 10:05:10.390
nc73024816,2018-06-03 10:04:55.690,40.62566666666667,-123.21116666666667,29.41,3.0,PB.B047..EHZ,P,1.0,2018-06-03 10:05:09.800
nc73024816,2018-06-03 10:04:55.690,40.62566666666667,-123.21116666666667,29.41,3.0,PB.B049..EHZ,P,1.0,2018-06-03 10:05:07.080
nc73024816,2018-06-03 10:04:55.690,40.62566666666667,-123.21116666666667,29.41,3.0,PB.B932..EHZ,P,1.0,2018-06-03 10:05:09.900
nc73024816,2018-06-03 10:04:55.690,40.62566666666667,-123.21116666666667,29.41,3.0,PB.B934..EHZ,P,-1.0,2018-06-03 10:05:10.580
nc73024816,2018-06-03 10:04:55.690,40.62566666666667,-123.21116666666667,29.41,3.0,PB.B935..EHZ,P,1.0,2018-06-03 10:05:03.350
nc73024816,2018-06-03 10:04:55.690,40.62566666666667,-123.21116666666667,29.41,3.0,WR.KPK..EHZ,P,-1.0,2018-06-03 10:05:24.430
nc73024976,2018-06-03 17:35:33.440,40.62916666666667,-123.2115,29.12,1.92,BK.PETY..HHZ,P,1.0,2018-06-03 17:35:44.250
nc73024976,2018-06-03 17:35:33.440,40.62916666666667,-123.2115,29.12,1.92,BK.TRIN..HHZ,P,-1.0,2018-06-03 17:35:43.680
nc73024976,2018-06-03 17:35:33.440,40.62916666666667,-123.2115,29.12,1.92,NC.KCR..EHZ,P,-1.0,2018-06-03 17:35:43.930
nc73024976,2018-06-03 17:35:33.440,40.62916666666667,-123.2115,29.12,1.92,NC.KHBB..HHZ,P,-1.0,2018-06-03 17:35:38.570
nc73024976,2018-06-03 17:35:33.440,40.62916666666667,-123.2115,29.12,1.92,NC.KKP..EHZ,P,1.0,2018-06-03 17:35:44.360
nc73024976,2018-06-03 17:35:33.440,40.62916666666667,-123.2115,29.12,1.92,NC.KOM..EHZ,P,-1.0,2018-06-03 17:35:45.850
nc73024976,2018-06-03 17:35:33.440,40.62916666666667,-123.2115,29.12,1.92,NC.KPP..EHZ,P,1.0,2018-06-03 17:35:41.070
nc73024976,2018-06-03 17:35:33.440,40.62916666666667,-123.2115,29.12,1.92,NC.LBK..EHZ,P,-1.0,2018-06-03 17:35:45.170
nc73024976,2018-06-03 17:35:33.440,40.62916666666667,-123.2115,29.12,1.92,NC.LBP..EHZ,P,1.0,2018-06-03 17:35:42.030
nc73024976,2018-06-03 17:35:33.440,40.62916666666667,-123.2115,29.12,1.92,NC.LGP..EHZ,P,-1.0,2018-06-03 17:35:42.140
nc73024976,2018-06-03 17:35:33.440,40.62916666666667,-123.2115,29.12,1.92,NC.LPG..EHZ,P,1.0,2018-06-03 17:35:45.540
nc73024976,2018-06-03 17:35:33.440,40.62916666666667,-123.2115,29.12,1.92,NC.LRB..EHZ,P,-1.0,2018-06-03 17:35:46.970
nc73024976,2018-06-03 17:35:33.440,40.62916666666667,-123.2115,29.12,1.92,NC.LSF..EHZ,P,-1.0,2018-06-03 17:35:43.800
nc73024976,2018-06-03 17:35:33.440,40.62916666666667,-123.2115,29.12,1.92,NC.LSH..EHZ,P,1.0,2018-06-03 17:35:49.470
nc73024976,2018-06-03 17:35:33.440,40.62916666666667,-123.2115,29.12,1.92,NC.LSR..EHZ,P,-1.0,2018-06-03 17:35:49.240
nc73024976,2018-06-03 17:35:33.440,40.62916666666667,-123.2115,29.12,1.92,PB.B935..EHZ,P,1.0,2018-06-03 17:35:41.060
nc73025281,2018-06-04 11:47:50.370,40.42883333333333,-123.64683333333333,4.15,2.51,BK.DANT..HHZ,P,1.0,2018-06-04 11:48:16.700
