event_id,etime,elat,elon,edep,emag,station_id,phase_type,phase_polarity,phase_time
nc73016880,2018-05-16 22:01:08.290,40.79183333333334,-123.63733333333333,24.34,2.94,NC.LRB..EHZ,P,1.0,2018-05-16 22:01:26.740
nc73016880,2018-05-16 22:01:08.290,40.79183333333334,-123.63733333333333,24.34,2.94,NC.LSF..EHZ,P,1.0,2018-05-16 22:01:23.930
nc73016880,2018-05-16 22:01:08.290,40.79183333333334,-123.63733333333333,24.34,2.94,NC.LSH..EHZ,P,1.0,2018-05-16 22:01:28.860
nc73016880,2018-05-16 22:01:08.290,40.79183333333334,-123.63733333333333,24.34,2.94,NC.LSR..EHZ,P,1.0,2018-05-16 22:01:27.350
nc73016880,2018-05-16 22:01:08.290,40.79183333333334,-123.63733333333333,24.34,2.94,NC.LTC..EHZ,P,,2018-05-16 22:01:29.490
nc73016880,2018-05-16 22:01:08.290,40.79183333333334,-123.63733333333333,24.34,2.94,NC.LVR..EHZ,P,-1.0,2018-05-16 22:01:26.450
nc73016880,2018-05-16 22:01:08.290,40.79183333333334,-123.63733333333333,24.34,2.94,NC.LWH..EHZ,P,-1.0,2018-05-16 22:01:30.090
nc73016880,2018-05-16 22:01:08.290,40.79183333333334,-123.63733333333333,24.34,2.94,NC.OCR..EHZ,P,-1.0,2018-05-16 22:01:36.550
nc73016880,2018-05-16 22:01:08.290,40.79183333333334,-123.63733333333333,24.34,2.94,NC.OSU..EHZ,P,,2018-05-16 22:01:40.050
nc73016880,2018-05-16 22:01:08.290,40.79183333333334,-123.63733333333333,24.34,2.94,NP.1582..HNZ,P,1.0,2018-05-16 22:01:17.730
nc73016880,2018-05-16 22:01:08.290,40.79183333333334,-123.63733333333333,24.34,2.94,PB.B035..EHZ,P,,2018-05-16 22:01:36.150
nc73016880,2018-05-16 22:01:08.290,40.79183333333334,-123.63733333333333,24.34,2.94,PB.B039..EHZ,P,1.0,2018-05-16 22:01:27.050
nc73016880,2018-05-16 22:01:08.290,40.79183333333334,-123.63733333333333,24.34,2.94,PB.B040..EHZ,P,1.0,2018-05-16 22:01:31.670
nc73016880,2018-05-16 22:01:08.290,40.79183333333334,-123.63733333333333,24.34,2.94,PB.B045..EHZ,P,1.0,2018-05-16 22:01:17.510
nc73016880,2018-05-16 22:01:08.290,40.79183333333334,-123.63733333333333,24.34,2.94,PB.B046..EHZ,P,1.0,2018-05-16 22:01:20.600
nc73016880,2018-05-16 22:01:08.290,40.79183333333334,-123.63733333333333,24.34,2.94,PB.B047..EHZ,P,1.0,2018-05-16 22:01:20.610
nc73016880,2018-05-16 22:01:08.290,40.79183333333334,-123.63733333333333,24.34,2.94,PB.B049..EHZ,P,-1.0,2018-05-16 22:01:19.150
nc73016880,2018-05-16 22:01:08.290,40.79183333333334,-123.63733333333333,24.34,2.94,PB.B932..EHZ,P,1.0,2018-05-16 22:01:20.500
nc73016880,2018-05-16 22:01:08.290,40.79183333333334,-123.63733333333333,24.34,2.94,PB.B935..EHZ,P,1.0,2018-05-16 22:01:15.700
nc73016905,2018-05-16 23:20:43.610,40.788,-123.6345,25.24,1.89,BK.JCC..HHZ,P,1.0,2018-05-16 23:20:50.470
nc73016905,2018-05-16 23:20:43.610,40.788,-123.6345,25.24,1.89,BK.PETY..HHZ,P,-1.0,2018-05-16 23:20:59.930
nc73016905,2018-05-16 23:20:43.610,40.788,-123.6345,25.24,1.89,BK.TRIN..HHZ,P,1.0,2018-05-16 23:20:56.850
nc73016905,2018-05-16 23:20:43.610,40.788,-123.6345,25.24,1.89,BK.YBH..HHZ,P,1.0,2018-05-16 23:21:02.540
nc73016905,2018-05-16 23:20:43.610,40.788,-123.6345,25.24,1.89,NC.KBO..HHZ,P,1.0,2018-05-16 23:21:07.210
nc73016905,2018-05-16 23:20:43.610,40.788,-123.6345,25.24,1.89,NC.KCR..EHZ,P,-1.0,2018-05-16 23:20:52.290
nc73016905,2018-05-16 23:20:43.610,40.788,-123.6345,25.24,1.89,NC.KHBB..HHZ,P,1.0,2018-05-16 23:20:51.220
nc73016905,2018-05-16 23:20:43.610,40.788,-123.6345,25.24,1.89,NC.KHMB..HHZ,P,-1.0,2018-05-16 23:20:48.590
nc73016905,2018-05-16 23:20:43.610,40.788,-123.6345,25.24,1.89,NC.KMPB..HHZ,P,1.0,2018-05-16 23:20:53.870
nc73016905,2018-05-16 23:20:43.610,40.788,-123.6345,25.24,1.89,NC.KOM..EHZ,P,-1.0,2018-05-16 23:20:53.610
nc73016905,2018-05-16 23:20:43.610,40.788,-123.6345,25.24,1.89,NC.KPP..EHZ,P,1.0,2018-05-16 23:20:53.830
nc73016905,2018-05-16 23:20:43.610,40.788,-123.6345,25.24,1.89,NC.KRP..HHZ,P,1.0,2018-05-16 23:20:52.940
nc73016905,2018-05-16 23:20:43.610,40.788,-123.6345,25.24,1.89,NC.LBK..EHZ,P,1.0,2018-05-16 23:20:57.890
nc73016905,2018-05-16 23:20:43.610,40.788,-123.6345,25.24,1.89,NC.LBP..EHZ,P,,2018-05-16 23:20:57.350
nc73016905,2018-05-16 23:20:43.610,40.788,-123.6345,25.24,1.89,NC.LGP..EHZ,P,1.0,2018-05-16 23:20:55.290
nc73016905,2018-05-16 23:20:43.610,40.788,-123.6345,25.24,1.89,NC.LSF..EHZ,P,-1.0,2018-05-16 23:20:59.510
nc73016905,2018-05-16 23:20:43.610,40.788,-123.6345,25.24,1.89,PB.B045..EHZ,P,1.0,2018-05-16 23:20:53.020
nc73016905,2018-05-16 23:20:43.610,40.788,-123.6345,25.24,1.89,PB.B046..EHZ,P,-1.0,2018-05-16 23:20:55.890
nc73016905,2018-05-16 23:20:43.610,40.788,-123.6345,25.24,1.89,PB.B047..EHZ,P,1.0,2018-05-16 23:20:55.920
nc73016905,2018-05-16 23:20:43.610,40.788,-123.6345,25.24,1.89,PB.B932..EHZ,P,1.0,2018-05-16 23:20:55.810
nc73016905,2018-05-16 23:20:43.610,40.788,-123.6345,25.24,1.89,PB.B935..EHZ,P,1.0,2018-05-16 23:20:51.030
nc73017230,2018-05-17 19:26:11.550,40.22383333333333,-124.10616666666667,16.49,1.23,NC.KCO..EHZ,P,1.0,2018-05-17 19:26:15.730
nc73017230,2018-05-17 19:26:11.550,40.22383333333333,-124.10616666666667,16.49,1.23,NC.KCR..EHZ,P,-1.0,2018-05-17 19:26:18.590
nc73017230,2018-05-17 19:26:11.550,40.22383333333333,-124.10616666666667,16.49,1.23,NC.KCT..HHZ,P,1.0,2018-05-17 19:26:19.040
nc73017230,2018-05-17 19:26:11.550,40.22383333333333,-124.10616666666667,16.49,1.23,NC.KIP..EHZ,P,1.0,2018-05-17 19:26:24.090
nc73017230,2018-05-17 19:26:11.550,40.22383333333333,-124.10616666666667,16.49,1.23,NC.KMPB..HHZ,P,1.0,2018-05-17 19:26:16.680
nc73017230,2018-05-17 19:26:11.550,40.22383333333333,-124.10616666666667,16.49,1.23,NC.KSM..EHZ,P,1.0,2018-05-17 19:26:15.010
nc73017230,2018-05-17 19:26:11.550,40.22383333333333,-124.10616666666667,16.49,1.23,PB.B045..EHZ,P,-1.0,2018-05-17 19:26:17.190
nc73017230,2018-05-17 19:26:11.550,40.22383333333333,-124.10616666666667,16.49,1.23,PB.B047..EHZ,P,1.0,2018-05-17 19:26:14.870
nc73017230,2018-05-17 19:26:11.550,40.22383333333333,-124.10616666666667,16.49,1.23,PB.B049..EHZ,P,-1.0,2018-05-17 19:26:16.970
nc73017230,2018-05-17 19:26:11.550,40.22383333333333,-124.10616666666667,16.49,1.23,PB.B932..EHZ,P,1.0,2018-05-17 19:26:15.150
nc73018415,2018-05-20 18:50:12.760,40.612,-123.19683333333333,28.42,1.78,BK.JCC..HHZ,P,-1.0,2018-05-20 18:50:24.890
nc73018415,2018-05-20 18:50:12.760,40.612,-123.19683333333333,28.42,1.78,BK.PETY..HHZ,P,-1.0,2018-05-20 18:50:23.550
nc73018415,2018-05-20 18:50:12.760,40.612,-123.19683333333333,28.42,1.78,BK.TRIN..HHZ,P,1.0,2018-05-20 18:50:23.030
nc73018415,2018-05-20 18:50:12.760,40.612,-123.19683333333333,28.42,1.78,NC.KCR..EHZ,P,1.0,2018-05-20 18:50:22.780
nc73018415,2018-05-20 18:50:12.760,40.612,-123.19683333333333,28.42,1.78,NC.KHBB..HHZ,P,-1.0,2018-05-20 18:50:17.730
nc73018415,2018-05-20 18:50:12.760,40.612,-123.19683333333333,28.42,1.78,NC.KHMB..HHZ,P,1.0,2018-05-20 18:50:22.090
nc73018415,2018-05-20 18:50:12.760,40.612,-123.19683333333333,28.42,1.78,NC.KPP..EHZ,P,-1.0,2018-05-20 18:50:20.170
nc73018415,2018-05-20 18:50:12.760,40.612,-123.19683333333333,28.42,1.78,NC.LBP..EHZ,P,1.0,2018-05-20 18:50:21.170
nc73018415,2018-05-20 18:50:12.760,40.612,-123.19683333333333,28.42,1.78,NC.LGP..EHZ,P,1.0,2018-05-20 18:50:21.400
nc73018415,2018-05-20 18:50:12.760,40.612,-123.19683333333333,28.42,1.78,NC.LPG..EHZ,P,1.0,2018-05-20 18:50:24.630
nc73018415,2018-05-20 18:50:12.760,40.612,-123.19683333333333,28.42,1.78,NC.LRB..EHZ,P,,2018-05-20 18:50:26.230
nc73018415,2018-05-20 18:50:12.760,40.612,-123.19683333333333,28.42,1.78,NC.LSF..EHZ,P,-1.0,2018-05-20 18:50:23.020
nc73018415,2018-05-20 18:50:12.760,40.612,-123.19683333333333,28.42,1.78,NC.LSH..EHZ,P,1.0,2018-05-20 18:50:28.710
nc73018415,2018-05-20 18:50:12.760,40.612,-123.19683333333333,28.42,1.78,PB.B049..EHZ,P,1.0,2018-05-20 18:50:23.820
nc73018415,2018-05-20 18:50:12.760,40.612,-123.19683333333333,28.42,1.78,PB.B935..EHZ,P,1.0,2018-05-20 18:50:20.170
nc73019610,2018-05-23 05:12:38.470,40.0015,-123.40883333333333,3.31,1.64,BK.DCMP..HHZ,P,-1.0,2018-05-23 05:12:49.530
nc73019610,2018-05-23 05:12:38.470,40.0015,-123.40883333333333,3.31,1.64,BK.PETY..HHZ,P,1.0,2018-05-23 05:12:49.650
nc73019610,2018-05-23 05:12:38.470,40.0015,-123.40883333333333,3.31,1.64,NC.GHM..EHZ,P,-1.0,2018-05-23 05:12:51.940
nc73019610,2018-05-23 05:12:38.470,40.0015,-123.40883333333333,3.31,1.64,NC.GVV..EHZ,P,1.0,2018-05-23 05:12:51.490
nc73019610,2018-05-23 05:12:38.470,40.0015,-123.40883333333333,3.31,1.64,NC.KBN..EHZ,P,1.0,2018-05-23 05:12:43.810
nc73019610,2018-05-23 05:12:38.470,40.0015,-123.40883333333333,3.31,1.64,NC.KCO..EHZ,P,-1.0,2018-05-23 05:12:53.570
nc73019610,2018-05-23 05:12:38.470,40.0015,-123.40883333333333,3.31,1.64,NC.KCPB..HHZ,P,-1.0,2018-05-23 05:12:46.400
nc73019610,2018-05-23 05:12:38.470,40.0015,-123.40883333333333,3.31,1.64,NC.KCR..EHZ,P,-1.0,2018-05-23 05:12:49.940
nc73019610,2018-05-23 05:12:38.470,40.0015,-123.40883333333333,3.31,1.64,NC.KFP..EHZ,P,-1.0,2018-05-23 05:12:46.620
nc73019610,2018-05-23 05:12:38.470,40.0015,-123.40883333333333,3.31,1.64,NC.KIP..EHZ,P,-1.0,2018-05-23 05:12:43.410
nc73019610,2018-05-23 05:12:38.470,40.0015,-123.40883333333333,3.31,1.64,NC.KKP..EHZ,P,-1.0,2018-05-23 05:12:42.890
nc73019610,2018-05-23 05:12:38.470,40.0015,-123.40883333333333,3.31,1.64,NC.KMPB..HHZ,P,1.0,2018-05-23 05:12:54.060
nc73019610,2018-05-23 05:12:38.470,40.0015,-123.40883333333333,3.31,1.64,NC.KMR..HHZ,P,1.0,2018-05-23 05:12:45.630
nc73019610,2018-05-23 05:12:38.470,40.0015,-123.40883333333333,3.31,1.64,NC.KSM..EHZ,P,-1.0,2018-05-23 05:12:52.260
nc73019610,2018-05-23 05:12:38.470,40.0015,-123.40883333333333,3.31,1.64,NC.LBP..EHZ,P,,2018-05-23 05:12:49.660
nc73019610,2018-05-23 05:12:38.470,40.0015,-123.40883333333333,3.31,1.64,NC.LPG..EHZ,P,1.0,2018-05-23 05:12:50.820
nc73019610,2018-05-23 05:12:38.470,40.0015,-123.40883333333333,3.31,1.64,NC.LVR..EHZ,P,1.0,2018-05-23 05:12:50.620
nc73019610,2018-05-23 05:12:38.470,40.0015,-123.40883333333333,3.31,1.64,PB.B045..EHZ,P,,2018-05-23 05:12:51.690
nc73019610,2018-05-23 05:12:38.470,40.0015,-123.40883333333333,3.31,1.64,PB.B046..EHZ,P,1.0,2018-05-23 05:12:54.180
nc73019610,2018-05-23 05:12:38.470,40.0015,-123.40883333333333,3.31,1.64,PB.B047..EHZ,P,-1.0,2018-05-23 05:12:52.760
nc73019610,2018-05-23 05:12:38.470,40.0015,-123.40883333333333,3.31,1.64,PB.B049..EHZ,P,1.0,2018-05-23 05:12:47.350
nc73019610,2018-05-23 05:12:38.470,40.0015,-123.40883333333333,3.31,1.64,PB.B932..EHZ,P,-1.0,2018-05-23 05:12:52.810
nc73019610,2018-05-23 05:12:38.470,40.0015,-123.40883333333333,3.31,1.64,PB.B935..EHZ,P,-1.0,2018-05-23 05:12:49.420
nc73020305,2018-05-24 16:22:55.790,40.797,-123.62216666666667,25.51,1.84,BK.JCC..HHZ,P,1.0,2018-05-24 16:23:02.710
nc73020305,2018-05-24 16:22:55.790,40.797,-123.62216666666667,25.51,1.84,CE.89462..HNZ,P,,2018-05-24 16:23:04.590
nc73020305,2018-05-24 16:22:55.790,40.797,-123.62216666666667,25.51,1.84,NC.KCR..EHZ,P,1.0,2018-05-24 16:23:04.450
nc73020305,2018-05-24 16:22:55.790,40.797,-123.62216666666667,25.51,1.84,NC.KHBB..HHZ,P,1.0,2018-05-24 16:23:03.350
nc73020305,2018-05-24 16:22:55.790,40.797,-123.62216666666667,25.51,1.84,NC.KHMB..HHZ,P,-1.0,2018-05-24 16:23:00.780
nc73020305,2018-05-24 16:22:55.790,40.797,-123.62216666666667,25.51,1.84,NC.KOM..EHZ,P,1.0,2018-05-24 16:23:05.580
nc73020305,2018-05-24 16:22:55.790,40.797,-123.62216666666667,25.51,1.84,NC.KPP..EHZ,P,1.0,2018-05-24 16:23:06.070
nc73020305,2018-05-24 16:22:55.790,40.797,-123.62216666666667,25.51,1.84,NC.KRMB..HHZ,P,1.0,2018-05-24 16:23:09.140
nc73020305,2018-05-24 16:22:55.790,40.797,-123.62216666666667,25.51,1.84,NC.KRP..HHZ,P,1.0,2018-05-24 16:23:05.120
nc73020305,2018-05-24 16:22:55.790,40.797,-123.62216666666667,25.51,1.84,NC.KSXB..HHZ,P,1.0,2018-05-24 16:23:13.130
nc73020305,2018-05-24 16:22:55.790,40.797,-123.62216666666667,25.51,1.84,NC.LBK..EHZ,P,-1.0,2018-05-24 16:23:10.100
nc73020305,2018-05-24 16:22:55.790,40.797,-123.62216666666667,25.51,1.84,NC.LGP..EHZ,P,1.0,2018-05-24 16:23:07.440
nc73020305,2018-05-24 16:22:55.790,40.797,-123.62216666666667,25.51,1.84,PB.B935..EHZ,P,1.0,2018-05-24 16:23:03.190
nc73020430,2018-05-24 21:37:04.610,40.00233333333333,-123.41716666666667,9.51,1.6,BK.PETY..HHZ,P,1.0,2018-05-24 21:37:15.860
nc73020430,2018-05-24 21:37:04.610,40.00233333333333,-123.41716666666667,9.51,1.6,NC.GHM..EHZ,P,,2018-05-24 21:37:18.780
nc73020430,2018-05-24 21:37:04.610,40.00233333333333,-123.41716666666667,9.51,1.6,NC.KBN..EHZ,P,1.0,2018-05-24 21:37:10.020
nc73020430,2018-05-24 21:37:04.610,40.00233333333333,-123.41716666666667,9.51,1.6,NC.KHBB..HHZ,P,1.0,2018-05-24 21:37:18.740
nc73020430,2018-05-24 21:37:04.610,40.00233333333333,-123.41716666666667,9.51,1.6,NC.KIP..EHZ,P,-1.0,2018-05-24 21:37:09.620
nc73020430,2018-05-24 21:37:04.610,40.00233333333333,-123.41716666666667,9.51,1.6,NC.KKP..EHZ,P,-1.0,2018-05-24 21:37:09.100
nc73020430,2018-05-24 21:37:04.610,40.00233333333333,-123.41716666666667,9.51,1.6,NC.KSM..EHZ,P,-1.0,2018-05-24 21:37:18.410
nc73020430,2018-05-24 21:37:04.610,40.00233333333333,-123.41716666666667,9.51,1.6,NC.LPG..EHZ,P,-1.0,2018-05-24 21:37:16.930
nc73020430,2018-05-24 21:37:04.610,40.00233333333333,-123.41716666666667,9.51,1.6,PB.B047..EHZ,P,-1.0,2018-05-24 21:37:18.980
nc73020430,2018-05-24 21:37:04.610,40.00233333333333,-123.41716666666667,9.51,1.6,PB.B932..EHZ,P,,2018-05-24 21:37:19.690
nc73020480,2018-05-24 23:12:12.080,40.30983333333333,-124.49666666666667,6.54,2.32,BK.DCMP..HHZ,P,-1.0,2018-05-24 23:12:33.540
nc73020480,2018-05-24 23:12:12.080,40.30983333333333,-124.49666666666667,6.54,2.32,BK.JCC..HHZ,P,1.0,2018-05-24 23:12:24.530
nc73020480,2018-05-24 23:12:12.080,40.30983333333333,-124.49666666666667,6.54,2.32,CE.89101..HNZ,P,1.0,2018-05-24 23:12:16.120
nc73020480,2018-05-24 23:12:12.080,40.30983333333333,-124.49666666666667,6.54,2.32,NC.GTC..EHZ,P,1.0,2018-05-24 23:12:32.700
nc73020480,2018-05-24 23:12:12.080,40.30983333333333,-124.49666666666667,6.54,2.32,NC.KBN..EHZ,P,,2018-05-24 23:12:32.530
nc73020480,2018-05-24 23:12:12.080,40.30983333333333,-124.49666666666667,6.54,2.32,NC.KCO..EHZ,P,-1.0,2018-05-24 23:12:16.730
nc73020480,2018-05-24 23:12:12.080,40.30983333333333,-124.49666666666667,6.54,2.32,NC.KCPB..HHZ,P,-1.0,2018-05-24 23:12:30.180
nc73020480,2018-05-24 23:12:12.080,40.30983333333333,-124.49666666666667,6.54,2.32,NC.KCR..EHZ,P,1.0,2018-05-24 23:12:23.670
nc73020480,2018-05-24 23:12:12.080,40.30983333333333,-124.49666666666667,6.54,2.32,NC.KCT..HHZ,P,1.0,2018-05-24 23:12:17.290
nc73020480,2018-05-24 23:12:12.080,40.30983333333333,-124.49666666666667,6.54,2.32,NC.KFP..EHZ,P,-1.0,2018-05-24 23:12:31.770
nc73020480,2018-05-24 23:12:12.080,40.30983333333333,-124.49666666666667,6.54,2.32,NC.KHBB..HHZ,P,-1.0,2018-05-24 23:12:31.370
nc73020480,2018-05-24 23:12:12.080,40.30983333333333,-124.49666666666667,6.54,2.32,NC.KHMB..HHZ,P,1.0,2018-05-24 23:12:28.040
nc73020480,2018-05-24 23:12:12.080,40.30983333333333,-124.49666666666667,6.54,2.32,NC.KIP..EHZ,P,1.0,2018-05-24 23:12:30.210
nc73020480,2018-05-24 23:12:12.080,40.30983333333333,-124.49666666666667,6.54,2.32,NC.KKP..EHZ,P,-1.0,2018-05-24 23:12:28.880
nc73020480,2018-05-24 23:12:12.080,40.30983333333333,-124.49666666666667,6.54,2.32,NC.KMPB..HHZ,P,1.0,2018-05-24 23:12:19.020
nc73020480,2018-05-24 23:12:12.080,40.30983333333333,-124.49666666666667,6.54,2.32,NC.KMR..HHZ,P,-1.0,2018-05-24 23:12:25.530
nc73020480,2018-05-24 23:12:12.080,40.30983333333333,-124.49666666666667,6.54,2.32,NC.KOM..EHZ,P,1.0,2018-05-24 23:12:34.070
nc73020480,2018-05-24 23:12:12.080,40.30983333333333,-124.49666666666667,6.54,2.32,NC.KPP..EHZ,P,,2018-05-24 23:12:29.960
nc73020480,2018-05-24 23:12:12.080,40.30983333333333,-124.49666666666667,6.54,2.32,NC.KRMB..HHZ,P,-1.0,2018-05-24 23:12:34.400
nc73020480,2018-05-24 23:12:12.080,40.30983333333333,-124.49666666666667,6.54,2.32,NC.KRP..HHZ,P,1.0,2018-05-24 23:12:29.710
nc73020480,2018-05-24 23:12:12.080,40.30983333333333,-124.49666666666667,6.54,2.32,NC.KSM..EHZ,P,-1.0,2018-05-24 23:12:18.450
nc73020480,2018-05-24 23:12:12.080,40.30983333333333,-124.49666666666667,6.54,2.32,NC.KSXB..HHZ,P,,2018-05-24 23:12:38.390
nc73020480,2018-05-24 23:12:12.080,40.30983333333333,-124.49666666666667,6.54,2.32,NC.LGP..EHZ,P,,2018-05-24 23:12:36.670
nc73020480,2018-05-24 23:12:12.080,40.30983333333333,-124.49666666666667,6.54,2.32,PB.B045..EHZ,P,1.0,2018-05-24 23:12:20.910
nc73020480,2018-05-24 23:12:12.080,40.30983333333333,-124.49666666666667,6.54,2.32,PB.B046..EHZ,P,1.0,2018-05-24 23:12:16.070
nc73020480,2018-05-24 23:12:12.080,40.30983333333333,-124.49666666666667,6.54,2.32,PB.B047..EHZ,P,1.0,2018-05-24 23:12:17.970
nc73020480,2018-05-24 23:12:12.080,40.30983333333333,-124.49666666666667,6.54,2.32,PB.B049..EHZ,P,1.0,2018-05-24 23:12:23.290
nc73020480,2018-05-24 23:12:12.080,40.30983333333333,-124.49666666666667,6.54,2.32,PB.B932..EHZ,P,-1.0,2018-05-24 23:12:17.030
nc73020480,2018-05-24 23:12:12.080,40.30983333333333,-124.49666666666667,6.54,2.32,PB.B935..EHZ,P,1.0,2018-05-24 23:12:27.070
nc73024426,2018-06-02 22:21:36.660,40.296,-124.53466666666667,4.07,2.35,BK.DCMP..HHZ,P,-1.0,2018-06-02 22:21:58.440
nc73024426,2018-06-02 22:21:36.660,40.296,-124.53466666666667,4.07,2.35,BK.JCC..HHZ,P,-1.0,2018-06-02 22:21:49.710
nc73024426,2018-06-02 22:21:36.660,40.296,-124.53466666666667,4.07,2.35,BK.SCOT..HHZ,P,-1.0,2018-06-02 22:22:04.890
nc73024426,2018-06-02 22:21:36.660,40.296,-124.53466666666667,4.07,2.35,CE.89101..HNZ,P,-1.0,2018-06-02 22:21:41.440
nc73024426,2018-06-02 22:21:36.660,40.296,-124.53466666666667,4.07,2.35,NC.GMR..EHZ,P,1.0,2018-06-02 22:22:00.710
nc73024426,2018-06-02 22:21:36.660,40.296,-124.53466666666667,4.07,2.35,NC.GTC..EHZ,P,-1.0,2018-06-02 22:21:57.390
nc73024426,2018-06-02 22:21:36.660,40.296,-124.53466666666667,4.07,2.35,NC.KCO..EHZ,P,-1.0,2018-06-02 22:21:41.900
nc73024426,2018-06-02 22:21:36.660,40.296,-124.53466666666667,4.07,2.35,NC.KCPB..HHZ,P,1.0,2018-06-02 22:21:54.730
nc73024426,2018-06-02 22:21:36.660,40.296,-124.53466666666667,4.07,2.35,NC.KCR..EHZ,P,-1.0,2018-06-02 22:21:48.860
nc73024426,2018-06-02 22:21:36.660,40.296,-124.53466666666667,4.07,2.35,NC.KCT..HHZ,P,1.0,2018-06-02 22:21:42.530
nc73024426,2018-06-02 22:21:36.660,40.296,-124.53466666666667,4.07,2.35,NC.KHMB..HHZ,P,-1.0,2018-06-02 22:21:52.950
nc73024426,2018-06-02 22:21:36.660,40.296,-124.53466666666667,4.07,2.35,NC.KIP..EHZ,P,1.0,2018-06-02 22:21:54.780
nc73024426,2018-06-02 22:21:36.660,40.296,-124.53466666666667,4.07,2.35,NC.KMPB..HHZ,P,-1.0,2018-06-02 22:21:44.450
nc73024426,2018-06-02 22:21:36.660,40.296,-124.53466666666667,4.07,2.35,NC.KMR..HHZ,P,1.0,2018-06-02 22:21:50.760
nc73024426,2018-06-02 22:21:36.660,40.296,-124.53466666666667,4.07,2.35,NC.KOM..EHZ,P,1.0,2018-06-02 22:21:58.850
nc73024426,2018-06-02 22:21:36.660,40.296,-124.53466666666667,4.07,2.35,NC.KRMB..HHZ,P,-1.0,2018-06-02 22:21:59.020
nc73024426,2018-06-02 22:21:36.660,40.296,-124.53466666666667,4.07,2.35,NC.KSM..EHZ,P,-1.0,2018-06-02 22:21:43.600
nc73024426,2018-06-02 22:21:36.660,40.296,-124.53466666666667,4.07,2.35,NC.KSXB..HHZ,P,-1.0,2018-06-02 22:22:02.930
nc73024426,2018-06-02 22:21:36.660,40.296,-124.53466666666667,4.07,2.35,PB.B045..EHZ,P,1.0,2018-06-02 22:21:46.260
nc73024426,2018-06-02 22:21:36.660,40.296,-124.53466666666667,4.07,2.35,PB.B046..EHZ,P,1.0,2018-06-02 22:21:41.300
nc73024426,2018-06-02 22:21:36.660,40.296,-124.53466666666667,4.07,2.35,PB.B047..EHZ,P,-1.0,2018-06-02 22:21:43.210
nc73024426,2018-06-02 22:21:36.660,40.296,-124.53466666666667,4.07,2.35,PB.B049..EHZ,P,1.0,2018-06-02 22:21:49.000
nc73024426,2018-06-02 22:21:36.660,40.296,-124.53466666666667,4.07,2.35,PB.B932..EHZ,P,-1.0,2018-06-02 22:21:42.210
nc73024426,2018-06-02 22:21:36.660,40.296,-124.53466666666667,4.07,2.35,PB.B934..EHZ,P,1.0,2018-06-02 22:21:52.200
nc73024426,2018-06-02 22:21:36.660,40.296,-124.53466666666667,4.07,2.35,PB.B935..EHZ,P,-1.0,2018-06-02 22:21:52.520
nc73024456,2018-06-02 23:18:23.380,40.79216666666667,-123.63266666666667,24.4,2.43,BK.DANT..HHZ,P,1.0,2018-06-02 23:18:48.440
nc73024456,2018-06-02 23:18:23.380,40.79216666666667,-123.63266666666667,24.4,2.43,BK.JCC..HHZ,P,1.0,2018-06-02 23:18:30.230
