event_id,etime,elat,elon,edep,emag,station_id,phase_type,phase_polarity,phase_time
nc73049236,2018-07-18 21:52:30.890,40.5175,-123.506,7.39,2.34,PB.B046..EHZ,P,-1.0,2018-07-18 21:52:44.070
nc73049236,2018-07-18 21:52:30.890,40.5175,-123.506,7.39,2.34,PB.B047..EHZ,P,-1.0,2018-07-18 21:52:42.960
nc73049236,2018-07-18 21:52:30.890,40.5175,-123.506,7.39,2.34,PB.B049..EHZ,P,-1.0,2018-07-18 21:52:38.870
nc73049236,2018-07-18 21:52:30.890,40.5175,-123.506,7.39,2.34,PB.B932..EHZ,P,-1.0,2018-07-18 21:52:43.320
nc73049236,2018-07-18 21:52:30.890,40.5175,-123.506,7.39,2.34,PB.B934..EHZ,P,,2018-07-18 21:52:45.450
nc73049236,2018-07-18 21:52:30.890,40.5175,-123.506,7.39,2.34,PB.B935..EHZ,P,1.0,2018-07-18 21:52:33.340
nc73051361,2018-07-21 13:28:36.830,40.266,-123.479,28.37,2.08,BK.DANT..HHZ,P,1.0,2018-07-21 13:28:57.430
nc73051361,2018-07-21 13:28:36.830,40.266,-123.479,28.37,2.08,BK.PETY..HHZ,P,1.0,2018-07-21 13:28:47.410
nc73051361,2018-07-21 13:28:36.830,40.266,-123.479,28.37,2.08,BK.TRIN..HHZ,P,-1.0,2018-07-21 13:28:52.880
nc73051361,2018-07-21 13:28:36.830,40.266,-123.479,28.37,2.08,NC.GRO..EHZ,P,1.0,2018-07-21 13:28:50.070
nc73051361,2018-07-21 13:28:36.830,40.266,-123.479,28.37,2.08,NC.GVV..EHZ,P,1.0,2018-07-21 13:28:51.220
nc73051361,2018-07-21 13:28:36.830,40.266,-123.479,28.37,2.08,NC.KBN..EHZ,P,1.0,2018-07-21 13:28:46.330
nc73051361,2018-07-21 13:28:36.830,40.266,-123.479,28.37,2.08,NC.KCO..EHZ,P,1.0,2018-07-21 13:28:48.120
nc73051361,2018-07-21 13:28:36.830,40.266,-123.479,28.37,2.08,NC.KCPB..HHZ,P,1.0,2018-07-21 13:28:48.140
nc73051361,2018-07-21 13:28:36.830,40.266,-123.479,28.37,2.08,NC.KCR..EHZ,P,1.0,2018-07-21 13:28:44.350
nc73051361,2018-07-21 13:28:36.830,40.266,-123.479,28.37,2.08,NC.KCT..HHZ,P,1.0,2018-07-21 13:28:49.590
nc73051361,2018-07-21 13:28:36.830,40.266,-123.479,28.37,2.08,NC.KHBB..HHZ,P,-1.0,2018-07-21 13:28:46.140
nc73051361,2018-07-21 13:28:36.830,40.266,-123.479,28.37,2.08,NC.KHMB..HHZ,P,,2018-07-21 13:28:49.010
nc73051361,2018-07-21 13:28:36.830,40.266,-123.479,28.37,2.08,NC.KIP..EHZ,P,-1.0,2018-07-21 13:28:46.440
nc73051361,2018-07-21 13:28:36.830,40.266,-123.479,28.37,2.08,NC.KKP..EHZ,P,1.0,2018-07-21 13:28:42.680
nc73051361,2018-07-21 13:28:36.830,40.266,-123.479,28.37,2.08,NC.KMPB..HHZ,P,1.0,2018-07-21 13:28:46.890
nc73051361,2018-07-21 13:28:36.830,40.266,-123.479,28.37,2.08,NC.KMR..HHZ,P,1.0,2018-07-21 13:28:42.970
nc73051361,2018-07-21 13:28:36.830,40.266,-123.479,28.37,2.08,NC.KSM..EHZ,P,1.0,2018-07-21 13:28:47.300
nc73051361,2018-07-21 13:28:36.830,40.266,-123.479,28.37,2.08,NC.LBK..EHZ,P,-1.0,2018-07-21 13:28:54.610
nc73051361,2018-07-21 13:28:36.830,40.266,-123.479,28.37,2.08,NC.LBP..EHZ,P,1.0,2018-07-21 13:28:46.210
nc73051361,2018-07-21 13:28:36.830,40.266,-123.479,28.37,2.08,NC.LDB..EHZ,P,-1.0,2018-07-21 13:28:57.910
nc73051361,2018-07-21 13:28:36.830,40.266,-123.479,28.37,2.08,NC.LGP..EHZ,P,1.0,2018-07-21 13:28:51.190
nc73051361,2018-07-21 13:28:36.830,40.266,-123.479,28.37,2.08,NC.LMI..EHZ,P,1.0,2018-07-21 13:28:54.600
nc73051361,2018-07-21 13:28:36.830,40.266,-123.479,28.37,2.08,NC.LPG..EHZ,P,1.0,2018-07-21 13:28:48.620
nc73051361,2018-07-21 13:28:36.830,40.266,-123.479,28.37,2.08,NC.LRB..EHZ,P,-1.0,2018-07-21 13:28:50.240
nc73051361,2018-07-21 13:28:36.830,40.266,-123.479,28.37,2.08,NC.LSF..EHZ,P,-1.0,2018-07-21 13:28:51.630
nc73051361,2018-07-21 13:28:36.830,40.266,-123.479,28.37,2.08,NC.LSH..EHZ,P,1.0,2018-07-21 13:28:57.020
nc73051361,2018-07-21 13:28:36.830,40.266,-123.479,28.37,2.08,NC.LSR..EHZ,P,-1.0,2018-07-21 13:28:57.830
nc73051361,2018-07-21 13:28:36.830,40.266,-123.479,28.37,2.08,NC.LVR..EHZ,P,1.0,2018-07-21 13:28:49.180
nc73051361,2018-07-21 13:28:36.830,40.266,-123.479,28.37,2.08,NC.OCR..EHZ,P,-1.0,2018-07-21 13:28:58.610
nc73051361,2018-07-21 13:28:36.830,40.266,-123.479,28.37,2.08,PB.B045..EHZ,P,1.0,2018-07-21 13:28:45.780
nc73051361,2018-07-21 13:28:36.830,40.266,-123.479,28.37,2.08,PB.B046..EHZ,P,1.0,2018-07-21 13:28:48.240
nc73051361,2018-07-21 13:28:36.830,40.266,-123.479,28.37,2.08,PB.B047..EHZ,P,1.0,2018-07-21 13:28:47.140
nc73051361,2018-07-21 13:28:36.830,40.266,-123.479,28.37,2.08,PB.B049..EHZ,P,1.0,2018-07-21 13:28:43.530
nc73051361,2018-07-21 13:28:36.830,40.266,-123.479,28.37,2.08,PB.B932..EHZ,P,1.0,2018-07-21 13:28:47.440
nc73051361,2018-07-21 13:28:36.830,40.266,-123.479,28.37,2.08,PB.B935..EHZ,P,-1.0,2018-07-21 13:28:43.410
nc73063081,2018-08-01 14:47:22.380,40.2485,-124.1605,12.33,1.79,BK.JCC..HHZ,P,-1.0,2018-08-01 14:47:34.220
nc73063081,2018-08-01 14:47:22.380,40.2485,-124.1605,12.33,1.79,CE.89101..HNZ,P,-1.0,2018-08-01 14:47:26.080
nc73063081,2018-08-01 14:47:22.380,40.2485,-124.1605,12.33,1.79,NC.KCO..EHZ,P,1.0,2018-08-01 14:47:25.470
nc73063081,2018-08-01 14:47:22.380,40.2485,-124.1605,12.33,1.79,NC.KCPB..HHZ,P,,2018-08-01 14:47:36.810
nc73063081,2018-08-01 14:47:22.380,40.2485,-124.1605,12.33,1.79,NC.KCR..EHZ,P,-1.0,2018-08-01 14:47:29.760
nc73063081,2018-08-01 14:47:22.380,40.2485,-124.1605,12.33,1.79,NC.KCT..HHZ,P,-1.0,2018-08-01 14:47:29.050
nc73063081,2018-08-01 14:47:22.380,40.2485,-124.1605,12.33,1.79,NC.KHMB..HHZ,P,,2018-08-01 14:47:36.650
nc73063081,2018-08-01 14:47:22.380,40.2485,-124.1605,12.33,1.79,NC.KIP..EHZ,P,-1.0,2018-08-01 14:47:36.040
nc73063081,2018-08-01 14:47:22.380,40.2485,-124.1605,12.33,1.79,NC.KKP..EHZ,P,1.0,2018-08-01 14:47:34.370
nc73063081,2018-08-01 14:47:22.380,40.2485,-124.1605,12.33,1.79,NC.KMPB..HHZ,P,1.0,2018-08-01 14:47:26.960
nc73063081,2018-08-01 14:47:22.380,40.2485,-124.1605,12.33,1.79,NC.KMR..HHZ,P,-1.0,2018-08-01 14:47:30.230
nc73063081,2018-08-01 14:47:22.380,40.2485,-124.1605,12.33,1.79,NC.KSM..EHZ,P,1.0,2018-08-01 14:47:25.160
nc73063081,2018-08-01 14:47:22.380,40.2485,-124.1605,12.33,1.79,PB.B045..EHZ,P,-1.0,2018-08-01 14:47:27.860
nc73063081,2018-08-01 14:47:22.380,40.2485,-124.1605,12.33,1.79,PB.B046..EHZ,P,-1.0,2018-08-01 14:47:25.950
nc73063081,2018-08-01 14:47:22.380,40.2485,-124.1605,12.33,1.79,PB.B047..EHZ,P,1.0,2018-08-01 14:47:24.810
nc73063081,2018-08-01 14:47:22.380,40.2485,-124.1605,12.33,1.79,PB.B049..EHZ,P,-1.0,2018-08-01 14:47:28.430
nc73063081,2018-08-01 14:47:22.380,40.2485,-124.1605,12.33,1.79,PB.B932..EHZ,P,1.0,2018-08-01 14:47:24.920
nc73063081,2018-08-01 14:47:22.380,40.2485,-124.1605,12.33,1.79,PB.B933..EHZ,P,,2018-08-01 14:47:27.820
nc73063081,2018-08-01 14:47:22.380,40.2485,-124.1605,12.33,1.79,PB.B935..EHZ,P,1.0,2018-08-01 14:47:33.700
nc73063771,2018-08-02 18:05:03.810,40.3105,-124.406,9.52,1.85,BK.DCMP..HHZ,P,-1.0,2018-08-02 18:05:23.810
nc73063771,2018-08-02 18:05:03.810,40.3105,-124.406,9.52,1.85,BK.JCC..HHZ,P,-1.0,2018-08-02 18:05:15.650
nc73063771,2018-08-02 18:05:03.810,40.3105,-124.406,9.52,1.85,CE.89101..HNZ,P,1.0,2018-08-02 18:05:06.810
nc73063771,2018-08-02 18:05:03.810,40.3105,-124.406,9.52,1.85,NC.GTC..EHZ,P,1.0,2018-08-02 18:05:23.110
nc73063771,2018-08-02 18:05:03.810,40.3105,-124.406,9.52,1.85,NC.KCO..EHZ,P,-1.0,2018-08-02 18:05:07.280
nc73063771,2018-08-02 18:05:03.810,40.3105,-124.406,9.52,1.85,NC.KCPB..HHZ,P,1.0,2018-08-02 18:05:21.410
nc73063771,2018-08-02 18:05:03.810,40.3105,-124.406,9.52,1.85,NC.KCR..EHZ,P,1.0,2018-08-02 18:05:14.020
nc73063771,2018-08-02 18:05:03.810,40.3105,-124.406,9.52,1.85,NC.KCT..HHZ,P,1.0,2018-08-02 18:05:08.600
nc73063771,2018-08-02 18:05:03.810,40.3105,-124.406,9.52,1.85,NC.KHMB..HHZ,P,1.0,2018-08-02 18:05:18.800
nc73063771,2018-08-02 18:05:03.810,40.3105,-124.406,9.52,1.85,NC.KIP..EHZ,P,1.0,2018-08-02 18:05:20.180
nc73063771,2018-08-02 18:05:03.810,40.3105,-124.406,9.52,1.85,NC.KKP..EHZ,P,-1.0,2018-08-02 18:05:19.210
nc73063771,2018-08-02 18:05:03.810,40.3105,-124.406,9.52,1.85,NC.KMPB..HHZ,P,1.0,2018-08-02 18:05:09.570
nc73063771,2018-08-02 18:05:03.810,40.3105,-124.406,9.52,1.85,NC.KMR..HHZ,P,1.0,2018-08-02 18:05:15.210
nc73063771,2018-08-02 18:05:03.810,40.3105,-124.406,9.52,1.85,NC.KOM..EHZ,P,1.0,2018-08-02 18:05:24.950
nc73063771,2018-08-02 18:05:03.810,40.3105,-124.406,9.52,1.85,NC.KSM..EHZ,P,-1.0,2018-08-02 18:05:08.890
nc73063771,2018-08-02 18:05:03.810,40.3105,-124.406,9.52,1.85,PB.B045..EHZ,P,1.0,2018-08-02 18:05:11.330
nc73063771,2018-08-02 18:05:03.810,40.3105,-124.406,9.52,1.85,PB.B047..EHZ,P,-1.0,2018-08-02 18:05:08.450
nc73063771,2018-08-02 18:05:03.810,40.3105,-124.406,9.52,1.85,PB.B049..EHZ,P,1.0,2018-08-02 18:05:13.330
nc73063771,2018-08-02 18:05:03.810,40.3105,-124.406,9.52,1.85,PB.B932..EHZ,P,-1.0,2018-08-02 18:05:07.490
nc73063771,2018-08-02 18:05:03.810,40.3105,-124.406,9.52,1.85,PB.B935..EHZ,P,,2018-08-02 18:05:17.580
nc73067710,2018-08-10 15:22:20.800,40.995,-123.78266666666667,20.27,2.0,BK.JCC..HHZ,P,1.0,2018-08-10 15:22:26.730
nc73067710,2018-08-10 15:22:20.800,40.995,-123.78266666666667,20.27,2.0,BK.SCOT..HHZ,P,-1.0,2018-08-10 15:22:35.320
nc73067710,2018-08-10 15:22:20.800,40.995,-123.78266666666667,20.27,2.0,BK.TRIN..HHZ,P,-1.0,2018-08-10 15:22:35.440
nc73067710,2018-08-10 15:22:20.800,40.995,-123.78266666666667,20.27,2.0,BK.YBH..HHZ,P,1.0,2018-08-10 15:22:39.790
nc73067710,2018-08-10 15:22:20.800,40.995,-123.78266666666667,20.27,2.0,NC.KCO..EHZ,P,1.0,2018-08-10 15:22:35.260
nc73067710,2018-08-10 15:22:20.800,40.995,-123.78266666666667,20.27,2.0,NC.KCR..EHZ,P,1.0,2018-08-10 15:22:32.000
nc73067710,2018-08-10 15:22:20.800,40.995,-123.78266666666667,20.27,2.0,NC.KHBB..HHZ,P,1.0,2018-08-10 15:22:30.980
nc73067710,2018-08-10 15:22:20.800,40.995,-123.78266666666667,20.27,2.0,NC.KHMB..HHZ,P,-1.0,2018-08-10 15:22:25.480
nc73067710,2018-08-10 15:22:20.800,40.995,-123.78266666666667,20.27,2.0,NC.KMPB..HHZ,P,-1.0,2018-08-10 15:22:32.700
nc73067710,2018-08-10 15:22:20.800,40.995,-123.78266666666667,20.27,2.0,NC.KMR..HHZ,P,,2018-08-10 15:22:35.490
nc73067710,2018-08-10 15:22:20.800,40.995,-123.78266666666667,20.27,2.0,NC.KOM..EHZ,P,1.0,2018-08-10 15:22:28.660
nc73067710,2018-08-10 15:22:20.800,40.995,-123.78266666666667,20.27,2.0,NC.KPP..EHZ,P,,2018-08-10 15:22:34.160
nc73067710,2018-08-10 15:22:20.800,40.995,-123.78266666666667,20.27,2.0,NC.KRMB..HHZ,P,1.0,2018-08-10 15:22:31.110
nc73067710,2018-08-10 15:22:20.800,40.995,-123.78266666666667,20.27,2.0,NC.KRP..HHZ,P,1.0,2018-08-10 15:22:26.850
nc73067710,2018-08-10 15:22:20.800,40.995,-123.78266666666667,20.27,2.0,NC.KSXB..HHZ,P,-1.0,2018-08-10 15:22:35.370
nc73067710,2018-08-10 15:22:20.800,40.995,-123.78266666666667,20.27,2.0,NC.LAMB..EHZ,P,-1.0,2018-08-10 15:22:39.340
nc73067710,2018-08-10 15:22:20.800,40.995,-123.78266666666667,20.27,2.0,NC.LBF..EHZ,P,1.0,2018-08-10 15:22:47.180
nc73067710,2018-08-10 15:22:20.800,40.995,-123.78266666666667,20.27,2.0,NC.LBK..EHZ,P,-1.0,2018-08-10 15:22:35.940
nc73067710,2018-08-10 15:22:20.800,40.995,-123.78266666666667,20.27,2.0,NC.LGP..EHZ,P,1.0,2018-08-10 15:22:33.980
nc73067710,2018-08-10 15:22:20.800,40.995,-123.78266666666667,20.27,2.0,PB.B046..EHZ,P,1.0,2018-08-10 15:22:34.450
nc73067710,2018-08-10 15:22:20.800,40.995,-123.78266666666667,20.27,2.0,PB.B047..EHZ,P,1.0,2018-08-10 15:22:34.880
nc73067710,2018-08-10 15:22:20.800,40.995,-123.78266666666667,20.27,2.0,PB.B932..EHZ,P,1.0,2018-08-10 15:22:34.610
nc73067710,2018-08-10 15:22:20.800,40.995,-123.78266666666667,20.27,2.0,PB.B935..EHZ,P,1.0,2018-08-10 15:22:31.580
nc73068425,2018-08-11 17:43:08.040,40.127,-123.80966666666667,22.86,1.51,NC.KBN..EHZ,P,-1.0,2018-08-11 17:43:19.370
nc73068425,2018-08-11 17:43:08.040,40.127,-123.80966666666667,22.86,1.51,NC.KCO..EHZ,P,1.0,2018-08-11 17:43:16.130
nc73068425,2018-08-11 17:43:08.040,40.127,-123.80966666666667,22.86,1.51,NC.KCPB..HHZ,P,-1.0,2018-08-11 17:43:18.090
nc73068425,2018-08-11 17:43:08.040,40.127,-123.80966666666667,22.86,1.51,NC.KCR..EHZ,P,1.0,2018-08-11 17:43:15.210
nc73068425,2018-08-11 17:43:08.040,40.127,-123.80966666666667,22.86,1.51,NC.KIP..EHZ,P,-1.0,2018-08-11 17:43:17.180
nc73068425,2018-08-11 17:43:08.040,40.127,-123.80966666666667,22.86,1.51,NC.KKP..EHZ,P,1.0,2018-08-11 17:43:15.090
nc73068425,2018-08-11 17:43:08.040,40.127,-123.80966666666667,22.86,1.51,NC.KMPB..HHZ,P,1.0,2018-08-11 17:43:16.250
nc73068425,2018-08-11 17:43:08.040,40.127,-123.80966666666667,22.86,1.51,NC.KMR..HHZ,P,-1.0,2018-08-11 17:43:12.930
nc73068425,2018-08-11 17:43:08.040,40.127,-123.80966666666667,22.86,1.51,NC.KSM..EHZ,P,1.0,2018-08-11 17:43:14.880
nc73068425,2018-08-11 17:43:08.040,40.127,-123.80966666666667,22.86,1.51,PB.B045..EHZ,P,-1.0,2018-08-11 17:43:15.650
nc73068425,2018-08-11 17:43:08.040,40.127,-123.80966666666667,22.86,1.51,PB.B046..EHZ,P,1.0,2018-08-11 17:43:16.540
nc73068425,2018-08-11 17:43:08.040,40.127,-123.80966666666667,22.86,1.51,PB.B047..EHZ,P,1.0,2018-08-11 17:43:15.160
nc73068425,2018-08-11 17:43:08.040,40.127,-123.80966666666667,22.86,1.51,PB.B049..EHZ,P,-1.0,2018-08-11 17:43:12.620
nc73068425,2018-08-11 17:43:08.040,40.127,-123.80966666666667,22.86,1.51,PB.B932..EHZ,P,1.0,2018-08-11 17:43:15.560
nc73068425,2018-08-11 17:43:08.040,40.127,-123.80966666666667,22.86,1.51,PB.B933..EHZ,P,1.0,2018-08-11 17:43:13.210
nc73068425,2018-08-11 17:43:08.040,40.127,-123.80966666666667,22.86,1.51,PB.B935..EHZ,P,1.0,2018-08-11 17:43:16.650
nc73074931,2018-08-21 12:09:08.180,40.14333333333333,-123.07516666666666,39.46,2.14,BK.DANT..HHZ,P,,2018-08-21 12:09:24.860
nc73074931,2018-08-21 12:09:08.180,40.14333333333333,-123.07516666666666,39.46,2.14,BK.DCMP..HHZ,P,-1.0,2018-08-21 12:09:20.830
nc73074931,2018-08-21 12:09:08.180,40.14333333333333,-123.07516666666666,39.46,2.14,BK.JCC..HHZ,P,,2018-08-21 12:09:25.000
nc73074931,2018-08-21 12:09:08.180,40.14333333333333,-123.07516666666666,39.46,2.14,BK.PETY..HHZ,P,-1.0,2018-08-21 12:09:15.620
nc73074931,2018-08-21 12:09:08.180,40.14333333333333,-123.07516666666666,39.46,2.14,BK.TRIN..HHZ,P,,2018-08-21 12:09:23.890
nc73074931,2018-08-21 12:09:08.180,40.14333333333333,-123.07516666666666,39.46,2.14,NC.GCK..EHZ,P,1.0,2018-08-21 12:09:23.310
nc73074931,2018-08-21 12:09:08.180,40.14333333333333,-123.07516666666666,39.46,2.14,NC.GMR..EHZ,P,-1.0,2018-08-21 12:09:25.430
nc73074931,2018-08-21 12:09:08.180,40.14333333333333,-123.07516666666666,39.46,2.14,NC.GRO..EHZ,P,1.0,2018-08-21 12:09:17.530
nc73074931,2018-08-21 12:09:08.180,40.14333333333333,-123.07516666666666,39.46,2.14,NC.GTC..EHZ,P,-1.0,2018-08-21 12:09:22.440
nc73074931,2018-08-21 12:09:08.180,40.14333333333333,-123.07516666666666,39.46,2.14,NC.GVV..EHZ,P,1.0,2018-08-21 12:09:18.690
nc73074931,2018-08-21 12:09:08.180,40.14333333333333,-123.07516666666666,39.46,2.14,NC.KBN..EHZ,P,-1.0,2018-08-21 12:09:16.140
nc73074931,2018-08-21 12:09:08.180,40.14333333333333,-123.07516666666666,39.46,2.14,NC.KCO..EHZ,P,-1.0,2018-08-21 12:09:24.140
nc73074931,2018-08-21 12:09:08.180,40.14333333333333,-123.07516666666666,39.46,2.14,NC.KCPB..HHZ,P,-1.0,2018-08-21 12:09:19.770
nc73074931,2018-08-21 12:09:08.180,40.14333333333333,-123.07516666666666,39.46,2.14,NC.KCR..EHZ,P,1.0,2018-08-21 12:09:20.500
nc73074931,2018-08-21 12:09:08.180,40.14333333333333,-123.07516666666666,39.46,2.14,NC.KHBB..HHZ,P,-1.0,2018-08-21 12:09:19.190
nc73074931,2018-08-21 12:09:08.180,40.14333333333333,-123.07516666666666,39.46,2.14,NC.KIP..EHZ,P,-1.0,2018-08-21 12:09:18.100
nc73074931,2018-08-21 12:09:08.180,40.14333333333333,-123.07516666666666,39.46,2.14,NC.KKP..EHZ,P,1.0,2018-08-21 12:09:16.960
nc73074931,2018-08-21 12:09:08.180,40.14333333333333,-123.07516666666666,39.46,2.14,NC.KMPB..HHZ,P,-1.0,2018-08-21 12:09:23.130
nc73074931,2018-08-21 12:09:08.180,40.14333333333333,-123.07516666666666,39.46,2.14,NC.KMR..HHZ,P,1.0,2018-08-21 12:09:18.630
nc73074931,2018-08-21 12:09:08.180,40.14333333333333,-123.07516666666666,39.46,2.14,NC.LBK..EHZ,P,1.0,2018-08-21 12:09:26.020
nc73074931,2018-08-21 12:09:08.180,40.14333333333333,-123.07516666666666,39.46,2.14,NC.LBP..EHZ,P,-1.0,2018-08-21 12:09:15.650
nc73074931,2018-08-21 12:09:08.180,40.14333333333333,-123.07516666666666,39.46,2.14,NC.LGP..EHZ,P,-1.0,2018-08-21 12:09:23.040
nc73074931,2018-08-21 12:09:08.180,40.14333333333333,-123.07516666666666,39.46,2.14,NC.LMI..EHZ,P,1.0,2018-08-21 12:09:22.460
nc73074931,2018-08-21 12:09:08.180,40.14333333333333,-123.07516666666666,39.46,2.14,NC.LPG..EHZ,P,1.0,2018-08-21 12:09:16.460
nc73074931,2018-08-21 12:09:08.180,40.14333333333333,-123.07516666666666,39.46,2.14,NC.LRB..EHZ,P,,2018-08-21 12:09:18.000
nc73074931,2018-08-21 12:09:08.180,40.14333333333333,-123.07516666666666,39.46,2.14,NC.LSF..EHZ,P,1.0,2018-08-21 12:09:20.950
nc73074931,2018-08-21 12:09:08.180,40.14333333333333,-123.07516666666666,39.46,2.14,NC.LSH..EHZ,P,1.0,2018-08-21 12:09:25.700
nc73074931,2018-08-21 12:09:08.180,40.14333333333333,-123.07516666666666,39.46,2.14,NC.LSR..EHZ,P,,2018-08-21 12:09:27.810
nc73074931,2018-08-21 12:09:08.180,40.14333333333333,-123.07516666666666,39.46,2.14,NC.LVR..EHZ,P,1.0,2018-08-21 12:09:16.840
nc73074931,2018-08-21 12:09:08.180,40.14333333333333,-123.07516666666666,39.46,2.14,NC.OCR..EHZ,P,1.0,2018-08-21 12:09:25.400
nc73074931,2018-08-21 12:09:08.180,40.14333333333333,-123.07516666666666,39.46,2.14,NC.OSU..EHZ,P,,2018-08-21 12:09:28.810
nc73074931,2018-08-21 12:09:08.180,40.14333333333333,-123.07516666666666,39.46,2.14,PB.B047..EHZ,P,-1.0,2018-08-21 12:09:23.110
nc73074931,2018-08-21 12:09:08.180,40.14333333333333,-123.07516666666666,39.46,2.14,PB.B049..EHZ,P,1.0,2018-08-21 12:09:19.420
nc73074931,2018-08-21 12:09:08.180,40.14333333333333,-123.07516666666666,39.46,2.14,PB.B932..EHZ,P,-1.0,2018-08-21 12:09:23.440
nc73074931,2018-08-21 12:09:08.180,40.14333333333333,-123.07516666666666,39.46,2.14,PB.B934..EHZ,P,-1.0,2018-08-21 12:09:19.400
nc73074931,2018-08-21 12:09:08.180,40.14333333333333,-123.07516666666666,39.46,2.14,PB.B935..EHZ,P,1.0,2018-08-21 12:09:19.030
nc73074570,2018-08-23 08:05:10.120,40.131,-123.79716666666667,21.81,2.04,BK.DCMP..HHZ,P,-1.0,2018-08-23 08:05:23.180
nc73074570,2018-08-23 08:05:10.120,40.131,-123.79716666666667,21.81,2.04,BK.JCC..HHZ,P,-1.0,2018-08-23 08:05:22.830
nc73074570,2018-08-23 08:05:10.120,40.131,-123.79716666666667,21.81,2.04,BK.PETY..HHZ,P,1.0,2018-08-23 08:05:24.460
nc73074570,2018-08-23 08:05:10.120,40.131,-123.79716666666667,21.81,2.04,BK.TRIN..HHZ,P,1.0,2018-08-23 08:05:30.110
nc73074570,2018-08-23 08:05:10.120,40.131,-123.79716666666667,21.81,2.04,NC.GRO..EHZ,P,1.0,2018-08-23 08:05:26.060
nc73074570,2018-08-23 08:05:10.120,40.131,-123.79716666666667,21.81,2.04,NC.GVV..EHZ,P,-1.0,2018-08-23 08:05:26.840
nc73074570,2018-08-23 08:05:10.120,40.131,-123.79716666666667,21.81,2.04,NC.KBN..EHZ,P,1.0,2018-08-23 08:05:21.170
nc73074570,2018-08-23 08:05:10.120,40.131,-123.79716666666667,21.81,2.04,NC.KCO..EHZ,P,1.0,2018-08-23 08:05:18.320
nc73074570,2018-08-23 08:05:10.120,40.131,-123.79716666666667,21.81,2.04,NC.KCPB..HHZ,P,-1.0,2018-08-23 08:05:19.870
nc73074570,2018-08-23 08:05:10.120,40.131,-123.79716666666667,21.81,2.04,NC.KCR..EHZ,P,-1.0,2018-08-23 08:05:17.130
nc73074570,2018-08-23 08:05:10.120,40.131,-123.79716666666667,21.81,2.04,NC.KCT..HHZ,P,1.0,2018-08-23 08:05:21.530
nc73074570,2018-08-23 08:05:10.120,40.131,-123.79716666666667,21.81,2.04,NC.KFP..EHZ,P,1.0,2018-08-23 08:05:21.450
nc73074570,2018-08-23 08:05:10.120,40.131,-123.79716666666667,21.81,2.04,NC.KHBB..HHZ,P,-1.0,2018-08-23 08:05:23.160
nc73074570,2018-08-23 08:05:10.120,40.131,-123.79716666666667,21.81,2.04,NC.KHMB..HHZ,P,,2018-08-23 08:05:23.860
nc73074570,2018-08-23 08:05:10.120,40.131,-123.79716666666667,21.81,2.04,NC.KIP..EHZ,P,-1.0,2018-08-23 08:05:18.870
nc73074570,2018-08-23 08:05:10.120,40.131,-123.79716666666667,21.81,2.04,NC.KKP..EHZ,P,1.0,2018-08-23 08:05:16.870
nc73074570,2018-08-23 08:05:10.120,40.131,-123.79716666666667,21.81,2.04,NC.KMPB..HHZ,P,-1.0,2018-08-23 08:05:18.650
nc73074570,2018-08-23 08:05:10.120,40.131,-123.79716666666667,21.81,2.04,NC.KMR..HHZ,P,-1.0,2018-08-23 08:05:14.800
nc73074570,2018-08-23 08:05:10.120,40.131,-123.79716666666667,21.81,2.04,NC.LBK..EHZ,P,-1.0,2018-08-23 08:05:31.740
nc73074570,2018-08-23 08:05:10.120,40.131,-123.79716666666667,21.81,2.04,NC.LBP..EHZ,P,1.0,2018-08-23 08:05:23.570
nc73074570,2018-08-23 08:05:10.120,40.131,-123.79716666666667,21.81,2.04,NC.LGP..EHZ,P,1.0,2018-08-23 08:05:28.320
