event_id,etime,elat,elon,edep,emag,station_id,phase_type,phase_polarity,phase_time
nc73040871,2018-07-06 23:04:34.190,40.339333333333336,-123.64716666666666,21.36,1.65,NC.LBP..EHZ,P,1.0,2018-07-06 23:04:45.360
nc73040871,2018-07-06 23:04:34.190,40.339333333333336,-123.64716666666666,21.36,1.65,NC.LGP..EHZ,P,,2018-07-06 23:04:49.290
nc73040871,2018-07-06 23:04:34.190,40.339333333333336,-123.64716666666666,21.36,1.65,NC.LPG..EHZ,P,-1.0,2018-07-06 23:04:48.140
nc73040871,2018-07-06 23:04:34.190,40.339333333333336,-123.64716666666666,21.36,1.65,NC.LVR..EHZ,P,1.0,2018-07-06 23:04:48.900
nc73040871,2018-07-06 23:04:34.190,40.339333333333336,-123.64716666666666,21.36,1.65,PB.B045..EHZ,P,1.0,2018-07-06 23:04:40.990
nc73040871,2018-07-06 23:04:34.190,40.339333333333336,-123.64716666666666,21.36,1.65,PB.B046..EHZ,P,-1.0,2018-07-06 23:04:43.970
nc73040871,2018-07-06 23:04:34.190,40.339333333333336,-123.64716666666666,21.36,1.65,PB.B047..EHZ,P,,2018-07-06 23:04:42.590
nc73040871,2018-07-06 23:04:34.190,40.339333333333336,-123.64716666666666,21.36,1.65,PB.B049..EHZ,P,1.0,2018-07-06 23:04:39.270
nc73040871,2018-07-06 23:04:34.190,40.339333333333336,-123.64716666666666,21.36,1.65,PB.B932..EHZ,P,1.0,2018-07-06 23:04:42.960
nc73040871,2018-07-06 23:04:34.190,40.339333333333336,-123.64716666666666,21.36,1.65,PB.B935..EHZ,P,-1.0,2018-07-06 23:04:39.290
nc73040931,2018-07-07 03:09:51.680,40.096833333333336,-123.06,41.05,2.03,BK.DANT..HHZ,P,,2018-07-07 03:10:08.370
nc73040931,2018-07-07 03:09:51.680,40.096833333333336,-123.06,41.05,2.03,BK.DCMP..HHZ,P,1.0,2018-07-07 03:10:04.200
nc73040931,2018-07-07 03:09:51.680,40.096833333333336,-123.06,41.05,2.03,BK.JCC..HHZ,P,,2018-07-07 03:10:09.010
nc73040931,2018-07-07 03:09:51.680,40.096833333333336,-123.06,41.05,2.03,BK.PETY..HHZ,P,1.0,2018-07-07 03:09:59.370
nc73040931,2018-07-07 03:09:51.680,40.096833333333336,-123.06,41.05,2.03,BK.TRIN..HHZ,P,1.0,2018-07-07 03:10:08.150
nc73040931,2018-07-07 03:09:51.680,40.096833333333336,-123.06,41.05,2.03,CE.79036..HNZ,P,,2018-07-07 03:10:00.880
nc73040931,2018-07-07 03:09:51.680,40.096833333333336,-123.06,41.05,2.03,NC.GCK..EHZ,P,1.0,2018-07-07 03:10:06.400
nc73040931,2018-07-07 03:09:51.680,40.096833333333336,-123.06,41.05,2.03,NC.GTC..EHZ,P,-1.0,2018-07-07 03:10:05.790
nc73040931,2018-07-07 03:09:51.680,40.096833333333336,-123.06,41.05,2.03,NC.GVV..EHZ,P,1.0,2018-07-07 03:10:01.940
nc73040931,2018-07-07 03:09:51.680,40.096833333333336,-123.06,41.05,2.03,NC.KBN..EHZ,P,-1.0,2018-07-07 03:09:59.660
nc73040931,2018-07-07 03:09:51.680,40.096833333333336,-123.06,41.05,2.03,NC.KCPB..HHZ,P,1.0,2018-07-07 03:10:03.270
nc73040931,2018-07-07 03:09:51.680,40.096833333333336,-123.06,41.05,2.03,NC.KCR..EHZ,P,1.0,2018-07-07 03:10:04.470
nc73040931,2018-07-07 03:09:51.680,40.096833333333336,-123.06,41.05,2.03,NC.KHBB..HHZ,P,1.0,2018-07-07 03:10:03.180
nc73040931,2018-07-07 03:09:51.680,40.096833333333336,-123.06,41.05,2.03,NC.KIP..EHZ,P,-1.0,2018-07-07 03:10:01.540
nc73040931,2018-07-07 03:09:51.680,40.096833333333336,-123.06,41.05,2.03,NC.KKP..EHZ,P,1.0,2018-07-07 03:10:00.810
nc73040931,2018-07-07 03:09:51.680,40.096833333333336,-123.06,41.05,2.03,NC.KMR..HHZ,P,,2018-07-07 03:10:02.220
nc73040931,2018-07-07 03:09:51.680,40.096833333333336,-123.06,41.05,2.03,NC.LBP..EHZ,P,-1.0,2018-07-07 03:09:59.570
nc73040931,2018-07-07 03:09:51.680,40.096833333333336,-123.06,41.05,2.03,NC.LGP..EHZ,P,1.0,2018-07-07 03:10:06.830
nc73040931,2018-07-07 03:09:51.680,40.096833333333336,-123.06,41.05,2.03,NC.LMI..EHZ,P,,2018-07-07 03:10:06.020
nc73040931,2018-07-07 03:09:51.680,40.096833333333336,-123.06,41.05,2.03,NC.LPG..EHZ,P,1.0,2018-07-07 03:10:00.030
nc73040931,2018-07-07 03:09:51.680,40.096833333333336,-123.06,41.05,2.03,NC.LRB..EHZ,P,1.0,2018-07-07 03:10:01.540
nc73040931,2018-07-07 03:09:51.680,40.096833333333336,-123.06,41.05,2.03,NC.LSF..EHZ,P,,2018-07-07 03:10:04.580
nc73040931,2018-07-07 03:09:51.680,40.096833333333336,-123.06,41.05,2.03,NC.LSH..EHZ,P,-1.0,2018-07-07 03:10:09.220
nc73040931,2018-07-07 03:09:51.680,40.096833333333336,-123.06,41.05,2.03,NC.LVR..EHZ,P,1.0,2018-07-07 03:10:00.330
nc73040931,2018-07-07 03:09:51.680,40.096833333333336,-123.06,41.05,2.03,PB.B047..EHZ,P,-1.0,2018-07-07 03:10:06.980
nc73040931,2018-07-07 03:09:51.680,40.096833333333336,-123.06,41.05,2.03,PB.B049..EHZ,P,1.0,2018-07-07 03:10:03.290
nc73040931,2018-07-07 03:09:51.680,40.096833333333336,-123.06,41.05,2.03,PB.B932..EHZ,P,-1.0,2018-07-07 03:10:07.420
nc73042906,2018-07-11 05:10:56.350,39.94383333333333,-123.58516666666667,-0.11,1.76,BK.DCMP..HHZ,P,1.0,2018-07-11 05:11:07.480
nc73042906,2018-07-11 05:10:56.350,39.94383333333333,-123.58516666666667,-0.11,1.76,BK.PETY..HHZ,P,1.0,2018-07-11 05:11:10.990
nc73042906,2018-07-11 05:10:56.350,39.94383333333333,-123.58516666666667,-0.11,1.76,NC.GHM..EHZ,P,1.0,2018-07-11 05:11:11.370
nc73042906,2018-07-11 05:10:56.350,39.94383333333333,-123.58516666666667,-0.11,1.76,NC.GTC..EHZ,P,-1.0,2018-07-11 05:11:08.320
nc73042906,2018-07-11 05:10:56.350,39.94383333333333,-123.58516666666667,-0.11,1.76,NC.GVV..EHZ,P,1.0,2018-07-11 05:11:12.220
nc73042906,2018-07-11 05:10:56.350,39.94383333333333,-123.58516666666667,-0.11,1.76,NC.KBN..EHZ,P,1.0,2018-07-11 05:11:04.250
nc73042906,2018-07-11 05:10:56.350,39.94383333333333,-123.58516666666667,-0.11,1.76,NC.KCPB..HHZ,P,-1.0,2018-07-11 05:11:02.660
nc73042906,2018-07-11 05:10:56.350,39.94383333333333,-123.58516666666667,-0.11,1.76,NC.KCR..EHZ,P,1.0,2018-07-11 05:11:07.570
nc73042906,2018-07-11 05:10:56.350,39.94383333333333,-123.58516666666667,-0.11,1.76,NC.KFP..EHZ,P,1.0,2018-07-11 05:11:04.330
nc73042906,2018-07-11 05:10:56.350,39.94383333333333,-123.58516666666667,-0.11,1.76,NC.KIP..EHZ,P,1.0,2018-07-11 05:11:00.780
nc73042906,2018-07-11 05:10:56.350,39.94383333333333,-123.58516666666667,-0.11,1.76,NC.KKP..EHZ,P,1.0,2018-07-11 05:11:02.530
nc73042906,2018-07-11 05:10:56.350,39.94383333333333,-123.58516666666667,-0.11,1.76,NC.KMR..HHZ,P,1.0,2018-07-11 05:11:03.860
nc73042906,2018-07-11 05:10:56.350,39.94383333333333,-123.58516666666667,-0.11,1.76,NC.KSM..EHZ,P,-1.0,2018-07-11 05:11:08.320
nc73042906,2018-07-11 05:10:56.350,39.94383333333333,-123.58516666666667,-0.11,1.76,NC.LPG..EHZ,P,-1.0,2018-07-11 05:11:12.390
nc73042906,2018-07-11 05:10:56.350,39.94383333333333,-123.58516666666667,-0.11,1.76,NC.LVR..EHZ,P,1.0,2018-07-11 05:11:11.920
nc73042906,2018-07-11 05:10:56.350,39.94383333333333,-123.58516666666667,-0.11,1.76,PB.B047..EHZ,P,-1.0,2018-07-11 05:11:08.920
nc73042906,2018-07-11 05:10:56.350,39.94383333333333,-123.58516666666667,-0.11,1.76,PB.B049..EHZ,P,1.0,2018-07-11 05:11:04.680
nc73042906,2018-07-11 05:10:56.350,39.94383333333333,-123.58516666666667,-0.11,1.76,PB.B934..EHZ,P,1.0,2018-07-11 05:11:00.050
nc73042906,2018-07-11 05:10:56.350,39.94383333333333,-123.58516666666667,-0.11,1.76,PB.B935..EHZ,P,1.0,2018-07-11 05:11:07.400
nc73043131,2018-07-11 15:35:09.900,39.812333333333335,-123.1665,8.05,1.8,BK.DCMP..HHZ,P,-1.0,2018-07-11 15:35:17.110
nc73043131,2018-07-11 15:35:09.900,39.812333333333335,-123.1665,8.05,1.8,BK.HOPS..HHZ,P,1.0,2018-07-11 15:35:26.320
nc73043131,2018-07-11 15:35:09.900,39.812333333333335,-123.1665,8.05,1.8,BK.PETY..HHZ,P,1.0,2018-07-11 15:35:19.400
nc73043131,2018-07-11 15:35:09.900,39.812333333333335,-123.1665,8.05,1.8,CE.79036..HNZ,P,1.0,2018-07-11 15:35:12.100
nc73043131,2018-07-11 15:35:09.900,39.812333333333335,-123.1665,8.05,1.8,NC.GHL..EHZ,P,-1.0,2018-07-11 15:35:25.210
nc73043131,2018-07-11 15:35:09.900,39.812333333333335,-123.1665,8.05,1.8,NC.GHM..EHZ,P,-1.0,2018-07-11 15:35:17.440
nc73043131,2018-07-11 15:35:09.900,39.812333333333335,-123.1665,8.05,1.8,NC.GMR..EHZ,P,1.0,2018-07-11 15:35:23.930
nc73043131,2018-07-11 15:35:09.900,39.812333333333335,-123.1665,8.05,1.8,NC.GTC..EHZ,P,1.0,2018-07-11 15:35:20.050
nc73043131,2018-07-11 15:35:09.900,39.812333333333335,-123.1665,8.05,1.8,NC.KBN..EHZ,P,1.0,2018-07-11 15:35:12.510
nc73043131,2018-07-11 15:35:09.900,39.812333333333335,-123.1665,8.05,1.8,NC.KCPB..HHZ,P,-1.0,2018-07-11 15:35:17.050
nc73043131,2018-07-11 15:35:09.900,39.812333333333335,-123.1665,8.05,1.8,NC.KCR..EHZ,P,-1.0,2018-07-11 15:35:25.550
nc73043131,2018-07-11 15:35:09.900,39.812333333333335,-123.1665,8.05,1.8,NC.KHBB..HHZ,P,-1.0,2018-07-11 15:35:25.990
nc73043131,2018-07-11 15:35:09.900,39.812333333333335,-123.1665,8.05,1.8,NC.KIP..EHZ,P,-1.0,2018-07-11 15:35:14.770
nc73043131,2018-07-11 15:35:09.900,39.812333333333335,-123.1665,8.05,1.8,NC.KKP..EHZ,P,-1.0,2018-07-11 15:35:18.640
nc73043131,2018-07-11 15:35:09.900,39.812333333333335,-123.1665,8.05,1.8,NC.KMR..HHZ,P,-1.0,2018-07-11 15:35:21.340
nc73043131,2018-07-11 15:35:09.900,39.812333333333335,-123.1665,8.05,1.8,NC.KSM..EHZ,P,-1.0,2018-07-11 15:35:25.750
nc73043131,2018-07-11 15:35:09.900,39.812333333333335,-123.1665,8.05,1.8,NC.LBP..EHZ,P,1.0,2018-07-11 15:35:20.930
nc73043131,2018-07-11 15:35:09.900,39.812333333333335,-123.1665,8.05,1.8,NC.LGP..EHZ,P,-1.0,2018-07-11 15:35:31.620
nc73043131,2018-07-11 15:35:09.900,39.812333333333335,-123.1665,8.05,1.8,NC.LPG..EHZ,P,1.0,2018-07-11 15:35:20.110
nc73043131,2018-07-11 15:35:09.900,39.812333333333335,-123.1665,8.05,1.8,NC.LRB..EHZ,P,-1.0,2018-07-11 15:35:22.010
nc73043131,2018-07-11 15:35:09.900,39.812333333333335,-123.1665,8.05,1.8,NC.LVR..EHZ,P,1.0,2018-07-11 15:35:18.910
nc73043131,2018-07-11 15:35:09.900,39.812333333333335,-123.1665,8.05,1.8,PB.B046..EHZ,P,-1.0,2018-07-11 15:35:29.280
nc73043131,2018-07-11 15:35:09.900,39.812333333333335,-123.1665,8.05,1.8,PB.B047..EHZ,P,-1.0,2018-07-11 15:35:26.230
nc73043131,2018-07-11 15:35:09.900,39.812333333333335,-123.1665,8.05,1.8,PB.B049..EHZ,P,1.0,2018-07-11 15:35:22.850
nc73043131,2018-07-11 15:35:09.900,39.812333333333335,-123.1665,8.05,1.8,PB.B932..EHZ,P,1.0,2018-07-11 15:35:28.730
nc73043131,2018-07-11 15:35:09.900,39.812333333333335,-123.1665,8.05,1.8,PB.B935..EHZ,P,-1.0,2018-07-11 15:35:24.810
nc73049201,2018-07-18 20:38:10.550,40.52133333333333,-123.50966666666666,7.81,2.37,BK.DANT..HHZ,P,1.0,2018-07-18 20:38:35.030
nc73049201,2018-07-18 20:38:10.550,40.52133333333333,-123.50966666666666,7.81,2.37,BK.DCMP..HHZ,P,1.0,2018-07-18 20:38:30.420
nc73049201,2018-07-18 20:38:10.550,40.52133333333333,-123.50966666666666,7.81,2.37,BK.JCC..HHZ,P,1.0,2018-07-18 20:38:21.560
nc73049201,2018-07-18 20:38:10.550,40.52133333333333,-123.50966666666666,7.81,2.37,BK.PETY..HHZ,P,1.0,2018-07-18 20:38:23.860
nc73049201,2018-07-18 20:38:10.550,40.52133333333333,-123.50966666666666,7.81,2.37,BK.SCOT..HHZ,P,1.0,2018-07-18 20:38:29.480
nc73049201,2018-07-18 20:38:10.550,40.52133333333333,-123.50966666666666,7.81,2.37,BK.TRIN..HHZ,P,-1.0,2018-07-18 20:38:25.430
nc73049201,2018-07-18 20:38:10.550,40.52133333333333,-123.50966666666666,7.81,2.37,BK.YBH..HHZ,P,1.0,2018-07-18 20:38:35.250
nc73049201,2018-07-18 20:38:10.550,40.52133333333333,-123.50966666666666,7.81,2.37,NC.GRO..EHZ,P,-1.0,2018-07-18 20:38:28.250
nc73049201,2018-07-18 20:38:10.550,40.52133333333333,-123.50966666666666,7.81,2.37,NC.GVV..EHZ,P,1.0,2018-07-18 20:38:29.760
nc73049201,2018-07-18 20:38:10.550,40.52133333333333,-123.50966666666666,7.81,2.37,NC.KBN..EHZ,P,1.0,2018-07-18 20:38:24.570
nc73049201,2018-07-18 20:38:10.550,40.52133333333333,-123.50966666666666,7.81,2.37,NC.KCO..EHZ,P,,2018-07-18 20:38:24.010
nc73049201,2018-07-18 20:38:10.550,40.52133333333333,-123.50966666666666,7.81,2.37,NC.KCR..EHZ,P,-1.0,2018-07-18 20:38:16.520
nc73049201,2018-07-18 20:38:10.550,40.52133333333333,-123.50966666666666,7.81,2.37,NC.KFP..EHZ,P,,2018-07-18 20:38:28.280
nc73049201,2018-07-18 20:38:10.550,40.52133333333333,-123.50966666666666,7.81,2.37,NC.KHBB..HHZ,P,-1.0,2018-07-18 20:38:16.920
nc73049201,2018-07-18 20:38:10.550,40.52133333333333,-123.50966666666666,7.81,2.37,NC.KHMB..HHZ,P,1.0,2018-07-18 20:38:18.930
nc73049201,2018-07-18 20:38:10.550,40.52133333333333,-123.50966666666666,7.81,2.37,NC.KIP..EHZ,P,-1.0,2018-07-18 20:38:25.550
nc73049201,2018-07-18 20:38:10.550,40.52133333333333,-123.50966666666666,7.81,2.37,NC.KKP..EHZ,P,-1.0,2018-07-18 20:38:19.300
nc73049201,2018-07-18 20:38:10.550,40.52133333333333,-123.50966666666666,7.81,2.37,NC.KMPB..HHZ,P,-1.0,2018-07-18 20:38:20.740
nc73049201,2018-07-18 20:38:10.550,40.52133333333333,-123.50966666666666,7.81,2.37,NC.KMR..HHZ,P,-1.0,2018-07-18 20:38:18.520
nc73049201,2018-07-18 20:38:10.550,40.52133333333333,-123.50966666666666,7.81,2.37,NC.KOM..EHZ,P,-1.0,2018-07-18 20:38:25.100
nc73049201,2018-07-18 20:38:10.550,40.52133333333333,-123.50966666666666,7.81,2.37,NC.KPP..EHZ,P,1.0,2018-07-18 20:38:16.050
nc73049201,2018-07-18 20:38:10.550,40.52133333333333,-123.50966666666666,7.81,2.37,NC.KRP..HHZ,P,,2018-07-18 20:38:26.130
nc73049201,2018-07-18 20:38:10.550,40.52133333333333,-123.50966666666666,7.81,2.37,NC.KSM..EHZ,P,-1.0,2018-07-18 20:38:23.520
nc73049201,2018-07-18 20:38:10.550,40.52133333333333,-123.50966666666666,7.81,2.37,NC.LAMB..EHZ,P,,2018-07-18 20:38:34.130
nc73049201,2018-07-18 20:38:10.550,40.52133333333333,-123.50966666666666,7.81,2.37,NC.LBF..EHZ,P,1.0,2018-07-18 20:38:38.570
nc73049201,2018-07-18 20:38:10.550,40.52133333333333,-123.50966666666666,7.81,2.37,NC.LBK..EHZ,P,-1.0,2018-07-18 20:38:27.040
nc73049201,2018-07-18 20:38:10.550,40.52133333333333,-123.50966666666666,7.81,2.37,NC.LBP..EHZ,P,-1.0,2018-07-18 20:38:21.390
nc73049201,2018-07-18 20:38:10.550,40.52133333333333,-123.50966666666666,7.81,2.37,NC.LGM..EHZ,P,1.0,2018-07-18 20:38:41.660
nc73049201,2018-07-18 20:38:10.550,40.52133333333333,-123.50966666666666,7.81,2.37,NC.LGP..EHZ,P,-1.0,2018-07-18 20:38:23.580
nc73049201,2018-07-18 20:38:10.550,40.52133333333333,-123.50966666666666,7.81,2.37,NC.LHE..EHZ,P,,2018-07-18 20:38:38.080
nc73049201,2018-07-18 20:38:10.550,40.52133333333333,-123.50966666666666,7.81,2.37,NC.LMI..EHZ,P,-1.0,2018-07-18 20:38:30.690
nc73049201,2018-07-18 20:38:10.550,40.52133333333333,-123.50966666666666,7.81,2.37,NC.LPG..EHZ,P,-1.0,2018-07-18 20:38:25.670
nc73049201,2018-07-18 20:38:10.550,40.52133333333333,-123.50966666666666,7.81,2.37,NC.LRB..EHZ,P,-1.0,2018-07-18 20:38:27.430
nc73049201,2018-07-18 20:38:10.550,40.52133333333333,-123.50966666666666,7.81,2.37,NC.LRR..EHZ,P,,2018-07-18 20:38:37.310
nc73049201,2018-07-18 20:38:10.550,40.52133333333333,-123.50966666666666,7.81,2.37,NC.LSF..EHZ,P,-1.0,2018-07-18 20:38:25.790
nc73049201,2018-07-18 20:38:10.550,40.52133333333333,-123.50966666666666,7.81,2.37,NC.LSH..EHZ,P,-1.0,2018-07-18 20:38:32.350
nc73049201,2018-07-18 20:38:10.550,40.52133333333333,-123.50966666666666,7.81,2.37,NC.LSR..EHZ,P,,2018-07-18 20:38:31.620
nc73049201,2018-07-18 20:38:10.550,40.52133333333333,-123.50966666666666,7.81,2.37,NC.LVR..EHZ,P,-1.0,2018-07-18 20:38:26.860
nc73049201,2018-07-18 20:38:10.550,40.52133333333333,-123.50966666666666,7.81,2.37,NC.LWH..EHZ,P,1.0,2018-07-18 20:38:33.080
nc73049201,2018-07-18 20:38:10.550,40.52133333333333,-123.50966666666666,7.81,2.37,PB.B040..EHZ,P,,2018-07-18 20:38:39.070
nc73049201,2018-07-18 20:38:10.550,40.52133333333333,-123.50966666666666,7.81,2.37,PB.B045..EHZ,P,-1.0,2018-07-18 20:38:18.900
nc73049201,2018-07-18 20:38:10.550,40.52133333333333,-123.50966666666666,7.81,2.37,PB.B046..EHZ,P,-1.0,2018-07-18 20:38:23.760
nc73049201,2018-07-18 20:38:10.550,40.52133333333333,-123.50966666666666,7.81,2.37,PB.B047..EHZ,P,-1.0,2018-07-18 20:38:22.610
nc73049201,2018-07-18 20:38:10.550,40.52133333333333,-123.50966666666666,7.81,2.37,PB.B049..EHZ,P,-1.0,2018-07-18 20:38:18.580
nc73049201,2018-07-18 20:38:10.550,40.52133333333333,-123.50966666666666,7.81,2.37,PB.B932..EHZ,P,-1.0,2018-07-18 20:38:23.010
nc73049201,2018-07-18 20:38:10.550,40.52133333333333,-123.50966666666666,7.81,2.37,PB.B935..EHZ,P,1.0,2018-07-18 20:38:13.050
nc73049236,2018-07-18 21:52:30.890,40.5175,-123.506,7.39,2.34,BK.DCMP..HHZ,P,-1.0,2018-07-18 21:52:50.740
nc73049236,2018-07-18 21:52:30.890,40.5175,-123.506,7.39,2.34,BK.JCC..HHZ,P,-1.0,2018-07-18 21:52:41.640
nc73049236,2018-07-18 21:52:30.890,40.5175,-123.506,7.39,2.34,BK.PETY..HHZ,P,1.0,2018-07-18 21:52:44.160
nc73049236,2018-07-18 21:52:30.890,40.5175,-123.506,7.39,2.34,BK.SCOT..HHZ,P,1.0,2018-07-18 21:52:49.730
nc73049236,2018-07-18 21:52:30.890,40.5175,-123.506,7.39,2.34,BK.TRIN..HHZ,P,,2018-07-18 21:52:45.920
nc73049236,2018-07-18 21:52:30.890,40.5175,-123.506,7.39,2.34,BK.YBH..HHZ,P,1.0,2018-07-18 21:52:55.510
nc73049236,2018-07-18 21:52:30.890,40.5175,-123.506,7.39,2.34,NC.GRO..EHZ,P,-1.0,2018-07-18 21:52:48.510
nc73049236,2018-07-18 21:52:30.890,40.5175,-123.506,7.39,2.34,NC.GTC..EHZ,P,,2018-07-18 21:52:51.770
nc73049236,2018-07-18 21:52:30.890,40.5175,-123.506,7.39,2.34,NC.GVV..EHZ,P,-1.0,2018-07-18 21:52:50.090
nc73049236,2018-07-18 21:52:30.890,40.5175,-123.506,7.39,2.34,NC.KBN..EHZ,P,1.0,2018-07-18 21:52:44.840
nc73049236,2018-07-18 21:52:30.890,40.5175,-123.506,7.39,2.34,NC.KCO..EHZ,P,1.0,2018-07-18 21:52:44.490
nc73049236,2018-07-18 21:52:30.890,40.5175,-123.506,7.39,2.34,NC.KCR..EHZ,P,-1.0,2018-07-18 21:52:36.840
nc73049236,2018-07-18 21:52:30.890,40.5175,-123.506,7.39,2.34,NC.KCT..HHZ,P,-1.0,2018-07-18 21:52:44.700
nc73049236,2018-07-18 21:52:30.890,40.5175,-123.506,7.39,2.34,NC.KHBB..HHZ,P,-1.0,2018-07-18 21:52:37.200
nc73049236,2018-07-18 21:52:30.890,40.5175,-123.506,7.39,2.34,NC.KHMB..HHZ,P,1.0,2018-07-18 21:52:39.260
nc73049236,2018-07-18 21:52:30.890,40.5175,-123.506,7.39,2.34,NC.KIP..EHZ,P,,2018-07-18 21:52:45.730
nc73049236,2018-07-18 21:52:30.890,40.5175,-123.506,7.39,2.34,NC.KKP..EHZ,P,-1.0,2018-07-18 21:52:39.610
nc73049236,2018-07-18 21:52:30.890,40.5175,-123.506,7.39,2.34,NC.KMPB..HHZ,P,1.0,2018-07-18 21:52:41.040
nc73049236,2018-07-18 21:52:30.890,40.5175,-123.506,7.39,2.34,NC.KMR..HHZ,P,-1.0,2018-07-18 21:52:38.820
nc73049236,2018-07-18 21:52:30.890,40.5175,-123.506,7.39,2.34,NC.KOM..EHZ,P,-1.0,2018-07-18 21:52:45.410
nc73049236,2018-07-18 21:52:30.890,40.5175,-123.506,7.39,2.34,NC.KPP..EHZ,P,1.0,2018-07-18 21:52:36.290
nc73049236,2018-07-18 21:52:30.890,40.5175,-123.506,7.39,2.34,NC.KSM..EHZ,P,-1.0,2018-07-18 21:52:43.850
nc73049236,2018-07-18 21:52:30.890,40.5175,-123.506,7.39,2.34,NC.LAMB..EHZ,P,,2018-07-18 21:52:54.600
nc73049236,2018-07-18 21:52:30.890,40.5175,-123.506,7.39,2.34,NC.LBC..EHZ,P,,2018-07-18 21:53:01.530
nc73049236,2018-07-18 21:52:30.890,40.5175,-123.506,7.39,2.34,NC.LBF..EHZ,P,1.0,2018-07-18 21:52:58.900
nc73049236,2018-07-18 21:52:30.890,40.5175,-123.506,7.39,2.34,NC.LBK..EHZ,P,1.0,2018-07-18 21:52:47.410
nc73049236,2018-07-18 21:52:30.890,40.5175,-123.506,7.39,2.34,NC.LBP..EHZ,P,-1.0,2018-07-18 21:52:41.660
nc73049236,2018-07-18 21:52:30.890,40.5175,-123.506,7.39,2.34,NC.LGM..EHZ,P,-1.0,2018-07-18 21:53:02.210
nc73049236,2018-07-18 21:52:30.890,40.5175,-123.506,7.39,2.34,NC.LGP..EHZ,P,-1.0,2018-07-18 21:52:43.860
nc73049236,2018-07-18 21:52:30.890,40.5175,-123.506,7.39,2.34,NC.LHE..EHZ,P,,2018-07-18 21:52:58.370
nc73049236,2018-07-18 21:52:30.890,40.5175,-123.506,7.39,2.34,NC.LMI..EHZ,P,,2018-07-18 21:52:50.770
nc73049236,2018-07-18 21:52:30.890,40.5175,-123.506,7.39,2.34,NC.LPG..EHZ,P,-1.0,2018-07-18 21:52:45.970
nc73049236,2018-07-18 21:52:30.890,40.5175,-123.506,7.39,2.34,NC.LRB..EHZ,P,,2018-07-18 21:52:47.900
nc73049236,2018-07-18 21:52:30.890,40.5175,-123.506,7.39,2.34,NC.LSF..EHZ,P,-1.0,2018-07-18 21:52:46.080
nc73049236,2018-07-18 21:52:30.890,40.5175,-123.506,7.39,2.34,NC.LSH..EHZ,P,-1.0,2018-07-18 21:52:52.640
nc73049236,2018-07-18 21:52:30.890,40.5175,-123.506,7.39,2.34,NC.LSR..EHZ,P,,2018-07-18 21:52:51.920
nc73049236,2018-07-18 21:52:30.890,40.5175,-123.506,7.39,2.34,NC.LVR..EHZ,P,1.0,2018-07-18 21:52:47.020
nc73049236,2018-07-18 21:52:30.890,40.5175,-123.506,7.39,2.34,NC.LWH..EHZ,P,-1.0,2018-07-18 21:52:53.410
nc73049236,2018-07-18 21:52:30.890,40.5175,-123.506,7.39,2.34,PB.B039..EHZ,P,,2018-07-18 21:52:53.710
nc73049236,2018-07-18 21:52:30.890,40.5175,-123.506,7.39,2.34,PB.B040..EHZ,P,,2018-07-18 21:52:59.000
nc73049236,2018-07-18 21:52:30.890,40.5175,-123.506,7.39,2.34,PB.B045..EHZ,P,-1.0,2018-07-18 21:52:39.190
