event_id,etime,elat,elon,edep,emag,station_id,phase_type,phase_polarity,phase_time
nc73139166,2019-02-03 00:36:50.860,40.30766666666667,-124.4745,7.0,3.52,BK.HATC..HHZ,P,,2019-02-03 00:37:29.630
nc73139166,2019-02-03 00:36:50.860,40.30766666666667,-124.4745,7.0,3.52,BK.HOPS..HHZ,P,1.0,2019-02-03 00:37:18.850
nc73139166,2019-02-03 00:36:50.860,40.30766666666667,-124.4745,7.0,3.52,BK.JCC..HHZ,P,1.0,2019-02-03 00:37:03.210
nc73139166,2019-02-03 00:36:50.860,40.30766666666667,-124.4745,7.0,3.52,BK.MNRC..HHZ,P,,2019-02-03 00:37:26.280
nc73139166,2019-02-03 00:36:50.860,40.30766666666667,-124.4745,7.0,3.52,BK.ORV..HHZ,P,1.0,2019-02-03 00:37:29.650
nc73139166,2019-02-03 00:36:50.860,40.30766666666667,-124.4745,7.0,3.52,BK.PETY..HHZ,P,1.0,2019-02-03 00:37:14.140
nc73139166,2019-02-03 00:36:50.860,40.30766666666667,-124.4745,7.0,3.52,BK.SCOT..HHZ,P,1.0,2019-02-03 00:37:18.500
nc73139166,2019-02-03 00:36:50.860,40.30766666666667,-124.4745,7.0,3.52,BK.SHEP..HHZ,P,,2019-02-03 00:37:31.110
nc73139166,2019-02-03 00:36:50.860,40.30766666666667,-124.4745,7.0,3.52,BK.SIGP..HHZ,P,-1.0,2019-02-03 00:37:17.080
nc73139166,2019-02-03 00:36:50.860,40.30766666666667,-124.4745,7.0,3.52,BK.TRIN..HHZ,P,1.0,2019-02-03 00:37:16.670
nc73139166,2019-02-03 00:36:50.860,40.30766666666667,-124.4745,7.0,3.52,BK.WEAV..HHZ,P,1.0,2019-02-03 00:37:12.380
nc73139166,2019-02-03 00:36:50.860,40.30766666666667,-124.4745,7.0,3.52,BK.YBH..HHZ,P,1.0,2019-02-03 00:37:22.950
nc73139166,2019-02-03 00:36:50.860,40.30766666666667,-124.4745,7.0,3.52,CE.79435..HNZ,P,,2019-02-03 00:37:04.600
nc73139166,2019-02-03 00:36:50.860,40.30766666666667,-124.4745,7.0,3.52,CE.89101..HNZ,P,-1.0,2019-02-03 00:36:54.610
nc73139166,2019-02-03 00:36:50.860,40.30766666666667,-124.4745,7.0,3.52,CE.89781..HNZ,P,,2019-02-03 00:37:02.160
nc73139166,2019-02-03 00:36:50.860,40.30766666666667,-124.4745,7.0,3.52,NC.GHC..EHZ,P,1.0,2019-02-03 00:37:22.870
nc73139166,2019-02-03 00:36:50.860,40.30766666666667,-124.4745,7.0,3.52,NC.GRO..EHZ,P,1.0,2019-02-03 00:37:16.700
nc73139166,2019-02-03 00:36:50.860,40.30766666666667,-124.4745,7.0,3.52,NC.GVV..EHZ,P,,2019-02-03 00:37:16.730
nc73139166,2019-02-03 00:36:50.860,40.30766666666667,-124.4745,7.0,3.52,NC.GWR..EHZ,P,1.0,2019-02-03 00:37:15.000
nc73139166,2019-02-03 00:36:50.860,40.30766666666667,-124.4745,7.0,3.52,NC.KBN..EHZ,P,,2019-02-03 00:37:10.710
nc73139166,2019-02-03 00:36:50.860,40.30766666666667,-124.4745,7.0,3.52,NC.KCO..EHZ,P,1.0,2019-02-03 00:36:55.280
nc73139166,2019-02-03 00:36:50.860,40.30766666666667,-124.4745,7.0,3.52,NC.KCPB..HHZ,P,1.0,2019-02-03 00:37:08.340
nc73139166,2019-02-03 00:36:50.860,40.30766666666667,-124.4745,7.0,3.52,NC.KCR..EHZ,P,1.0,2019-02-03 00:37:02.170
nc73139166,2019-02-03 00:36:50.860,40.30766666666667,-124.4745,7.0,3.52,NC.KCT..HHZ,P,-1.0,2019-02-03 00:36:55.880
nc73139166,2019-02-03 00:36:50.860,40.30766666666667,-124.4745,7.0,3.52,NC.KFP..EHZ,P,-1.0,2019-02-03 00:37:10.080
nc73139166,2019-02-03 00:36:50.860,40.30766666666667,-124.4745,7.0,3.52,NC.KHBB..HHZ,P,-1.0,2019-02-03 00:37:09.790
nc73139166,2019-02-03 00:36:50.860,40.30766666666667,-124.4745,7.0,3.52,NC.KHMB..HHZ,P,1.0,2019-02-03 00:37:06.670
nc73139166,2019-02-03 00:36:50.860,40.30766666666667,-124.4745,7.0,3.52,NC.KIP..EHZ,P,1.0,2019-02-03 00:37:08.170
nc73139166,2019-02-03 00:36:50.860,40.30766666666667,-124.4745,7.0,3.52,NC.KKP..EHZ,P,1.0,2019-02-03 00:37:07.210
nc73139166,2019-02-03 00:36:50.860,40.30766666666667,-124.4745,7.0,3.52,NC.KMPB..HHZ,P,1.0,2019-02-03 00:36:57.570
nc73139166,2019-02-03 00:36:50.860,40.30766666666667,-124.4745,7.0,3.52,NC.KMR..HHZ,P,1.0,2019-02-03 00:37:03.450
nc73139166,2019-02-03 00:36:50.860,40.30766666666667,-124.4745,7.0,3.52,NC.KOM..EHZ,P,1.0,2019-02-03 00:37:12.750
nc73139166,2019-02-03 00:36:50.860,40.30766666666667,-124.4745,7.0,3.52,NC.KRMB..HHZ,P,1.0,2019-02-03 00:37:12.920
nc73139166,2019-02-03 00:36:50.860,40.30766666666667,-124.4745,7.0,3.52,NC.KRP..HHZ,P,1.0,2019-02-03 00:37:07.770
nc73139166,2019-02-03 00:36:50.860,40.30766666666667,-124.4745,7.0,3.52,NC.KSXB..HHZ,P,1.0,2019-02-03 00:37:17.050
nc73139166,2019-02-03 00:36:50.860,40.30766666666667,-124.4745,7.0,3.52,NC.LAMB..EHZ,P,1.0,2019-02-03 00:37:22.640
nc73139166,2019-02-03 00:36:50.860,40.30766666666667,-124.4745,7.0,3.52,NC.LBC..EHZ,P,-1.0,2019-02-03 00:37:30.440
nc73139166,2019-02-03 00:36:50.860,40.30766666666667,-124.4745,7.0,3.52,NC.LBF..EHZ,P,1.0,2019-02-03 00:37:28.090
nc73139166,2019-02-03 00:36:50.860,40.30766666666667,-124.4745,7.0,3.52,NC.LBK..EHZ,P,1.0,2019-02-03 00:37:17.810
nc73139166,2019-02-03 00:36:50.860,40.30766666666667,-124.4745,7.0,3.52,NC.LBO..EHZ,P,1.0,2019-02-03 00:37:25.800
nc73139166,2019-02-03 00:36:50.860,40.30766666666667,-124.4745,7.0,3.52,NC.LBP..EHZ,P,,2019-02-03 00:37:12.880
nc73139166,2019-02-03 00:36:50.860,40.30766666666667,-124.4745,7.0,3.52,NC.LBR..HHZ,P,1.0,2019-02-03 00:37:26.530
nc73139166,2019-02-03 00:36:50.860,40.30766666666667,-124.4745,7.0,3.52,NC.LDL..HHZ,P,-1.0,2019-02-03 00:37:24.510
nc73139166,2019-02-03 00:36:50.860,40.30766666666667,-124.4745,7.0,3.52,NC.LEL..EHZ,P,,2019-02-03 00:37:27.990
nc73139166,2019-02-03 00:36:50.860,40.30766666666667,-124.4745,7.0,3.52,NC.LGM..EHZ,P,-1.0,2019-02-03 00:37:30.100
nc73139166,2019-02-03 00:36:50.860,40.30766666666667,-124.4745,7.0,3.52,NC.LGY..HHZ,P,,2019-02-03 00:37:25.220
nc73139166,2019-02-03 00:36:50.860,40.30766666666667,-124.4745,7.0,3.52,NC.LHE..EHZ,P,1.0,2019-02-03 00:37:26.880
nc73139166,2019-02-03 00:36:50.860,40.30766666666667,-124.4745,7.0,3.52,NC.LMC..HHZ,P,-1.0,2019-02-03 00:37:25.090
nc73139166,2019-02-03 00:36:50.860,40.30766666666667,-124.4745,7.0,3.52,NC.LMI..EHZ,P,1.0,2019-02-03 00:37:20.740
nc73139166,2019-02-03 00:36:50.860,40.30766666666667,-124.4745,7.0,3.52,NC.LMP..EHZ,P,1.0,2019-02-03 00:37:26.760
nc73139166,2019-02-03 00:36:50.860,40.30766666666667,-124.4745,7.0,3.52,NC.LPG..EHZ,P,,2019-02-03 00:37:15.350
nc73139166,2019-02-03 00:36:50.860,40.30766666666667,-124.4745,7.0,3.52,NC.LRD..EHZ,P,,2019-02-03 00:37:28.900
nc73139166,2019-02-03 00:36:50.860,40.30766666666667,-124.4745,7.0,3.52,NC.LRR..EHZ,P,,2019-02-03 00:37:26.400
nc73139166,2019-02-03 00:36:50.860,40.30766666666667,-124.4745,7.0,3.52,NC.LSF..EHZ,P,-1.0,2019-02-03 00:37:17.240
nc73139166,2019-02-03 00:36:50.860,40.30766666666667,-124.4745,7.0,3.52,NC.LSI..EHZ,P,,2019-02-03 00:37:29.100
nc73139166,2019-02-03 00:36:50.860,40.30766666666667,-124.4745,7.0,3.52,NC.LSR..EHZ,P,1.0,2019-02-03 00:37:22.130
nc73139166,2019-02-03 00:36:50.860,40.30766666666667,-124.4745,7.0,3.52,NC.LTC..EHZ,P,,2019-02-03 00:37:21.040
nc73139166,2019-02-03 00:36:50.860,40.30766666666667,-124.4745,7.0,3.52,NC.LTI..EHZ,P,-1.0,2019-02-03 00:37:30.220
nc73139166,2019-02-03 00:36:50.860,40.30766666666667,-124.4745,7.0,3.52,NC.LVR..EHZ,P,1.0,2019-02-03 00:37:15.970
nc73139166,2019-02-03 00:36:50.860,40.30766666666667,-124.4745,7.0,3.52,NC.OCR..EHZ,P,,2019-02-03 00:37:25.250
nc73139166,2019-02-03 00:36:50.860,40.30766666666667,-124.4745,7.0,3.52,NC.OSU..EHZ,P,,2019-02-03 00:37:27.480
nc73139166,2019-02-03 00:36:50.860,40.30766666666667,-124.4745,7.0,3.52,NP.1582..HNZ,P,1.0,2019-02-03 00:37:01.100
nc73139166,2019-02-03 00:36:50.860,40.30766666666667,-124.4745,7.0,3.52,NP.1586..HNZ,P,1.0,2019-02-03 00:37:00.250
nc73139166,2019-02-03 00:36:50.860,40.30766666666667,-124.4745,7.0,3.52,NP.1591..HNZ,P,1.0,2019-02-03 00:37:03.010
nc73139166,2019-02-03 00:36:50.860,40.30766666666667,-124.4745,7.0,3.52,PB.B035..EHZ,P,1.0,2019-02-03 00:37:28.350
nc73139166,2019-02-03 00:36:50.860,40.30766666666667,-124.4745,7.0,3.52,PB.B036..EHZ,P,1.0,2019-02-03 00:37:28.420
nc73139166,2019-02-03 00:36:50.860,40.30766666666667,-124.4745,7.0,3.52,PB.B039..EHZ,P,,2019-02-03 00:37:22.370
nc73139166,2019-02-03 00:36:50.860,40.30766666666667,-124.4745,7.0,3.52,PB.B045..EHZ,P,1.0,2019-02-03 00:36:59.430
nc73139166,2019-02-03 00:36:50.860,40.30766666666667,-124.4745,7.0,3.52,PB.B046..EHZ,P,-1.0,2019-02-03 00:37:00.210
nc73139166,2019-02-03 00:36:50.860,40.30766666666667,-124.4745,7.0,3.52,PB.B047..EHZ,P,1.0,2019-02-03 00:36:56.570
nc73139166,2019-02-03 00:36:50.860,40.30766666666667,-124.4745,7.0,3.52,PB.B049..EHZ,P,1.0,2019-02-03 00:37:01.570
nc73139166,2019-02-03 00:36:50.860,40.30766666666667,-124.4745,7.0,3.52,PB.B932..EHZ,P,1.0,2019-02-03 00:36:55.570
nc73139166,2019-02-03 00:36:50.860,40.30766666666667,-124.4745,7.0,3.52,PB.B933..EHZ,P,1.0,2019-02-03 00:37:00.460
nc73139166,2019-02-03 00:36:50.860,40.30766666666667,-124.4745,7.0,3.52,PB.B934..EHZ,P,1.0,2019-02-03 00:37:05.790
nc73139166,2019-02-03 00:36:50.860,40.30766666666667,-124.4745,7.0,3.52,PB.B935..EHZ,P,1.0,2019-02-03 00:37:05.460
nc73139176,2019-02-03 01:23:11.530,40.30266666666667,-124.46983333333333,7.32,2.29,BK.DCMP..HHZ,P,-1.0,2019-02-03 01:23:32.580
nc73139176,2019-02-03 01:23:11.530,40.30266666666667,-124.46983333333333,7.32,2.29,BK.JCC..HHZ,P,1.0,2019-02-03 01:23:23.780
nc73139176,2019-02-03 01:23:11.530,40.30266666666667,-124.46983333333333,7.32,2.29,BK.TRIN..HHZ,P,1.0,2019-02-03 01:23:37.580
nc73139176,2019-02-03 01:23:11.530,40.30266666666667,-124.46983333333333,7.32,2.29,CE.89101..HNZ,P,-1.0,2019-02-03 01:23:15.250
nc73139176,2019-02-03 01:23:11.530,40.30266666666667,-124.46983333333333,7.32,2.29,CE.89462..HNZ,P,1.0,2019-02-03 01:23:19.670
nc73139176,2019-02-03 01:23:11.530,40.30266666666667,-124.46983333333333,7.32,2.29,NC.KCO..EHZ,P,-1.0,2019-02-03 01:23:15.800
nc73139176,2019-02-03 01:23:11.530,40.30266666666667,-124.46983333333333,7.32,2.29,NC.KCR..EHZ,P,1.0,2019-02-03 01:23:22.740
nc73139176,2019-02-03 01:23:11.530,40.30266666666667,-124.46983333333333,7.32,2.29,NC.KCT..HHZ,P,1.0,2019-02-03 01:23:16.590
nc73139176,2019-02-03 01:23:11.530,40.30266666666667,-124.46983333333333,7.32,2.29,NC.KHMB..HHZ,P,1.0,2019-02-03 01:23:27.270
nc73139176,2019-02-03 01:23:11.530,40.30266666666667,-124.46983333333333,7.32,2.29,NC.KKP..EHZ,P,1.0,2019-02-03 01:23:28.040
nc73139176,2019-02-03 01:23:11.530,40.30266666666667,-124.46983333333333,7.32,2.29,NC.KMPB..HHZ,P,1.0,2019-02-03 01:23:18.140
nc73139176,2019-02-03 01:23:11.530,40.30266666666667,-124.46983333333333,7.32,2.29,NC.KMR..HHZ,P,,2019-02-03 01:23:24.120
nc73139176,2019-02-03 01:23:11.530,40.30266666666667,-124.46983333333333,7.32,2.29,NC.KOM..EHZ,P,1.0,2019-02-03 01:23:33.320
nc73139176,2019-02-03 01:23:11.530,40.30266666666667,-124.46983333333333,7.32,2.29,NC.KRMB..HHZ,P,1.0,2019-02-03 01:23:33.550
nc73139176,2019-02-03 01:23:11.530,40.30266666666667,-124.46983333333333,7.32,2.29,NC.KRP..HHZ,P,,2019-02-03 01:23:28.370
nc73139176,2019-02-03 01:23:11.530,40.30266666666667,-124.46983333333333,7.32,2.29,NC.KSXB..HHZ,P,-1.0,2019-02-03 01:23:37.790
nc73139176,2019-02-03 01:23:11.530,40.30266666666667,-124.46983333333333,7.32,2.29,NC.LBK..EHZ,P,,2019-02-03 01:23:38.610
nc73139176,2019-02-03 01:23:11.530,40.30266666666667,-124.46983333333333,7.32,2.29,NP.1582..HNZ,P,-1.0,2019-02-03 01:23:21.800
nc73139176,2019-02-03 01:23:11.530,40.30266666666667,-124.46983333333333,7.32,2.29,NP.1586..HNZ,P,1.0,2019-02-03 01:23:20.880
nc73139176,2019-02-03 01:23:11.530,40.30266666666667,-124.46983333333333,7.32,2.29,PB.B045..EHZ,P,1.0,2019-02-03 01:23:20.000
nc73139176,2019-02-03 01:23:11.530,40.30266666666667,-124.46983333333333,7.32,2.29,PB.B046..EHZ,P,-1.0,2019-02-03 01:23:20.840
nc73139176,2019-02-03 01:23:11.530,40.30266666666667,-124.46983333333333,7.32,2.29,PB.B047..EHZ,P,-1.0,2019-02-03 01:23:17.090
nc73139176,2019-02-03 01:23:11.530,40.30266666666667,-124.46983333333333,7.32,2.29,PB.B049..EHZ,P,,2019-02-03 01:23:22.270
nc73139176,2019-02-03 01:23:11.530,40.30266666666667,-124.46983333333333,7.32,2.29,PB.B932..EHZ,P,-1.0,2019-02-03 01:23:16.100
nc73139176,2019-02-03 01:23:11.530,40.30266666666667,-124.46983333333333,7.32,2.29,PB.B935..EHZ,P,-1.0,2019-02-03 01:23:26.250
nc73139181,2019-02-03 01:38:24.340,40.2955,-124.462,6.62,3.64,BK.DANT..HHZ,P,1.0,2019-02-03 01:38:57.630
nc73139181,2019-02-03 01:38:24.340,40.2955,-124.462,6.62,3.64,BK.DCMP..HHZ,P,1.0,2019-02-03 01:38:45.230
nc73139181,2019-02-03 01:38:24.340,40.2955,-124.462,6.62,3.64,BK.HATC..HHZ,P,,2019-02-03 01:39:02.820
nc73139181,2019-02-03 01:38:24.340,40.2955,-124.462,6.62,3.64,BK.HOPS..HHZ,P,1.0,2019-02-03 01:38:52.320
nc73139181,2019-02-03 01:38:24.340,40.2955,-124.462,6.62,3.64,BK.JCC..HHZ,P,1.0,2019-02-03 01:38:36.570
nc73139181,2019-02-03 01:38:24.340,40.2955,-124.462,6.62,3.64,BK.ORV..HHZ,P,-1.0,2019-02-03 01:39:02.820
nc73139181,2019-02-03 01:38:24.340,40.2955,-124.462,6.62,3.64,BK.PETY..HHZ,P,,2019-02-03 01:38:47.350
nc73139181,2019-02-03 01:38:24.340,40.2955,-124.462,6.62,3.64,BK.SCOT..HHZ,P,1.0,2019-02-03 01:38:51.820
nc73139181,2019-02-03 01:38:24.340,40.2955,-124.462,6.62,3.64,BK.SHEP..HHZ,P,1.0,2019-02-03 01:39:04.480
nc73139181,2019-02-03 01:38:24.340,40.2955,-124.462,6.62,3.64,BK.SIGP..HHZ,P,,2019-02-03 01:38:50.510
nc73139181,2019-02-03 01:38:24.340,40.2955,-124.462,6.62,3.64,BK.TRIN..HHZ,P,1.0,2019-02-03 01:38:49.930
nc73139181,2019-02-03 01:38:24.340,40.2955,-124.462,6.62,3.64,BK.WEAV..HHZ,P,1.0,2019-02-03 01:38:48.480
nc73139181,2019-02-03 01:38:24.340,40.2955,-124.462,6.62,3.64,BK.YBH..HHZ,P,1.0,2019-02-03 01:38:56.290
nc73139181,2019-02-03 01:38:24.340,40.2955,-124.462,6.62,3.64,CE.79435..HNZ,P,1.0,2019-02-03 01:38:37.950
nc73139181,2019-02-03 01:38:24.340,40.2955,-124.462,6.62,3.64,CE.89101..HNZ,P,1.0,2019-02-03 01:38:27.920
nc73139181,2019-02-03 01:38:24.340,40.2955,-124.462,6.62,3.64,CE.89255..HNZ,P,,2019-02-03 01:38:33.240
nc73139181,2019-02-03 01:38:24.340,40.2955,-124.462,6.62,3.64,CE.89462..HNZ,P,-1.0,2019-02-03 01:38:32.270
nc73139181,2019-02-03 01:38:24.340,40.2955,-124.462,6.62,3.64,CE.89781..HNZ,P,,2019-02-03 01:38:35.600
nc73139181,2019-02-03 01:38:24.340,40.2955,-124.462,6.62,3.64,NC.BBGB..HHZ,P,,2019-02-03 01:39:35.300
nc73139181,2019-02-03 01:38:24.340,40.2955,-124.462,6.62,3.64,NC.GRO..EHZ,P,,2019-02-03 01:38:50.030
nc73139181,2019-02-03 01:38:24.340,40.2955,-124.462,6.62,3.64,NC.GVV..EHZ,P,-1.0,2019-02-03 01:38:49.760
nc73139181,2019-02-03 01:38:24.340,40.2955,-124.462,6.62,3.64,NC.GWR..EHZ,P,-1.0,2019-02-03 01:38:48.400
nc73139181,2019-02-03 01:38:24.340,40.2955,-124.462,6.62,3.64,NC.JBZ..EHZ,P,,2019-02-03 01:39:23.070
nc73139181,2019-02-03 01:38:24.340,40.2955,-124.462,6.62,3.64,NC.KBN..EHZ,P,,2019-02-03 01:38:43.990
nc73139181,2019-02-03 01:38:24.340,40.2955,-124.462,6.62,3.64,NC.KCO..EHZ,P,-1.0,2019-02-03 01:38:28.520
nc73139181,2019-02-03 01:38:24.340,40.2955,-124.462,6.62,3.64,NC.KCPB..HHZ,P,1.0,2019-02-03 01:38:41.780
nc73139181,2019-02-03 01:38:24.340,40.2955,-124.462,6.62,3.64,NC.KCR..EHZ,P,1.0,2019-02-03 01:38:35.440
nc73139181,2019-02-03 01:38:24.340,40.2955,-124.462,6.62,3.64,NC.KCT..HHZ,P,1.0,2019-02-03 01:38:29.290
nc73139181,2019-02-03 01:38:24.340,40.2955,-124.462,6.62,3.64,NC.KFP..EHZ,P,1.0,2019-02-03 01:38:43.380
nc73139181,2019-02-03 01:38:24.340,40.2955,-124.462,6.62,3.64,NC.KHBB..HHZ,P,1.0,2019-02-03 01:38:43.060
nc73139181,2019-02-03 01:38:24.340,40.2955,-124.462,6.62,3.64,NC.KHMB..HHZ,P,1.0,2019-02-03 01:38:39.990
nc73139181,2019-02-03 01:38:24.340,40.2955,-124.462,6.62,3.64,NC.KIP..EHZ,P,-1.0,2019-02-03 01:38:41.770
nc73139181,2019-02-03 01:38:24.340,40.2955,-124.462,6.62,3.64,NC.KKP..EHZ,P,1.0,2019-02-03 01:38:40.530
nc73139181,2019-02-03 01:38:24.340,40.2955,-124.462,6.62,3.64,NC.KMPB..HHZ,P,1.0,2019-02-03 01:38:30.880
nc73139181,2019-02-03 01:38:24.340,40.2955,-124.462,6.62,3.64,NC.KMR..HHZ,P,1.0,2019-02-03 01:38:36.710
nc73139181,2019-02-03 01:38:24.340,40.2955,-124.462,6.62,3.64,NC.KOM..EHZ,P,-1.0,2019-02-03 01:38:46.050
nc73139181,2019-02-03 01:38:24.340,40.2955,-124.462,6.62,3.64,NC.KRMB..HHZ,P,1.0,2019-02-03 01:38:46.320
nc73139181,2019-02-03 01:38:24.340,40.2955,-124.462,6.62,3.64,NC.KRP..HHZ,P,1.0,2019-02-03 01:38:41.130
nc73139181,2019-02-03 01:38:24.340,40.2955,-124.462,6.62,3.64,NC.KSXB..HHZ,P,1.0,2019-02-03 01:38:50.460
nc73139181,2019-02-03 01:38:24.340,40.2955,-124.462,6.62,3.64,NC.LAMB..EHZ,P,1.0,2019-02-03 01:38:56.000
nc73139181,2019-02-03 01:38:24.340,40.2955,-124.462,6.62,3.64,NC.LBC..EHZ,P,-1.0,2019-02-03 01:39:03.650
nc73139181,2019-02-03 01:38:24.340,40.2955,-124.462,6.62,3.64,NC.LBF..EHZ,P,1.0,2019-02-03 01:39:01.390
nc73139181,2019-02-03 01:38:24.340,40.2955,-124.462,6.62,3.64,NC.LBK..EHZ,P,1.0,2019-02-03 01:38:51.090
nc73139181,2019-02-03 01:38:24.340,40.2955,-124.462,6.62,3.64,NC.LBO..EHZ,P,1.0,2019-02-03 01:38:59.100
nc73139181,2019-02-03 01:38:24.340,40.2955,-124.462,6.62,3.64,NC.LBP..EHZ,P,-1.0,2019-02-03 01:38:46.290
nc73139181,2019-02-03 01:38:24.340,40.2955,-124.462,6.62,3.64,NC.LBR..HHZ,P,1.0,2019-02-03 01:38:59.910
nc73139181,2019-02-03 01:38:24.340,40.2955,-124.462,6.62,3.64,NC.LDH..HHZ,P,,2019-02-03 01:39:00.320
nc73139181,2019-02-03 01:38:24.340,40.2955,-124.462,6.62,3.64,NC.LDL..HHZ,P,,2019-02-03 01:38:57.600
nc73139181,2019-02-03 01:38:24.340,40.2955,-124.462,6.62,3.64,NC.LEL..EHZ,P,1.0,2019-02-03 01:39:01.410
nc73139181,2019-02-03 01:38:24.340,40.2955,-124.462,6.62,3.64,NC.LGM..EHZ,P,1.0,2019-02-03 01:39:03.230
nc73139181,2019-02-03 01:38:24.340,40.2955,-124.462,6.62,3.64,NC.LGY..HHZ,P,-1.0,2019-02-03 01:38:58.650
nc73139181,2019-02-03 01:38:24.340,40.2955,-124.462,6.62,3.64,NC.LHE..EHZ,P,1.0,2019-02-03 01:39:00.300
nc73139181,2019-02-03 01:38:24.340,40.2955,-124.462,6.62,3.64,NC.LMC..HHZ,P,-1.0,2019-02-03 01:38:58.400
nc73139181,2019-02-03 01:38:24.340,40.2955,-124.462,6.62,3.64,NC.LMI..EHZ,P,-1.0,2019-02-03 01:38:54.450
nc73139181,2019-02-03 01:38:24.340,40.2955,-124.462,6.62,3.64,NC.LMP..EHZ,P,1.0,2019-02-03 01:39:00.000
nc73139181,2019-02-03 01:38:24.340,40.2955,-124.462,6.62,3.64,NC.LPG..EHZ,P,1.0,2019-02-03 01:38:48.620
nc73139181,2019-02-03 01:38:24.340,40.2955,-124.462,6.62,3.64,NC.LRB..EHZ,P,,2019-02-03 01:38:50.540
nc73139181,2019-02-03 01:38:24.340,40.2955,-124.462,6.62,3.64,NC.LRD..EHZ,P,,2019-02-03 01:39:02.410
nc73139181,2019-02-03 01:38:24.340,40.2955,-124.462,6.62,3.64,NC.LRR..EHZ,P,,2019-02-03 01:39:00.450
nc73139181,2019-02-03 01:38:24.340,40.2955,-124.462,6.62,3.64,NC.LSF..EHZ,P,,2019-02-03 01:38:50.650
nc73139181,2019-02-03 01:38:24.340,40.2955,-124.462,6.62,3.64,NC.LSI..EHZ,P,,2019-02-03 01:39:02.200
nc73139181,2019-02-03 01:38:24.340,40.2955,-124.462,6.62,3.64,NC.LSR..EHZ,P,1.0,2019-02-03 01:38:55.520
nc73139181,2019-02-03 01:38:24.340,40.2955,-124.462,6.62,3.64,NC.LTC..EHZ,P,,2019-02-03 01:38:54.870
nc73139181,2019-02-03 01:38:24.340,40.2955,-124.462,6.62,3.64,NC.LVR..EHZ,P,,2019-02-03 01:38:49.270
nc73139181,2019-02-03 01:38:24.340,40.2955,-124.462,6.62,3.64,NC.NHV..EHZ,P,-1.0,2019-02-03 01:39:04.210
nc73139181,2019-02-03 01:38:24.340,40.2955,-124.462,6.62,3.64,NN.LUL..EHZ,P,-1.0,2019-02-03 01:39:40.660
nc73139181,2019-02-03 01:38:24.340,40.2955,-124.462,6.62,3.64,NP.1582..HNZ,P,1.0,2019-02-03 01:38:34.470
nc73139181,2019-02-03 01:38:24.340,40.2955,-124.462,6.62,3.64,NP.1584..HNZ,P,1.0,2019-02-03 01:38:29.950
nc73139181,2019-02-03 01:38:24.340,40.2955,-124.462,6.62,3.64,NP.1586..HNZ,P,1.0,2019-02-03 01:38:33.600
nc73139181,2019-02-03 01:38:24.340,40.2955,-124.462,6.62,3.64,NP.1591..HNZ,P,-1.0,2019-02-03 01:38:36.340
nc73139181,2019-02-03 01:38:24.340,40.2955,-124.462,6.62,3.64,PB.B035..EHZ,P,-1.0,2019-02-03 01:39:01.850
nc73139181,2019-02-03 01:38:24.340,40.2955,-124.462,6.62,3.64,PB.B036..EHZ,P,-1.0,2019-02-03 01:39:01.920
nc73139181,2019-02-03 01:38:24.340,40.2955,-124.462,6.62,3.64,PB.B039..EHZ,P,1.0,2019-02-03 01:38:55.630
nc73139181,2019-02-03 01:38:24.340,40.2955,-124.462,6.62,3.64,PB.B045..EHZ,P,1.0,2019-02-03 01:38:32.720
nc73139181,2019-02-03 01:38:24.340,40.2955,-124.462,6.62,3.64,PB.B046..EHZ,P,-1.0,2019-02-03 01:38:33.510
nc73139181,2019-02-03 01:38:24.340,40.2955,-124.462,6.62,3.64,PB.B047..EHZ,P,-1.0,2019-02-03 01:38:29.810
nc73139181,2019-02-03 01:38:24.340,40.2955,-124.462,6.62,3.64,PB.B049..EHZ,P,1.0,2019-02-03 01:38:34.820
nc73139181,2019-02-03 01:38:24.340,40.2955,-124.462,6.62,3.64,PB.B932..EHZ,P,-1.0,2019-02-03 01:38:28.800
nc73139181,2019-02-03 01:38:24.340,40.2955,-124.462,6.62,3.64,PB.B933..EHZ,P,-1.0,2019-02-03 01:38:33.680
