event_id,etime,elat,elon,edep,emag,station_id,phase_type,phase_polarity,phase_time
nc73139181,2019-02-03 01:38:24.340,40.2955,-124.462,6.62,3.64,PB.B934..EHZ,P,-1.0,2019-02-03 01:38:39.510
nc73139181,2019-02-03 01:38:24.340,40.2955,-124.462,6.62,3.64,PB.B935..EHZ,P,1.0,2019-02-03 01:38:38.740
nc73139181,2019-02-03 01:38:24.340,40.2955,-124.462,6.62,3.64,NP.1745..HN3,P,,2019-02-03 01:38:24.340
nc73139191,2019-02-03 02:46:03.880,40.2935,-124.46016666666667,6.17,2.49,BK.DCMP..HHZ,P,-1.0,2019-02-03 02:46:24.850
nc73139191,2019-02-03 02:46:03.880,40.2935,-124.46016666666667,6.17,2.49,BK.JCC..HHZ,P,1.0,2019-02-03 02:46:16.070
nc73139191,2019-02-03 02:46:03.880,40.2935,-124.46016666666667,6.17,2.49,BK.PETY..HHZ,P,-1.0,2019-02-03 02:46:27.140
nc73139191,2019-02-03 02:46:03.880,40.2935,-124.46016666666667,6.17,2.49,BK.SCOT..HHZ,P,1.0,2019-02-03 02:46:31.330
nc73139191,2019-02-03 02:46:03.880,40.2935,-124.46016666666667,6.17,2.49,BK.SIGP..HHZ,P,,2019-02-03 02:46:30.220
nc73139191,2019-02-03 02:46:03.880,40.2935,-124.46016666666667,6.17,2.49,BK.TRIN..HHZ,P,-1.0,2019-02-03 02:46:29.560
nc73139191,2019-02-03 02:46:03.880,40.2935,-124.46016666666667,6.17,2.49,BK.WEAV..HHZ,P,-1.0,2019-02-03 02:46:25.340
nc73139191,2019-02-03 02:46:03.880,40.2935,-124.46016666666667,6.17,2.49,CE.89101..HNZ,P,1.0,2019-02-03 02:46:07.440
nc73139191,2019-02-03 02:46:03.880,40.2935,-124.46016666666667,6.17,2.49,CE.89462..HNZ,P,-1.0,2019-02-03 02:46:11.810
nc73139191,2019-02-03 02:46:03.880,40.2935,-124.46016666666667,6.17,2.49,CE.89781..HNZ,P,1.0,2019-02-03 02:46:15.930
nc73139191,2019-02-03 02:46:03.880,40.2935,-124.46016666666667,6.17,2.49,NC.KBN..EHZ,P,,2019-02-03 02:46:23.860
nc73139191,2019-02-03 02:46:03.880,40.2935,-124.46016666666667,6.17,2.49,NC.KCO..EHZ,P,-1.0,2019-02-03 02:46:08.030
nc73139191,2019-02-03 02:46:03.880,40.2935,-124.46016666666667,6.17,2.49,NC.KCR..EHZ,P,1.0,2019-02-03 02:46:14.970
nc73139191,2019-02-03 02:46:03.880,40.2935,-124.46016666666667,6.17,2.49,NC.KCT..HHZ,P,1.0,2019-02-03 02:46:08.780
nc73139191,2019-02-03 02:46:03.880,40.2935,-124.46016666666667,6.17,2.49,NC.KHBB..HHZ,P,-1.0,2019-02-03 02:46:22.820
nc73139191,2019-02-03 02:46:03.880,40.2935,-124.46016666666667,6.17,2.49,NC.KHMB..HHZ,P,1.0,2019-02-03 02:46:19.540
nc73139191,2019-02-03 02:46:03.880,40.2935,-124.46016666666667,6.17,2.49,NC.KIP..EHZ,P,1.0,2019-02-03 02:46:21.530
nc73139191,2019-02-03 02:46:03.880,40.2935,-124.46016666666667,6.17,2.49,NC.KMPB..HHZ,P,1.0,2019-02-03 02:46:10.390
nc73139191,2019-02-03 02:46:03.880,40.2935,-124.46016666666667,6.17,2.49,NC.KMR..HHZ,P,-1.0,2019-02-03 02:46:16.350
nc73139191,2019-02-03 02:46:03.880,40.2935,-124.46016666666667,6.17,2.49,NC.KOM..EHZ,P,1.0,2019-02-03 02:46:25.600
nc73139191,2019-02-03 02:46:03.880,40.2935,-124.46016666666667,6.17,2.49,NC.KRMB..HHZ,P,1.0,2019-02-03 02:46:25.820
nc73139191,2019-02-03 02:46:03.880,40.2935,-124.46016666666667,6.17,2.49,NC.KRP..HHZ,P,1.0,2019-02-03 02:46:20.650
nc73139191,2019-02-03 02:46:03.880,40.2935,-124.46016666666667,6.17,2.49,NC.KSXB..HHZ,P,1.0,2019-02-03 02:46:29.970
nc73139191,2019-02-03 02:46:03.880,40.2935,-124.46016666666667,6.17,2.49,NC.LBK..EHZ,P,-1.0,2019-02-03 02:46:30.910
nc73139191,2019-02-03 02:46:03.880,40.2935,-124.46016666666667,6.17,2.49,NC.LPG..EHZ,P,,2019-02-03 02:46:28.540
nc73139191,2019-02-03 02:46:03.880,40.2935,-124.46016666666667,6.17,2.49,NP.1582..HNZ,P,1.0,2019-02-03 02:46:13.960
nc73139191,2019-02-03 02:46:03.880,40.2935,-124.46016666666667,6.17,2.49,NP.1586..HNZ,P,1.0,2019-02-03 02:46:13.090
nc73139191,2019-02-03 02:46:03.880,40.2935,-124.46016666666667,6.17,2.49,NP.1591..HNZ,P,,2019-02-03 02:46:15.820
nc73139191,2019-02-03 02:46:03.880,40.2935,-124.46016666666667,6.17,2.49,PB.B045..EHZ,P,1.0,2019-02-03 02:46:12.220
nc73139191,2019-02-03 02:46:03.880,40.2935,-124.46016666666667,6.17,2.49,PB.B046..EHZ,P,-1.0,2019-02-03 02:46:13.030
nc73139191,2019-02-03 02:46:03.880,40.2935,-124.46016666666667,6.17,2.49,PB.B047..EHZ,P,-1.0,2019-02-03 02:46:09.340
nc73139191,2019-02-03 02:46:03.880,40.2935,-124.46016666666667,6.17,2.49,PB.B049..EHZ,P,1.0,2019-02-03 02:46:14.350
nc73139191,2019-02-03 02:46:03.880,40.2935,-124.46016666666667,6.17,2.49,PB.B932..EHZ,P,-1.0,2019-02-03 02:46:08.330
nc73139191,2019-02-03 02:46:03.880,40.2935,-124.46016666666667,6.17,2.49,PB.B935..EHZ,P,1.0,2019-02-03 02:46:18.270
nc73139201,2019-02-03 04:15:36.120,40.306,-124.45333333333333,6.55,2.34,BK.DCMP..HHZ,P,-1.0,2019-02-03 04:15:56.920
nc73139201,2019-02-03 04:15:36.120,40.306,-124.45333333333333,6.55,2.34,BK.JCC..HHZ,P,-1.0,2019-02-03 04:15:48.280
nc73139201,2019-02-03 04:15:36.120,40.306,-124.45333333333333,6.55,2.34,CE.89101..HNZ,P,1.0,2019-02-03 04:15:39.560
nc73139201,2019-02-03 04:15:36.120,40.306,-124.45333333333333,6.55,2.34,NC.KCO..EHZ,P,-1.0,2019-02-03 04:15:40.150
nc73139201,2019-02-03 04:15:36.120,40.306,-124.45333333333333,6.55,2.34,NC.KCR..EHZ,P,1.0,2019-02-03 04:15:47.060
nc73139201,2019-02-03 04:15:36.120,40.306,-124.45333333333333,6.55,2.34,NC.KCT..HHZ,P,1.0,2019-02-03 04:15:40.940
nc73139201,2019-02-03 04:15:36.120,40.306,-124.45333333333333,6.55,2.34,NC.KIP..EHZ,P,,2019-02-03 04:15:53.510
nc73139201,2019-02-03 04:15:36.120,40.306,-124.45333333333333,6.55,2.34,NC.KMPB..HHZ,P,1.0,2019-02-03 04:15:42.460
nc73139201,2019-02-03 04:15:36.120,40.306,-124.45333333333333,6.55,2.34,NC.KMR..HHZ,P,-1.0,2019-02-03 04:15:48.420
nc73139201,2019-02-03 04:15:36.120,40.306,-124.45333333333333,6.55,2.34,NC.KOM..EHZ,P,1.0,2019-02-03 04:15:57.730
nc73139201,2019-02-03 04:15:36.120,40.306,-124.45333333333333,6.55,2.34,NC.KRMB..HHZ,P,1.0,2019-02-03 04:15:58.190
nc73139201,2019-02-03 04:15:36.120,40.306,-124.45333333333333,6.55,2.34,NC.KSXB..HHZ,P,-1.0,2019-02-03 04:16:02.210
nc73139201,2019-02-03 04:15:36.120,40.306,-124.45333333333333,6.55,2.34,NP.1582..HNZ,P,-1.0,2019-02-03 04:15:46.210
nc73139201,2019-02-03 04:15:36.120,40.306,-124.45333333333333,6.55,2.34,NP.1586..HNZ,P,1.0,2019-02-03 04:15:45.270
nc73139201,2019-02-03 04:15:36.120,40.306,-124.45333333333333,6.55,2.34,NP.1591..HNZ,P,,2019-02-03 04:15:48.050
nc73139201,2019-02-03 04:15:36.120,40.306,-124.45333333333333,6.55,2.34,PB.B045..EHZ,P,1.0,2019-02-03 04:15:44.320
nc73139201,2019-02-03 04:15:36.120,40.306,-124.45333333333333,6.55,2.34,PB.B046..EHZ,P,1.0,2019-02-03 04:15:45.140
nc73139201,2019-02-03 04:15:36.120,40.306,-124.45333333333333,6.55,2.34,PB.B047..EHZ,P,-1.0,2019-02-03 04:15:41.410
nc73139201,2019-02-03 04:15:36.120,40.306,-124.45333333333333,6.55,2.34,PB.B049..EHZ,P,-1.0,2019-02-03 04:15:46.570
nc73139201,2019-02-03 04:15:36.120,40.306,-124.45333333333333,6.55,2.34,PB.B932..EHZ,P,-1.0,2019-02-03 04:15:40.430
nc73139201,2019-02-03 04:15:36.120,40.306,-124.45333333333333,6.55,2.34,PB.B935..EHZ,P,,2019-02-03 04:15:50.490
nc73139206,2019-02-03 05:14:10.290,40.29183333333334,-124.45366666666666,6.92,2.46,BK.DCMP..HHZ,P,-1.0,2019-02-03 05:14:31.080
nc73139206,2019-02-03 05:14:10.290,40.29183333333334,-124.45366666666666,6.92,2.46,BK.JCC..HHZ,P,1.0,2019-02-03 05:14:22.350
nc73139206,2019-02-03 05:14:10.290,40.29183333333334,-124.45366666666666,6.92,2.46,BK.PETY..HHZ,P,-1.0,2019-02-03 05:14:33.430
nc73139206,2019-02-03 05:14:10.290,40.29183333333334,-124.45366666666666,6.92,2.46,BK.SIGP..HHZ,P,,2019-02-03 05:14:36.310
nc73139206,2019-02-03 05:14:10.290,40.29183333333334,-124.45366666666666,6.92,2.46,BK.TRIN..HHZ,P,-1.0,2019-02-03 05:14:35.840
nc73139206,2019-02-03 05:14:10.290,40.29183333333334,-124.45366666666666,6.92,2.46,BK.WEAV..HHZ,P,1.0,2019-02-03 05:14:31.920
nc73139206,2019-02-03 05:14:10.290,40.29183333333334,-124.45366666666666,6.92,2.46,CE.79435..HNZ,P,,2019-02-03 05:14:23.680
nc73139206,2019-02-03 05:14:10.290,40.29183333333334,-124.45366666666666,6.92,2.46,CE.89101..HNZ,P,-1.0,2019-02-03 05:14:13.770
nc73139206,2019-02-03 05:14:10.290,40.29183333333334,-124.45366666666666,6.92,2.46,CE.89255..HNZ,P,,2019-02-03 05:14:19.270
nc73139206,2019-02-03 05:14:10.290,40.29183333333334,-124.45366666666666,6.92,2.46,CE.89462..HNZ,P,-1.0,2019-02-03 05:14:18.060
nc73139206,2019-02-03 05:14:10.290,40.29183333333334,-124.45366666666666,6.92,2.46,NC.KBN..EHZ,P,1.0,2019-02-03 05:14:30.100
nc73139206,2019-02-03 05:14:10.290,40.29183333333334,-124.45366666666666,6.92,2.46,NC.KCO..EHZ,P,-1.0,2019-02-03 05:14:14.300
nc73139206,2019-02-03 05:14:10.290,40.29183333333334,-124.45366666666666,6.92,2.46,NC.KCPB..HHZ,P,,2019-02-03 05:14:27.450
nc73139206,2019-02-03 05:14:10.290,40.29183333333334,-124.45366666666666,6.92,2.46,NC.KCR..EHZ,P,1.0,2019-02-03 05:14:21.230
nc73139206,2019-02-03 05:14:10.290,40.29183333333334,-124.45366666666666,6.92,2.46,NC.KCT..HHZ,P,1.0,2019-02-03 05:14:15.080
nc73139206,2019-02-03 05:14:10.290,40.29183333333334,-124.45366666666666,6.92,2.46,NC.KHBB..HHZ,P,-1.0,2019-02-03 05:14:29.000
nc73139206,2019-02-03 05:14:10.290,40.29183333333334,-124.45366666666666,6.92,2.46,NC.KHMB..HHZ,P,1.0,2019-02-03 05:14:25.810
nc73139206,2019-02-03 05:14:10.290,40.29183333333334,-124.45366666666666,6.92,2.46,NC.KIP..EHZ,P,,2019-02-03 05:14:27.580
nc73139206,2019-02-03 05:14:10.290,40.29183333333334,-124.45366666666666,6.92,2.46,NC.KMPB..HHZ,P,1.0,2019-02-03 05:14:16.640
nc73139206,2019-02-03 05:14:10.290,40.29183333333334,-124.45366666666666,6.92,2.46,NC.KMR..HHZ,P,1.0,2019-02-03 05:14:22.480
nc73139206,2019-02-03 05:14:10.290,40.29183333333334,-124.45366666666666,6.92,2.46,NC.KOM..EHZ,P,1.0,2019-02-03 05:14:31.880
nc73139206,2019-02-03 05:14:10.290,40.29183333333334,-124.45366666666666,6.92,2.46,NC.KRMB..HHZ,P,1.0,2019-02-03 05:14:32.120
nc73139206,2019-02-03 05:14:10.290,40.29183333333334,-124.45366666666666,6.92,2.46,NC.KRP..HHZ,P,1.0,2019-02-03 05:14:26.910
nc73139206,2019-02-03 05:14:10.290,40.29183333333334,-124.45366666666666,6.92,2.46,NC.KSXB..HHZ,P,1.0,2019-02-03 05:14:36.270
nc73139206,2019-02-03 05:14:10.290,40.29183333333334,-124.45366666666666,6.92,2.46,NC.LPG..EHZ,P,,2019-02-03 05:14:34.780
nc73139206,2019-02-03 05:14:10.290,40.29183333333334,-124.45366666666666,6.92,2.46,NC.LSF..EHZ,P,-1.0,2019-02-03 05:14:36.360
nc73139206,2019-02-03 05:14:10.290,40.29183333333334,-124.45366666666666,6.92,2.46,NP.1582..HNZ,P,1.0,2019-02-03 05:14:20.270
nc73139206,2019-02-03 05:14:10.290,40.29183333333334,-124.45366666666666,6.92,2.46,NP.1586..HNZ,P,1.0,2019-02-03 05:14:19.390
nc73139206,2019-02-03 05:14:10.290,40.29183333333334,-124.45366666666666,6.92,2.46,PB.B045..EHZ,P,1.0,2019-02-03 05:14:18.500
nc73139206,2019-02-03 05:14:10.290,40.29183333333334,-124.45366666666666,6.92,2.46,PB.B046..EHZ,P,-1.0,2019-02-03 05:14:19.330
nc73139206,2019-02-03 05:14:10.290,40.29183333333334,-124.45366666666666,6.92,2.46,PB.B047..EHZ,P,-1.0,2019-02-03 05:14:15.600
nc73139206,2019-02-03 05:14:10.290,40.29183333333334,-124.45366666666666,6.92,2.46,PB.B049..EHZ,P,1.0,2019-02-03 05:14:20.620
nc73139206,2019-02-03 05:14:10.290,40.29183333333334,-124.45366666666666,6.92,2.46,PB.B932..EHZ,P,-1.0,2019-02-03 05:14:14.590
nc73139206,2019-02-03 05:14:10.290,40.29183333333334,-124.45366666666666,6.92,2.46,PB.B935..EHZ,P,1.0,2019-02-03 05:14:24.530
nc73139226,2019-02-03 07:37:39.620,40.30916666666667,-124.48383333333334,7.13,2.83,BK.DCMP..HHZ,P,1.0,2019-02-03 07:38:00.790
nc73139226,2019-02-03 07:37:39.620,40.30916666666667,-124.48383333333334,7.13,2.83,BK.HOPS..HHZ,P,-1.0,2019-02-03 07:38:07.770
nc73139226,2019-02-03 07:37:39.620,40.30916666666667,-124.48383333333334,7.13,2.83,BK.JCC..HHZ,P,1.0,2019-02-03 07:37:52.010
nc73139226,2019-02-03 07:37:39.620,40.30916666666667,-124.48383333333334,7.13,2.83,BK.PETY..HHZ,P,1.0,2019-02-03 07:38:03.020
nc73139226,2019-02-03 07:37:39.620,40.30916666666667,-124.48383333333334,7.13,2.83,BK.SCOT..HHZ,P,1.0,2019-02-03 07:38:07.330
nc73139226,2019-02-03 07:37:39.620,40.30916666666667,-124.48383333333334,7.13,2.83,BK.SIGP..HHZ,P,1.0,2019-02-03 07:38:05.790
nc73139226,2019-02-03 07:37:39.620,40.30916666666667,-124.48383333333334,7.13,2.83,BK.TRIN..HHZ,P,1.0,2019-02-03 07:38:05.520
nc73139226,2019-02-03 07:37:39.620,40.30916666666667,-124.48383333333334,7.13,2.83,BK.WEAV..HHZ,P,1.0,2019-02-03 07:38:01.450
nc73139226,2019-02-03 07:37:39.620,40.30916666666667,-124.48383333333334,7.13,2.83,CE.79435..HNZ,P,-1.0,2019-02-03 07:37:53.610
nc73139226,2019-02-03 07:37:39.620,40.30916666666667,-124.48383333333334,7.13,2.83,CE.89101..HNZ,P,-1.0,2019-02-03 07:37:43.470
nc73139226,2019-02-03 07:37:39.620,40.30916666666667,-124.48383333333334,7.13,2.83,CE.89255..HNZ,P,-1.0,2019-02-03 07:37:48.670
nc73139226,2019-02-03 07:37:39.620,40.30916666666667,-124.48383333333334,7.13,2.83,CE.89462..HNZ,P,,2019-02-03 07:37:47.330
nc73139226,2019-02-03 07:37:39.620,40.30916666666667,-124.48383333333334,7.13,2.83,NC.GRO..EHZ,P,-1.0,2019-02-03 07:38:05.240
nc73139226,2019-02-03 07:37:39.620,40.30916666666667,-124.48383333333334,7.13,2.83,NC.GVV..EHZ,P,1.0,2019-02-03 07:38:06.070
nc73139226,2019-02-03 07:37:39.620,40.30916666666667,-124.48383333333334,7.13,2.83,NC.GWR..EHZ,P,1.0,2019-02-03 07:38:03.880
nc73139226,2019-02-03 07:37:39.620,40.30916666666667,-124.48383333333334,7.13,2.83,NC.KBN..EHZ,P,-1.0,2019-02-03 07:37:59.730
nc73139226,2019-02-03 07:37:39.620,40.30916666666667,-124.48383333333334,7.13,2.83,NC.KCO..EHZ,P,1.0,2019-02-03 07:37:44.210
nc73139226,2019-02-03 07:37:39.620,40.30916666666667,-124.48383333333334,7.13,2.83,NC.KCPB..HHZ,P,1.0,2019-02-03 07:37:57.220
nc73139226,2019-02-03 07:37:39.620,40.30916666666667,-124.48383333333334,7.13,2.83,NC.KCR..EHZ,P,1.0,2019-02-03 07:37:51.040
nc73139226,2019-02-03 07:37:39.620,40.30916666666667,-124.48383333333334,7.13,2.83,NC.KCT..HHZ,P,-1.0,2019-02-03 07:37:44.680
nc73139226,2019-02-03 07:37:39.620,40.30916666666667,-124.48383333333334,7.13,2.83,NC.KHBB..HHZ,P,1.0,2019-02-03 07:37:58.710
nc73139226,2019-02-03 07:37:39.620,40.30916666666667,-124.48383333333334,7.13,2.83,NC.KHMB..HHZ,P,1.0,2019-02-03 07:37:55.520
nc73139226,2019-02-03 07:37:39.620,40.30916666666667,-124.48383333333334,7.13,2.83,NC.KIP..EHZ,P,-1.0,2019-02-03 07:37:57.280
nc73139226,2019-02-03 07:37:39.620,40.30916666666667,-124.48383333333334,7.13,2.83,NC.KMPB..HHZ,P,-1.0,2019-02-03 07:37:46.410
nc73139226,2019-02-03 07:37:39.620,40.30916666666667,-124.48383333333334,7.13,2.83,NC.KMR..HHZ,P,1.0,2019-02-03 07:37:52.290
nc73139226,2019-02-03 07:37:39.620,40.30916666666667,-124.48383333333334,7.13,2.83,NC.KOM..EHZ,P,1.0,2019-02-03 07:38:01.590
nc73139226,2019-02-03 07:37:39.620,40.30916666666667,-124.48383333333334,7.13,2.83,NC.KRMB..HHZ,P,1.0,2019-02-03 07:38:01.760
nc73139226,2019-02-03 07:37:39.620,40.30916666666667,-124.48383333333334,7.13,2.83,NC.KRP..HHZ,P,1.0,2019-02-03 07:37:56.560
nc73139226,2019-02-03 07:37:39.620,40.30916666666667,-124.48383333333334,7.13,2.83,NC.KSXB..HHZ,P,1.0,2019-02-03 07:38:05.860
nc73139226,2019-02-03 07:37:39.620,40.30916666666667,-124.48383333333334,7.13,2.83,NC.LBF..EHZ,P,1.0,2019-02-03 07:38:16.870
nc73139226,2019-02-03 07:37:39.620,40.30916666666667,-124.48383333333334,7.13,2.83,NC.LBK..EHZ,P,-1.0,2019-02-03 07:38:06.890
nc73139226,2019-02-03 07:37:39.620,40.30916666666667,-124.48383333333334,7.13,2.83,NC.LBO..EHZ,P,-1.0,2019-02-03 07:38:14.770
nc73139226,2019-02-03 07:37:39.620,40.30916666666667,-124.48383333333334,7.13,2.83,NC.LBP..EHZ,P,,2019-02-03 07:38:01.930
nc73139226,2019-02-03 07:37:39.620,40.30916666666667,-124.48383333333334,7.13,2.83,NC.LMI..EHZ,P,,2019-02-03 07:38:09.960
nc73139226,2019-02-03 07:37:39.620,40.30916666666667,-124.48383333333334,7.13,2.83,NC.LMP..EHZ,P,1.0,2019-02-03 07:38:15.630
nc73139226,2019-02-03 07:37:39.620,40.30916666666667,-124.48383333333334,7.13,2.83,NC.LPG..EHZ,P,,2019-02-03 07:38:04.310
nc73139226,2019-02-03 07:37:39.620,40.30916666666667,-124.48383333333334,7.13,2.83,NC.LRB..EHZ,P,-1.0,2019-02-03 07:38:06.490
nc73139226,2019-02-03 07:37:39.620,40.30916666666667,-124.48383333333334,7.13,2.83,NC.LSF..EHZ,P,,2019-02-03 07:38:06.220
nc73139226,2019-02-03 07:37:39.620,40.30916666666667,-124.48383333333334,7.13,2.83,NC.LSR..EHZ,P,1.0,2019-02-03 07:38:11.110
nc73139226,2019-02-03 07:37:39.620,40.30916666666667,-124.48383333333334,7.13,2.83,NC.LTC..EHZ,P,1.0,2019-02-03 07:38:10.690
nc73139226,2019-02-03 07:37:39.620,40.30916666666667,-124.48383333333334,7.13,2.83,NC.LVR..EHZ,P,1.0,2019-02-03 07:38:04.890
nc73139226,2019-02-03 07:37:39.620,40.30916666666667,-124.48383333333334,7.13,2.83,NP.1582..HNZ,P,1.0,2019-02-03 07:37:49.940
nc73139226,2019-02-03 07:37:39.620,40.30916666666667,-124.48383333333334,7.13,2.83,NP.1584..HNZ,P,,2019-02-03 07:37:45.390
nc73139226,2019-02-03 07:37:39.620,40.30916666666667,-124.48383333333334,7.13,2.83,NP.1586..HNZ,P,1.0,2019-02-03 07:37:49.070
nc73139226,2019-02-03 07:37:39.620,40.30916666666667,-124.48383333333334,7.13,2.83,NP.1591..HNZ,P,,2019-02-03 07:37:51.710
nc73139226,2019-02-03 07:37:39.620,40.30916666666667,-124.48383333333334,7.13,2.83,PB.B045..EHZ,P,1.0,2019-02-03 07:37:48.290
nc73139226,2019-02-03 07:37:39.620,40.30916666666667,-124.48383333333334,7.13,2.83,PB.B046..EHZ,P,-1.0,2019-02-03 07:37:49.060
nc73139226,2019-02-03 07:37:39.620,40.30916666666667,-124.48383333333334,7.13,2.83,PB.B047..EHZ,P,1.0,2019-02-03 07:37:45.450
nc73139226,2019-02-03 07:37:39.620,40.30916666666667,-124.48383333333334,7.13,2.83,PB.B049..EHZ,P,1.0,2019-02-03 07:37:50.430
nc73139226,2019-02-03 07:37:39.620,40.30916666666667,-124.48383333333334,7.13,2.83,PB.B932..EHZ,P,1.0,2019-02-03 07:37:44.440
nc73139226,2019-02-03 07:37:39.620,40.30916666666667,-124.48383333333334,7.13,2.83,PB.B933..EHZ,P,1.0,2019-02-03 07:37:49.340
nc73139226,2019-02-03 07:37:39.620,40.30916666666667,-124.48383333333334,7.13,2.83,PB.B935..EHZ,P,1.0,2019-02-03 07:37:54.280
nc73139321,2019-02-03 20:55:05.130,40.3145,-124.48466666666667,6.67,2.35,BK.DCMP..HHZ,P,1.0,2019-02-03 20:55:26.430
nc73139321,2019-02-03 20:55:05.130,40.3145,-124.48466666666667,6.67,2.35,BK.JCC..HHZ,P,1.0,2019-02-03 20:55:17.530
nc73139321,2019-02-03 20:55:05.130,40.3145,-124.48466666666667,6.67,2.35,BK.TRIN..HHZ,P,1.0,2019-02-03 20:55:31.290
nc73139321,2019-02-03 20:55:05.130,40.3145,-124.48466666666667,6.67,2.35,CE.89101..HNZ,P,-1.0,2019-02-03 20:55:09.000
nc73139321,2019-02-03 20:55:05.130,40.3145,-124.48466666666667,6.67,2.35,NC.KCO..EHZ,P,1.0,2019-02-03 20:55:09.680
nc73139321,2019-02-03 20:55:05.130,40.3145,-124.48466666666667,6.67,2.35,NC.KCPB..HHZ,P,,2019-02-03 20:55:22.780
nc73139321,2019-02-03 20:55:05.130,40.3145,-124.48466666666667,6.67,2.35,NC.KCT..HHZ,P,-1.0,2019-02-03 20:55:10.220
nc73139321,2019-02-03 20:55:05.130,40.3145,-124.48466666666667,6.67,2.35,NC.KHBB..HHZ,P,-1.0,2019-02-03 20:55:24.310
nc73139321,2019-02-03 20:55:05.130,40.3145,-124.48466666666667,6.67,2.35,NC.KHMB..HHZ,P,1.0,2019-02-03 20:55:21.040
nc73139321,2019-02-03 20:55:05.130,40.3145,-124.48466666666667,6.67,2.35,NC.KMPB..HHZ,P,1.0,2019-02-03 20:55:11.970
nc73139321,2019-02-03 20:55:05.130,40.3145,-124.48466666666667,6.67,2.35,NC.KOM..EHZ,P,1.0,2019-02-03 20:55:27.080
nc73139321,2019-02-03 20:55:05.130,40.3145,-124.48466666666667,6.67,2.35,NC.KRMB..HHZ,P,-1.0,2019-02-03 20:55:27.350
nc73139321,2019-02-03 20:55:05.130,40.3145,-124.48466666666667,6.67,2.35,NC.KRP..HHZ,P,,2019-02-03 20:55:22.140
nc73139321,2019-02-03 20:55:05.130,40.3145,-124.48466666666667,6.67,2.35,NC.KSXB..HHZ,P,-1.0,2019-02-03 20:55:31.410
nc73139321,2019-02-03 20:55:05.130,40.3145,-124.48466666666667,6.67,2.35,NP.1582..HNZ,P,-1.0,2019-02-03 20:55:15.520
nc73139321,2019-02-03 20:55:05.130,40.3145,-124.48466666666667,6.67,2.35,PB.B045..EHZ,P,1.0,2019-02-03 20:55:13.810
nc73139321,2019-02-03 20:55:05.130,40.3145,-124.48466666666667,6.67,2.35,PB.B046..EHZ,P,-1.0,2019-02-03 20:55:14.600
nc73139321,2019-02-03 20:55:05.130,40.3145,-124.48466666666667,6.67,2.35,PB.B047..EHZ,P,1.0,2019-02-03 20:55:10.960
nc73139321,2019-02-03 20:55:05.130,40.3145,-124.48466666666667,6.67,2.35,PB.B049..EHZ,P,1.0,2019-02-03 20:55:15.930
nc73139321,2019-02-03 20:55:05.130,40.3145,-124.48466666666667,6.67,2.35,PB.B932..EHZ,P,1.0,2019-02-03 20:55:09.950
nc73139321,2019-02-03 20:55:05.130,40.3145,-124.48466666666667,6.67,2.35,PB.B935..EHZ,P,1.0,2019-02-03 20:55:19.930
