event_id,etime,elat,elon,edep,emag,station_id,phase_type,phase_polarity,phase_time
nc73139351,2019-02-03 23:13:21.670,40.30316666666667,-124.49566666666666,7.36,3.11,BK.SUTB..HHZ,P,,2019-02-03 23:13:59.420
nc73139351,2019-02-03 23:13:21.670,40.30316666666667,-124.49566666666666,7.36,3.11,BK.TRIN..HHZ,P,1.0,2019-02-03 23:13:47.700
nc73139351,2019-02-03 23:13:21.670,40.30316666666667,-124.49566666666666,7.36,3.11,BK.WEAV..HHZ,P,1.0,2019-02-03 23:13:43.640
nc73139351,2019-02-03 23:13:21.670,40.30316666666667,-124.49566666666666,7.36,3.11,BK.YBH..HHZ,P,1.0,2019-02-03 23:13:54.010
nc73139351,2019-02-03 23:13:21.670,40.30316666666667,-124.49566666666666,7.36,3.11,CE.89101..HNZ,P,-1.0,2019-02-03 23:13:25.730
nc73139351,2019-02-03 23:13:21.670,40.30316666666667,-124.49566666666666,7.36,3.11,CE.89255..HNZ,P,,2019-02-03 23:13:31.250
nc73139351,2019-02-03 23:13:21.670,40.30316666666667,-124.49566666666666,7.36,3.11,CE.89462..HNZ,P,-1.0,2019-02-03 23:13:30.000
nc73139351,2019-02-03 23:13:21.670,40.30316666666667,-124.49566666666666,7.36,3.11,NC.GHC..EHZ,P,,2019-02-03 23:13:53.900
nc73139351,2019-02-03 23:13:21.670,40.30316666666667,-124.49566666666666,7.36,3.11,NC.GRO..EHZ,P,,2019-02-03 23:13:47.770
nc73139351,2019-02-03 23:13:21.670,40.30316666666667,-124.49566666666666,7.36,3.11,NC.GVV..EHZ,P,-1.0,2019-02-03 23:13:48.420
nc73139351,2019-02-03 23:13:21.670,40.30316666666667,-124.49566666666666,7.36,3.11,NC.GWR..EHZ,P,,2019-02-03 23:13:46.220
nc73139351,2019-02-03 23:13:21.670,40.30316666666667,-124.49566666666666,7.36,3.11,NC.KBN..EHZ,P,-1.0,2019-02-03 23:13:41.950
nc73139351,2019-02-03 23:13:21.670,40.30316666666667,-124.49566666666666,7.36,3.11,NC.KCO..EHZ,P,-1.0,2019-02-03 23:13:26.410
nc73139351,2019-02-03 23:13:21.670,40.30316666666667,-124.49566666666666,7.36,3.11,NC.KCPB..HHZ,P,-1.0,2019-02-03 23:13:39.480
nc73139351,2019-02-03 23:13:21.670,40.30316666666667,-124.49566666666666,7.36,3.11,NC.KCT..HHZ,P,1.0,2019-02-03 23:13:26.940
nc73139351,2019-02-03 23:13:21.670,40.30316666666667,-124.49566666666666,7.36,3.11,NC.KFP..EHZ,P,-1.0,2019-02-03 23:13:41.140
nc73139351,2019-02-03 23:13:21.670,40.30316666666667,-124.49566666666666,7.36,3.11,NC.KHBB..HHZ,P,1.0,2019-02-03 23:13:40.910
nc73139351,2019-02-03 23:13:21.670,40.30316666666667,-124.49566666666666,7.36,3.11,NC.KHMB..HHZ,P,1.0,2019-02-03 23:13:37.640
nc73139351,2019-02-03 23:13:21.670,40.30316666666667,-124.49566666666666,7.36,3.11,NC.KIP..EHZ,P,-1.0,2019-02-03 23:13:39.510
nc73139351,2019-02-03 23:13:21.670,40.30316666666667,-124.49566666666666,7.36,3.11,NC.KMPB..HHZ,P,1.0,2019-02-03 23:13:28.670
nc73139351,2019-02-03 23:13:21.670,40.30316666666667,-124.49566666666666,7.36,3.11,NC.KMR..HHZ,P,1.0,2019-02-03 23:13:34.500
nc73139351,2019-02-03 23:13:21.670,40.30316666666667,-124.49566666666666,7.36,3.11,NC.KOM..EHZ,P,1.0,2019-02-03 23:13:43.760
nc73139351,2019-02-03 23:13:21.670,40.30316666666667,-124.49566666666666,7.36,3.11,NC.KRMB..HHZ,P,1.0,2019-02-03 23:13:43.910
nc73139351,2019-02-03 23:13:21.670,40.30316666666667,-124.49566666666666,7.36,3.11,NC.KRP..HHZ,P,1.0,2019-02-03 23:13:38.680
nc73139351,2019-02-03 23:13:21.670,40.30316666666667,-124.49566666666666,7.36,3.11,NC.KSXB..HHZ,P,1.0,2019-02-03 23:13:47.980
nc73139351,2019-02-03 23:13:21.670,40.30316666666667,-124.49566666666666,7.36,3.11,NC.LAMB..EHZ,P,1.0,2019-02-03 23:13:53.640
nc73139351,2019-02-03 23:13:21.670,40.30316666666667,-124.49566666666666,7.36,3.11,NC.LBF..EHZ,P,1.0,2019-02-03 23:13:59.080
nc73139351,2019-02-03 23:13:21.670,40.30316666666667,-124.49566666666666,7.36,3.11,NC.LBK..EHZ,P,1.0,2019-02-03 23:13:48.860
nc73139351,2019-02-03 23:13:21.670,40.30316666666667,-124.49566666666666,7.36,3.11,NC.LBP..EHZ,P,,2019-02-03 23:13:44.060
nc73139351,2019-02-03 23:13:21.670,40.30316666666667,-124.49566666666666,7.36,3.11,NC.LBR..HHZ,P,1.0,2019-02-03 23:13:57.640
nc73139351,2019-02-03 23:13:21.670,40.30316666666667,-124.49566666666666,7.36,3.11,NC.LDL..HHZ,P,,2019-02-03 23:13:55.560
nc73139351,2019-02-03 23:13:21.670,40.30316666666667,-124.49566666666666,7.36,3.11,NC.LGY..HHZ,P,-1.0,2019-02-03 23:13:56.340
nc73139351,2019-02-03 23:13:21.670,40.30316666666667,-124.49566666666666,7.36,3.11,NC.LMC..HHZ,P,-1.0,2019-02-03 23:13:56.040
nc73139351,2019-02-03 23:13:21.670,40.30316666666667,-124.49566666666666,7.36,3.11,NC.LMI..EHZ,P,,2019-02-03 23:13:52.130
nc73139351,2019-02-03 23:13:21.670,40.30316666666667,-124.49566666666666,7.36,3.11,NC.LMP..EHZ,P,1.0,2019-02-03 23:13:57.790
nc73139351,2019-02-03 23:13:21.670,40.30316666666667,-124.49566666666666,7.36,3.11,NC.LPG..EHZ,P,1.0,2019-02-03 23:13:46.500
nc73139351,2019-02-03 23:13:21.670,40.30316666666667,-124.49566666666666,7.36,3.11,NC.LRB..EHZ,P,1.0,2019-02-03 23:13:48.590
nc73139351,2019-02-03 23:13:21.670,40.30316666666667,-124.49566666666666,7.36,3.11,NC.LSF..EHZ,P,,2019-02-03 23:13:48.370
nc73139351,2019-02-03 23:13:21.670,40.30316666666667,-124.49566666666666,7.36,3.11,NC.LSI..EHZ,P,,2019-02-03 23:14:00.480
nc73139351,2019-02-03 23:13:21.670,40.30316666666667,-124.49566666666666,7.36,3.11,NC.LSR..EHZ,P,1.0,2019-02-03 23:13:53.290
nc73139351,2019-02-03 23:13:21.670,40.30316666666667,-124.49566666666666,7.36,3.11,NC.LVR..EHZ,P,1.0,2019-02-03 23:13:47.150
nc73139351,2019-02-03 23:13:21.670,40.30316666666667,-124.49566666666666,7.36,3.11,NC.OCR..EHZ,P,1.0,2019-02-03 23:13:56.400
nc73139351,2019-02-03 23:13:21.670,40.30316666666667,-124.49566666666666,7.36,3.11,NP.1023..HNZ,P,,2019-02-03 23:13:29.490
nc73139351,2019-02-03 23:13:21.670,40.30316666666667,-124.49566666666666,7.36,3.11,NP.1582..HNZ,P,1.0,2019-02-03 23:13:32.090
nc73139351,2019-02-03 23:13:21.670,40.30316666666667,-124.49566666666666,7.36,3.11,NP.1584..HNZ,P,,2019-02-03 23:13:27.630
nc73139351,2019-02-03 23:13:21.670,40.30316666666667,-124.49566666666666,7.36,3.11,NP.1586..HNZ,P,1.0,2019-02-03 23:13:31.260
nc73139351,2019-02-03 23:13:21.670,40.30316666666667,-124.49566666666666,7.36,3.11,NP.1591..HNZ,P,,2019-02-03 23:13:34.160
nc73139351,2019-02-03 23:13:21.670,40.30316666666667,-124.49566666666666,7.36,3.11,PB.B035..EHZ,P,1.0,2019-02-03 23:13:59.300
nc73139351,2019-02-03 23:13:21.670,40.30316666666667,-124.49566666666666,7.36,3.11,PB.B036..EHZ,P,1.0,2019-02-03 23:13:59.350
nc73139351,2019-02-03 23:13:21.670,40.30316666666667,-124.49566666666666,7.36,3.11,PB.B039..EHZ,P,1.0,2019-02-03 23:13:53.310
nc73139351,2019-02-03 23:13:21.670,40.30316666666667,-124.49566666666666,7.36,3.11,PB.B045..EHZ,P,1.0,2019-02-03 23:13:30.520
nc73139351,2019-02-03 23:13:21.670,40.30316666666667,-124.49566666666666,7.36,3.11,PB.B046..EHZ,P,-1.0,2019-02-03 23:13:31.350
nc73139351,2019-02-03 23:13:21.670,40.30316666666667,-124.49566666666666,7.36,3.11,PB.B047..EHZ,P,1.0,2019-02-03 23:13:27.690
nc73139351,2019-02-03 23:13:21.670,40.30316666666667,-124.49566666666666,7.36,3.11,PB.B049..EHZ,P,1.0,2019-02-03 23:13:32.650
nc73139351,2019-02-03 23:13:21.670,40.30316666666667,-124.49566666666666,7.36,3.11,PB.B932..EHZ,P,1.0,2019-02-03 23:13:26.690
nc73139351,2019-02-03 23:13:21.670,40.30316666666667,-124.49566666666666,7.36,3.11,PB.B933..EHZ,P,,2019-02-03 23:13:31.560
nc73139351,2019-02-03 23:13:21.670,40.30316666666667,-124.49566666666666,7.36,3.11,PB.B935..EHZ,P,1.0,2019-02-03 23:13:36.500
nc73139366,2019-02-03 23:43:21.810,40.307,-124.4965,7.66,4.19,BK.CVS..HHZ,P,,2019-02-03 23:44:01.060
nc73139366,2019-02-03 23:43:21.810,40.307,-124.4965,7.66,4.19,BK.DANT..HHZ,P,-1.0,2019-02-03 23:43:55.420
nc73139366,2019-02-03 23:43:21.810,40.307,-124.4965,7.66,4.19,BK.DCMP..HHZ,P,1.0,2019-02-03 23:43:43.190
nc73139366,2019-02-03 23:43:21.810,40.307,-124.4965,7.66,4.19,BK.HATC..HHZ,P,1.0,2019-02-03 23:44:00.710
nc73139366,2019-02-03 23:43:21.810,40.307,-124.4965,7.66,4.19,BK.HOPS..HHZ,P,1.0,2019-02-03 23:43:50.110
nc73139366,2019-02-03 23:43:21.810,40.307,-124.4965,7.66,4.19,BK.JCC..HHZ,P,1.0,2019-02-03 23:43:34.330
nc73139366,2019-02-03 23:43:21.810,40.307,-124.4965,7.66,4.19,BK.MCCM..HHZ,P,-1.0,2019-02-03 23:44:00.840
nc73139366,2019-02-03 23:43:21.810,40.307,-124.4965,7.66,4.19,BK.MNRC..HHZ,P,1.0,2019-02-03 23:43:57.200
nc73139366,2019-02-03 23:43:21.810,40.307,-124.4965,7.66,4.19,BK.OAKV..HHZ,P,-1.0,2019-02-03 23:44:00.720
nc73139366,2019-02-03 23:43:21.810,40.307,-124.4965,7.66,4.19,BK.ORV..HHZ,P,-1.0,2019-02-03 23:44:00.240
nc73139366,2019-02-03 23:43:21.810,40.307,-124.4965,7.66,4.19,BK.PETY..HHZ,P,1.0,2019-02-03 23:43:45.270
nc73139366,2019-02-03 23:43:21.810,40.307,-124.4965,7.66,4.19,BK.SCOT..HHZ,P,1.0,2019-02-03 23:43:49.680
nc73139366,2019-02-03 23:43:21.810,40.307,-124.4965,7.66,4.19,BK.SHEP..HHZ,P,1.0,2019-02-03 23:44:02.340
nc73139366,2019-02-03 23:43:21.810,40.307,-124.4965,7.66,4.19,BK.SIGP..HHZ,P,-1.0,2019-02-03 23:43:48.110
nc73139366,2019-02-03 23:43:21.810,40.307,-124.4965,7.66,4.19,BK.SUTB..HHZ,P,,2019-02-03 23:43:59.100
nc73139366,2019-02-03 23:43:21.810,40.307,-124.4965,7.66,4.19,BK.TRIN..HHZ,P,1.0,2019-02-03 23:43:47.840
nc73139366,2019-02-03 23:43:21.810,40.307,-124.4965,7.66,4.19,BK.WEAV..HHZ,P,1.0,2019-02-03 23:43:43.590
nc73139366,2019-02-03 23:43:21.810,40.307,-124.4965,7.66,4.19,BK.YBH..HHZ,P,1.0,2019-02-03 23:43:54.160
nc73139366,2019-02-03 23:43:21.810,40.307,-124.4965,7.66,4.19,CE.77352..EHZ,P,,2019-02-03 23:44:00.420
nc73139366,2019-02-03 23:43:21.810,40.307,-124.4965,7.66,4.19,CE.79036..HNZ,P,,2019-02-03 23:43:42.310
nc73139366,2019-02-03 23:43:21.810,40.307,-124.4965,7.66,4.19,CE.79435..HNZ,P,-1.0,2019-02-03 23:43:35.800
nc73139366,2019-02-03 23:43:21.810,40.307,-124.4965,7.66,4.19,CE.89101..HNZ,P,-1.0,2019-02-03 23:43:25.810
nc73139366,2019-02-03 23:43:21.810,40.307,-124.4965,7.66,4.19,CE.89255..HNZ,P,-1.0,2019-02-03 23:43:31.380
nc73139366,2019-02-03 23:43:21.810,40.307,-124.4965,7.66,4.19,CE.89462..HNZ,P,-1.0,2019-02-03 23:43:30.180
nc73139366,2019-02-03 23:43:21.810,40.307,-124.4965,7.66,4.19,CE.89781..HNZ,P,1.0,2019-02-03 23:43:33.270
nc73139366,2019-02-03 23:43:21.810,40.307,-124.4965,7.66,4.19,NC.GBB..EHZ,P,,2019-02-03 23:43:52.770
nc73139366,2019-02-03 23:43:21.810,40.307,-124.4965,7.66,4.19,NC.GCK..EHZ,P,,2019-02-03 23:43:52.560
nc73139366,2019-02-03 23:43:21.810,40.307,-124.4965,7.66,4.19,NC.GFC..EHZ,P,,2019-02-03 23:43:55.530
nc73139366,2019-02-03 23:43:21.810,40.307,-124.4965,7.66,4.19,NC.GHC..EHZ,P,-1.0,2019-02-03 23:43:53.790
nc73139366,2019-02-03 23:43:21.810,40.307,-124.4965,7.66,4.19,NC.GRO..EHZ,P,1.0,2019-02-03 23:43:47.830
nc73139366,2019-02-03 23:43:21.810,40.307,-124.4965,7.66,4.19,NC.GVV..EHZ,P,-1.0,2019-02-03 23:43:47.520
nc73139366,2019-02-03 23:43:21.810,40.307,-124.4965,7.66,4.19,NC.GWR..EHZ,P,1.0,2019-02-03 23:43:46.230
nc73139366,2019-02-03 23:43:21.810,40.307,-124.4965,7.66,4.19,NC.KBN..EHZ,P,1.0,2019-02-03 23:43:41.940
nc73139366,2019-02-03 23:43:21.810,40.307,-124.4965,7.66,4.19,NC.KBO..HHZ,P,,2019-02-03 23:43:52.950
nc73139366,2019-02-03 23:43:21.810,40.307,-124.4965,7.66,4.19,NC.KCO..EHZ,P,1.0,2019-02-03 23:43:26.580
nc73139366,2019-02-03 23:43:21.810,40.307,-124.4965,7.66,4.19,NC.KCPB..HHZ,P,1.0,2019-02-03 23:43:39.560
nc73139366,2019-02-03 23:43:21.810,40.307,-124.4965,7.66,4.19,NC.KCT..HHZ,P,1.0,2019-02-03 23:43:27.100
nc73139366,2019-02-03 23:43:21.810,40.307,-124.4965,7.66,4.19,NC.KHBB..HHZ,P,1.0,2019-02-03 23:43:40.980
nc73139366,2019-02-03 23:43:21.810,40.307,-124.4965,7.66,4.19,NC.KHMB..HHZ,P,1.0,2019-02-03 23:43:37.840
nc73139366,2019-02-03 23:43:21.810,40.307,-124.4965,7.66,4.19,NC.KIP..EHZ,P,1.0,2019-02-03 23:43:39.450
nc73139366,2019-02-03 23:43:21.810,40.307,-124.4965,7.66,4.19,NC.KMPB..HHZ,P,1.0,2019-02-03 23:43:28.800
nc73139366,2019-02-03 23:43:21.810,40.307,-124.4965,7.66,4.19,NC.KMR..HHZ,P,1.0,2019-02-03 23:43:34.690
nc73139366,2019-02-03 23:43:21.810,40.307,-124.4965,7.66,4.19,NC.KOM..EHZ,P,1.0,2019-02-03 23:43:43.890
nc73139366,2019-02-03 23:43:21.810,40.307,-124.4965,7.66,4.19,NC.KRMB..HHZ,P,1.0,2019-02-03 23:43:44.020
nc73139366,2019-02-03 23:43:21.810,40.307,-124.4965,7.66,4.19,NC.KRP..HHZ,P,1.0,2019-02-03 23:43:38.890
nc73139366,2019-02-03 23:43:21.810,40.307,-124.4965,7.66,4.19,NC.KSXB..HHZ,P,1.0,2019-02-03 23:43:48.140
nc73139366,2019-02-03 23:43:21.810,40.307,-124.4965,7.66,4.19,NC.LAMB..EHZ,P,1.0,2019-02-03 23:43:53.750
nc73139366,2019-02-03 23:43:21.810,40.307,-124.4965,7.66,4.19,NC.LBC..EHZ,P,-1.0,2019-02-03 23:44:01.560
nc73139366,2019-02-03 23:43:21.810,40.307,-124.4965,7.66,4.19,NC.LBF..EHZ,P,-1.0,2019-02-03 23:43:58.910
nc73139366,2019-02-03 23:43:21.810,40.307,-124.4965,7.66,4.19,NC.LBK..EHZ,P,1.0,2019-02-03 23:43:48.990
nc73139366,2019-02-03 23:43:21.810,40.307,-124.4965,7.66,4.19,NC.LBP..EHZ,P,1.0,2019-02-03 23:43:43.880
nc73139366,2019-02-03 23:43:21.810,40.307,-124.4965,7.66,4.19,NC.LBR..HHZ,P,1.0,2019-02-03 23:43:57.810
nc73139366,2019-02-03 23:43:21.810,40.307,-124.4965,7.66,4.19,NC.LCSB..EHZ,P,1.0,2019-02-03 23:43:54.460
nc73139366,2019-02-03 23:43:21.810,40.307,-124.4965,7.66,4.19,NC.LDB..EHZ,P,,2019-02-03 23:43:55.740
nc73139366,2019-02-03 23:43:21.810,40.307,-124.4965,7.66,4.19,NC.LDH..HHZ,P,,2019-02-03 23:43:58.490
nc73139366,2019-02-03 23:43:21.810,40.307,-124.4965,7.66,4.19,NC.LDL..HHZ,P,1.0,2019-02-03 23:43:55.480
nc73139366,2019-02-03 23:43:21.810,40.307,-124.4965,7.66,4.19,NC.LEL..EHZ,P,,2019-02-03 23:43:59.010
nc73139366,2019-02-03 23:43:21.810,40.307,-124.4965,7.66,4.19,NC.LGY..HHZ,P,1.0,2019-02-03 23:43:56.220
nc73139366,2019-02-03 23:43:21.810,40.307,-124.4965,7.66,4.19,NC.LMC..HHZ,P,1.0,2019-02-03 23:43:56.020
nc73139366,2019-02-03 23:43:21.810,40.307,-124.4965,7.66,4.19,NC.LME..EHZ,P,-1.0,2019-02-03 23:43:59.800
nc73139366,2019-02-03 23:43:21.810,40.307,-124.4965,7.66,4.19,NC.LMH..EHZ,P,,2019-02-03 23:44:02.280
nc73139366,2019-02-03 23:43:21.810,40.307,-124.4965,7.66,4.19,NC.LMI..EHZ,P,1.0,2019-02-03 23:43:52.000
nc73139366,2019-02-03 23:43:21.810,40.307,-124.4965,7.66,4.19,NC.LMP..EHZ,P,1.0,2019-02-03 23:43:57.920
nc73139366,2019-02-03 23:43:21.810,40.307,-124.4965,7.66,4.19,NC.LPG..EHZ,P,1.0,2019-02-03 23:43:46.580
nc73139366,2019-02-03 23:43:21.810,40.307,-124.4965,7.66,4.19,NC.LRB..EHZ,P,-1.0,2019-02-03 23:43:48.270
nc73139366,2019-02-03 23:43:21.810,40.307,-124.4965,7.66,4.19,NC.LRD..EHZ,P,-1.0,2019-02-03 23:43:59.960
nc73139366,2019-02-03 23:43:21.810,40.307,-124.4965,7.66,4.19,NC.LRR..EHZ,P,-1.0,2019-02-03 23:43:57.830
nc73139366,2019-02-03 23:43:21.810,40.307,-124.4965,7.66,4.19,NC.LSF..EHZ,P,1.0,2019-02-03 23:43:48.320
nc73139366,2019-02-03 23:43:21.810,40.307,-124.4965,7.66,4.19,NC.LSI..EHZ,P,-1.0,2019-02-03 23:44:00.010
nc73139366,2019-02-03 23:43:21.810,40.307,-124.4965,7.66,4.19,NC.LSR..EHZ,P,1.0,2019-02-03 23:43:53.490
nc73139366,2019-02-03 23:43:21.810,40.307,-124.4965,7.66,4.19,NC.LTC..EHZ,P,,2019-02-03 23:43:52.350
nc73139366,2019-02-03 23:43:21.810,40.307,-124.4965,7.66,4.19,NC.LVR..EHZ,P,1.0,2019-02-03 23:43:47.090
nc73139366,2019-02-03 23:43:21.810,40.307,-124.4965,7.66,4.19,NC.NFV..EHZ,P,,2019-02-03 23:43:57.360
nc73139366,2019-02-03 23:43:21.810,40.307,-124.4965,7.66,4.19,NC.NHV..EHZ,P,1.0,2019-02-03 23:44:01.490
nc73139366,2019-02-03 23:43:21.810,40.307,-124.4965,7.66,4.19,NC.NMT..EHZ,P,-1.0,2019-02-03 23:43:58.270
nc73139366,2019-02-03 23:43:21.810,40.307,-124.4965,7.66,4.19,NC.NTR..EHZ,P,1.0,2019-02-03 23:44:00.260
nc73139366,2019-02-03 23:43:21.810,40.307,-124.4965,7.66,4.19,NC.OCR..EHZ,P,1.0,2019-02-03 23:43:56.480
nc73139366,2019-02-03 23:43:21.810,40.307,-124.4965,7.66,4.19,NC.OST..EHZ,P,,2019-02-03 23:44:00.080
nc73139366,2019-02-03 23:43:21.810,40.307,-124.4965,7.66,4.19,NC.OSU..EHZ,P,,2019-02-03 23:43:58.770
nc73139366,2019-02-03 23:43:21.810,40.307,-124.4965,7.66,4.19,NP.1023..HNZ,P,1.0,2019-02-03 23:43:29.580
nc73139366,2019-02-03 23:43:21.810,40.307,-124.4965,7.66,4.19,NP.1582..HNZ,P,1.0,2019-02-03 23:43:32.190
nc73139366,2019-02-03 23:43:21.810,40.307,-124.4965,7.66,4.19,NP.1584..HNZ,P,1.0,2019-02-03 23:43:27.750
nc73139366,2019-02-03 23:43:21.810,40.307,-124.4965,7.66,4.19,NP.1586..HNZ,P,1.0,2019-02-03 23:43:31.390
nc73139366,2019-02-03 23:43:21.810,40.307,-124.4965,7.66,4.19,NP.1591..HNZ,P,1.0,2019-02-03 23:43:34.240
nc73139366,2019-02-03 23:43:21.810,40.307,-124.4965,7.66,4.19,PB.B035..EHZ,P,,2019-02-03 23:43:59.380
nc73139366,2019-02-03 23:43:21.810,40.307,-124.4965,7.66,4.19,PB.B036..EHZ,P,,2019-02-03 23:43:59.290
nc73139366,2019-02-03 23:43:21.810,40.307,-124.4965,7.66,4.19,PB.B039..EHZ,P,1.0,2019-02-03 23:43:53.500
nc73139366,2019-02-03 23:43:21.810,40.307,-124.4965,7.66,4.19,PB.B045..EHZ,P,1.0,2019-02-03 23:43:30.690
nc73139366,2019-02-03 23:43:21.810,40.307,-124.4965,7.66,4.19,PB.B046..EHZ,P,-1.0,2019-02-03 23:43:31.500
nc73139366,2019-02-03 23:43:21.810,40.307,-124.4965,7.66,4.19,PB.B047..EHZ,P,1.0,2019-02-03 23:43:27.810
nc73139366,2019-02-03 23:43:21.810,40.307,-124.4965,7.66,4.19,PB.B049..EHZ,P,1.0,2019-02-03 23:43:32.800
nc73139366,2019-02-03 23:43:21.810,40.307,-124.4965,7.66,4.19,PB.B932..EHZ,P,1.0,2019-02-03 23:43:26.820
nc73139366,2019-02-03 23:43:21.810,40.307,-124.4965,7.66,4.19,PB.B933..EHZ,P,1.0,2019-02-03 23:43:31.710
nc73139366,2019-02-03 23:43:21.810,40.307,-124.4965,7.66,4.19,PB.B934..EHZ,P,,2019-02-03 23:43:37.160
nc73139366,2019-02-03 23:43:21.810,40.307,-124.4965,7.66,4.19,PB.B935..EHZ,P,1.0,2019-02-03 23:43:36.650
nc73139366,2019-02-03 23:43:21.810,40.307,-124.4965,7.66,4.19,SB.HEO..HNZ,P,,2019-02-03 23:43:21.810
nc73139371,2019-02-04 00:05:06.510,40.30316666666667,-124.49683333333333,7.64,3.27,BK.CVS..HHZ,P,-1.0,2019-02-04 00:05:45.760
nc73139371,2019-02-04 00:05:06.510,40.30316666666667,-124.49683333333333,7.64,3.27,BK.DANT..HHZ,P,,2019-02-04 00:05:39.970
nc73139371,2019-02-04 00:05:06.510,40.30316666666667,-124.49683333333333,7.64,3.27,BK.DCMP..HHZ,P,1.0,2019-02-04 00:05:27.870
nc73139371,2019-02-04 00:05:06.510,40.30316666666667,-124.49683333333333,7.64,3.27,BK.HATC..HHZ,P,1.0,2019-02-04 00:05:45.410
nc73139371,2019-02-04 00:05:06.510,40.30316666666667,-124.49683333333333,7.64,3.27,BK.HOPS..HHZ,P,1.0,2019-02-04 00:05:34.810
nc73139371,2019-02-04 00:05:06.510,40.30316666666667,-124.49683333333333,7.64,3.27,BK.JCC..HHZ,P,1.0,2019-02-04 00:05:19.130
nc73139371,2019-02-04 00:05:06.510,40.30316666666667,-124.49683333333333,7.64,3.27,BK.MCCM..HHZ,P,-1.0,2019-02-04 00:05:45.500
nc73139371,2019-02-04 00:05:06.510,40.30316666666667,-124.49683333333333,7.64,3.27,BK.ORV..HHZ,P,-1.0,2019-02-04 00:05:45.010
nc73139371,2019-02-04 00:05:06.510,40.30316666666667,-124.49683333333333,7.64,3.27,BK.PETY..HHZ,P,1.0,2019-02-04 00:05:30.010
nc73139371,2019-02-04 00:05:06.510,40.30316666666667,-124.49683333333333,7.64,3.27,BK.SCOT..HHZ,P,1.0,2019-02-04 00:05:34.420
nc73139371,2019-02-04 00:05:06.510,40.30316666666667,-124.49683333333333,7.64,3.27,BK.SHEP..HHZ,P,1.0,2019-02-04 00:05:47.090
nc73139371,2019-02-04 00:05:06.510,40.30316666666667,-124.49683333333333,7.64,3.27,BK.SIGP..HHZ,P,-1.0,2019-02-04 00:05:32.850
nc73139371,2019-02-04 00:05:06.510,40.30316666666667,-124.49683333333333,7.64,3.27,BK.SUTB..BHZ,P,,2019-02-04 00:05:43.840
nc73139371,2019-02-04 00:05:06.510,40.30316666666667,-124.49683333333333,7.64,3.27,BK.TRIN..HHZ,P,1.0,2019-02-04 00:05:32.590
nc73139371,2019-02-04 00:05:06.510,40.30316666666667,-124.49683333333333,7.64,3.27,BK.WEAV..HHZ,P,1.0,2019-02-04 00:05:28.290
nc73139371,2019-02-04 00:05:06.510,40.30316666666667,-124.49683333333333,7.64,3.27,BK.YBH..HHZ,P,1.0,2019-02-04 00:05:38.910
nc73139371,2019-02-04 00:05:06.510,40.30316666666667,-124.49683333333333,7.64,3.27,CE.89101..HNZ,P,-1.0,2019-02-04 00:05:10.550
nc73139371,2019-02-04 00:05:06.510,40.30316666666667,-124.49683333333333,7.64,3.27,CE.89255..HNZ,P,1.0,2019-02-04 00:05:15.830
nc73139371,2019-02-04 00:05:06.510,40.30316666666667,-124.49683333333333,7.64,3.27,CE.89462..HNZ,P,1.0,2019-02-04 00:05:14.870
nc73139371,2019-02-04 00:05:06.510,40.30316666666667,-124.49683333333333,7.64,3.27,CE.89781..HNZ,P,1.0,2019-02-04 00:05:18.100
nc73139371,2019-02-04 00:05:06.510,40.30316666666667,-124.49683333333333,7.64,3.27,NC.GBB..EHZ,P,,2019-02-04 00:05:36.990
nc73139371,2019-02-04 00:05:06.510,40.30316666666667,-124.49683333333333,7.64,3.27,NC.GFC..EHZ,P,,2019-02-04 00:05:40.620
