event_id,etime,elat,elon,edep,emag,station_id,phase_type,phase_polarity,phase_time
nc73134881,2019-01-21 15:42:28.670,40.23733333333333,-124.168,11.5,2.51,PB.B933..EHZ,P,-1.0,2019-01-21 15:42:33.980
nc73134881,2019-01-21 15:42:28.670,40.23733333333333,-124.168,11.5,2.51,PB.B934..EHZ,P,1.0,2019-01-21 15:42:39.510
nc73134881,2019-01-21 15:42:28.670,40.23733333333333,-124.168,11.5,2.51,PB.B935..EHZ,P,1.0,2019-01-21 15:42:39.870
nc73136551,2019-01-26 00:05:18.590,40.51166666666666,-123.65166666666667,23.22,2.05,BK.JCC..HHZ,P,1.0,2019-01-26 00:05:27.040
nc73136551,2019-01-26 00:05:18.590,40.51166666666666,-123.65166666666667,23.22,2.05,BK.PETY..HHZ,P,-1.0,2019-01-26 00:05:32.560
nc73136551,2019-01-26 00:05:18.590,40.51166666666666,-123.65166666666667,23.22,2.05,BK.TRIN..HHZ,P,1.0,2019-01-26 00:05:33.850
nc73136551,2019-01-26 00:05:18.590,40.51166666666666,-123.65166666666667,23.22,2.05,BK.WEAV..HHZ,P,1.0,2019-01-26 00:05:29.260
nc73136551,2019-01-26 00:05:18.590,40.51166666666666,-123.65166666666667,23.22,2.05,NC.KCO..EHZ,P,1.0,2019-01-26 00:05:28.830
nc73136551,2019-01-26 00:05:18.590,40.51166666666666,-123.65166666666667,23.22,2.05,NC.KCR..EHZ,P,1.0,2019-01-26 00:05:23.820
nc73136551,2019-01-26 00:05:18.590,40.51166666666666,-123.65166666666667,23.22,2.05,NC.KCT..HHZ,P,,2019-01-26 00:05:29.540
nc73136551,2019-01-26 00:05:18.590,40.51166666666666,-123.65166666666667,23.22,2.05,NC.KHBB..HHZ,P,1.0,2019-01-26 00:05:26.550
nc73136551,2019-01-26 00:05:18.590,40.51166666666666,-123.65166666666667,23.22,2.05,NC.KHMB..HHZ,P,1.0,2019-01-26 00:05:26.680
nc73136551,2019-01-26 00:05:18.590,40.51166666666666,-123.65166666666667,23.22,2.05,NC.KIP..EHZ,P,1.0,2019-01-26 00:05:32.190
nc73136551,2019-01-26 00:05:18.590,40.51166666666666,-123.65166666666667,23.22,2.05,NC.KKP..EHZ,P,1.0,2019-01-26 00:05:27.530
nc73136551,2019-01-26 00:05:18.590,40.51166666666666,-123.65166666666667,23.22,2.05,NC.KMPB..HHZ,P,1.0,2019-01-26 00:05:26.660
nc73136551,2019-01-26 00:05:18.590,40.51166666666666,-123.65166666666667,23.22,2.05,NC.KMR..HHZ,P,1.0,2019-01-26 00:05:26.020
nc73136551,2019-01-26 00:05:18.590,40.51166666666666,-123.65166666666667,23.22,2.05,NC.LBK..EHZ,P,1.0,2019-01-26 00:05:35.060
nc73136551,2019-01-26 00:05:18.590,40.51166666666666,-123.65166666666667,23.22,2.05,NC.LSF..EHZ,P,1.0,2019-01-26 00:05:34.320
nc73136551,2019-01-26 00:05:18.590,40.51166666666666,-123.65166666666667,23.22,2.05,PB.B045..EHZ,P,1.0,2019-01-26 00:05:25.210
nc73136551,2019-01-26 00:05:18.590,40.51166666666666,-123.65166666666667,23.22,2.05,PB.B046..EHZ,P,1.0,2019-01-26 00:05:33.840
nc73136551,2019-01-26 00:05:18.590,40.51166666666666,-123.65166666666667,23.22,2.05,PB.B047..EHZ,P,1.0,2019-01-26 00:05:28.190
nc73136551,2019-01-26 00:05:18.590,40.51166666666666,-123.65166666666667,23.22,2.05,PB.B049..EHZ,P,1.0,2019-01-26 00:05:25.630
nc73136551,2019-01-26 00:05:18.590,40.51166666666666,-123.65166666666667,23.22,2.05,PB.B932..EHZ,P,1.0,2019-01-26 00:05:28.090
nc73136551,2019-01-26 00:05:18.590,40.51166666666666,-123.65166666666667,23.22,2.05,PB.B935..EHZ,P,-1.0,2019-01-26 00:05:23.140
nc73138106,2019-01-30 15:50:21.810,40.3125,-124.45883333333333,6.18,2.43,BK.DCMP..HHZ,P,1.0,2019-01-30 15:50:42.810
nc73138106,2019-01-30 15:50:21.810,40.3125,-124.45883333333333,6.18,2.43,BK.JCC..HHZ,P,1.0,2019-01-30 15:50:34.040
nc73138106,2019-01-30 15:50:21.810,40.3125,-124.45883333333333,6.18,2.43,BK.PETY..HHZ,P,-1.0,2019-01-30 15:50:45.110
nc73138106,2019-01-30 15:50:21.810,40.3125,-124.45883333333333,6.18,2.43,BK.TRIN..HHZ,P,-1.0,2019-01-30 15:50:47.550
nc73138106,2019-01-30 15:50:21.810,40.3125,-124.45883333333333,6.18,2.43,BK.WEAV..HHZ,P,,2019-01-30 15:50:43.630
nc73138106,2019-01-30 15:50:21.810,40.3125,-124.45883333333333,6.18,2.43,CE.89101..HNZ,P,-1.0,2019-01-30 15:50:25.310
nc73138106,2019-01-30 15:50:21.810,40.3125,-124.45883333333333,6.18,2.43,NC.GVV..EHZ,P,,2019-01-30 15:50:47.470
nc73138106,2019-01-30 15:50:21.810,40.3125,-124.45883333333333,6.18,2.43,NC.KBN..EHZ,P,-1.0,2019-01-30 15:50:41.680
nc73138106,2019-01-30 15:50:21.810,40.3125,-124.45883333333333,6.18,2.43,NC.KCO..EHZ,P,-1.0,2019-01-30 15:50:26.000
nc73138106,2019-01-30 15:50:21.810,40.3125,-124.45883333333333,6.18,2.43,NC.KCPB..HHZ,P,1.0,2019-01-30 15:50:39.060
nc73138106,2019-01-30 15:50:21.810,40.3125,-124.45883333333333,6.18,2.43,NC.KCR..EHZ,P,1.0,2019-01-30 15:50:32.880
nc73138106,2019-01-30 15:50:21.810,40.3125,-124.45883333333333,6.18,2.43,NC.KCT..HHZ,P,-1.0,2019-01-30 15:50:26.700
nc73138106,2019-01-30 15:50:21.810,40.3125,-124.45883333333333,6.18,2.43,NC.KHMB..HHZ,P,1.0,2019-01-30 15:50:37.480
nc73138106,2019-01-30 15:50:21.810,40.3125,-124.45883333333333,6.18,2.43,NC.KIP..EHZ,P,,2019-01-30 15:50:39.060
nc73138106,2019-01-30 15:50:21.810,40.3125,-124.45883333333333,6.18,2.43,NC.KMR..HHZ,P,1.0,2019-01-30 15:50:34.110
nc73138106,2019-01-30 15:50:21.810,40.3125,-124.45883333333333,6.18,2.43,NC.KOM..EHZ,P,1.0,2019-01-30 15:50:43.590
nc73138106,2019-01-30 15:50:21.810,40.3125,-124.45883333333333,6.18,2.43,NC.KRMB..HHZ,P,1.0,2019-01-30 15:50:44.000
nc73138106,2019-01-30 15:50:21.810,40.3125,-124.45883333333333,6.18,2.43,NC.KRP..HHZ,P,,2019-01-30 15:50:38.340
nc73138106,2019-01-30 15:50:21.810,40.3125,-124.45883333333333,6.18,2.43,NC.KSXB..HHZ,P,1.0,2019-01-30 15:50:47.970
nc73138106,2019-01-30 15:50:21.810,40.3125,-124.45883333333333,6.18,2.43,NC.LBK..EHZ,P,-1.0,2019-01-30 15:50:48.840
nc73138106,2019-01-30 15:50:21.810,40.3125,-124.45883333333333,6.18,2.43,NC.LPG..EHZ,P,,2019-01-30 15:50:46.520
nc73138106,2019-01-30 15:50:21.810,40.3125,-124.45883333333333,6.18,2.43,NC.LSF..EHZ,P,-1.0,2019-01-30 15:50:47.860
nc73138106,2019-01-30 15:50:21.810,40.3125,-124.45883333333333,6.18,2.43,NC.LVR..EHZ,P,,2019-01-30 15:50:46.880
nc73138106,2019-01-30 15:50:21.810,40.3125,-124.45883333333333,6.18,2.43,NP.1582..HNZ,P,1.0,2019-01-30 15:50:31.970
nc73138106,2019-01-30 15:50:21.810,40.3125,-124.45883333333333,6.18,2.43,NP.1586..HNZ,P,1.0,2019-01-30 15:50:31.130
nc73138106,2019-01-30 15:50:21.810,40.3125,-124.45883333333333,6.18,2.43,PB.B045..EHZ,P,1.0,2019-01-30 15:50:30.140
nc73138106,2019-01-30 15:50:21.810,40.3125,-124.45883333333333,6.18,2.43,PB.B046..EHZ,P,-1.0,2019-01-30 15:50:30.760
nc73138106,2019-01-30 15:50:21.810,40.3125,-124.45883333333333,6.18,2.43,PB.B047..EHZ,P,1.0,2019-01-30 15:50:27.280
nc73138106,2019-01-30 15:50:21.810,40.3125,-124.45883333333333,6.18,2.43,PB.B049..EHZ,P,,2019-01-30 15:50:32.380
nc73138106,2019-01-30 15:50:21.810,40.3125,-124.45883333333333,6.18,2.43,PB.B932..EHZ,P,-1.0,2019-01-30 15:50:26.310
nc73138106,2019-01-30 15:50:21.810,40.3125,-124.45883333333333,6.18,2.43,PB.B935..EHZ,P,-1.0,2019-01-30 15:50:36.440
nc73139041,2019-02-02 00:30:37.720,40.31333333333333,-124.45683333333334,6.21,2.86,BK.DCMP..HHZ,P,1.0,2019-02-02 00:30:58.700
nc73139041,2019-02-02 00:30:37.720,40.31333333333333,-124.45683333333334,6.21,2.86,BK.JCC..HHZ,P,1.0,2019-02-02 00:30:49.910
nc73139041,2019-02-02 00:30:37.720,40.31333333333333,-124.45683333333334,6.21,2.86,BK.TRIN..HHZ,P,1.0,2019-02-02 00:31:03.260
nc73139041,2019-02-02 00:30:37.720,40.31333333333333,-124.45683333333334,6.21,2.86,CE.89101..HNZ,P,-1.0,2019-02-02 00:30:41.170
nc73139041,2019-02-02 00:30:37.720,40.31333333333333,-124.45683333333334,6.21,2.86,NC.GWR..EHZ,P,,2019-02-02 00:31:01.670
nc73139041,2019-02-02 00:30:37.720,40.31333333333333,-124.45683333333334,6.21,2.86,NC.KCO..EHZ,P,-1.0,2019-02-02 00:30:41.900
nc73139041,2019-02-02 00:30:37.720,40.31333333333333,-124.45683333333334,6.21,2.86,NC.KCPB..HHZ,P,-1.0,2019-02-02 00:30:55.030
nc73139041,2019-02-02 00:30:37.720,40.31333333333333,-124.45683333333334,6.21,2.86,NC.KCR..EHZ,P,1.0,2019-02-02 00:30:48.780
nc73139041,2019-02-02 00:30:37.720,40.31333333333333,-124.45683333333334,6.21,2.86,NC.KCT..HHZ,P,-1.0,2019-02-02 00:30:42.560
nc73139041,2019-02-02 00:30:37.720,40.31333333333333,-124.45683333333334,6.21,2.86,NC.KHMB..HHZ,P,1.0,2019-02-02 00:30:53.340
nc73139041,2019-02-02 00:30:37.720,40.31333333333333,-124.45683333333334,6.21,2.86,NC.KMPB..HHZ,P,,2019-02-02 00:30:44.180
nc73139041,2019-02-02 00:30:37.720,40.31333333333333,-124.45683333333334,6.21,2.86,NC.KMR..HHZ,P,,2019-02-02 00:30:50.230
nc73139041,2019-02-02 00:30:37.720,40.31333333333333,-124.45683333333334,6.21,2.86,NC.KRMB..HHZ,P,1.0,2019-02-02 00:30:59.670
nc73139041,2019-02-02 00:30:37.720,40.31333333333333,-124.45683333333334,6.21,2.86,NP.1582..HNZ,P,,2019-02-02 00:30:47.730
nc73139041,2019-02-02 00:30:37.720,40.31333333333333,-124.45683333333334,6.21,2.86,NP.1586..HNZ,P,-1.0,2019-02-02 00:30:47.020
nc73139041,2019-02-02 00:30:37.720,40.31333333333333,-124.45683333333334,6.21,2.86,NP.1591..HNZ,P,,2019-02-02 00:30:49.840
nc73139041,2019-02-02 00:30:37.720,40.31333333333333,-124.45683333333334,6.21,2.86,PB.B045..EHZ,P,1.0,2019-02-02 00:30:46.010
nc73139041,2019-02-02 00:30:37.720,40.31333333333333,-124.45683333333334,6.21,2.86,PB.B046..EHZ,P,-1.0,2019-02-02 00:30:46.720
nc73139041,2019-02-02 00:30:37.720,40.31333333333333,-124.45683333333334,6.21,2.86,PB.B047..EHZ,P,1.0,2019-02-02 00:30:43.140
nc73139041,2019-02-02 00:30:37.720,40.31333333333333,-124.45683333333334,6.21,2.86,PB.B049..EHZ,P,1.0,2019-02-02 00:30:48.170
nc73139041,2019-02-02 00:30:37.720,40.31333333333333,-124.45683333333334,6.21,2.86,PB.B932..EHZ,P,1.0,2019-02-02 00:30:42.130
nc73139041,2019-02-02 00:30:37.720,40.31333333333333,-124.45683333333334,6.21,2.86,PB.B935..EHZ,P,1.0,2019-02-02 00:30:52.080
nc73139066,2019-02-02 03:09:20.910,40.305166666666665,-124.47483333333334,7.27,2.62,BK.DCMP..HHZ,P,-1.0,2019-02-02 03:09:42.100
nc73139066,2019-02-02 03:09:20.910,40.305166666666665,-124.47483333333334,7.27,2.62,BK.JCC..HHZ,P,1.0,2019-02-02 03:09:33.340
nc73139066,2019-02-02 03:09:20.910,40.305166666666665,-124.47483333333334,7.27,2.62,BK.PETY..HHZ,P,,2019-02-02 03:09:44.220
nc73139066,2019-02-02 03:09:20.910,40.305166666666665,-124.47483333333334,7.27,2.62,BK.TRIN..HHZ,P,1.0,2019-02-02 03:09:46.790
nc73139066,2019-02-02 03:09:20.910,40.305166666666665,-124.47483333333334,7.27,2.62,CE.89101..HNZ,P,-1.0,2019-02-02 03:09:24.630
nc73139066,2019-02-02 03:09:20.910,40.305166666666665,-124.47483333333334,7.27,2.62,CE.89255..HNZ,P,1.0,2019-02-02 03:09:30.210
nc73139066,2019-02-02 03:09:20.910,40.305166666666665,-124.47483333333334,7.27,2.62,CE.89462..HNZ,P,-1.0,2019-02-02 03:09:29.020
nc73139066,2019-02-02 03:09:20.910,40.305166666666665,-124.47483333333334,7.27,2.62,NC.GWR..EHZ,P,,2019-02-02 03:09:45.120
nc73139066,2019-02-02 03:09:20.910,40.305166666666665,-124.47483333333334,7.27,2.62,NC.KCO..EHZ,P,-1.0,2019-02-02 03:09:25.340
nc73139066,2019-02-02 03:09:20.910,40.305166666666665,-124.47483333333334,7.27,2.62,NC.KCR..EHZ,P,1.0,2019-02-02 03:09:32.200
nc73139066,2019-02-02 03:09:20.910,40.305166666666665,-124.47483333333334,7.27,2.62,NC.KCT..HHZ,P,-1.0,2019-02-02 03:09:26.000
nc73139066,2019-02-02 03:09:20.910,40.305166666666665,-124.47483333333334,7.27,2.62,NC.KIP..EHZ,P,,2019-02-02 03:09:38.560
nc73139066,2019-02-02 03:09:20.910,40.305166666666665,-124.47483333333334,7.27,2.62,NC.KMPB..HHZ,P,-1.0,2019-02-02 03:09:27.660
nc73139066,2019-02-02 03:09:20.910,40.305166666666665,-124.47483333333334,7.27,2.62,NC.KMR..HHZ,P,,2019-02-02 03:09:33.630
nc73139066,2019-02-02 03:09:20.910,40.305166666666665,-124.47483333333334,7.27,2.62,NC.KRMB..HHZ,P,1.0,2019-02-02 03:09:43.150
nc73139066,2019-02-02 03:09:20.910,40.305166666666665,-124.47483333333334,7.27,2.62,NP.1582..HNZ,P,1.0,2019-02-02 03:09:31.270
nc73139066,2019-02-02 03:09:20.910,40.305166666666665,-124.47483333333334,7.27,2.62,NP.1586..HNZ,P,-1.0,2019-02-02 03:09:30.500
nc73139066,2019-02-02 03:09:20.910,40.305166666666665,-124.47483333333334,7.27,2.62,NP.1591..HNZ,P,,2019-02-02 03:09:33.390
nc73139066,2019-02-02 03:09:20.910,40.305166666666665,-124.47483333333334,7.27,2.62,PB.B045..EHZ,P,1.0,2019-02-02 03:09:29.470
nc73139066,2019-02-02 03:09:20.910,40.305166666666665,-124.47483333333334,7.27,2.62,PB.B046..EHZ,P,-1.0,2019-02-02 03:09:30.180
nc73139066,2019-02-02 03:09:20.910,40.305166666666665,-124.47483333333334,7.27,2.62,PB.B047..EHZ,P,1.0,2019-02-02 03:09:26.610
nc73139066,2019-02-02 03:09:20.910,40.305166666666665,-124.47483333333334,7.27,2.62,PB.B049..EHZ,P,1.0,2019-02-02 03:09:31.630
nc73139066,2019-02-02 03:09:20.910,40.305166666666665,-124.47483333333334,7.27,2.62,PB.B932..EHZ,P,-1.0,2019-02-02 03:09:25.640
nc73139066,2019-02-02 03:09:20.910,40.305166666666665,-124.47483333333334,7.27,2.62,PB.B935..EHZ,P,1.0,2019-02-02 03:09:35.540
nc73139111,2019-02-02 10:52:21.990,40.300666666666665,-124.49466666666666,6.44,4.3,BK.CVS..HHZ,P,,2019-02-02 10:53:02.350
nc73139111,2019-02-02 10:52:21.990,40.300666666666665,-124.49466666666666,6.44,4.3,BK.DANT..HHZ,P,-1.0,2019-02-02 10:52:55.880
nc73139111,2019-02-02 10:52:21.990,40.300666666666665,-124.49466666666666,6.44,4.3,BK.DCMP..HHZ,P,1.0,2019-02-02 10:52:43.410
nc73139111,2019-02-02 10:52:21.990,40.300666666666665,-124.49466666666666,6.44,4.3,BK.HATC..HHZ,P,1.0,2019-02-02 10:53:00.950
nc73139111,2019-02-02 10:52:21.990,40.300666666666665,-124.49466666666666,6.44,4.3,BK.HOPS..HHZ,P,1.0,2019-02-02 10:52:50.340
nc73139111,2019-02-02 10:52:21.990,40.300666666666665,-124.49466666666666,6.44,4.3,BK.JCC..HHZ,P,1.0,2019-02-02 10:52:34.750
nc73139111,2019-02-02 10:52:21.990,40.300666666666665,-124.49466666666666,6.44,4.3,BK.MCCM..HHZ,P,1.0,2019-02-02 10:53:01.620
nc73139111,2019-02-02 10:52:21.990,40.300666666666665,-124.49466666666666,6.44,4.3,BK.MNRC..HHZ,P,,2019-02-02 10:52:56.990
nc73139111,2019-02-02 10:52:21.990,40.300666666666665,-124.49466666666666,6.44,4.3,BK.ORV..HHZ,P,-1.0,2019-02-02 10:52:59.940
nc73139111,2019-02-02 10:52:21.990,40.300666666666665,-124.49466666666666,6.44,4.3,BK.PETY..HHZ,P,1.0,2019-02-02 10:52:45.550
nc73139111,2019-02-02 10:52:21.990,40.300666666666665,-124.49466666666666,6.44,4.3,BK.SCOT..HHZ,P,1.0,2019-02-02 10:52:49.980
nc73139111,2019-02-02 10:52:21.990,40.300666666666665,-124.49466666666666,6.44,4.3,BK.SHEP..HHZ,P,1.0,2019-02-02 10:53:02.590
nc73139111,2019-02-02 10:52:21.990,40.300666666666665,-124.49466666666666,6.44,4.3,BK.SIGP..HHZ,P,1.0,2019-02-02 10:52:48.610
nc73139111,2019-02-02 10:52:21.990,40.300666666666665,-124.49466666666666,6.44,4.3,BK.SUTB..HHZ,P,,2019-02-02 10:52:59.500
nc73139111,2019-02-02 10:52:21.990,40.300666666666665,-124.49466666666666,6.44,4.3,BK.TRIN..HHZ,P,1.0,2019-02-02 10:52:48.130
nc73139111,2019-02-02 10:52:21.990,40.300666666666665,-124.49466666666666,6.44,4.3,BK.WEAV..HHZ,P,1.0,2019-02-02 10:52:44.070
nc73139111,2019-02-02 10:52:21.990,40.300666666666665,-124.49466666666666,6.44,4.3,BK.YBH..HHZ,P,1.0,2019-02-02 10:52:54.480
nc73139111,2019-02-02 10:52:21.990,40.300666666666665,-124.49466666666666,6.44,4.3,CE.77352..EHZ,P,,2019-02-02 10:53:00.850
nc73139111,2019-02-02 10:52:21.990,40.300666666666665,-124.49466666666666,6.44,4.3,CE.79036..HNZ,P,,2019-02-02 10:52:42.180
nc73139111,2019-02-02 10:52:21.990,40.300666666666665,-124.49466666666666,6.44,4.3,CE.79435..HNZ,P,-1.0,2019-02-02 10:52:36.050
nc73139111,2019-02-02 10:52:21.990,40.300666666666665,-124.49466666666666,6.44,4.3,CE.89101..HNZ,P,-1.0,2019-02-02 10:52:26.020
nc73139111,2019-02-02 10:52:21.990,40.300666666666665,-124.49466666666666,6.44,4.3,CE.89255..HNZ,P,-1.0,2019-02-02 10:52:31.560
nc73139111,2019-02-02 10:52:21.990,40.300666666666665,-124.49466666666666,6.44,4.3,CE.89462..HNZ,P,1.0,2019-02-02 10:52:30.370
nc73139111,2019-02-02 10:52:21.990,40.300666666666665,-124.49466666666666,6.44,4.3,CE.89464..HNZ,P,1.0,2019-02-02 10:52:36.420
nc73139111,2019-02-02 10:52:21.990,40.300666666666665,-124.49466666666666,6.44,4.3,CE.89781..HNZ,P,1.0,2019-02-02 10:52:33.700
nc73139111,2019-02-02 10:52:21.990,40.300666666666665,-124.49466666666666,6.44,4.3,NC.GAXB..EHZ,P,,2019-02-02 10:52:55.900
nc73139111,2019-02-02 10:52:21.990,40.300666666666665,-124.49466666666666,6.44,4.3,NC.GBB..EHZ,P,,2019-02-02 10:52:52.050
nc73139111,2019-02-02 10:52:21.990,40.300666666666665,-124.49466666666666,6.44,4.3,NC.GFC..EHZ,P,,2019-02-02 10:52:55.010
nc73139111,2019-02-02 10:52:21.990,40.300666666666665,-124.49466666666666,6.44,4.3,NC.GHC..EHZ,P,1.0,2019-02-02 10:52:53.890
nc73139111,2019-02-02 10:52:21.990,40.300666666666665,-124.49466666666666,6.44,4.3,NC.GRO..EHZ,P,,2019-02-02 10:52:47.650
nc73139111,2019-02-02 10:52:21.990,40.300666666666665,-124.49466666666666,6.44,4.3,NC.GRT..EHZ,P,,2019-02-02 10:52:54.100
nc73139111,2019-02-02 10:52:21.990,40.300666666666665,-124.49466666666666,6.44,4.3,NC.GSG..EHZ,P,,2019-02-02 10:52:55.130
nc73139111,2019-02-02 10:52:21.990,40.300666666666665,-124.49466666666666,6.44,4.3,NC.GVV..EHZ,P,,2019-02-02 10:52:47.980
nc73139111,2019-02-02 10:52:21.990,40.300666666666665,-124.49466666666666,6.44,4.3,NC.GWR..EHZ,P,1.0,2019-02-02 10:52:46.480
nc73139111,2019-02-02 10:52:21.990,40.300666666666665,-124.49466666666666,6.44,4.3,NC.KBN..EHZ,P,1.0,2019-02-02 10:52:42.240
nc73139111,2019-02-02 10:52:21.990,40.300666666666665,-124.49466666666666,6.44,4.3,NC.KBO..HHZ,P,,2019-02-02 10:52:53.770
nc73139111,2019-02-02 10:52:21.990,40.300666666666665,-124.49466666666666,6.44,4.3,NC.KCO..EHZ,P,-1.0,2019-02-02 10:52:26.720
nc73139111,2019-02-02 10:52:21.990,40.300666666666665,-124.49466666666666,6.44,4.3,NC.KCPB..HHZ,P,1.0,2019-02-02 10:52:39.810
nc73139111,2019-02-02 10:52:21.990,40.300666666666665,-124.49466666666666,6.44,4.3,NC.KCR..EHZ,P,1.0,2019-02-02 10:52:33.610
nc73139111,2019-02-02 10:52:21.990,40.300666666666665,-124.49466666666666,6.44,4.3,NC.KCT..HHZ,P,-1.0,2019-02-02 10:52:27.360
nc73139111,2019-02-02 10:52:21.990,40.300666666666665,-124.49466666666666,6.44,4.3,NC.KHBB..HHZ,P,1.0,2019-02-02 10:52:41.270
nc73139111,2019-02-02 10:52:21.990,40.300666666666665,-124.49466666666666,6.44,4.3,NC.KHMB..HHZ,P,1.0,2019-02-02 10:52:38.200
nc73139111,2019-02-02 10:52:21.990,40.300666666666665,-124.49466666666666,6.44,4.3,NC.KIP..EHZ,P,1.0,2019-02-02 10:52:39.720
nc73139111,2019-02-02 10:52:21.990,40.300666666666665,-124.49466666666666,6.44,4.3,NC.KMPB..HHZ,P,-1.0,2019-02-02 10:52:29.020
nc73139111,2019-02-02 10:52:21.990,40.300666666666665,-124.49466666666666,6.44,4.3,NC.KMR..HHZ,P,1.0,2019-02-02 10:52:34.880
nc73139111,2019-02-02 10:52:21.990,40.300666666666665,-124.49466666666666,6.44,4.3,NC.KOM..EHZ,P,1.0,2019-02-02 10:52:44.290
nc73139111,2019-02-02 10:52:21.990,40.300666666666665,-124.49466666666666,6.44,4.3,NC.KRMB..HHZ,P,1.0,2019-02-02 10:52:44.490
nc73139111,2019-02-02 10:52:21.990,40.300666666666665,-124.49466666666666,6.44,4.3,NC.KRP..HHZ,P,1.0,2019-02-02 10:52:39.330
nc73139111,2019-02-02 10:52:21.990,40.300666666666665,-124.49466666666666,6.44,4.3,NC.KSXB..HHZ,P,1.0,2019-02-02 10:52:48.660
nc73139111,2019-02-02 10:52:21.990,40.300666666666665,-124.49466666666666,6.44,4.3,NC.LAMB..EHZ,P,1.0,2019-02-02 10:52:54.100
nc73139111,2019-02-02 10:52:21.990,40.300666666666665,-124.49466666666666,6.44,4.3,NC.LBC..EHZ,P,-1.0,2019-02-02 10:53:01.880
nc73139111,2019-02-02 10:52:21.990,40.300666666666665,-124.49466666666666,6.44,4.3,NC.LBF..EHZ,P,-1.0,2019-02-02 10:52:59.220
nc73139111,2019-02-02 10:52:21.990,40.300666666666665,-124.49466666666666,6.44,4.3,NC.LBK..EHZ,P,1.0,2019-02-02 10:52:49.230
nc73139111,2019-02-02 10:52:21.990,40.300666666666665,-124.49466666666666,6.44,4.3,NC.LBO..EHZ,P,,2019-02-02 10:52:57.230
nc73139111,2019-02-02 10:52:21.990,40.300666666666665,-124.49466666666666,6.44,4.3,NC.LBP..EHZ,P,-1.0,2019-02-02 10:52:44.080
nc73139111,2019-02-02 10:52:21.990,40.300666666666665,-124.49466666666666,6.44,4.3,NC.LBR..HHZ,P,1.0,2019-02-02 10:52:58.090
nc73139111,2019-02-02 10:52:21.990,40.300666666666665,-124.49466666666666,6.44,4.3,NC.LCSB..EHZ,P,1.0,2019-02-02 10:52:54.750
nc73139111,2019-02-02 10:52:21.990,40.300666666666665,-124.49466666666666,6.44,4.3,NC.LDB..EHZ,P,-1.0,2019-02-02 10:52:56.090
nc73139111,2019-02-02 10:52:21.990,40.300666666666665,-124.49466666666666,6.44,4.3,NC.LDH..HHZ,P,-1.0,2019-02-02 10:52:58.670
nc73139111,2019-02-02 10:52:21.990,40.300666666666665,-124.49466666666666,6.44,4.3,NC.LDL..HHZ,P,1.0,2019-02-02 10:52:55.830
