event_id,etime,elat,elon,edep,emag,station_id,phase_type,phase_polarity,phase_time
nc73139111,2019-02-02 10:52:21.990,40.300666666666665,-124.49466666666666,6.44,4.3,NC.LGM..EHZ,P,1.0,2019-02-02 10:53:01.420
nc73139111,2019-02-02 10:52:21.990,40.300666666666665,-124.49466666666666,6.44,4.3,NC.LGY..HHZ,P,1.0,2019-02-02 10:52:56.720
nc73139111,2019-02-02 10:52:21.990,40.300666666666665,-124.49466666666666,6.44,4.3,NC.LHE..EHZ,P,1.0,2019-02-02 10:52:58.350
nc73139111,2019-02-02 10:52:21.990,40.300666666666665,-124.49466666666666,6.44,4.3,NC.LMC..HHZ,P,-1.0,2019-02-02 10:52:56.720
nc73139111,2019-02-02 10:52:21.990,40.300666666666665,-124.49466666666666,6.44,4.3,NC.LME..EHZ,P,,2019-02-02 10:52:59.070
nc73139111,2019-02-02 10:52:21.990,40.300666666666665,-124.49466666666666,6.44,4.3,NC.LMH..EHZ,P,1.0,2019-02-02 10:53:02.960
nc73139111,2019-02-02 10:52:21.990,40.300666666666665,-124.49466666666666,6.44,4.3,NC.LMI..EHZ,P,1.0,2019-02-02 10:52:52.320
nc73139111,2019-02-02 10:52:21.990,40.300666666666665,-124.49466666666666,6.44,4.3,NC.LMP..EHZ,P,1.0,2019-02-02 10:52:58.230
nc73139111,2019-02-02 10:52:21.990,40.300666666666665,-124.49466666666666,6.44,4.3,NC.LPG..EHZ,P,1.0,2019-02-02 10:52:46.780
nc73139111,2019-02-02 10:52:21.990,40.300666666666665,-124.49466666666666,6.44,4.3,NC.LRB..EHZ,P,-1.0,2019-02-02 10:52:48.490
nc73139111,2019-02-02 10:52:21.990,40.300666666666665,-124.49466666666666,6.44,4.3,NC.LRR..EHZ,P,-1.0,2019-02-02 10:52:58.190
nc73139111,2019-02-02 10:52:21.990,40.300666666666665,-124.49466666666666,6.44,4.3,NC.LSF..EHZ,P,,2019-02-02 10:52:48.920
nc73139111,2019-02-02 10:52:21.990,40.300666666666665,-124.49466666666666,6.44,4.3,NC.LSR..EHZ,P,1.0,2019-02-02 10:52:53.730
nc73139111,2019-02-02 10:52:21.990,40.300666666666665,-124.49466666666666,6.44,4.3,NC.LTC..EHZ,P,1.0,2019-02-02 10:52:52.580
nc73139111,2019-02-02 10:52:21.990,40.300666666666665,-124.49466666666666,6.44,4.3,NC.LVR..EHZ,P,1.0,2019-02-02 10:52:47.290
nc73139111,2019-02-02 10:52:21.990,40.300666666666665,-124.49466666666666,6.44,4.3,NC.NFV..EHZ,P,,2019-02-02 10:52:58.110
nc73139111,2019-02-02 10:52:21.990,40.300666666666665,-124.49466666666666,6.44,4.3,NC.NHS..EHZ,P,,2019-02-02 10:52:56.840
nc73139111,2019-02-02 10:52:21.990,40.300666666666665,-124.49466666666666,6.44,4.3,NC.NHV..EHZ,P,1.0,2019-02-02 10:53:01.910
nc73139111,2019-02-02 10:52:21.990,40.300666666666665,-124.49466666666666,6.44,4.3,NC.NOLB..EHZ,P,-1.0,2019-02-02 10:53:02.920
nc73139111,2019-02-02 10:52:21.990,40.300666666666665,-124.49466666666666,6.44,4.3,NC.NSP..EHZ,P,-1.0,2019-02-02 10:53:03.990
nc73139111,2019-02-02 10:52:21.990,40.300666666666665,-124.49466666666666,6.44,4.3,NC.NTR..EHZ,P,,2019-02-02 10:53:00.500
nc73139111,2019-02-02 10:52:21.990,40.300666666666665,-124.49466666666666,6.44,4.3,NC.OST..EHZ,P,,2019-02-02 10:53:00.100
nc73139111,2019-02-02 10:52:21.990,40.300666666666665,-124.49466666666666,6.44,4.3,NC.OSU..EHZ,P,-1.0,2019-02-02 10:52:59.140
nc73139111,2019-02-02 10:52:21.990,40.300666666666665,-124.49466666666666,6.44,4.3,NP.1582..HNZ,P,1.0,2019-02-02 10:52:32.630
nc73139111,2019-02-02 10:52:21.990,40.300666666666665,-124.49466666666666,6.44,4.3,NP.1584..HNZ,P,-1.0,2019-02-02 10:52:28.250
nc73139111,2019-02-02 10:52:21.990,40.300666666666665,-124.49466666666666,6.44,4.3,NP.1586..HNZ,P,1.0,2019-02-02 10:52:31.730
nc73139111,2019-02-02 10:52:21.990,40.300666666666665,-124.49466666666666,6.44,4.3,NP.1591..HNZ,P,1.0,2019-02-02 10:52:34.420
nc73139111,2019-02-02 10:52:21.990,40.300666666666665,-124.49466666666666,6.44,4.3,PB.B035..EHZ,P,,2019-02-02 10:52:59.800
nc73139111,2019-02-02 10:52:21.990,40.300666666666665,-124.49466666666666,6.44,4.3,PB.B036..EHZ,P,1.0,2019-02-02 10:52:59.510
nc73139111,2019-02-02 10:52:21.990,40.300666666666665,-124.49466666666666,6.44,4.3,PB.B039..EHZ,P,1.0,2019-02-02 10:52:53.790
nc73139111,2019-02-02 10:52:21.990,40.300666666666665,-124.49466666666666,6.44,4.3,PB.B045..EHZ,P,1.0,2019-02-02 10:52:30.850
nc73139111,2019-02-02 10:52:21.990,40.300666666666665,-124.49466666666666,6.44,4.3,PB.B046..EHZ,P,-1.0,2019-02-02 10:52:31.590
nc73139111,2019-02-02 10:52:21.990,40.300666666666665,-124.49466666666666,6.44,4.3,PB.B047..EHZ,P,1.0,2019-02-02 10:52:27.980
nc73139111,2019-02-02 10:52:21.990,40.300666666666665,-124.49466666666666,6.44,4.3,PB.B049..EHZ,P,1.0,2019-02-02 10:52:33.010
nc73139111,2019-02-02 10:52:21.990,40.300666666666665,-124.49466666666666,6.44,4.3,PB.B932..EHZ,P,1.0,2019-02-02 10:52:27.000
nc73139111,2019-02-02 10:52:21.990,40.300666666666665,-124.49466666666666,6.44,4.3,PB.B933..EHZ,P,1.0,2019-02-02 10:52:31.900
nc73139111,2019-02-02 10:52:21.990,40.300666666666665,-124.49466666666666,6.44,4.3,PB.B934..EHZ,P,1.0,2019-02-02 10:52:37.270
nc73139111,2019-02-02 10:52:21.990,40.300666666666665,-124.49466666666666,6.44,4.3,PB.B935..EHZ,P,1.0,2019-02-02 10:52:36.900
nc73139111,2019-02-02 10:52:21.990,40.300666666666665,-124.49466666666666,6.44,4.3,NP.1745..HN3,P,,2019-02-02 10:52:21.990
nc73139111,2019-02-02 10:52:21.990,40.300666666666665,-124.49466666666666,6.44,4.3,SB.HEO..HNZ,P,,2019-02-02 10:52:21.990
nc73139116,2019-02-02 11:18:26.010,40.305,-124.469,7.38,3.05,BK.DANT..HHZ,P,,2019-02-02 11:18:59.490
nc73139116,2019-02-02 11:18:26.010,40.305,-124.469,7.38,3.05,BK.DCMP..HHZ,P,1.0,2019-02-02 11:18:47.000
nc73139116,2019-02-02 11:18:26.010,40.305,-124.469,7.38,3.05,BK.HOPS..HHZ,P,1.0,2019-02-02 11:18:53.930
nc73139116,2019-02-02 11:18:26.010,40.305,-124.469,7.38,3.05,BK.JCC..HHZ,P,1.0,2019-02-02 11:18:38.330
nc73139116,2019-02-02 11:18:26.010,40.305,-124.469,7.38,3.05,BK.PETY..HHZ,P,-1.0,2019-02-02 11:18:49.330
nc73139116,2019-02-02 11:18:26.010,40.305,-124.469,7.38,3.05,BK.SCOT..HHZ,P,1.0,2019-02-02 11:18:53.610
nc73139116,2019-02-02 11:18:26.010,40.305,-124.469,7.38,3.05,BK.SHEP..HHZ,P,-1.0,2019-02-02 11:19:06.350
nc73139116,2019-02-02 11:18:26.010,40.305,-124.469,7.38,3.05,BK.SIGP..HHZ,P,1.0,2019-02-02 11:18:52.250
nc73139116,2019-02-02 11:18:26.010,40.305,-124.469,7.38,3.05,BK.TRIN..HHZ,P,1.0,2019-02-02 11:18:51.720
nc73139116,2019-02-02 11:18:26.010,40.305,-124.469,7.38,3.05,BK.WEAV..HHZ,P,1.0,2019-02-02 11:18:47.600
nc73139116,2019-02-02 11:18:26.010,40.305,-124.469,7.38,3.05,BK.YBH..HHZ,P,1.0,2019-02-02 11:18:58.060
nc73139116,2019-02-02 11:18:26.010,40.305,-124.469,7.38,3.05,CE.79435..HNZ,P,-1.0,2019-02-02 11:18:39.640
nc73139116,2019-02-02 11:18:26.010,40.305,-124.469,7.38,3.05,CE.89101..HNZ,P,-1.0,2019-02-02 11:18:29.620
nc73139116,2019-02-02 11:18:26.010,40.305,-124.469,7.38,3.05,CE.89255..HNZ,P,-1.0,2019-02-02 11:18:35.140
nc73139116,2019-02-02 11:18:26.010,40.305,-124.469,7.38,3.05,CE.89462..HNZ,P,-1.0,2019-02-02 11:18:34.030
nc73139116,2019-02-02 11:18:26.010,40.305,-124.469,7.38,3.05,CE.89781..HNZ,P,1.0,2019-02-02 11:18:37.340
nc73139116,2019-02-02 11:18:26.010,40.305,-124.469,7.38,3.05,NC.GRO..EHZ,P,,2019-02-02 11:18:51.200
nc73139116,2019-02-02 11:18:26.010,40.305,-124.469,7.38,3.05,NC.GVV..EHZ,P,,2019-02-02 11:18:52.190
nc73139116,2019-02-02 11:18:26.010,40.305,-124.469,7.38,3.05,NC.GWR..EHZ,P,1.0,2019-02-02 11:18:50.060
nc73139116,2019-02-02 11:18:26.010,40.305,-124.469,7.38,3.05,NC.KBN..EHZ,P,-1.0,2019-02-02 11:18:45.930
nc73139116,2019-02-02 11:18:26.010,40.305,-124.469,7.38,3.05,NC.KCO..EHZ,P,-1.0,2019-02-02 11:18:30.310
nc73139116,2019-02-02 11:18:26.010,40.305,-124.469,7.38,3.05,NC.KCPB..HHZ,P,-1.0,2019-02-02 11:18:43.460
nc73139116,2019-02-02 11:18:26.010,40.305,-124.469,7.38,3.05,NC.KCR..EHZ,P,1.0,2019-02-02 11:18:37.210
nc73139116,2019-02-02 11:18:26.010,40.305,-124.469,7.38,3.05,NC.KCT..HHZ,P,-1.0,2019-02-02 11:18:31.030
nc73139116,2019-02-02 11:18:26.010,40.305,-124.469,7.38,3.05,NC.KHBB..HHZ,P,1.0,2019-02-02 11:18:44.940
nc73139116,2019-02-02 11:18:26.010,40.305,-124.469,7.38,3.05,NC.KHMB..HHZ,P,1.0,2019-02-02 11:18:41.780
nc73139116,2019-02-02 11:18:26.010,40.305,-124.469,7.38,3.05,NC.KIP..EHZ,P,-1.0,2019-02-02 11:18:43.470
nc73139116,2019-02-02 11:18:26.010,40.305,-124.469,7.38,3.05,NC.KMPB..HHZ,P,1.0,2019-02-02 11:18:32.600
nc73139116,2019-02-02 11:18:26.010,40.305,-124.469,7.38,3.05,NC.KMR..HHZ,P,1.0,2019-02-02 11:18:38.470
nc73139116,2019-02-02 11:18:26.010,40.305,-124.469,7.38,3.05,NC.KRMB..HHZ,P,1.0,2019-02-02 11:18:48.120
nc73139116,2019-02-02 11:18:26.010,40.305,-124.469,7.38,3.05,NC.KRP..HHZ,P,1.0,2019-02-02 11:18:42.930
nc73139116,2019-02-02 11:18:26.010,40.305,-124.469,7.38,3.05,NC.KSXB..HHZ,P,1.0,2019-02-02 11:18:52.260
nc73139116,2019-02-02 11:18:26.010,40.305,-124.469,7.38,3.05,NC.LAMB..EHZ,P,1.0,2019-02-02 11:18:57.740
nc73139116,2019-02-02 11:18:26.010,40.305,-124.469,7.38,3.05,NC.LBF..EHZ,P,1.0,2019-02-02 11:19:03.150
nc73139116,2019-02-02 11:18:26.010,40.305,-124.469,7.38,3.05,NC.LBK..EHZ,P,-1.0,2019-02-02 11:18:53.080
nc73139116,2019-02-02 11:18:26.010,40.305,-124.469,7.38,3.05,NC.LBO..EHZ,P,-1.0,2019-02-02 11:19:01.010
nc73139116,2019-02-02 11:18:26.010,40.305,-124.469,7.38,3.05,NC.LBP..EHZ,P,1.0,2019-02-02 11:18:48.210
nc73139116,2019-02-02 11:18:26.010,40.305,-124.469,7.38,3.05,NC.LBR..HHZ,P,-1.0,2019-02-02 11:19:01.870
nc73139116,2019-02-02 11:18:26.010,40.305,-124.469,7.38,3.05,NC.LGM..EHZ,P,,2019-02-02 11:19:04.950
nc73139116,2019-02-02 11:18:26.010,40.305,-124.469,7.38,3.05,NC.LGY..HHZ,P,-1.0,2019-02-02 11:19:00.380
nc73139116,2019-02-02 11:18:26.010,40.305,-124.469,7.38,3.05,NC.LHE..EHZ,P,1.0,2019-02-02 11:19:02.110
nc73139116,2019-02-02 11:18:26.010,40.305,-124.469,7.38,3.05,NC.LMC..HHZ,P,,2019-02-02 11:19:00.040
nc73139116,2019-02-02 11:18:26.010,40.305,-124.469,7.38,3.05,NC.LMI..EHZ,P,,2019-02-02 11:18:56.030
nc73139116,2019-02-02 11:18:26.010,40.305,-124.469,7.38,3.05,NC.LPG..EHZ,P,-1.0,2019-02-02 11:18:50.510
nc73139116,2019-02-02 11:18:26.010,40.305,-124.469,7.38,3.05,NC.LRB..EHZ,P,-1.0,2019-02-02 11:18:52.670
nc73139116,2019-02-02 11:18:26.010,40.305,-124.469,7.38,3.05,NC.LSF..EHZ,P,,2019-02-02 11:18:52.370
nc73139116,2019-02-02 11:18:26.010,40.305,-124.469,7.38,3.05,NC.LSR..EHZ,P,1.0,2019-02-02 11:18:57.330
nc73139116,2019-02-02 11:18:26.010,40.305,-124.469,7.38,3.05,NC.LVR..EHZ,P,,2019-02-02 11:18:51.000
nc73139116,2019-02-02 11:18:26.010,40.305,-124.469,7.38,3.05,NP.1582..HNZ,P,1.0,2019-02-02 11:18:36.280
nc73139116,2019-02-02 11:18:26.010,40.305,-124.469,7.38,3.05,NP.1586..HNZ,P,1.0,2019-02-02 11:18:35.310
nc73139116,2019-02-02 11:18:26.010,40.305,-124.469,7.38,3.05,NP.1591..HNZ,P,1.0,2019-02-02 11:18:38.030
nc73139116,2019-02-02 11:18:26.010,40.305,-124.469,7.38,3.05,PB.B035..EHZ,P,-1.0,2019-02-02 11:19:03.630
nc73139116,2019-02-02 11:18:26.010,40.305,-124.469,7.38,3.05,PB.B036..EHZ,P,1.0,2019-02-02 11:19:03.540
nc73139116,2019-02-02 11:18:26.010,40.305,-124.469,7.38,3.05,PB.B039..EHZ,P,1.0,2019-02-02 11:18:57.390
nc73139116,2019-02-02 11:18:26.010,40.305,-124.469,7.38,3.05,PB.B045..EHZ,P,1.0,2019-02-02 11:18:34.470
nc73139116,2019-02-02 11:18:26.010,40.305,-124.469,7.38,3.05,PB.B046..EHZ,P,-1.0,2019-02-02 11:18:35.190
nc73139116,2019-02-02 11:18:26.010,40.305,-124.469,7.38,3.05,PB.B047..EHZ,P,1.0,2019-02-02 11:18:31.610
nc73139116,2019-02-02 11:18:26.010,40.305,-124.469,7.38,3.05,PB.B049..EHZ,P,1.0,2019-02-02 11:18:36.590
nc73139116,2019-02-02 11:18:26.010,40.305,-124.469,7.38,3.05,PB.B932..EHZ,P,-1.0,2019-02-02 11:18:30.590
nc73139116,2019-02-02 11:18:26.010,40.305,-124.469,7.38,3.05,PB.B934..EHZ,P,,2019-02-02 11:18:40.920
nc73139116,2019-02-02 11:18:26.010,40.305,-124.469,7.38,3.05,PB.B935..EHZ,P,1.0,2019-02-02 11:18:40.510
nc73139126,2019-02-02 16:00:20.850,40.29816666666667,-124.474,7.65,2.94,BK.DCMP..HHZ,P,-1.0,2019-02-02 16:00:41.970
nc73139126,2019-02-02 16:00:20.850,40.29816666666667,-124.474,7.65,2.94,BK.JCC..HHZ,P,1.0,2019-02-02 16:00:33.220
nc73139126,2019-02-02 16:00:20.850,40.29816666666667,-124.474,7.65,2.94,BK.PETY..HHZ,P,-1.0,2019-02-02 16:00:44.320
nc73139126,2019-02-02 16:00:20.850,40.29816666666667,-124.474,7.65,2.94,BK.SCOT..HHZ,P,1.0,2019-02-02 16:00:48.490
nc73139126,2019-02-02 16:00:20.850,40.29816666666667,-124.474,7.65,2.94,BK.SIGP..HHZ,P,1.0,2019-02-02 16:00:47.260
nc73139126,2019-02-02 16:00:20.850,40.29816666666667,-124.474,7.65,2.94,BK.TRIN..HHZ,P,-1.0,2019-02-02 16:00:46.650
nc73139126,2019-02-02 16:00:20.850,40.29816666666667,-124.474,7.65,2.94,BK.YBH..HHZ,P,1.0,2019-02-02 16:00:53.000
nc73139126,2019-02-02 16:00:20.850,40.29816666666667,-124.474,7.65,2.94,CE.79435..HNZ,P,1.0,2019-02-02 16:00:34.620
nc73139126,2019-02-02 16:00:20.850,40.29816666666667,-124.474,7.65,2.94,CE.89101..HNZ,P,-1.0,2019-02-02 16:00:24.600
nc73139126,2019-02-02 16:00:20.850,40.29816666666667,-124.474,7.65,2.94,CE.89255..HNZ,P,,2019-02-02 16:00:30.000
nc73139126,2019-02-02 16:00:20.850,40.29816666666667,-124.474,7.65,2.94,CE.89462..HNZ,P,-1.0,2019-02-02 16:00:28.930
nc73139126,2019-02-02 16:00:20.850,40.29816666666667,-124.474,7.65,2.94,NC.GRO..EHZ,P,-1.0,2019-02-02 16:00:46.840
nc73139126,2019-02-02 16:00:20.850,40.29816666666667,-124.474,7.65,2.94,NC.KCO..EHZ,P,-1.0,2019-02-02 16:00:25.210
nc73139126,2019-02-02 16:00:20.850,40.29816666666667,-124.474,7.65,2.94,NC.KCPB..HHZ,P,-1.0,2019-02-02 16:00:38.380
nc73139126,2019-02-02 16:00:20.850,40.29816666666667,-124.474,7.65,2.94,NC.KCR..EHZ,P,1.0,2019-02-02 16:00:32.120
nc73139126,2019-02-02 16:00:20.850,40.29816666666667,-124.474,7.65,2.94,NC.KCT..HHZ,P,1.0,2019-02-02 16:00:25.910
nc73139126,2019-02-02 16:00:20.850,40.29816666666667,-124.474,7.65,2.94,NC.KHBB..HHZ,P,,2019-02-02 16:00:39.910
nc73139126,2019-02-02 16:00:20.850,40.29816666666667,-124.474,7.65,2.94,NC.KHMB..HHZ,P,,2019-02-02 16:00:36.710
nc73139126,2019-02-02 16:00:20.850,40.29816666666667,-124.474,7.65,2.94,NC.KIP..EHZ,P,-1.0,2019-02-02 16:00:38.520
nc73139126,2019-02-02 16:00:20.850,40.29816666666667,-124.474,7.65,2.94,NC.KMPB..HHZ,P,1.0,2019-02-02 16:00:27.520
nc73139126,2019-02-02 16:00:20.850,40.29816666666667,-124.474,7.65,2.94,NC.KMR..HHZ,P,-1.0,2019-02-02 16:00:33.520
nc73139126,2019-02-02 16:00:20.850,40.29816666666667,-124.474,7.65,2.94,NC.KRMB..HHZ,P,1.0,2019-02-02 16:00:42.990
nc73139126,2019-02-02 16:00:20.850,40.29816666666667,-124.474,7.65,2.94,NC.KRP..HHZ,P,-1.0,2019-02-02 16:00:37.860
nc73139126,2019-02-02 16:00:20.850,40.29816666666667,-124.474,7.65,2.94,NC.KSXB..HHZ,P,1.0,2019-02-02 16:00:47.140
nc73139126,2019-02-02 16:00:20.850,40.29816666666667,-124.474,7.65,2.94,NC.LAMB..EHZ,P,,2019-02-02 16:00:52.750
nc73139126,2019-02-02 16:00:20.850,40.29816666666667,-124.474,7.65,2.94,NC.LBF..EHZ,P,1.0,2019-02-02 16:00:58.050
nc73139126,2019-02-02 16:00:20.850,40.29816666666667,-124.474,7.65,2.94,NC.LBK..EHZ,P,-1.0,2019-02-02 16:00:48.010
nc73139126,2019-02-02 16:00:20.850,40.29816666666667,-124.474,7.65,2.94,NC.LBO..EHZ,P,-1.0,2019-02-02 16:00:55.910
nc73139126,2019-02-02 16:00:20.850,40.29816666666667,-124.474,7.65,2.94,NC.LBR..HHZ,P,-1.0,2019-02-02 16:00:56.780
nc73139126,2019-02-02 16:00:20.850,40.29816666666667,-124.474,7.65,2.94,NC.LDL..HHZ,P,-1.0,2019-02-02 16:00:54.510
nc73139126,2019-02-02 16:00:20.850,40.29816666666667,-124.474,7.65,2.94,NC.LPG..EHZ,P,1.0,2019-02-02 16:00:45.480
nc73139126,2019-02-02 16:00:20.850,40.29816666666667,-124.474,7.65,2.94,NC.LSR..EHZ,P,1.0,2019-02-02 16:00:52.300
nc73139126,2019-02-02 16:00:20.850,40.29816666666667,-124.474,7.65,2.94,NC.LVR..EHZ,P,,2019-02-02 16:00:46.100
nc73139126,2019-02-02 16:00:20.850,40.29816666666667,-124.474,7.65,2.94,NP.1582..HNZ,P,1.0,2019-02-02 16:00:31.140
nc73139126,2019-02-02 16:00:20.850,40.29816666666667,-124.474,7.65,2.94,NP.1586..HNZ,P,1.0,2019-02-02 16:00:30.220
nc73139126,2019-02-02 16:00:20.850,40.29816666666667,-124.474,7.65,2.94,NP.1591..HNZ,P,,2019-02-02 16:00:33.040
nc73139126,2019-02-02 16:00:20.850,40.29816666666667,-124.474,7.65,2.94,PB.B039..EHZ,P,-1.0,2019-02-02 16:00:52.450
nc73139126,2019-02-02 16:00:20.850,40.29816666666667,-124.474,7.65,2.94,PB.B045..EHZ,P,1.0,2019-02-02 16:00:29.390
nc73139126,2019-02-02 16:00:20.850,40.29816666666667,-124.474,7.65,2.94,PB.B046..EHZ,P,-1.0,2019-02-02 16:00:30.170
nc73139126,2019-02-02 16:00:20.850,40.29816666666667,-124.474,7.65,2.94,PB.B047..EHZ,P,-1.0,2019-02-02 16:00:26.480
nc73139126,2019-02-02 16:00:20.850,40.29816666666667,-124.474,7.65,2.94,PB.B049..EHZ,P,1.0,2019-02-02 16:00:31.540
nc73139126,2019-02-02 16:00:20.850,40.29816666666667,-124.474,7.65,2.94,PB.B932..EHZ,P,-1.0,2019-02-02 16:00:25.480
nc73139126,2019-02-02 16:00:20.850,40.29816666666667,-124.474,7.65,2.94,PB.B935..EHZ,P,1.0,2019-02-02 16:00:35.440
nc73139131,2019-02-02 16:30:07.420,40.3125,-124.47533333333334,6.64,2.53,BK.DCMP..HHZ,P,1.0,2019-02-02 16:30:28.540
nc73139131,2019-02-02 16:30:07.420,40.3125,-124.47533333333334,6.64,2.53,BK.JCC..HHZ,P,1.0,2019-02-02 16:30:19.900
nc73139131,2019-02-02 16:30:07.420,40.3125,-124.47533333333334,6.64,2.53,BK.PETY..HHZ,P,-1.0,2019-02-02 16:30:30.930
nc73139131,2019-02-02 16:30:07.420,40.3125,-124.47533333333334,6.64,2.53,BK.TRIN..HHZ,P,-1.0,2019-02-02 16:30:33.400
nc73139131,2019-02-02 16:30:07.420,40.3125,-124.47533333333334,6.64,2.53,CE.89101..HNZ,P,-1.0,2019-02-02 16:30:11.100
nc73139131,2019-02-02 16:30:07.420,40.3125,-124.47533333333334,6.64,2.53,CE.89462..HNZ,P,-1.0,2019-02-02 16:30:15.520
nc73139131,2019-02-02 16:30:07.420,40.3125,-124.47533333333334,6.64,2.53,NC.GWR..EHZ,P,1.0,2019-02-02 16:30:31.630
nc73139131,2019-02-02 16:30:07.420,40.3125,-124.47533333333334,6.64,2.53,NC.KBN..EHZ,P,,2019-02-02 16:30:27.740
nc73139131,2019-02-02 16:30:07.420,40.3125,-124.47533333333334,6.64,2.53,NC.KCO..EHZ,P,-1.0,2019-02-02 16:30:11.860
nc73139131,2019-02-02 16:30:07.420,40.3125,-124.47533333333334,6.64,2.53,NC.KCR..EHZ,P,1.0,2019-02-02 16:30:18.720
nc73139131,2019-02-02 16:30:07.420,40.3125,-124.47533333333334,6.64,2.53,NC.KCT..HHZ,P,-1.0,2019-02-02 16:30:12.590
nc73139131,2019-02-02 16:30:07.420,40.3125,-124.47533333333334,6.64,2.53,NC.KHMB..HHZ,P,,2019-02-02 16:30:23.390
nc73139131,2019-02-02 16:30:07.420,40.3125,-124.47533333333334,6.64,2.53,NC.KIP..EHZ,P,,2019-02-02 16:30:25.170
nc73139131,2019-02-02 16:30:07.420,40.3125,-124.47533333333334,6.64,2.53,NC.KMPB..HHZ,P,1.0,2019-02-02 16:30:14.140
nc73139131,2019-02-02 16:30:07.420,40.3125,-124.47533333333334,6.64,2.53,NC.KMR..HHZ,P,-1.0,2019-02-02 16:30:20.150
nc73139131,2019-02-02 16:30:07.420,40.3125,-124.47533333333334,6.64,2.53,NC.KRMB..HHZ,P,1.0,2019-02-02 16:30:29.670
nc73139131,2019-02-02 16:30:07.420,40.3125,-124.47533333333334,6.64,2.53,NC.KRP..HHZ,P,1.0,2019-02-02 16:30:24.490
nc73139131,2019-02-02 16:30:07.420,40.3125,-124.47533333333334,6.64,2.53,NC.LPG..EHZ,P,-1.0,2019-02-02 16:30:32.320
nc73139131,2019-02-02 16:30:07.420,40.3125,-124.47533333333334,6.64,2.53,NC.LRB..EHZ,P,1.0,2019-02-02 16:30:33.410
nc73139131,2019-02-02 16:30:07.420,40.3125,-124.47533333333334,6.64,2.53,NC.LVR..EHZ,P,,2019-02-02 16:30:32.520
nc73139131,2019-02-02 16:30:07.420,40.3125,-124.47533333333334,6.64,2.53,NP.1582..HNZ,P,1.0,2019-02-02 16:30:17.820
nc73139131,2019-02-02 16:30:07.420,40.3125,-124.47533333333334,6.64,2.53,NP.1586..HNZ,P,1.0,2019-02-02 16:30:16.850
nc73139131,2019-02-02 16:30:07.420,40.3125,-124.47533333333334,6.64,2.53,NP.1591..HNZ,P,1.0,2019-02-02 16:30:19.800
nc73139131,2019-02-02 16:30:07.420,40.3125,-124.47533333333334,6.64,2.53,PB.B045..EHZ,P,1.0,2019-02-02 16:30:15.960
nc73139131,2019-02-02 16:30:07.420,40.3125,-124.47533333333334,6.64,2.53,PB.B046..EHZ,P,-1.0,2019-02-02 16:30:16.710
nc73139131,2019-02-02 16:30:07.420,40.3125,-124.47533333333334,6.64,2.53,PB.B047..EHZ,P,1.0,2019-02-02 16:30:13.110
nc73139131,2019-02-02 16:30:07.420,40.3125,-124.47533333333334,6.64,2.53,PB.B049..EHZ,P,1.0,2019-02-02 16:30:18.140
nc73139131,2019-02-02 16:30:07.420,40.3125,-124.47533333333334,6.64,2.53,PB.B932..EHZ,P,-1.0,2019-02-02 16:30:12.160
nc73139131,2019-02-02 16:30:07.420,40.3125,-124.47533333333334,6.64,2.53,PB.B935..EHZ,P,1.0,2019-02-02 16:30:22.030
nc73139166,2019-02-03 00:36:50.860,40.30766666666667,-124.4745,7.0,3.52,BK.DANT..HHZ,P,-1.0,2019-02-03 00:37:24.180
nc73139166,2019-02-03 00:36:50.860,40.30766666666667,-124.4745,7.0,3.52,BK.DCMP..HHZ,P,1.0,2019-02-03 00:37:11.920
