event_id,etime,elat,elon,edep,emag,station_id,phase_type,phase_polarity,phase_time
nc73336226,2020-02-06 08:20:24.620,40.3025,-124.3835,8.8,3.76,NC.LBK..EHZ,P,,2020-02-06 08:20:50.630
nc73336226,2020-02-06 08:20:24.620,40.3025,-124.3835,8.8,3.76,NC.LMI..EHZ,P,,2020-02-06 08:20:53.860
nc73336226,2020-02-06 08:20:24.620,40.3025,-124.3835,8.8,3.76,NC.LRB..EHZ,P,1.0,2020-02-06 08:20:49.880
nc73336226,2020-02-06 08:20:24.620,40.3025,-124.3835,8.8,3.76,NC.LSF..EHZ,P,-1.0,2020-02-06 08:20:53.580
nc73336226,2020-02-06 08:20:24.620,40.3025,-124.3835,8.8,3.76,NC.LVR..EHZ,P,-1.0,2020-02-06 08:20:48.570
nc73336226,2020-02-06 08:20:24.620,40.3025,-124.3835,8.8,3.76,NP.1582..HNZ,P,,2020-02-06 08:20:34.440
nc73336226,2020-02-06 08:20:24.620,40.3025,-124.3835,8.8,3.76,NP.1586..HNZ,P,,2020-02-06 08:20:32.680
nc73336226,2020-02-06 08:20:24.620,40.3025,-124.3835,8.8,3.76,NP.1591..HNZ,P,-1.0,2020-02-06 08:20:35.400
nc73336226,2020-02-06 08:20:24.620,40.3025,-124.3835,8.8,3.76,PB.B045..EHZ,P,1.0,2020-02-06 08:20:31.980
nc73336226,2020-02-06 08:20:24.620,40.3025,-124.3835,8.8,3.76,PB.B046..EHZ,P,1.0,2020-02-06 08:20:27.130
nc73336226,2020-02-06 08:20:24.620,40.3025,-124.3835,8.8,3.76,PB.B049..EHZ,P,-1.0,2020-02-06 08:20:34.010
nc73336226,2020-02-06 08:20:24.620,40.3025,-124.3835,8.8,3.76,PB.B932..EHZ,P,-1.0,2020-02-06 08:20:27.890
nc73336226,2020-02-06 08:20:24.620,40.3025,-124.3835,8.8,3.76,PB.B933..EHZ,P,,2020-02-06 08:20:33.020
nc73336226,2020-02-06 08:20:24.620,40.3025,-124.3835,8.8,3.76,PB.B934..EHZ,P,,2020-02-06 08:20:38.810
nc73336226,2020-02-06 08:20:24.620,40.3025,-124.3835,8.8,3.76,PB.B935..EHZ,P,1.0,2020-02-06 08:20:38.170
nc73336236,2020-02-06 08:22:32.680,40.3035,-124.38466666666666,8.47,1.96,BK.BRIC..HHZ,P,-1.0,2020-02-06 08:22:41.870
nc73336236,2020-02-06 08:22:32.680,40.3035,-124.38466666666666,8.47,1.96,BK.DMOR..HHZ,P,-1.0,2020-02-06 08:22:46.750
nc73336236,2020-02-06 08:22:32.680,40.3035,-124.38466666666666,8.47,1.96,BK.HAYF..HHZ,P,,2020-02-06 08:22:50.730
nc73336236,2020-02-06 08:22:32.680,40.3035,-124.38466666666666,8.47,1.96,BK.INGL..HHZ,P,-1.0,2020-02-06 08:22:49.620
nc73336236,2020-02-06 08:22:32.680,40.3035,-124.38466666666666,8.47,1.96,BK.MNDO..HHZ,P,,2020-02-06 08:22:51.690
nc73336236,2020-02-06 08:22:32.680,40.3035,-124.38466666666666,8.47,1.96,BK.PETL..HHZ,P,1.0,2020-02-06 08:22:34.670
nc73336236,2020-02-06 08:22:32.680,40.3035,-124.38466666666666,8.47,1.96,CE.89101..HNZ,P,1.0,2020-02-06 08:22:35.200
nc73336236,2020-02-06 08:22:32.680,40.3035,-124.38466666666666,8.47,1.96,NC.KBU..EHZ,P,,2020-02-06 08:22:41.880
nc73336236,2020-02-06 08:22:32.680,40.3035,-124.38466666666666,8.47,1.96,NC.KCO..EHZ,P,-1.0,2020-02-06 08:22:35.740
nc73336236,2020-02-06 08:22:32.680,40.3035,-124.38466666666666,8.47,1.96,NC.KCPB..HHZ,P,1.0,2020-02-06 08:22:50.180
nc73336236,2020-02-06 08:22:32.680,40.3035,-124.38466666666666,8.47,1.96,NC.KCT..HHZ,P,-1.0,2020-02-06 08:22:37.350
nc73336236,2020-02-06 08:22:32.680,40.3035,-124.38466666666666,8.47,1.96,NC.KMPB..HHZ,P,1.0,2020-02-06 08:22:38.170
nc73336236,2020-02-06 08:22:32.680,40.3035,-124.38466666666666,8.47,1.96,NC.KMR..HHZ,P,,2020-02-06 08:22:43.940
nc73336236,2020-02-06 08:22:32.680,40.3035,-124.38466666666666,8.47,1.96,NC.KPR..EHZ,P,1.0,2020-02-06 08:22:38.970
nc73336236,2020-02-06 08:22:32.680,40.3035,-124.38466666666666,8.47,1.96,NP.1586..HNZ,P,1.0,2020-02-06 08:22:41.670
nc73336236,2020-02-06 08:22:32.680,40.3035,-124.38466666666666,8.47,1.96,PB.B045..EHZ,P,1.0,2020-02-06 08:22:39.990
nc73336236,2020-02-06 08:22:32.680,40.3035,-124.38466666666666,8.47,1.96,PB.B046..EHZ,P,1.0,2020-02-06 08:22:35.150
nc73336236,2020-02-06 08:22:32.680,40.3035,-124.38466666666666,8.47,1.96,PB.B049..EHZ,P,-1.0,2020-02-06 08:22:42.070
nc73336236,2020-02-06 08:22:32.680,40.3035,-124.38466666666666,8.47,1.96,PB.B932..EHZ,P,-1.0,2020-02-06 08:22:35.940
nc73336236,2020-02-06 08:22:32.680,40.3035,-124.38466666666666,8.47,1.96,PB.B935..EHZ,P,1.0,2020-02-06 08:22:46.590
nc73336241,2020-02-06 08:23:40.810,40.30166666666667,-124.38316666666667,8.7,1.35,BK.BRIC..HHZ,P,-1.0,2020-02-06 08:23:50.010
nc73336241,2020-02-06 08:23:40.810,40.30166666666667,-124.38316666666667,8.7,1.35,BK.PETL..HHZ,P,1.0,2020-02-06 08:23:42.820
nc73336241,2020-02-06 08:23:40.810,40.30166666666667,-124.38316666666667,8.7,1.35,CE.89101..HNZ,P,-1.0,2020-02-06 08:23:43.330
nc73336241,2020-02-06 08:23:40.810,40.30166666666667,-124.38316666666667,8.7,1.35,NC.KCO..EHZ,P,-1.0,2020-02-06 08:23:43.880
nc73336241,2020-02-06 08:23:40.810,40.30166666666667,-124.38316666666667,8.7,1.35,NC.KCT..HHZ,P,1.0,2020-02-06 08:23:45.520
nc73336241,2020-02-06 08:23:40.810,40.30166666666667,-124.38316666666667,8.7,1.35,NC.KMPB..HHZ,P,,2020-02-06 08:23:46.320
nc73336241,2020-02-06 08:23:40.810,40.30166666666667,-124.38316666666667,8.7,1.35,NC.KPR..HNZ,P,-1.0,2020-02-06 08:23:47.040
nc73336241,2020-02-06 08:23:40.810,40.30166666666667,-124.38316666666667,8.7,1.35,PB.B045..EHZ,P,1.0,2020-02-06 08:23:48.130
nc73336241,2020-02-06 08:23:40.810,40.30166666666667,-124.38316666666667,8.7,1.35,PB.B046..EHZ,P,1.0,2020-02-06 08:23:43.290
nc73336241,2020-02-06 08:23:40.810,40.30166666666667,-124.38316666666667,8.7,1.35,PB.B049..EHZ,P,-1.0,2020-02-06 08:23:50.240
nc73336241,2020-02-06 08:23:40.810,40.30166666666667,-124.38316666666667,8.7,1.35,PB.B932..EHZ,P,-1.0,2020-02-06 08:23:44.080
nc73336246,2020-02-06 08:29:10.740,40.30266666666667,-124.3845,8.62,1.35,BK.BRIC..HHZ,P,-1.0,2020-02-06 08:29:19.950
nc73336246,2020-02-06 08:29:10.740,40.30266666666667,-124.3845,8.62,1.35,BK.PETL..HHZ,P,1.0,2020-02-06 08:29:12.720
nc73336246,2020-02-06 08:29:10.740,40.30266666666667,-124.3845,8.62,1.35,CE.89101..HNZ,P,1.0,2020-02-06 08:29:13.260
nc73336246,2020-02-06 08:29:10.740,40.30266666666667,-124.3845,8.62,1.35,NC.KCO..EHZ,P,-1.0,2020-02-06 08:29:13.810
nc73336246,2020-02-06 08:29:10.740,40.30266666666667,-124.3845,8.62,1.35,NC.KCT..HHZ,P,1.0,2020-02-06 08:29:15.390
nc73336246,2020-02-06 08:29:10.740,40.30266666666667,-124.3845,8.62,1.35,NC.KMPB..HHZ,P,,2020-02-06 08:29:16.150
nc73336246,2020-02-06 08:29:10.740,40.30266666666667,-124.3845,8.62,1.35,NC.KPR..HNZ,P,-1.0,2020-02-06 08:29:16.990
nc73336246,2020-02-06 08:29:10.740,40.30266666666667,-124.3845,8.62,1.35,PB.B045..EHZ,P,1.0,2020-02-06 08:29:18.060
nc73336246,2020-02-06 08:29:10.740,40.30266666666667,-124.3845,8.62,1.35,PB.B046..EHZ,P,1.0,2020-02-06 08:29:13.200
nc73336246,2020-02-06 08:29:10.740,40.30266666666667,-124.3845,8.62,1.35,PB.B049..EHZ,P,-1.0,2020-02-06 08:29:20.130
nc73336246,2020-02-06 08:29:10.740,40.30266666666667,-124.3845,8.62,1.35,PB.B932..EHZ,P,-1.0,2020-02-06 08:29:14.010
nc73336256,2020-02-06 08:41:03.240,40.29266666666667,-124.38616666666667,8.48,1.89,BK.BRIC..HHZ,P,-1.0,2020-02-06 08:41:12.480
nc73336256,2020-02-06 08:41:03.240,40.29266666666667,-124.38616666666667,8.48,1.89,BK.DMOR..HHZ,P,1.0,2020-02-06 08:41:17.180
nc73336256,2020-02-06 08:41:03.240,40.29266666666667,-124.38616666666667,8.48,1.89,BK.PETL..HHZ,P,-1.0,2020-02-06 08:41:05.250
nc73336256,2020-02-06 08:41:03.240,40.29266666666667,-124.38616666666667,8.48,1.89,CE.89101..HNZ,P,-1.0,2020-02-06 08:41:05.800
nc73336256,2020-02-06 08:41:03.240,40.29266666666667,-124.38616666666667,8.48,1.89,NC.KCT..HHZ,P,1.0,2020-02-06 08:41:07.940
nc73336256,2020-02-06 08:41:03.240,40.29266666666667,-124.38616666666667,8.48,1.89,NC.KMPB..HHZ,P,1.0,2020-02-06 08:41:08.780
nc73336256,2020-02-06 08:41:03.240,40.29266666666667,-124.38616666666667,8.48,1.89,NC.KMR..HHZ,P,,2020-02-06 08:41:14.560
nc73336256,2020-02-06 08:41:03.240,40.29266666666667,-124.38616666666667,8.48,1.89,NC.KPR..EHZ,P,-1.0,2020-02-06 08:41:09.520
nc73336256,2020-02-06 08:41:03.240,40.29266666666667,-124.38616666666667,8.48,1.89,PB.B045..EHZ,P,1.0,2020-02-06 08:41:10.600
nc73336256,2020-02-06 08:41:03.240,40.29266666666667,-124.38616666666667,8.48,1.89,PB.B046..EHZ,P,-1.0,2020-02-06 08:41:05.760
nc73336256,2020-02-06 08:41:03.240,40.29266666666667,-124.38616666666667,8.48,1.89,PB.B049..EHZ,P,1.0,2020-02-06 08:41:12.710
nc73336256,2020-02-06 08:41:03.240,40.29266666666667,-124.38616666666667,8.48,1.89,PB.B932..EHZ,P,-1.0,2020-02-06 08:41:06.550
nc73336256,2020-02-06 08:41:03.240,40.29266666666667,-124.38616666666667,8.48,1.89,PB.B935..EHZ,P,1.0,2020-02-06 08:41:16.980
nc73336276,2020-02-06 10:00:08.260,40.30166666666667,-124.39016666666667,8.88,2.51,BK.BRIC..HHZ,P,-1.0,2020-02-06 10:00:17.540
nc73336276,2020-02-06 10:00:08.260,40.30166666666667,-124.39016666666667,8.88,2.51,BK.DCMP..HHZ,P,-1.0,2020-02-06 10:00:28.330
nc73336276,2020-02-06 10:00:08.260,40.30166666666667,-124.39016666666667,8.88,2.51,BK.DMOR..HHZ,P,1.0,2020-02-06 10:00:22.180
nc73336276,2020-02-06 10:00:08.260,40.30166666666667,-124.39016666666667,8.88,2.51,BK.HAYF..HHZ,P,,2020-02-06 10:00:26.080
nc73336276,2020-02-06 10:00:08.260,40.30166666666667,-124.39016666666667,8.88,2.51,BK.INGL..HHZ,P,-1.0,2020-02-06 10:00:25.250
nc73336276,2020-02-06 10:00:08.260,40.30166666666667,-124.39016666666667,8.88,2.51,BK.JCC..HHZ,P,-1.0,2020-02-06 10:00:20.280
nc73336276,2020-02-06 10:00:08.260,40.30166666666667,-124.39016666666667,8.88,2.51,BK.MNDO..HHZ,P,-1.0,2020-02-06 10:00:27.280
nc73336276,2020-02-06 10:00:08.260,40.30166666666667,-124.39016666666667,8.88,2.51,BK.PETL..HHZ,P,-1.0,2020-02-06 10:00:10.350
nc73336276,2020-02-06 10:00:08.260,40.30166666666667,-124.39016666666667,8.88,2.51,CE.89101..HNZ,P,1.0,2020-02-06 10:00:10.890
nc73336276,2020-02-06 10:00:08.260,40.30166666666667,-124.39016666666667,8.88,2.51,CE.89255..HNZ,P,1.0,2020-02-06 10:00:16.650
nc73336276,2020-02-06 10:00:08.260,40.30166666666667,-124.39016666666667,8.88,2.51,NC.KBN..EHZ,P,1.0,2020-02-06 10:00:27.240
nc73336276,2020-02-06 10:00:08.260,40.30166666666667,-124.39016666666667,8.88,2.51,NC.KBU..EHZ,P,,2020-02-06 10:00:17.520
nc73336276,2020-02-06 10:00:08.260,40.30166666666667,-124.39016666666667,8.88,2.51,NC.KCO..EHZ,P,-1.0,2020-02-06 10:00:11.420
nc73336276,2020-02-06 10:00:08.260,40.30166666666667,-124.39016666666667,8.88,2.51,NC.KCPB..HHZ,P,,2020-02-06 10:00:24.580
nc73336276,2020-02-06 10:00:08.260,40.30166666666667,-124.39016666666667,8.88,2.51,NC.KCT..HHZ,P,-1.0,2020-02-06 10:00:12.900
nc73336276,2020-02-06 10:00:08.260,40.30166666666667,-124.39016666666667,8.88,2.51,NC.KHMB..HHZ,P,,2020-02-06 10:00:23.360
nc73336276,2020-02-06 10:00:08.260,40.30166666666667,-124.39016666666667,8.88,2.51,NC.KMPB..HHZ,P,1.0,2020-02-06 10:00:13.820
nc73336276,2020-02-06 10:00:08.260,40.30166666666667,-124.39016666666667,8.88,2.51,NC.KMR..HHZ,P,-1.0,2020-02-06 10:00:19.630
nc73336276,2020-02-06 10:00:08.260,40.30166666666667,-124.39016666666667,8.88,2.51,NC.KPR..EHZ,P,-1.0,2020-02-06 10:00:14.600
nc73336276,2020-02-06 10:00:08.260,40.30166666666667,-124.39016666666667,8.88,2.51,NP.1582..HNZ,P,,2020-02-06 10:00:18.190
nc73336276,2020-02-06 10:00:08.260,40.30166666666667,-124.39016666666667,8.88,2.51,NP.1586..HNZ,P,,2020-02-06 10:00:16.890
nc73336276,2020-02-06 10:00:08.260,40.30166666666667,-124.39016666666667,8.88,2.51,PB.B045..EHZ,P,1.0,2020-02-06 10:00:15.660
nc73336276,2020-02-06 10:00:08.260,40.30166666666667,-124.39016666666667,8.88,2.51,PB.B046..EHZ,P,1.0,2020-02-06 10:00:10.840
nc73336276,2020-02-06 10:00:08.260,40.30166666666667,-124.39016666666667,8.88,2.51,PB.B049..EHZ,P,-1.0,2020-02-06 10:00:17.760
nc73336276,2020-02-06 10:00:08.260,40.30166666666667,-124.39016666666667,8.88,2.51,PB.B932..EHZ,P,-1.0,2020-02-06 10:00:11.650
nc73336276,2020-02-06 10:00:08.260,40.30166666666667,-124.39016666666667,8.88,2.51,PB.B935..EHZ,P,-1.0,2020-02-06 10:00:22.080
nc73336291,2020-02-06 11:05:29.590,40.2875,-124.3615,7.48,3.06,BK.BARR..HHZ,P,1.0,2020-02-06 11:05:51.810
nc73336291,2020-02-06 11:05:29.590,40.2875,-124.3615,7.48,3.06,BK.BONV..HHZ,P,-1.0,2020-02-06 11:05:54.240
nc73336291,2020-02-06 11:05:29.590,40.2875,-124.3615,7.48,3.06,BK.BRIC..HHZ,P,-1.0,2020-02-06 11:05:38.430
nc73336291,2020-02-06 11:05:29.590,40.2875,-124.3615,7.48,3.06,BK.DCMP..HHZ,P,-1.0,2020-02-06 11:05:49.230
nc73336291,2020-02-06 11:05:29.590,40.2875,-124.3615,7.48,3.06,BK.DMOR..HHZ,P,1.0,2020-02-06 11:05:43.200
nc73336291,2020-02-06 11:05:29.590,40.2875,-124.3615,7.48,3.06,BK.HOPS..BHZ,P,-1.0,2020-02-06 11:05:56.120
nc73336291,2020-02-06 11:05:29.590,40.2875,-124.3615,7.48,3.06,BK.JCC..BHZ,P,1.0,2020-02-06 11:05:41.240
nc73336291,2020-02-06 11:05:29.590,40.2875,-124.3615,7.48,3.06,BK.MNDO..HHZ,P,-1.0,2020-02-06 11:05:48.220
nc73336291,2020-02-06 11:05:29.590,40.2875,-124.3615,7.48,3.06,BK.PETL..HHZ,P,1.0,2020-02-06 11:05:31.190
nc73336291,2020-02-06 11:05:29.590,40.2875,-124.3615,7.48,3.06,BK.PETY..HHZ,P,-1.0,2020-02-06 11:05:51.430
nc73336291,2020-02-06 11:05:29.590,40.2875,-124.3615,7.48,3.06,CE.89101..HNZ,P,1.0,2020-02-06 11:05:31.730
nc73336291,2020-02-06 11:05:29.590,40.2875,-124.3615,7.48,3.06,CE.89255..HNZ,P,1.0,2020-02-06 11:05:37.630
nc73336291,2020-02-06 11:05:29.590,40.2875,-124.3615,7.48,3.06,NC.GHGB..EHZ,P,-1.0,2020-02-06 11:05:56.720
nc73336291,2020-02-06 11:05:29.590,40.2875,-124.3615,7.48,3.06,NC.GHO..EHZ,P,-1.0,2020-02-06 11:05:52.510
nc73336291,2020-02-06 11:05:29.590,40.2875,-124.3615,7.48,3.06,NC.GMR..EHZ,P,-1.0,2020-02-06 11:05:51.830
nc73336291,2020-02-06 11:05:29.590,40.2875,-124.3615,7.48,3.06,NC.GNR..EHZ,P,-1.0,2020-02-06 11:05:50.180
nc73336291,2020-02-06 11:05:29.590,40.2875,-124.3615,7.48,3.06,NC.GSN..EHZ,P,-1.0,2020-02-06 11:05:56.060
nc73336291,2020-02-06 11:05:29.590,40.2875,-124.3615,7.48,3.06,NC.GWR..EHZ,P,-1.0,2020-02-06 11:05:52.300
nc73336291,2020-02-06 11:05:29.590,40.2875,-124.3615,7.48,3.06,NC.GWW..EHZ,P,-1.0,2020-02-06 11:05:54.990
nc73336291,2020-02-06 11:05:29.590,40.2875,-124.3615,7.48,3.06,NC.KBN..EHZ,P,-1.0,2020-02-06 11:05:48.050
nc73336291,2020-02-06 11:05:29.590,40.2875,-124.3615,7.48,3.06,NC.KBU..EHZ,P,-1.0,2020-02-06 11:05:38.400
nc73336291,2020-02-06 11:05:29.590,40.2875,-124.3615,7.48,3.06,NC.KCO..EHZ,P,-1.0,2020-02-06 11:05:32.270
nc73336291,2020-02-06 11:05:29.590,40.2875,-124.3615,7.48,3.06,NC.KCPB..HHZ,P,-1.0,2020-02-06 11:05:45.500
nc73336291,2020-02-06 11:05:29.590,40.2875,-124.3615,7.48,3.06,NC.KCT..HHZ,P,-1.0,2020-02-06 11:05:33.920
nc73336291,2020-02-06 11:05:29.590,40.2875,-124.3615,7.48,3.06,NC.KHMB..HHZ,P,-1.0,2020-02-06 11:05:44.840
nc73336291,2020-02-06 11:05:29.590,40.2875,-124.3615,7.48,3.06,NC.KIP..EHZ,P,,2020-02-06 11:05:45.730
nc73336291,2020-02-06 11:05:29.590,40.2875,-124.3615,7.48,3.06,NC.KMPB..HHZ,P,1.0,2020-02-06 11:05:34.740
nc73336291,2020-02-06 11:05:29.590,40.2875,-124.3615,7.48,3.06,NC.KMR..HHZ,P,-1.0,2020-02-06 11:05:40.520
nc73336291,2020-02-06 11:05:29.590,40.2875,-124.3615,7.48,3.06,NC.KPR..EHZ,P,-1.0,2020-02-06 11:05:35.450
nc73336291,2020-02-06 11:05:29.590,40.2875,-124.3615,7.48,3.06,NC.KRK..EHZ,P,-1.0,2020-02-06 11:05:50.050
nc73336291,2020-02-06 11:05:29.590,40.2875,-124.3615,7.48,3.06,NC.KRMB..HHZ,P,-1.0,2020-02-06 11:05:51.360
nc73336291,2020-02-06 11:05:29.590,40.2875,-124.3615,7.48,3.06,NC.LDH..HHZ,P,-1.0,2020-02-06 11:06:05.040
nc73336291,2020-02-06 11:05:29.590,40.2875,-124.3615,7.48,3.06,NC.LSI..EHZ,P,,2020-02-06 11:06:06.240
nc73336291,2020-02-06 11:05:29.590,40.2875,-124.3615,7.48,3.06,NC.LVR..EHZ,P,-1.0,2020-02-06 11:05:53.130
nc73336291,2020-02-06 11:05:29.590,40.2875,-124.3615,7.48,3.06,NC.NHV..EHZ,P,,2020-02-06 11:06:07.520
nc73336291,2020-02-06 11:05:29.590,40.2875,-124.3615,7.48,3.06,NP.1582..HNZ,P,1.0,2020-02-06 11:05:39.230
nc73336291,2020-02-06 11:05:29.590,40.2875,-124.3615,7.48,3.06,NP.1584..HNZ,P,,2020-02-06 11:05:34.480
nc73336291,2020-02-06 11:05:29.590,40.2875,-124.3615,7.48,3.06,NP.1586..HNZ,P,1.0,2020-02-06 11:05:38.270
nc73336291,2020-02-06 11:05:29.590,40.2875,-124.3615,7.48,3.06,NP.1591..HNZ,P,-1.0,2020-02-06 11:05:40.030
nc73336291,2020-02-06 11:05:29.590,40.2875,-124.3615,7.48,3.06,PB.B040..EHZ,P,,2020-02-06 11:06:04.830
nc73336291,2020-02-06 11:05:29.590,40.2875,-124.3615,7.48,3.06,PB.B045..EHZ,P,1.0,2020-02-06 11:05:36.560
nc73336291,2020-02-06 11:05:29.590,40.2875,-124.3615,7.48,3.06,PB.B046..EHZ,P,1.0,2020-02-06 11:05:31.680
nc73336291,2020-02-06 11:05:29.590,40.2875,-124.3615,7.48,3.06,PB.B049..EHZ,P,-1.0,2020-02-06 11:05:38.650
nc73336291,2020-02-06 11:05:29.590,40.2875,-124.3615,7.48,3.06,PB.B932..EHZ,P,-1.0,2020-02-06 11:05:32.470
nc73336291,2020-02-06 11:05:29.590,40.2875,-124.3615,7.48,3.06,PB.B934..EHZ,P,1.0,2020-02-06 11:05:43.030
nc73336291,2020-02-06 11:05:29.590,40.2875,-124.3615,7.48,3.06,PB.B935..EHZ,P,-1.0,2020-02-06 11:05:42.850
nc73336296,2020-02-06 11:21:08.590,40.29716666666667,-124.3895,8.31,2.01,BK.BRIC..HHZ,P,-1.0,2020-02-06 11:21:17.870
nc73336296,2020-02-06 11:21:08.590,40.29716666666667,-124.3895,8.31,2.01,BK.DMOR..HHZ,P,,2020-02-06 11:21:22.700
nc73336296,2020-02-06 11:21:08.590,40.29716666666667,-124.3895,8.31,2.01,BK.JCC..HHZ,P,,2020-02-06 11:21:20.750
nc73336296,2020-02-06 11:21:08.590,40.29716666666667,-124.3895,8.31,2.01,BK.PETL..HHZ,P,1.0,2020-02-06 11:21:10.610
nc73336296,2020-02-06 11:21:08.590,40.29716666666667,-124.3895,8.31,2.01,CE.89101..HNZ,P,1.0,2020-02-06 11:21:11.160
nc73336296,2020-02-06 11:21:08.590,40.29716666666667,-124.3895,8.31,2.01,NC.KBU..EHZ,P,-1.0,2020-02-06 11:21:17.850
nc73336296,2020-02-06 11:21:08.590,40.29716666666667,-124.3895,8.31,2.01,NC.KCO..EHZ,P,-1.0,2020-02-06 11:21:11.700
nc73336296,2020-02-06 11:21:08.590,40.29716666666667,-124.3895,8.31,2.01,NC.KCPB..HHZ,P,,2020-02-06 11:21:25.330
nc73336296,2020-02-06 11:21:08.590,40.29716666666667,-124.3895,8.31,2.01,NC.KCT..HHZ,P,1.0,2020-02-06 11:21:13.380
nc73336296,2020-02-06 11:21:08.590,40.29716666666667,-124.3895,8.31,2.01,NC.KMPB..HHZ,P,1.0,2020-02-06 11:21:14.180
nc73336296,2020-02-06 11:21:08.590,40.29716666666667,-124.3895,8.31,2.01,NC.KMR..HHZ,P,-1.0,2020-02-06 11:21:19.970
nc73336296,2020-02-06 11:21:08.590,40.29716666666667,-124.3895,8.31,2.01,NC.KPR..HNZ,P,-1.0,2020-02-06 11:21:14.860
nc73336296,2020-02-06 11:21:08.590,40.29716666666667,-124.3895,8.31,2.01,PB.B045..EHZ,P,1.0,2020-02-06 11:21:16.030
nc73336296,2020-02-06 11:21:08.590,40.29716666666667,-124.3895,8.31,2.01,PB.B046..EHZ,P,1.0,2020-02-06 11:21:11.110
nc73336296,2020-02-06 11:21:08.590,40.29716666666667,-124.3895,8.31,2.01,PB.B049..EHZ,P,-1.0,2020-02-06 11:21:18.100
nc73336296,2020-02-06 11:21:08.590,40.29716666666667,-124.3895,8.31,2.01,PB.B932..EHZ,P,-1.0,2020-02-06 11:21:11.920
nc73336296,2020-02-06 11:21:08.590,40.29716666666667,-124.3895,8.31,2.01,PB.B935..EHZ,P,,2020-02-06 11:21:22.490
nc73336356,2020-02-06 13:47:58.590,40.30016666666667,-124.37683333333334,8.26,1.31,BK.BRIC..HHZ,P,-1.0,2020-02-06 13:48:07.700
nc73336356,2020-02-06 13:47:58.590,40.30016666666667,-124.37683333333334,8.26,1.31,BK.PETL..HHZ,P,-1.0,2020-02-06 13:48:00.490
nc73336356,2020-02-06 13:47:58.590,40.30016666666667,-124.37683333333334,8.26,1.31,CE.89101..HNZ,P,-1.0,2020-02-06 13:48:01.020
nc73336356,2020-02-06 13:47:58.590,40.30016666666667,-124.37683333333334,8.26,1.31,NC.KCO..EHZ,P,-1.0,2020-02-06 13:48:01.540
nc73336356,2020-02-06 13:47:58.590,40.30016666666667,-124.37683333333334,8.26,1.31,NC.KCT..HHZ,P,1.0,2020-02-06 13:48:03.230
nc73336356,2020-02-06 13:47:58.590,40.30016666666667,-124.37683333333334,8.26,1.31,NC.KPR..HNZ,P,-1.0,2020-02-06 13:48:04.720
nc73336356,2020-02-06 13:47:58.590,40.30016666666667,-124.37683333333334,8.26,1.31,PB.B045..EHZ,P,1.0,2020-02-06 13:48:05.820
nc73336356,2020-02-06 13:47:58.590,40.30016666666667,-124.37683333333334,8.26,1.31,PB.B046..EHZ,P,-1.0,2020-02-06 13:48:00.950
nc73336356,2020-02-06 13:47:58.590,40.30016666666667,-124.37683333333334,8.26,1.31,PB.B049..EHZ,P,-1.0,2020-02-06 13:48:07.940
nc73336356,2020-02-06 13:47:58.590,40.30016666666667,-124.37683333333334,8.26,1.31,PB.B932..EHZ,P,-1.0,2020-02-06 13:48:01.740
nc73336361,2020-02-06 13:49:41.240,40.30133333333333,-124.37683333333334,8.34,1.38,BK.BRIC..HHZ,P,-1.0,2020-02-06 13:49:50.320
nc73336361,2020-02-06 13:49:41.240,40.30133333333333,-124.37683333333334,8.34,1.38,BK.PETL..HHZ,P,-1.0,2020-02-06 13:49:43.110
nc73336361,2020-02-06 13:49:41.240,40.30133333333333,-124.37683333333334,8.34,1.38,CE.89101..HNZ,P,-1.0,2020-02-06 13:49:43.660
