event_id,etime,elat,elon,edep,emag,station_id,phase_type,phase_polarity,phase_time
nc73353315,2020-03-13 02:36:28.170,40.307833333333335,-124.37433333333334,8.45,1.45,BK.BRIC..BHZ,P,-1.0,2020-03-13 02:36:37.160
nc73353315,2020-03-13 02:36:28.170,40.307833333333335,-124.37433333333334,8.45,1.45,BK.PETL..HHZ,P,-1.0,2020-03-13 02:36:30.170
nc73353315,2020-03-13 02:36:28.170,40.307833333333335,-124.37433333333334,8.45,1.45,BK.WEAV..HHZ,P,,2020-03-13 02:36:48.150
nc73353315,2020-03-13 02:36:28.170,40.307833333333335,-124.37433333333334,8.45,1.45,CE.89101..HNZ,P,,2020-03-13 02:36:30.640
nc73353315,2020-03-13 02:36:28.170,40.307833333333335,-124.37433333333334,8.45,1.45,NC.GNR..EHZ,P,,2020-03-13 02:36:49.290
nc73353315,2020-03-13 02:36:28.170,40.307833333333335,-124.37433333333334,8.45,1.45,NC.GTC..EHZ,P,,2020-03-13 02:36:47.560
nc73353315,2020-03-13 02:36:28.170,40.307833333333335,-124.37433333333334,8.45,1.45,NC.KCO..EHZ,P,-1.0,2020-03-13 02:36:31.120
nc73353315,2020-03-13 02:36:28.170,40.307833333333335,-124.37433333333334,8.45,1.45,NC.KCR..EHZ,P,1.0,2020-03-13 02:36:37.970
nc73353315,2020-03-13 02:36:28.170,40.307833333333335,-124.37433333333334,8.45,1.45,NC.KCT..HHZ,P,,2020-03-13 02:36:32.050
nc73353315,2020-03-13 02:36:28.170,40.307833333333335,-124.37433333333334,8.45,1.45,NC.KMPB..HHZ,P,,2020-03-13 02:36:33.430
nc73353315,2020-03-13 02:36:28.170,40.307833333333335,-124.37433333333334,8.45,1.45,NC.KPR..EHZ,P,1.0,2020-03-13 02:36:34.260
nc73353315,2020-03-13 02:36:28.170,40.307833333333335,-124.37433333333334,8.45,1.45,PB.B045..EHZ,P,1.0,2020-03-13 02:36:35.320
nc73353315,2020-03-13 02:36:28.170,40.307833333333335,-124.37433333333334,8.45,1.45,PB.B046..EHZ,P,1.0,2020-03-13 02:36:30.430
nc73353315,2020-03-13 02:36:28.170,40.307833333333335,-124.37433333333334,8.45,1.45,PB.B047..EHZ,P,-1.0,2020-03-13 02:36:32.260
nc73353315,2020-03-13 02:36:28.170,40.307833333333335,-124.37433333333334,8.45,1.45,PB.B932..EHZ,P,-1.0,2020-03-13 02:36:31.290
nc73354885,2020-03-17 05:56:18.470,40.29183333333334,-124.32983333333334,8.68,1.42,BK.BRIC..HHZ,P,-1.0,2020-03-17 05:56:26.830
nc73354885,2020-03-17 05:56:18.470,40.29183333333334,-124.32983333333334,8.68,1.42,BK.PETL..HHZ,P,-1.0,2020-03-17 05:56:20.360
nc73354885,2020-03-17 05:56:18.470,40.29183333333334,-124.32983333333334,8.68,1.42,CE.89101..HNZ,P,1.0,2020-03-17 05:56:20.620
nc73354885,2020-03-17 05:56:18.470,40.29183333333334,-124.32983333333334,8.68,1.42,NC.KBU..EHZ,P,-1.0,2020-03-17 05:56:26.810
nc73354885,2020-03-17 05:56:18.470,40.29183333333334,-124.32983333333334,8.68,1.42,NC.KCO..EHZ,P,-1.0,2020-03-17 05:56:20.940
nc73354885,2020-03-17 05:56:18.470,40.29183333333334,-124.32983333333334,8.68,1.42,NC.KCR..EHZ,P,1.0,2020-03-17 05:56:27.720
nc73354885,2020-03-17 05:56:18.470,40.29183333333334,-124.32983333333334,8.68,1.42,NC.KCT..HHZ,P,1.0,2020-03-17 05:56:23.240
nc73354885,2020-03-17 05:56:18.470,40.29183333333334,-124.32983333333334,8.68,1.42,NC.KMPB..HHZ,P,1.0,2020-03-17 05:56:23.310
nc73354885,2020-03-17 05:56:18.470,40.29183333333334,-124.32983333333334,8.68,1.42,NC.KPR..EHZ,P,1.0,2020-03-17 05:56:23.860
nc73354885,2020-03-17 05:56:18.470,40.29183333333334,-124.32983333333334,8.68,1.42,PB.B045..EHZ,P,1.0,2020-03-17 05:56:25.060
nc73354885,2020-03-17 05:56:18.470,40.29183333333334,-124.32983333333334,8.68,1.42,PB.B046..EHZ,P,1.0,2020-03-17 05:56:20.420
nc73354885,2020-03-17 05:56:18.470,40.29183333333334,-124.32983333333334,8.68,1.42,PB.B932..EHZ,P,1.0,2020-03-17 05:56:21.020
nc73356625,2020-03-20 23:55:05.060,40.363,-124.1855,10.79,1.31,BK.DMOR..HHZ,P,-1.0,2020-03-20 23:55:16.000
nc73356625,2020-03-20 23:55:05.060,40.363,-124.1855,10.79,1.31,BK.JCC..HHZ,P,1.0,2020-03-20 23:55:14.840
nc73356625,2020-03-20 23:55:05.060,40.363,-124.1855,10.79,1.31,BK.PETL..HHZ,P,1.0,2020-03-20 23:55:08.770
nc73356625,2020-03-20 23:55:05.060,40.363,-124.1855,10.79,1.31,CE.89462..HNZ,P,1.0,2020-03-20 23:55:09.280
nc73356625,2020-03-20 23:55:05.060,40.363,-124.1855,10.79,1.31,NC.KBU..EHZ,P,-1.0,2020-03-20 23:55:11.400
nc73356625,2020-03-20 23:55:05.060,40.363,-124.1855,10.79,1.31,NC.KCO..EHZ,P,1.0,2020-03-20 23:55:08.590
nc73356625,2020-03-20 23:55:05.060,40.363,-124.1855,10.79,1.31,NC.KCR..EHZ,P,-1.0,2020-03-20 23:55:11.540
nc73356625,2020-03-20 23:55:05.060,40.363,-124.1855,10.79,1.31,NC.KCT..HHZ,P,,2020-03-20 23:55:09.660
nc73356625,2020-03-20 23:55:05.060,40.363,-124.1855,10.79,1.31,NC.KHMB..HHZ,P,,2020-03-20 23:55:17.650
nc73356625,2020-03-20 23:55:05.060,40.363,-124.1855,10.79,1.31,NC.KMPB..HHZ,P,-1.0,2020-03-20 23:55:07.850
nc73356625,2020-03-20 23:55:05.060,40.363,-124.1855,10.79,1.31,NC.KMR..HHZ,P,-1.0,2020-03-20 23:55:13.510
nc73356625,2020-03-20 23:55:05.060,40.363,-124.1855,10.79,1.31,NC.KRP..HHZ,P,-1.0,2020-03-20 23:55:19.890
nc73356625,2020-03-20 23:55:05.060,40.363,-124.1855,10.79,1.31,NC.KSM..EHZ,P,1.0,2020-03-20 23:55:09.460
nc73356625,2020-03-20 23:55:05.060,40.363,-124.1855,10.79,1.31,PB.B045..EHZ,P,-1.0,2020-03-20 23:55:09.000
nc73356625,2020-03-20 23:55:05.060,40.363,-124.1855,10.79,1.31,PB.B046..EHZ,P,1.0,2020-03-20 23:55:07.850
nc73356625,2020-03-20 23:55:05.060,40.363,-124.1855,10.79,1.31,PB.B047..EHZ,P,1.0,2020-03-20 23:55:08.280
nc73356625,2020-03-20 23:55:05.060,40.363,-124.1855,10.79,1.31,PB.B932..EHZ,P,1.0,2020-03-20 23:55:07.890
nc73357535,2020-03-23 00:25:51.990,39.88433333333333,-123.30533333333334,8.78,1.62,BK.BRIC..HHZ,P,,2020-03-23 00:26:02.260
nc73357535,2020-03-23 00:25:51.990,39.88433333333333,-123.30533333333334,8.78,1.62,BK.PETY..HHZ,P,1.0,2020-03-23 00:26:02.030
nc73357535,2020-03-23 00:25:51.990,39.88433333333333,-123.30533333333334,8.78,1.62,BK.RVIT..HHZ,P,1.0,2020-03-23 00:25:54.170
nc73357535,2020-03-23 00:25:51.990,39.88433333333333,-123.30533333333334,8.78,1.62,CE.79036..HNZ,P,1.0,2020-03-23 00:25:54.730
nc73357535,2020-03-23 00:25:51.990,39.88433333333333,-123.30533333333334,8.78,1.62,NC.GRO..EHZ,P,1.0,2020-03-23 00:26:01.940
nc73357535,2020-03-23 00:25:51.990,39.88433333333333,-123.30533333333334,8.78,1.62,NC.GTC..EHZ,P,-1.0,2020-03-23 00:26:02.630
nc73357535,2020-03-23 00:25:51.990,39.88433333333333,-123.30533333333334,8.78,1.62,NC.GVV..EHZ,P,1.0,2020-03-23 00:26:02.060
nc73357535,2020-03-23 00:25:51.990,39.88433333333333,-123.30533333333334,8.78,1.62,NC.KBN..EHZ,P,1.0,2020-03-23 00:25:54.660
nc73357535,2020-03-23 00:25:51.990,39.88433333333333,-123.30533333333334,8.78,1.62,NC.KBU..EHZ,P,,2020-03-23 00:26:03.650
nc73357535,2020-03-23 00:25:51.990,39.88433333333333,-123.30533333333334,8.78,1.62,NC.KCPB..HHZ,P,1.0,2020-03-23 00:25:58.350
nc73357535,2020-03-23 00:25:51.990,39.88433333333333,-123.30533333333334,8.78,1.62,NC.KFP..EHZ,P,-1.0,2020-03-23 00:25:57.280
nc73357535,2020-03-23 00:25:51.990,39.88433333333333,-123.30533333333334,8.78,1.62,NC.KIP..HNZ,P,1.0,2020-03-23 00:25:55.370
nc73357535,2020-03-23 00:25:51.990,39.88433333333333,-123.30533333333334,8.78,1.62,NC.KMR..HHZ,P,1.0,2020-03-23 00:26:01.540
nc73357535,2020-03-23 00:25:51.990,39.88433333333333,-123.30533333333334,8.78,1.62,NC.KPP..EHZ,P,-1.0,2020-03-23 00:26:01.740
nc73357535,2020-03-23 00:25:51.990,39.88433333333333,-123.30533333333334,8.78,1.62,NC.LRB..EHZ,P,-1.0,2020-03-23 00:26:05.220
nc73357535,2020-03-23 00:25:51.990,39.88433333333333,-123.30533333333334,8.78,1.62,NC.LVR..EHZ,P,1.0,2020-03-23 00:26:02.270
nc73357575,2020-03-23 02:44:11.630,39.884166666666665,-123.29883333333333,7.7,1.58,BK.BRIC..HHZ,P,1.0,2020-03-23 02:44:22.140
nc73357575,2020-03-23 02:44:11.630,39.884166666666665,-123.29883333333333,7.7,1.58,BK.PETY..HHZ,P,1.0,2020-03-23 02:44:21.610
nc73357575,2020-03-23 02:44:11.630,39.884166666666665,-123.29883333333333,7.7,1.58,BK.RVIT..HHZ,P,1.0,2020-03-23 02:44:13.720
nc73357575,2020-03-23 02:44:11.630,39.884166666666665,-123.29883333333333,7.7,1.58,CE.79036..HNZ,P,-1.0,2020-03-23 02:44:14.170
nc73357575,2020-03-23 02:44:11.630,39.884166666666665,-123.29883333333333,7.7,1.58,NC.GRO..EHZ,P,1.0,2020-03-23 02:44:21.510
nc73357575,2020-03-23 02:44:11.630,39.884166666666665,-123.29883333333333,7.7,1.58,NC.GTC..EHZ,P,-1.0,2020-03-23 02:44:22.190
nc73357575,2020-03-23 02:44:11.630,39.884166666666665,-123.29883333333333,7.7,1.58,NC.GVV..EHZ,P,1.0,2020-03-23 02:44:21.620
nc73357575,2020-03-23 02:44:11.630,39.884166666666665,-123.29883333333333,7.7,1.58,NC.KBN..EHZ,P,1.0,2020-03-23 02:44:14.200
nc73357575,2020-03-23 02:44:11.630,39.884166666666665,-123.29883333333333,7.7,1.58,NC.KCPB..HHZ,P,-1.0,2020-03-23 02:44:17.920
nc73357575,2020-03-23 02:44:11.630,39.884166666666665,-123.29883333333333,7.7,1.58,NC.KFP..EHZ,P,1.0,2020-03-23 02:44:16.880
nc73357575,2020-03-23 02:44:11.630,39.884166666666665,-123.29883333333333,7.7,1.58,NC.KIP..HNZ,P,1.0,2020-03-23 02:44:14.920
nc73357575,2020-03-23 02:44:11.630,39.884166666666665,-123.29883333333333,7.7,1.58,NC.KKP..EHZ,P,,2020-03-23 02:44:17.960
nc73357575,2020-03-23 02:44:11.630,39.884166666666665,-123.29883333333333,7.7,1.58,NC.KMR..HHZ,P,,2020-03-23 02:44:20.700
nc73357575,2020-03-23 02:44:11.630,39.884166666666665,-123.29883333333333,7.7,1.58,NC.LRB..EHZ,P,-1.0,2020-03-23 02:44:24.750
nc73357575,2020-03-23 02:44:11.630,39.884166666666665,-123.29883333333333,7.7,1.58,NC.LVR..EHZ,P,1.0,2020-03-23 02:44:21.820
nc73357575,2020-03-23 02:44:11.630,39.884166666666665,-123.29883333333333,7.7,1.58,PB.B934..EHZ,P,,2020-03-23 02:44:17.820
nc73360020,2020-03-27 01:26:20.160,39.894666666666666,-123.29933333333334,7.14,1.92,BK.BARR..HHZ,P,,2020-03-27 01:26:31.990
nc73360020,2020-03-27 01:26:20.160,39.894666666666666,-123.29933333333334,7.14,1.92,BK.BRIC..HHZ,P,1.0,2020-03-27 01:26:30.700
nc73360020,2020-03-27 01:26:20.160,39.894666666666666,-123.29933333333334,7.14,1.92,BK.HAYF..HHZ,P,-1.0,2020-03-27 01:26:32.560
nc73360020,2020-03-27 01:26:20.160,39.894666666666666,-123.29933333333334,7.14,1.92,BK.PETY..HHZ,P,1.0,2020-03-27 01:26:30.130
nc73360020,2020-03-27 01:26:20.160,39.894666666666666,-123.29933333333334,7.14,1.92,BK.RVIT..HHZ,P,1.0,2020-03-27 01:26:22.000
nc73360020,2020-03-27 01:26:20.160,39.894666666666666,-123.29933333333334,7.14,1.92,BK.TRIN..HHZ,P,,2020-03-27 01:26:41.700
nc73360020,2020-03-27 01:26:20.160,39.894666666666666,-123.29933333333334,7.14,1.92,BK.WEAV..HHZ,P,,2020-03-27 01:26:36.610
nc73360020,2020-03-27 01:26:20.160,39.894666666666666,-123.29933333333334,7.14,1.92,CE.79036..HNZ,P,1.0,2020-03-27 01:26:22.840
nc73360020,2020-03-27 01:26:20.160,39.894666666666666,-123.29933333333334,7.14,1.92,NC.GHGB..EHZ,P,,2020-03-27 01:26:36.680
nc73360020,2020-03-27 01:26:20.160,39.894666666666666,-123.29933333333334,7.14,1.92,NC.GMR..EHZ,P,,2020-03-27 01:26:35.040
nc73360020,2020-03-27 01:26:20.160,39.894666666666666,-123.29933333333334,7.14,1.92,NC.GNR..EHZ,P,,2020-03-27 01:26:34.820
nc73360020,2020-03-27 01:26:20.160,39.894666666666666,-123.29933333333334,7.14,1.92,NC.GRO..EHZ,P,1.0,2020-03-27 01:26:30.010
nc73360020,2020-03-27 01:26:20.160,39.894666666666666,-123.29933333333334,7.14,1.92,NC.GSN..EHZ,P,,2020-03-27 01:26:38.600
nc73360020,2020-03-27 01:26:20.160,39.894666666666666,-123.29933333333334,7.14,1.92,NC.GTC..EHZ,P,-1.0,2020-03-27 01:26:30.780
nc73360020,2020-03-27 01:26:20.160,39.894666666666666,-123.29933333333334,7.14,1.92,NC.GVV..EHZ,P,1.0,2020-03-27 01:26:30.120
nc73360020,2020-03-27 01:26:20.160,39.894666666666666,-123.29933333333334,7.14,1.92,NC.GWR..EHZ,P,,2020-03-27 01:26:33.590
nc73360020,2020-03-27 01:26:20.160,39.894666666666666,-123.29933333333334,7.14,1.92,NC.KBN..EHZ,P,1.0,2020-03-27 01:26:22.490
nc73360020,2020-03-27 01:26:20.160,39.894666666666666,-123.29933333333334,7.14,1.92,NC.KCPB..HHZ,P,1.0,2020-03-27 01:26:26.380
nc73360020,2020-03-27 01:26:20.160,39.894666666666666,-123.29933333333334,7.14,1.92,NC.KCR..EHZ,P,,2020-03-27 01:26:33.560
nc73360020,2020-03-27 01:26:20.160,39.894666666666666,-123.29933333333334,7.14,1.92,NC.KFP..EHZ,P,,2020-03-27 01:26:25.510
nc73360020,2020-03-27 01:26:20.160,39.894666666666666,-123.29933333333334,7.14,1.92,NC.KHBB..HHZ,P,,2020-03-27 01:26:35.050
nc73360020,2020-03-27 01:26:20.160,39.894666666666666,-123.29933333333334,7.14,1.92,NC.KIP..HNZ,P,1.0,2020-03-27 01:26:23.490
nc73360020,2020-03-27 01:26:20.160,39.894666666666666,-123.29933333333334,7.14,1.92,NC.KMR..HHZ,P,1.0,2020-03-27 01:26:29.320
nc73360020,2020-03-27 01:26:20.160,39.894666666666666,-123.29933333333334,7.14,1.92,NC.KPP..EHZ,P,1.0,2020-03-27 01:26:29.700
nc73360020,2020-03-27 01:26:20.160,39.894666666666666,-123.29933333333334,7.14,1.92,NC.KRK..EHZ,P,,2020-03-27 01:26:27.290
nc73360020,2020-03-27 01:26:20.160,39.894666666666666,-123.29933333333334,7.14,1.92,NC.LBK..EHZ,P,,2020-03-27 01:26:44.280
nc73360020,2020-03-27 01:26:20.160,39.894666666666666,-123.29933333333334,7.14,1.92,NC.LRB..EHZ,P,,2020-03-27 01:26:33.120
nc73360020,2020-03-27 01:26:20.160,39.894666666666666,-123.29933333333334,7.14,1.92,NC.LSF..EHZ,P,,2020-03-27 01:26:38.250
nc73360020,2020-03-27 01:26:20.160,39.894666666666666,-123.29933333333334,7.14,1.92,NC.LVR..EHZ,P,1.0,2020-03-27 01:26:30.340
nc73360020,2020-03-27 01:26:20.160,39.894666666666666,-123.29933333333334,7.14,1.92,PB.B047..EHZ,P,,2020-03-27 01:26:35.200
nc73360020,2020-03-27 01:26:20.160,39.894666666666666,-123.29933333333334,7.14,1.92,PB.B934..EHZ,P,1.0,2020-03-27 01:26:26.330
nc73363650,2020-04-04 11:23:19.240,40.147166666666664,-123.88033333333334,22.79,1.85,BK.BRIC..HHZ,P,-1.0,2020-04-04 11:23:23.490
nc73363650,2020-04-04 11:23:19.240,40.147166666666664,-123.88033333333334,22.79,1.85,BK.DMOR..HHZ,P,-1.0,2020-04-04 11:23:30.890
nc73363650,2020-04-04 11:23:19.240,40.147166666666664,-123.88033333333334,22.79,1.85,BK.HAYF..HHZ,P,1.0,2020-04-04 11:23:31.230
nc73363650,2020-04-04 11:23:19.240,40.147166666666664,-123.88033333333334,22.79,1.85,BK.JCC..HHZ,P,-1.0,2020-04-04 11:23:31.600
nc73363650,2020-04-04 11:23:19.240,40.147166666666664,-123.88033333333334,22.79,1.85,BK.PETL..HHZ,P,-1.0,2020-04-04 11:23:27.300
nc73363650,2020-04-04 11:23:19.240,40.147166666666664,-123.88033333333334,22.79,1.85,BK.RVIT..HHZ,P,1.0,2020-04-04 11:23:28.620
nc73363650,2020-04-04 11:23:19.240,40.147166666666664,-123.88033333333334,22.79,1.85,CE.79435..HNZ,P,,2020-04-04 11:23:25.230
nc73363650,2020-04-04 11:23:19.240,40.147166666666664,-123.88033333333334,22.79,1.85,NC.KBU..EHZ,P,1.0,2020-04-04 11:23:23.840
nc73363650,2020-04-04 11:23:19.240,40.147166666666664,-123.88033333333334,22.79,1.85,NC.KCO..EHZ,P,1.0,2020-04-04 11:23:26.580
nc73363650,2020-04-04 11:23:19.240,40.147166666666664,-123.88033333333334,22.79,1.85,NC.KCPB..HHZ,P,,2020-04-04 11:23:29.470
nc73363650,2020-04-04 11:23:19.240,40.147166666666664,-123.88033333333334,22.79,1.85,NC.KCR..EHZ,P,-1.0,2020-04-04 11:23:26.070
nc73363650,2020-04-04 11:23:19.240,40.147166666666664,-123.88033333333334,22.79,1.85,NC.KCT..HHZ,P,1.0,2020-04-04 11:23:29.770
nc73363650,2020-04-04 11:23:19.240,40.147166666666664,-123.88033333333334,22.79,1.85,NC.KMPB..HHZ,P,1.0,2020-04-04 11:23:26.930
nc73363650,2020-04-04 11:23:19.240,40.147166666666664,-123.88033333333334,22.79,1.85,NC.KMR..HHZ,P,-1.0,2020-04-04 11:23:24.150
nc73363650,2020-04-04 11:23:19.240,40.147166666666664,-123.88033333333334,22.79,1.85,NC.KPR..EHZ,P,1.0,2020-04-04 11:23:24.410
nc73363650,2020-04-04 11:23:19.240,40.147166666666664,-123.88033333333334,22.79,1.85,NP.1591..HNZ,P,-1.0,2020-04-04 11:23:23.630
nc73363650,2020-04-04 11:23:19.240,40.147166666666664,-123.88033333333334,22.79,1.85,PB.B045..EHZ,P,1.0,2020-04-04 11:23:26.350
nc73363650,2020-04-04 11:23:19.240,40.147166666666664,-123.88033333333334,22.79,1.85,PB.B046..EHZ,P,1.0,2020-04-04 11:23:26.850
nc73363650,2020-04-04 11:23:19.240,40.147166666666664,-123.88033333333334,22.79,1.85,PB.B049..EHZ,P,-1.0,2020-04-04 11:23:23.570
nc73363650,2020-04-04 11:23:19.240,40.147166666666664,-123.88033333333334,22.79,1.85,PB.B932..EHZ,P,1.0,2020-04-04 11:23:25.980
nc73363650,2020-04-04 11:23:19.240,40.147166666666664,-123.88033333333334,22.79,1.85,PB.B933..EHZ,P,,2020-04-04 11:23:23.520
nc73365090,2020-04-07 05:49:27.440,40.282333333333334,-124.30166666666666,6.41,1.32,BK.BRIC..HHZ,P,-1.0,2020-04-07 05:49:35.620
nc73365090,2020-04-07 05:49:27.440,40.282333333333334,-124.30166666666666,6.41,1.32,BK.DMOR..HHZ,P,1.0,2020-04-07 05:49:41.190
nc73365090,2020-04-07 05:49:27.440,40.282333333333334,-124.30166666666666,6.41,1.32,BK.JCC..HHZ,P,-1.0,2020-04-07 05:49:39.670
nc73365090,2020-04-07 05:49:27.440,40.282333333333334,-124.30166666666666,6.41,1.32,BK.PETL..HHZ,P,1.0,2020-04-07 05:49:29.010
nc73365090,2020-04-07 05:49:27.440,40.282333333333334,-124.30166666666666,6.41,1.32,CE.89101..HNZ,P,1.0,2020-04-07 05:49:29.220
nc73365090,2020-04-07 05:49:27.440,40.282333333333334,-124.30166666666666,6.41,1.32,NC.KCO..EHZ,P,1.0,2020-04-07 05:49:29.400
nc73365090,2020-04-07 05:49:27.440,40.282333333333334,-124.30166666666666,6.41,1.32,NC.KCR..EHZ,P,,2020-04-07 05:49:36.490
nc73365090,2020-04-07 05:49:27.440,40.282333333333334,-124.30166666666666,6.41,1.32,NC.KCT..HHZ,P,-1.0,2020-04-07 05:49:32.430
nc73365090,2020-04-07 05:49:27.440,40.282333333333334,-124.30166666666666,6.41,1.32,NC.KMPB..HHZ,P,-1.0,2020-04-07 05:49:32.100
nc73365090,2020-04-07 05:49:27.440,40.282333333333334,-124.30166666666666,6.41,1.32,NC.KMR..HHZ,P,1.0,2020-04-07 05:49:37.690
nc73365090,2020-04-07 05:49:27.440,40.282333333333334,-124.30166666666666,6.41,1.32,NC.KPR..HNZ,P,,2020-04-07 05:49:32.270
nc73365090,2020-04-07 05:49:27.440,40.282333333333334,-124.30166666666666,6.41,1.32,NP.1586..HNZ,P,1.0,2020-04-07 05:49:36.570
nc73365090,2020-04-07 05:49:27.440,40.282333333333334,-124.30166666666666,6.41,1.32,PB.B045..EHZ,P,-1.0,2020-04-07 05:49:33.840
nc73365090,2020-04-07 05:49:27.440,40.282333333333334,-124.30166666666666,6.41,1.32,PB.B046..EHZ,P,1.0,2020-04-07 05:49:28.960
nc73365090,2020-04-07 05:49:27.440,40.282333333333334,-124.30166666666666,6.41,1.32,PB.B049..EHZ,P,,2020-04-07 05:49:35.680
nc73365090,2020-04-07 05:49:27.440,40.282333333333334,-124.30166666666666,6.41,1.32,PB.B932..EHZ,P,1.0,2020-04-07 05:49:29.460
nc73366115,2020-04-09 01:12:55.820,40.6135,-123.18483333333333,30.56,1.89,BK.DMOR..HHZ,P,1.0,2020-04-09 01:13:04.660
nc73366115,2020-04-09 01:12:55.820,40.6135,-123.18483333333333,30.56,1.89,BK.HAYF..HHZ,P,-1.0,2020-04-09 01:13:01.320
nc73366115,2020-04-09 01:12:55.820,40.6135,-123.18483333333333,30.56,1.89,BK.PETY..HHZ,P,1.0,2020-04-09 01:13:06.680
nc73366115,2020-04-09 01:12:55.820,40.6135,-123.18483333333333,30.56,1.89,BK.SCOT..HHZ,P,,2020-04-09 01:13:10.260
nc73366115,2020-04-09 01:12:55.820,40.6135,-123.18483333333333,30.56,1.89,BK.TRIN..HHZ,P,-1.0,2020-04-09 01:13:06.110
nc73366115,2020-04-09 01:12:55.820,40.6135,-123.18483333333333,30.56,1.89,BK.WEAV..HHZ,P,-1.0,2020-04-09 01:13:02.130
nc73366115,2020-04-09 01:12:55.820,40.6135,-123.18483333333333,30.56,1.89,NC.GRO..EHZ,P,,2020-04-09 01:13:11.230
nc73366115,2020-04-09 01:12:55.820,40.6135,-123.18483333333333,30.56,1.89,NC.KCR..EHZ,P,1.0,2020-04-09 01:13:06.230
nc73366115,2020-04-09 01:12:55.820,40.6135,-123.18483333333333,30.56,1.89,NC.KHBB..HHZ,P,-1.0,2020-04-09 01:13:01.150
nc73366115,2020-04-09 01:12:55.820,40.6135,-123.18483333333333,30.56,1.89,NC.KHMB..HHZ,P,,2020-04-09 01:13:05.450
nc73366115,2020-04-09 01:12:55.820,40.6135,-123.18483333333333,30.56,1.89,NC.KPP..EHZ,P,,2020-04-09 01:13:03.680
nc73366115,2020-04-09 01:12:55.820,40.6135,-123.18483333333333,30.56,1.89,NC.LBK..EHZ,P,1.0,2020-04-09 01:13:07.740
nc73366115,2020-04-09 01:12:55.820,40.6135,-123.18483333333333,30.56,1.89,NC.LRB..EHZ,P,,2020-04-09 01:13:09.480
nc73366115,2020-04-09 01:12:55.820,40.6135,-123.18483333333333,30.56,1.89,NC.LSF..EHZ,P,1.0,2020-04-09 01:13:06.270
nc73366115,2020-04-09 01:12:55.820,40.6135,-123.18483333333333,30.56,1.89,NC.LSH..EHZ,P,,2020-04-09 01:13:11.930
nc73366115,2020-04-09 01:12:55.820,40.6135,-123.18483333333333,30.56,1.89,NC.LVR..EHZ,P,,2020-04-09 01:13:09.810
nc73366115,2020-04-09 01:12:55.820,40.6135,-123.18483333333333,30.56,1.89,PB.B047..EHZ,P,,2020-04-09 01:13:10.060
nc73366115,2020-04-09 01:12:55.820,40.6135,-123.18483333333333,30.56,1.89,PB.B049..EHZ,P,-1.0,2020-04-09 01:13:07.270
