event_id,etime,elat,elon,edep,emag,station_id,phase_type,phase_polarity,phase_time
nc73366115,2020-04-09 01:12:55.820,40.6135,-123.18483333333333,30.56,1.89,PB.B932..EHZ,P,,2020-04-09 01:13:10.340
nc73371810,2020-04-16 21:13:58.170,40.24366666666667,-124.13966666666667,15.71,1.44,BK.BRIC..HHZ,P,-1.0,2020-04-16 21:14:03.880
nc73371810,2020-04-16 21:13:58.170,40.24366666666667,-124.13966666666667,15.71,1.44,BK.DMOR..BHZ,P,1.0,2020-04-16 21:14:10.670
nc73371810,2020-04-16 21:13:58.170,40.24366666666667,-124.13966666666667,15.71,1.44,BK.HAYF..HHZ,P,,2020-04-16 21:14:12.850
nc73371810,2020-04-16 21:13:58.170,40.24366666666667,-124.13966666666667,15.71,1.44,BK.JCC..HHZ,P,1.0,2020-04-16 21:14:10.120
nc73371810,2020-04-16 21:13:58.170,40.24366666666667,-124.13966666666667,15.71,1.44,BK.PETL..HHZ,P,,2020-04-16 21:14:02.820
nc73371810,2020-04-16 21:13:58.170,40.24366666666667,-124.13966666666667,15.71,1.44,BK.RVIT..HHZ,P,,2020-04-16 21:14:11.860
nc73371810,2020-04-16 21:13:58.170,40.24366666666667,-124.13966666666667,15.71,1.44,NC.KBU..EHZ,P,-1.0,2020-04-16 21:14:03.730
nc73371810,2020-04-16 21:13:58.170,40.24366666666667,-124.13966666666667,15.71,1.44,NC.KCO..EHZ,P,1.0,2020-04-16 21:14:02.020
nc73371810,2020-04-16 21:13:58.170,40.24366666666667,-124.13966666666667,15.71,1.44,NC.KCR..EHZ,P,-1.0,2020-04-16 21:14:05.410
nc73371810,2020-04-16 21:13:58.170,40.24366666666667,-124.13966666666667,15.71,1.44,NC.KCT..HHZ,P,,2020-04-16 21:14:05.400
nc73371810,2020-04-16 21:13:58.170,40.24366666666667,-124.13966666666667,15.71,1.44,NC.KHBB..HHZ,P,,2020-04-16 21:14:13.710
nc73371810,2020-04-16 21:13:58.170,40.24366666666667,-124.13966666666667,15.71,1.44,NC.KHMB..HHZ,P,,2020-04-16 21:14:12.280
nc73371810,2020-04-16 21:13:58.170,40.24366666666667,-124.13966666666667,15.71,1.44,NC.KMPB..HHZ,P,-1.0,2020-04-16 21:14:02.980
nc73371810,2020-04-16 21:13:58.170,40.24366666666667,-124.13966666666667,15.71,1.44,NC.KMR..HHZ,P,-1.0,2020-04-16 21:14:05.730
nc73371810,2020-04-16 21:13:58.170,40.24366666666667,-124.13966666666667,15.71,1.44,NC.KPR..EHZ,P,-1.0,2020-04-16 21:14:01.430
nc73371810,2020-04-16 21:13:58.170,40.24366666666667,-124.13966666666667,15.71,1.44,NC.KSM..EHZ,P,1.0,2020-04-16 21:14:01.490
nc73371810,2020-04-16 21:13:58.170,40.24366666666667,-124.13966666666667,15.71,1.44,PB.B045..EHZ,P,-1.0,2020-04-16 21:14:03.710
nc73371810,2020-04-16 21:13:58.170,40.24366666666667,-124.13966666666667,15.71,1.44,PB.B046..EHZ,P,-1.0,2020-04-16 21:14:02.120
nc73371810,2020-04-16 21:13:58.170,40.24366666666667,-124.13966666666667,15.71,1.44,PB.B047..EHZ,P,1.0,2020-04-16 21:14:01.170
nc73371810,2020-04-16 21:13:58.170,40.24366666666667,-124.13966666666667,15.71,1.44,PB.B049..EHZ,P,-1.0,2020-04-16 21:14:03.950
nc73371810,2020-04-16 21:13:58.170,40.24366666666667,-124.13966666666667,15.71,1.44,PB.B932..EHZ,P,1.0,2020-04-16 21:14:01.390
nc73371810,2020-04-16 21:13:58.170,40.24366666666667,-124.13966666666667,15.71,1.44,PB.B935..EHZ,P,,2020-04-16 21:14:09.180
nc73372490,2020-04-18 10:39:32.440,40.363166666666665,-124.18433333333333,14.21,1.22,BK.BRIC..HHZ,P,-1.0,2020-04-18 10:39:39.940
nc73372490,2020-04-18 10:39:32.440,40.363166666666665,-124.18433333333333,14.21,1.22,BK.DMOR..HHZ,P,-1.0,2020-04-18 10:39:43.660
nc73372490,2020-04-18 10:39:32.440,40.363166666666665,-124.18433333333333,14.21,1.22,BK.HAYF..HHZ,P,,2020-04-18 10:39:47.000
nc73372490,2020-04-18 10:39:32.440,40.363166666666665,-124.18433333333333,14.21,1.22,BK.JCC..HHZ,P,1.0,2020-04-18 10:39:42.530
nc73372490,2020-04-18 10:39:32.440,40.363166666666665,-124.18433333333333,14.21,1.22,BK.PETL..HHZ,P,1.0,2020-04-18 10:39:36.590
nc73372490,2020-04-18 10:39:32.440,40.363166666666665,-124.18433333333333,14.21,1.22,BK.RVIT..HHZ,P,,2020-04-18 10:39:47.980
nc73372490,2020-04-18 10:39:32.440,40.363166666666665,-124.18433333333333,14.21,1.22,BK.SCOT..HHZ,P,,2020-04-18 10:39:57.180
nc73372490,2020-04-18 10:39:32.440,40.363166666666665,-124.18433333333333,14.21,1.22,BK.TRIN..HHZ,P,,2020-04-18 10:39:54.700
nc73372490,2020-04-18 10:39:32.440,40.363166666666665,-124.18433333333333,14.21,1.22,CE.89101..HNZ,P,1.0,2020-04-18 10:39:35.880
nc73372490,2020-04-18 10:39:32.440,40.363166666666665,-124.18433333333333,14.21,1.22,CE.89462..HNZ,P,1.0,2020-04-18 10:39:37.000
nc73372490,2020-04-18 10:39:32.440,40.363166666666665,-124.18433333333333,14.21,1.22,NC.KBU..EHZ,P,-1.0,2020-04-18 10:39:39.060
nc73372490,2020-04-18 10:39:32.440,40.363166666666665,-124.18433333333333,14.21,1.22,NC.KCO..EHZ,P,1.0,2020-04-18 10:39:36.380
nc73372490,2020-04-18 10:39:32.440,40.363166666666665,-124.18433333333333,14.21,1.22,NC.KCR..EHZ,P,-1.0,2020-04-18 10:39:39.210
nc73372490,2020-04-18 10:39:32.440,40.363166666666665,-124.18433333333333,14.21,1.22,NC.KCT..HHZ,P,1.0,2020-04-18 10:39:37.430
nc73372490,2020-04-18 10:39:32.440,40.363166666666665,-124.18433333333333,14.21,1.22,NC.KHBB..HHZ,P,1.0,2020-04-18 10:39:47.700
nc73372490,2020-04-18 10:39:32.440,40.363166666666665,-124.18433333333333,14.21,1.22,NC.KHMB..HHZ,P,,2020-04-18 10:39:45.340
nc73372490,2020-04-18 10:39:32.440,40.363166666666665,-124.18433333333333,14.21,1.22,NC.KMPB..HHZ,P,-1.0,2020-04-18 10:39:35.560
nc73372490,2020-04-18 10:39:32.440,40.363166666666665,-124.18433333333333,14.21,1.22,NC.KMR..HHZ,P,-1.0,2020-04-18 10:39:41.120
nc73372490,2020-04-18 10:39:32.440,40.363166666666665,-124.18433333333333,14.21,1.22,NC.KPR..HNZ,P,,2020-04-18 10:39:37.130
nc73372490,2020-04-18 10:39:32.440,40.363166666666665,-124.18433333333333,14.21,1.22,PB.B045..EHZ,P,-1.0,2020-04-18 10:39:36.690
nc73372490,2020-04-18 10:39:32.440,40.363166666666665,-124.18433333333333,14.21,1.22,PB.B046..EHZ,P,1.0,2020-04-18 10:39:35.420
nc73372490,2020-04-18 10:39:32.440,40.363166666666665,-124.18433333333333,14.21,1.22,PB.B049..EHZ,P,-1.0,2020-04-18 10:39:39.310
nc73372490,2020-04-18 10:39:32.440,40.363166666666665,-124.18433333333333,14.21,1.22,PB.B932..EHZ,P,1.0,2020-04-18 10:39:35.670
nc73372490,2020-04-18 10:39:32.440,40.363166666666665,-124.18433333333333,14.21,1.22,PB.B935..EHZ,P,,2020-04-18 10:39:43.060
nc73374775,2020-04-22 09:05:53.530,40.52183333333333,-123.51766666666667,7.41,1.65,BK.BRIC..HHZ,P,-1.0,2020-04-22 09:06:04.550
nc73374775,2020-04-22 09:05:53.530,40.52183333333333,-123.51766666666667,7.41,1.65,BK.DMOR..BHZ,P,1.0,2020-04-22 09:05:59.020
nc73374775,2020-04-22 09:05:53.530,40.52183333333333,-123.51766666666667,7.41,1.65,BK.HAYF..HHZ,P,-1.0,2020-04-22 09:05:58.880
nc73374775,2020-04-22 09:05:53.530,40.52183333333333,-123.51766666666667,7.41,1.65,BK.JCC..HHZ,P,-1.0,2020-04-22 09:06:03.920
nc73374775,2020-04-22 09:05:53.530,40.52183333333333,-123.51766666666667,7.41,1.65,BK.TRIN..HHZ,P,-1.0,2020-04-22 09:06:08.230
nc73374775,2020-04-22 09:05:53.530,40.52183333333333,-123.51766666666667,7.41,1.65,BK.WEAV..HHZ,P,-1.0,2020-04-22 09:06:03.030
nc73374775,2020-04-22 09:05:53.530,40.52183333333333,-123.51766666666667,7.41,1.65,NC.KBU..EHZ,P,-1.0,2020-04-22 09:06:01.900
nc73374775,2020-04-22 09:05:53.530,40.52183333333333,-123.51766666666667,7.41,1.65,NC.KCO..EHZ,P,,2020-04-22 09:06:07.130
nc73374775,2020-04-22 09:05:53.530,40.52183333333333,-123.51766666666667,7.41,1.65,NC.KCR..EHZ,P,-1.0,2020-04-22 09:05:59.470
nc73374775,2020-04-22 09:05:53.530,40.52183333333333,-123.51766666666667,7.41,1.65,NC.KHBB..HHZ,P,-1.0,2020-04-22 09:05:59.660
nc73374775,2020-04-22 09:05:53.530,40.52183333333333,-123.51766666666667,7.41,1.65,NC.KMPB..HHZ,P,,2020-04-22 09:06:02.810
nc73374775,2020-04-22 09:05:53.530,40.52183333333333,-123.51766666666667,7.41,1.65,NC.KMR..HHZ,P,-1.0,2020-04-22 09:06:01.530
nc73374775,2020-04-22 09:05:53.530,40.52183333333333,-123.51766666666667,7.41,1.65,NC.LBK..EHZ,P,1.0,2020-04-22 09:06:09.890
nc73374775,2020-04-22 09:05:53.530,40.52183333333333,-123.51766666666667,7.41,1.65,NC.LSH..EHZ,P,,2020-04-22 09:06:14.370
nc73374775,2020-04-22 09:05:53.530,40.52183333333333,-123.51766666666667,7.41,1.65,PB.B045..EHZ,P,1.0,2020-04-22 09:06:01.980
nc73374775,2020-04-22 09:05:53.530,40.52183333333333,-123.51766666666667,7.41,1.65,PB.B049..EHZ,P,-1.0,2020-04-22 09:06:01.580
nc73374775,2020-04-22 09:05:53.530,40.52183333333333,-123.51766666666667,7.41,1.65,PB.B935..EHZ,P,1.0,2020-04-22 09:05:55.850
nc73374815,2020-04-22 12:06:31.030,40.724,-124.19466666666666,9.83,2.15,BK.BRIC..HHZ,P,1.0,2020-04-22 12:06:44.210
nc73374815,2020-04-22 12:06:31.030,40.724,-124.19466666666666,9.83,2.15,BK.DMOR..HHZ,P,1.0,2020-04-22 12:06:39.380
nc73374815,2020-04-22 12:06:31.030,40.724,-124.19466666666666,9.83,2.15,BK.HAYF..HHZ,P,1.0,2020-04-22 12:06:45.780
nc73374815,2020-04-22 12:06:31.030,40.724,-124.19466666666666,9.83,2.15,BK.JCC..HHZ,P,-1.0,2020-04-22 12:06:34.760
nc73374815,2020-04-22 12:06:31.030,40.724,-124.19466666666666,9.83,2.15,BK.PETL..HHZ,P,1.0,2020-04-22 12:06:40.790
nc73374815,2020-04-22 12:06:31.030,40.724,-124.19466666666666,9.83,2.15,CE.89255..HNZ,P,-1.0,2020-04-22 12:06:34.840
nc73374815,2020-04-22 12:06:31.030,40.724,-124.19466666666666,9.83,2.15,CE.89781..HNZ,P,1.0,2020-04-22 12:06:33.390
nc73374815,2020-04-22 12:06:31.030,40.724,-124.19466666666666,9.83,2.15,NC.KBU..EHZ,P,1.0,2020-04-22 12:06:42.650
nc73374815,2020-04-22 12:06:31.030,40.724,-124.19466666666666,9.83,2.15,NC.KCO..EHZ,P,-1.0,2020-04-22 12:06:41.200
nc73374815,2020-04-22 12:06:31.030,40.724,-124.19466666666666,9.83,2.15,NC.KCT..HHZ,P,-1.0,2020-04-22 12:06:37.440
nc73374815,2020-04-22 12:06:31.030,40.724,-124.19466666666666,9.83,2.15,NC.KHBB..HHZ,P,-1.0,2020-04-22 12:06:45.490
nc73374815,2020-04-22 12:06:31.030,40.724,-124.19466666666666,9.83,2.15,NC.KHMB..HHZ,P,-1.0,2020-04-22 12:06:39.490
nc73374815,2020-04-22 12:06:31.030,40.724,-124.19466666666666,9.83,2.15,NC.KMPB..HNZ,P,1.0,2020-04-22 12:06:38.060
nc73374815,2020-04-22 12:06:31.030,40.724,-124.19466666666666,9.83,2.15,NC.KMR..HHZ,P,1.0,2020-04-22 12:06:44.050
nc73374815,2020-04-22 12:06:31.030,40.724,-124.19466666666666,9.83,2.15,NC.KPR..EHZ,P,1.0,2020-04-22 12:06:42.100
nc73374815,2020-04-22 12:06:31.030,40.724,-124.19466666666666,9.83,2.15,NC.KRP..HHZ,P,-1.0,2020-04-22 12:06:40.630
nc73374815,2020-04-22 12:06:31.030,40.724,-124.19466666666666,9.83,2.15,NC.LBK..EHZ,P,1.0,2020-04-22 12:06:52.570
nc73374815,2020-04-22 12:06:31.030,40.724,-124.19466666666666,9.83,2.15,NC.LSH..EHZ,P,,2020-04-22 12:06:58.820
nc73374815,2020-04-22 12:06:31.030,40.724,-124.19466666666666,9.83,2.15,NC.NMT..EHZ,P,,2020-04-22 12:07:11.910
nc73374815,2020-04-22 12:06:31.030,40.724,-124.19466666666666,9.83,2.15,NC.NWS..EHZ,P,-1.0,2020-04-22 12:07:12.000
nc73374815,2020-04-22 12:06:31.030,40.724,-124.19466666666666,9.83,2.15,NP.1023..HNZ,P,-1.0,2020-04-22 12:06:35.370
nc73374815,2020-04-22 12:06:31.030,40.724,-124.19466666666666,9.83,2.15,NP.1581..HNZ,P,1.0,2020-04-22 12:06:33.040
nc73374815,2020-04-22 12:06:31.030,40.724,-124.19466666666666,9.83,2.15,NP.1582..HNZ,P,1.0,2020-04-22 12:06:33.140
nc73374815,2020-04-22 12:06:31.030,40.724,-124.19466666666666,9.83,2.15,NP.1586..HNZ,P,-1.0,2020-04-22 12:06:33.900
nc73374815,2020-04-22 12:06:31.030,40.724,-124.19466666666666,9.83,2.15,PB.B045..EHZ,P,-1.0,2020-04-22 12:06:38.370
nc73374815,2020-04-22 12:06:31.030,40.724,-124.19466666666666,9.83,2.15,PB.B046..EHZ,P,-1.0,2020-04-22 12:06:39.710
nc73374815,2020-04-22 12:06:31.030,40.724,-124.19466666666666,9.83,2.15,PB.B049..EHZ,P,1.0,2020-04-22 12:06:42.740
nc73374815,2020-04-22 12:06:31.030,40.724,-124.19466666666666,9.83,2.15,PB.B932..EHZ,P,-1.0,2020-04-22 12:06:40.630
nc73374815,2020-04-22 12:06:31.030,40.724,-124.19466666666666,9.83,2.15,PB.B935..EHZ,P,-1.0,2020-04-22 12:06:42.230
nc73375045,2020-04-22 22:31:51.200,40.344166666666666,-123.82716666666667,21.03,1.43,BK.BRIC..HHZ,P,1.0,2020-04-22 22:31:57.380
nc73375045,2020-04-22 22:31:51.200,40.344166666666666,-123.82716666666667,21.03,1.43,BK.DMOR..HHZ,P,,2020-04-22 22:31:59.640
nc73375045,2020-04-22 22:31:51.200,40.344166666666666,-123.82716666666667,21.03,1.43,BK.HAYF..HHZ,P,1.0,2020-04-22 22:32:01.160
nc73375045,2020-04-22 22:31:51.200,40.344166666666666,-123.82716666666667,21.03,1.43,BK.JCC..HHZ,P,,2020-04-22 22:32:00.940
nc73375045,2020-04-22 22:31:51.200,40.344166666666666,-123.82716666666667,21.03,1.43,BK.PETL..HHZ,P,-1.0,2020-04-22 22:31:59.610
nc73375045,2020-04-22 22:31:51.200,40.344166666666666,-123.82716666666667,21.03,1.43,NC.KBU..EHZ,P,1.0,2020-04-22 22:31:55.590
nc73375045,2020-04-22 22:31:51.200,40.344166666666666,-123.82716666666667,21.03,1.43,NC.KCO..EHZ,P,1.0,2020-04-22 22:31:58.830
nc73375045,2020-04-22 22:31:51.200,40.344166666666666,-123.82716666666667,21.03,1.43,NC.KCR..EHZ,P,-1.0,2020-04-22 22:31:55.410
nc73375045,2020-04-22 22:31:51.200,40.344166666666666,-123.82716666666667,21.03,1.43,NC.KCT..HHZ,P,,2020-04-22 22:32:00.310
nc73375045,2020-04-22 22:31:51.200,40.344166666666666,-123.82716666666667,21.03,1.43,NC.KMPB..HHZ,P,1.0,2020-04-22 22:31:57.130
nc73375045,2020-04-22 22:31:51.200,40.344166666666666,-123.82716666666667,21.03,1.43,NC.KMR..HHZ,P,-1.0,2020-04-22 22:31:56.300
nc73375045,2020-04-22 22:31:51.200,40.344166666666666,-123.82716666666667,21.03,1.43,NC.KPR..EHZ,P,-1.0,2020-04-22 22:31:56.830
nc73375045,2020-04-22 22:31:51.200,40.344166666666666,-123.82716666666667,21.03,1.43,NC.KSM..EHZ,P,1.0,2020-04-22 22:31:58.370
nc73375045,2020-04-22 22:31:51.200,40.344166666666666,-123.82716666666667,21.03,1.43,PB.B045..EHZ,P,,2020-04-22 22:31:55.800
nc73375045,2020-04-22 22:31:51.200,40.344166666666666,-123.82716666666667,21.03,1.43,PB.B046..EHZ,P,1.0,2020-04-22 22:31:58.590
nc73375045,2020-04-22 22:31:51.200,40.344166666666666,-123.82716666666667,21.03,1.43,PB.B047..EHZ,P,1.0,2020-04-22 22:31:57.800
nc73375045,2020-04-22 22:31:51.200,40.344166666666666,-123.82716666666667,21.03,1.43,PB.B049..EHZ,P,-1.0,2020-04-22 22:31:55.430
nc73375045,2020-04-22 22:31:51.200,40.344166666666666,-123.82716666666667,21.03,1.43,PB.B932..EHZ,P,1.0,2020-04-22 22:31:58.010
nc73375045,2020-04-22 22:31:51.200,40.344166666666666,-123.82716666666667,21.03,1.43,PB.B935..EHZ,P,1.0,2020-04-22 22:31:57.310
nc73376045,2020-04-25 01:28:42.040,40.217333333333336,-124.1795,4.72,1.5,BK.BRIC..HHZ,P,1.0,2020-04-25 01:28:47.750
nc73376045,2020-04-25 01:28:42.040,40.217333333333336,-124.1795,4.72,1.5,BK.PETL..HHZ,P,1.0,2020-04-25 01:28:45.740
nc73376045,2020-04-25 01:28:42.040,40.217333333333336,-124.1795,4.72,1.5,NC.KBU..EHZ,P,1.0,2020-04-25 01:28:48.190
nc73376045,2020-04-25 01:28:42.040,40.217333333333336,-124.1795,4.72,1.5,NC.KCO..EHZ,P,1.0,2020-04-25 01:28:44.260
nc73376045,2020-04-25 01:28:42.040,40.217333333333336,-124.1795,4.72,1.5,NC.KCR..EHZ,P,1.0,2020-04-25 01:28:50.120
nc73376045,2020-04-25 01:28:42.040,40.217333333333336,-124.1795,4.72,1.5,NC.KCT..HHZ,P,-1.0,2020-04-25 01:28:49.380
nc73376045,2020-04-25 01:28:42.040,40.217333333333336,-124.1795,4.72,1.5,NC.KMPB..HHZ,P,-1.0,2020-04-25 01:28:46.960
nc73376045,2020-04-25 01:28:42.040,40.217333333333336,-124.1795,4.72,1.5,NC.KPR..EHZ,P,1.0,2020-04-25 01:28:44.510
nc73376045,2020-04-25 01:28:42.040,40.217333333333336,-124.1795,4.72,1.5,NC.KSM..EHZ,P,1.0,2020-04-25 01:28:43.320
nc73376045,2020-04-25 01:28:42.040,40.217333333333336,-124.1795,4.72,1.5,PB.B045..EHZ,P,-1.0,2020-04-25 01:28:48.110
nc73376045,2020-04-25 01:28:42.040,40.217333333333336,-124.1795,4.72,1.5,PB.B046..EHZ,P,1.0,2020-04-25 01:28:45.120
nc73376045,2020-04-25 01:28:42.040,40.217333333333336,-124.1795,4.72,1.5,PB.B047..EHZ,P,-1.0,2020-04-25 01:28:43.380
nc73376045,2020-04-25 01:28:42.040,40.217333333333336,-124.1795,4.72,1.5,PB.B049..EHZ,P,1.0,2020-04-25 01:28:48.490
nc73376045,2020-04-25 01:28:42.040,40.217333333333336,-124.1795,4.72,1.5,PB.B932..EHZ,P,-1.0,2020-04-25 01:28:43.820
nc73376045,2020-04-25 01:28:42.040,40.217333333333336,-124.1795,4.72,1.5,PB.B935..EHZ,P,1.0,2020-04-25 01:28:54.050
nc73378385,2020-04-30 02:51:58.110,40.4315,-123.51683333333334,8.57,1.58,BK.DMOR..HHZ,P,,2020-04-30 02:52:05.330
nc73378385,2020-04-30 02:51:58.110,40.4315,-123.51683333333334,8.57,1.58,BK.HAYF..HHZ,P,-1.0,2020-04-30 02:52:03.840
nc73378385,2020-04-30 02:51:58.110,40.4315,-123.51683333333334,8.57,1.58,BK.JCC..HHZ,P,,2020-04-30 02:52:09.850
nc73378385,2020-04-30 02:51:58.110,40.4315,-123.51683333333334,8.57,1.58,BK.RVIT..HHZ,P,,2020-04-30 02:52:09.860
nc73378385,2020-04-30 02:51:58.110,40.4315,-123.51683333333334,8.57,1.58,BK.SCOT..HHZ,P,1.0,2020-04-30 02:52:18.400
nc73378385,2020-04-30 02:51:58.110,40.4315,-123.51683333333334,8.57,1.58,BK.TRIN..HHZ,P,1.0,2020-04-30 02:52:14.170
nc73378385,2020-04-30 02:51:58.110,40.4315,-123.51683333333334,8.57,1.58,BK.WEAV..HHZ,P,1.0,2020-04-30 02:52:08.930
nc73378385,2020-04-30 02:51:58.110,40.4315,-123.51683333333334,8.57,1.58,NC.KBN..EHZ,P,,2020-04-30 02:52:10.980
nc73378385,2020-04-30 02:51:58.110,40.4315,-123.51683333333334,8.57,1.58,NC.KBU..EHZ,P,-1.0,2020-04-30 02:52:05.260
nc73378385,2020-04-30 02:51:58.110,40.4315,-123.51683333333334,8.57,1.58,NC.KCR..EHZ,P,-1.0,2020-04-30 02:52:03.680
nc73378385,2020-04-30 02:51:58.110,40.4315,-123.51683333333334,8.57,1.58,NC.KHBB..HHZ,P,-1.0,2020-04-30 02:52:05.360
nc73378385,2020-04-30 02:51:58.110,40.4315,-123.51683333333334,8.57,1.58,NC.KHMB..HHZ,P,,2020-04-30 02:52:08.410
nc73378385,2020-04-30 02:51:58.110,40.4315,-123.51683333333334,8.57,1.58,NC.KMR..HHZ,P,-1.0,2020-04-30 02:52:04.420
nc73378385,2020-04-30 02:51:58.110,40.4315,-123.51683333333334,8.57,1.58,NC.LBK..EHZ,P,,2020-04-30 02:52:15.750
nc73378385,2020-04-30 02:51:58.110,40.4315,-123.51683333333334,8.57,1.58,NC.LSH..EHZ,P,1.0,2020-04-30 02:52:20.480
nc73378385,2020-04-30 02:51:58.110,40.4315,-123.51683333333334,8.57,1.58,PB.B045..EHZ,P,1.0,2020-04-30 02:52:06.370
nc73378385,2020-04-30 02:51:58.110,40.4315,-123.51683333333334,8.57,1.58,PB.B046..EHZ,P,-1.0,2020-04-30 02:52:10.410
nc73378385,2020-04-30 02:51:58.110,40.4315,-123.51683333333334,8.57,1.58,PB.B047..EHZ,P,-1.0,2020-04-30 02:52:09.520
nc73378385,2020-04-30 02:51:58.110,40.4315,-123.51683333333334,8.57,1.58,PB.B049..EHZ,P,-1.0,2020-04-30 02:52:04.830
nc73378385,2020-04-30 02:51:58.110,40.4315,-123.51683333333334,8.57,1.58,PB.B932..EHZ,P,-1.0,2020-04-30 02:52:09.950
nc73378385,2020-04-30 02:51:58.110,40.4315,-123.51683333333334,8.57,1.58,PB.B935..EHZ,P,1.0,2020-04-30 02:52:00.610
nc73379325,2020-05-02 14:25:33.990,40.28616666666667,-123.41316666666667,4.64,2.33,BK.BRIC..BHZ,P,-1.0,2020-05-02 14:25:43.240
nc73379325,2020-05-02 14:25:33.990,40.28616666666667,-123.41316666666667,4.64,2.33,BK.DMOR..HHZ,P,-1.0,2020-05-02 14:25:45.020
nc73379325,2020-05-02 14:25:33.990,40.28616666666667,-123.41316666666667,4.64,2.33,BK.HAYF..HHZ,P,-1.0,2020-05-02 14:25:40.740
nc73379325,2020-05-02 14:25:33.990,40.28616666666667,-123.41316666666667,4.64,2.33,BK.JCC..HHZ,P,1.0,2020-05-02 14:25:49.470
nc73379325,2020-05-02 14:25:33.990,40.28616666666667,-123.41316666666667,4.64,2.33,BK.PETL..HHZ,P,1.0,2020-05-02 14:25:49.080
nc73379325,2020-05-02 14:25:33.990,40.28616666666667,-123.41316666666667,4.64,2.33,BK.PETY..HHZ,P,1.0,2020-05-02 14:25:44.900
nc73379325,2020-05-02 14:25:33.990,40.28616666666667,-123.41316666666667,4.64,2.33,BK.RVIT..HHZ,P,-1.0,2020-05-02 14:25:43.290
nc73379325,2020-05-02 14:25:33.990,40.28616666666667,-123.41316666666667,4.64,2.33,BK.TRIN..HHZ,P,-1.0,2020-05-02 14:25:51.490
nc73379325,2020-05-02 14:25:33.990,40.28616666666667,-123.41316666666667,4.64,2.33,BK.WEAV..HHZ,P,-1.0,2020-05-02 14:25:45.840
nc73379325,2020-05-02 14:25:33.990,40.28616666666667,-123.41316666666667,4.64,2.33,NC.GRO..EHZ,P,1.0,2020-05-02 14:25:48.340
nc73379325,2020-05-02 14:25:33.990,40.28616666666667,-123.41316666666667,4.64,2.33,NC.GTC..EHZ,P,1.0,2020-05-02 14:25:52.210
nc73379325,2020-05-02 14:25:33.990,40.28616666666667,-123.41316666666667,4.64,2.33,NC.GVV..EHZ,P,1.0,2020-05-02 14:25:49.820
nc73379325,2020-05-02 14:25:33.990,40.28616666666667,-123.41316666666667,4.64,2.33,NC.KBU..EHZ,P,1.0,2020-05-02 14:25:41.640
nc73379325,2020-05-02 14:25:33.990,40.28616666666667,-123.41316666666667,4.64,2.33,NC.KCO..EHZ,P,,2020-05-02 14:25:48.060
nc73379325,2020-05-02 14:25:33.990,40.28616666666667,-123.41316666666667,4.64,2.33,NC.KCPB..HHZ,P,,2020-05-02 14:25:47.340
