event_id,etime,elat,elon,edep,emag,station_id,phase_type,phase_polarity,phase_time
nc73379325,2020-05-02 14:25:33.990,40.28616666666667,-123.41316666666667,4.64,2.33,NC.KCR..EHZ,P,1.0,2020-05-02 14:25:41.800
nc73379325,2020-05-02 14:25:33.990,40.28616666666667,-123.41316666666667,4.64,2.33,NC.KCT..HHZ,P,1.0,2020-05-02 14:25:50.120
nc73379325,2020-05-02 14:25:33.990,40.28616666666667,-123.41316666666667,4.64,2.33,NC.KHBB..HHZ,P,-1.0,2020-05-02 14:25:43.000
nc73379325,2020-05-02 14:25:33.990,40.28616666666667,-123.41316666666667,4.64,2.33,NC.KHMB..HHZ,P,,2020-05-02 14:25:47.540
nc73379325,2020-05-02 14:25:33.990,40.28616666666667,-123.41316666666667,4.64,2.33,NC.KKP..EHZ,P,1.0,2020-05-02 14:25:37.860
nc73379325,2020-05-02 14:25:33.990,40.28616666666667,-123.41316666666667,4.64,2.33,NC.KMPB..HHZ,P,,2020-05-02 14:25:45.920
nc73379325,2020-05-02 14:25:33.990,40.28616666666667,-123.41316666666667,4.64,2.33,NC.KMR..HHZ,P,1.0,2020-05-02 14:25:39.490
nc73379325,2020-05-02 14:25:33.990,40.28616666666667,-123.41316666666667,4.64,2.33,NC.KPP..EHZ,P,-1.0,2020-05-02 14:25:37.150
nc73379325,2020-05-02 14:25:33.990,40.28616666666667,-123.41316666666667,4.64,2.33,NC.LBK..EHZ,P,-1.0,2020-05-02 14:25:53.160
nc73379325,2020-05-02 14:25:33.990,40.28616666666667,-123.41316666666667,4.64,2.33,NC.LRB..EHZ,P,-1.0,2020-05-02 14:25:48.890
nc73379325,2020-05-02 14:25:33.990,40.28616666666667,-123.41316666666667,4.64,2.33,NC.LSF..EHZ,P,-1.0,2020-05-02 14:25:49.770
nc73379325,2020-05-02 14:25:33.990,40.28616666666667,-123.41316666666667,4.64,2.33,NC.LTC..EHZ,P,,2020-05-02 14:25:54.420
nc73379325,2020-05-02 14:25:33.990,40.28616666666667,-123.41316666666667,4.64,2.33,NC.LVR..EHZ,P,1.0,2020-05-02 14:25:47.300
nc73379325,2020-05-02 14:25:33.990,40.28616666666667,-123.41316666666667,4.64,2.33,NP.1591..HNZ,P,-1.0,2020-05-02 14:25:41.890
nc73379325,2020-05-02 14:25:33.990,40.28616666666667,-123.41316666666667,4.64,2.33,PB.B045..EHZ,P,1.0,2020-05-02 14:25:44.340
nc73379325,2020-05-02 14:25:33.990,40.28616666666667,-123.41316666666667,4.64,2.33,PB.B046..EHZ,P,1.0,2020-05-02 14:25:47.800
nc73379325,2020-05-02 14:25:33.990,40.28616666666667,-123.41316666666667,4.64,2.33,PB.B049..EHZ,P,1.0,2020-05-02 14:25:41.010
nc73379325,2020-05-02 14:25:33.990,40.28616666666667,-123.41316666666667,4.64,2.33,PB.B932..EHZ,P,1.0,2020-05-02 14:25:47.110
nc73379325,2020-05-02 14:25:33.990,40.28616666666667,-123.41316666666667,4.64,2.33,PB.B934..EHZ,P,,2020-05-02 14:25:43.890
nc73379325,2020-05-02 14:25:33.990,40.28616666666667,-123.41316666666667,4.64,2.33,PB.B935..EHZ,P,-1.0,2020-05-02 14:25:39.330
nc73379705,2020-05-03 11:43:42.000,40.309666666666665,-124.5345,9.82,2.23,BK.BRIC..HHZ,P,-1.0,2020-05-03 11:43:53.300
nc73379705,2020-05-03 11:43:42.000,40.309666666666665,-124.5345,9.82,2.23,BK.DMOR..HHZ,P,-1.0,2020-05-03 11:43:56.800
nc73379705,2020-05-03 11:43:42.000,40.309666666666665,-124.5345,9.82,2.23,BK.INGL..HHZ,P,,2020-05-03 11:43:59.980
nc73379705,2020-05-03 11:43:42.000,40.309666666666665,-124.5345,9.82,2.23,BK.PETL..HHZ,P,1.0,2020-05-03 11:43:46.000
nc73379705,2020-05-03 11:43:42.000,40.309666666666665,-124.5345,9.82,2.23,BK.RVIT..HHZ,P,-1.0,2020-05-03 11:44:00.820
nc73379705,2020-05-03 11:43:42.000,40.309666666666665,-124.5345,9.82,2.23,CE.89101..HNZ,P,,2020-05-03 11:43:46.470
nc73379705,2020-05-03 11:43:42.000,40.309666666666665,-124.5345,9.82,2.23,NC.KBU..EHZ,P,,2020-05-03 11:43:53.180
nc73379705,2020-05-03 11:43:42.000,40.309666666666665,-124.5345,9.82,2.23,NC.KCO..EHZ,P,-1.0,2020-05-03 11:43:47.190
nc73379705,2020-05-03 11:43:42.000,40.309666666666665,-124.5345,9.82,2.23,NC.KCPB..HHZ,P,,2020-05-03 11:44:00.650
nc73379705,2020-05-03 11:43:42.000,40.309666666666665,-124.5345,9.82,2.23,NC.KCT..HHZ,P,1.0,2020-05-03 11:43:47.650
nc73379705,2020-05-03 11:43:42.000,40.309666666666665,-124.5345,9.82,2.23,NC.KMPB..HHZ,P,1.0,2020-05-03 11:43:49.370
nc73379705,2020-05-03 11:43:42.000,40.309666666666665,-124.5345,9.82,2.23,NC.KMR..HHZ,P,,2020-05-03 11:43:55.990
nc73379705,2020-05-03 11:43:42.000,40.309666666666665,-124.5345,9.82,2.23,NC.KPR..HNZ,P,-1.0,2020-05-03 11:43:50.390
nc73379705,2020-05-03 11:43:42.000,40.309666666666665,-124.5345,9.82,2.23,PB.B045..EHZ,P,1.0,2020-05-03 11:43:51.170
nc73379705,2020-05-03 11:43:42.000,40.309666666666665,-124.5345,9.82,2.23,PB.B046..EHZ,P,1.0,2020-05-03 11:43:45.950
nc73379705,2020-05-03 11:43:42.000,40.309666666666665,-124.5345,9.82,2.23,PB.B049..EHZ,P,,2020-05-03 11:43:53.590
nc73379705,2020-05-03 11:43:42.000,40.309666666666665,-124.5345,9.82,2.23,PB.B932..EHZ,P,1.0,2020-05-03 11:43:47.390
nc73379705,2020-05-03 11:43:42.000,40.309666666666665,-124.5345,9.82,2.23,PB.B935..EHZ,P,,2020-05-03 11:43:56.940
nc73379725,2020-05-03 13:12:55.150,40.3165,-124.54333333333334,10.04,3.16,BK.BARR..HHZ,P,-1.0,2020-05-03 13:13:19.120
nc73379725,2020-05-03 13:12:55.150,40.3165,-124.54333333333334,10.04,3.16,BK.BONV..HHZ,P,-1.0,2020-05-03 13:13:21.160
nc73379725,2020-05-03 13:12:55.150,40.3165,-124.54333333333334,10.04,3.16,BK.BRIC..HHZ,P,-1.0,2020-05-03 13:13:06.540
nc73379725,2020-05-03 13:12:55.150,40.3165,-124.54333333333334,10.04,3.16,BK.DMOR..HHZ,P,1.0,2020-05-03 13:13:09.970
nc73379725,2020-05-03 13:12:55.150,40.3165,-124.54333333333334,10.04,3.16,BK.HAYF..BHZ,P,-1.0,2020-05-03 13:13:13.970
nc73379725,2020-05-03 13:12:55.150,40.3165,-124.54333333333334,10.04,3.16,BK.INGL..HHZ,P,1.0,2020-05-03 13:13:13.110
nc73379725,2020-05-03 13:12:55.150,40.3165,-124.54333333333334,10.04,3.16,BK.JCC..BHZ,P,1.0,2020-05-03 13:13:07.460
nc73379725,2020-05-03 13:12:55.150,40.3165,-124.54333333333334,10.04,3.16,BK.MNDO..HHZ,P,-1.0,2020-05-03 13:13:14.920
nc73379725,2020-05-03 13:12:55.150,40.3165,-124.54333333333334,10.04,3.16,BK.PETL..HHZ,P,1.0,2020-05-03 13:12:59.200
nc73379725,2020-05-03 13:12:55.150,40.3165,-124.54333333333334,10.04,3.16,BK.RVIT..HHZ,P,,2020-05-03 13:13:14.060
nc73379725,2020-05-03 13:12:55.150,40.3165,-124.54333333333334,10.04,3.16,BK.TRIN..HHZ,P,,2020-05-03 13:13:21.110
nc73379725,2020-05-03 13:12:55.150,40.3165,-124.54333333333334,10.04,3.16,CE.79435..HNZ,P,-1.0,2020-05-03 13:13:09.430
nc73379725,2020-05-03 13:12:55.150,40.3165,-124.54333333333334,10.04,3.16,CE.89101..HNZ,P,-1.0,2020-05-03 13:12:59.760
nc73379725,2020-05-03 13:12:55.150,40.3165,-124.54333333333334,10.04,3.16,CE.89255..HNZ,P,1.0,2020-05-03 13:13:04.740
nc73379725,2020-05-03 13:12:55.150,40.3165,-124.54333333333334,10.04,3.16,CE.89462..HNZ,P,-1.0,2020-05-03 13:13:03.930
nc73379725,2020-05-03 13:12:55.150,40.3165,-124.54333333333334,10.04,3.16,CE.89464..HNZ,P,,2020-05-03 13:13:08.870
nc73379725,2020-05-03 13:12:55.150,40.3165,-124.54333333333334,10.04,3.16,NC.GMR..EHZ,P,-1.0,2020-05-03 13:13:18.800
nc73379725,2020-05-03 13:12:55.150,40.3165,-124.54333333333334,10.04,3.16,NC.GNR..EHZ,P,-1.0,2020-05-03 13:13:16.970
nc73379725,2020-05-03 13:12:55.150,40.3165,-124.54333333333334,10.04,3.16,NC.GTC..EHZ,P,-1.0,2020-05-03 13:13:15.560
nc73379725,2020-05-03 13:12:55.150,40.3165,-124.54333333333334,10.04,3.16,NC.GWR..EHZ,P,-1.0,2020-05-03 13:13:19.380
nc73379725,2020-05-03 13:12:55.150,40.3165,-124.54333333333334,10.04,3.16,NC.KBN..EHZ,P,,2020-05-03 13:13:15.360
nc73379725,2020-05-03 13:12:55.150,40.3165,-124.54333333333334,10.04,3.16,NC.KBU..EHZ,P,-1.0,2020-05-03 13:13:06.340
nc73379725,2020-05-03 13:12:55.150,40.3165,-124.54333333333334,10.04,3.16,NC.KCO..EHZ,P,1.0,2020-05-03 13:13:00.310
nc73379725,2020-05-03 13:12:55.150,40.3165,-124.54333333333334,10.04,3.16,NC.KCPB..HHZ,P,1.0,2020-05-03 13:13:13.070
nc73379725,2020-05-03 13:12:55.150,40.3165,-124.54333333333334,10.04,3.16,NC.KCT..HHZ,P,1.0,2020-05-03 13:13:00.810
nc73379725,2020-05-03 13:12:55.150,40.3165,-124.54333333333334,10.04,3.16,NC.KHBB..HHZ,P,-1.0,2020-05-03 13:13:14.390
nc73379725,2020-05-03 13:12:55.150,40.3165,-124.54333333333334,10.04,3.16,NC.KHMB..HHZ,P,1.0,2020-05-03 13:13:10.930
nc73379725,2020-05-03 13:12:55.150,40.3165,-124.54333333333334,10.04,3.16,NC.KIP..HNZ,P,,2020-05-03 13:13:13.120
nc73379725,2020-05-03 13:12:55.150,40.3165,-124.54333333333334,10.04,3.16,NC.KMPB..HHZ,P,1.0,2020-05-03 13:13:02.580
nc73379725,2020-05-03 13:12:55.150,40.3165,-124.54333333333334,10.04,3.16,NC.KRK..EHZ,P,-1.0,2020-05-03 13:13:17.370
nc73379725,2020-05-03 13:12:55.150,40.3165,-124.54333333333334,10.04,3.16,NC.KRP..HHZ,P,,2020-05-03 13:13:11.990
nc73379725,2020-05-03 13:12:55.150,40.3165,-124.54333333333334,10.04,3.16,NC.LSF..EHZ,P,,2020-05-03 13:13:22.100
nc73379725,2020-05-03 13:12:55.150,40.3165,-124.54333333333334,10.04,3.16,NP.1023..HNZ,P,,2020-05-03 13:13:03.150
nc73379725,2020-05-03 13:12:55.150,40.3165,-124.54333333333334,10.04,3.16,NP.1581..HNZ,P,,2020-05-03 13:13:04.740
nc73379725,2020-05-03 13:12:55.150,40.3165,-124.54333333333334,10.04,3.16,NP.1582..HNZ,P,,2020-05-03 13:13:05.310
nc73379725,2020-05-03 13:12:55.150,40.3165,-124.54333333333334,10.04,3.16,NP.1584..HNZ,P,,2020-05-03 13:13:01.000
nc73379725,2020-05-03 13:12:55.150,40.3165,-124.54333333333334,10.04,3.16,NP.1586..HNZ,P,1.0,2020-05-03 13:13:04.630
nc73379725,2020-05-03 13:12:55.150,40.3165,-124.54333333333334,10.04,3.16,NP.1591..HNZ,P,-1.0,2020-05-03 13:13:08.120
nc73379725,2020-05-03 13:12:55.150,40.3165,-124.54333333333334,10.04,3.16,PB.B045..EHZ,P,1.0,2020-05-03 13:13:04.330
nc73379725,2020-05-03 13:12:55.150,40.3165,-124.54333333333334,10.04,3.16,PB.B046..EHZ,P,1.0,2020-05-03 13:12:59.150
nc73379725,2020-05-03 13:12:55.150,40.3165,-124.54333333333334,10.04,3.16,PB.B049..EHZ,P,1.0,2020-05-03 13:13:06.450
nc73379725,2020-05-03 13:12:55.150,40.3165,-124.54333333333334,10.04,3.16,PB.B932..EHZ,P,1.0,2020-05-03 13:13:00.560
nc73379725,2020-05-03 13:12:55.150,40.3165,-124.54333333333334,10.04,3.16,PB.B933..EHZ,P,1.0,2020-05-03 13:13:05.600
nc73379725,2020-05-03 13:12:55.150,40.3165,-124.54333333333334,10.04,3.16,PB.B934..EHZ,P,,2020-05-03 13:13:10.940
nc73379725,2020-05-03 13:12:55.150,40.3165,-124.54333333333334,10.04,3.16,PB.B935..EHZ,P,-1.0,2020-05-03 13:13:10.120
nc73380030,2020-05-04 08:13:19.450,40.309666666666665,-124.46866666666666,9.34,2.3,BK.BARR..HHZ,P,,2020-05-04 08:13:42.730
nc73380030,2020-05-04 08:13:19.450,40.309666666666665,-124.46866666666666,9.34,2.3,BK.BONV..HHZ,P,,2020-05-04 08:13:44.740
nc73380030,2020-05-04 08:13:19.450,40.309666666666665,-124.46866666666666,9.34,2.3,BK.BRIC..HHZ,P,-1.0,2020-05-04 08:13:29.810
nc73380030,2020-05-04 08:13:19.450,40.309666666666665,-124.46866666666666,9.34,2.3,BK.DMOR..HHZ,P,1.0,2020-05-04 08:13:33.570
nc73380030,2020-05-04 08:13:19.450,40.309666666666665,-124.46866666666666,9.34,2.3,BK.INGL..HHZ,P,-1.0,2020-05-04 08:13:36.750
nc73380030,2020-05-04 08:13:19.450,40.309666666666665,-124.46866666666666,9.34,2.3,BK.JCC..HHZ,P,1.0,2020-05-04 08:13:31.020
nc73380030,2020-05-04 08:13:19.450,40.309666666666665,-124.46866666666666,9.34,2.3,BK.MNDO..HHZ,P,1.0,2020-05-04 08:13:38.630
nc73380030,2020-05-04 08:13:19.450,40.309666666666665,-124.46866666666666,9.34,2.3,BK.PETL..HHZ,P,-1.0,2020-05-04 08:13:22.510
nc73380030,2020-05-04 08:13:19.450,40.309666666666665,-124.46866666666666,9.34,2.3,BK.RVIT..HHZ,P,1.0,2020-05-04 08:13:37.480
nc73380030,2020-05-04 08:13:19.450,40.309666666666665,-124.46866666666666,9.34,2.3,BK.TRIN..HHZ,P,,2020-05-04 08:13:45.090
nc73380030,2020-05-04 08:13:19.450,40.309666666666665,-124.46866666666666,9.34,2.3,BK.WEAV..HHZ,P,-1.0,2020-05-04 08:13:40.740
nc73380030,2020-05-04 08:13:19.450,40.309666666666665,-124.46866666666666,9.34,2.3,CE.89101..HNZ,P,-1.0,2020-05-04 08:13:23.210
nc73380030,2020-05-04 08:13:19.450,40.309666666666665,-124.46866666666666,9.34,2.3,CE.89255..HNZ,P,,2020-05-04 08:13:28.180
nc73380030,2020-05-04 08:13:19.450,40.309666666666665,-124.46866666666666,9.34,2.3,CE.89462..HNZ,P,-1.0,2020-05-04 08:13:27.380
nc73380030,2020-05-04 08:13:19.450,40.309666666666665,-124.46866666666666,9.34,2.3,NC.GMR..EHZ,P,1.0,2020-05-04 08:13:42.460
nc73380030,2020-05-04 08:13:19.450,40.309666666666665,-124.46866666666666,9.34,2.3,NC.GNR..EHZ,P,-1.0,2020-05-04 08:13:40.590
nc73380030,2020-05-04 08:13:19.450,40.309666666666665,-124.46866666666666,9.34,2.3,NC.GTC..EHZ,P,-1.0,2020-05-04 08:13:39.120
nc73380030,2020-05-04 08:13:19.450,40.309666666666665,-124.46866666666666,9.34,2.3,NC.GWR..EHZ,P,-1.0,2020-05-04 08:13:42.980
nc73380030,2020-05-04 08:13:19.450,40.309666666666665,-124.46866666666666,9.34,2.3,NC.KBU..EHZ,P,-1.0,2020-05-04 08:13:29.730
nc73380030,2020-05-04 08:13:19.450,40.309666666666665,-124.46866666666666,9.34,2.3,NC.KCO..EHZ,P,-1.0,2020-05-04 08:13:23.680
nc73380030,2020-05-04 08:13:19.450,40.309666666666665,-124.46866666666666,9.34,2.3,NC.KCPB..HHZ,P,,2020-05-04 08:13:36.420
nc73380030,2020-05-04 08:13:19.450,40.309666666666665,-124.46866666666666,9.34,2.3,NC.KCT..HHZ,P,1.0,2020-05-04 08:13:24.260
nc73380030,2020-05-04 08:13:19.450,40.309666666666665,-124.46866666666666,9.34,2.3,NC.KHBB..HHZ,P,1.0,2020-05-04 08:13:37.950
nc73380030,2020-05-04 08:13:19.450,40.309666666666665,-124.46866666666666,9.34,2.3,NC.KHMB..HHZ,P,1.0,2020-05-04 08:13:34.550
nc73380030,2020-05-04 08:13:19.450,40.309666666666665,-124.46866666666666,9.34,2.3,NC.KMPB..HHZ,P,1.0,2020-05-04 08:13:25.990
nc73380030,2020-05-04 08:13:19.450,40.309666666666665,-124.46866666666666,9.34,2.3,NC.KPR..EHZ,P,-1.0,2020-05-04 08:13:26.960
nc73380030,2020-05-04 08:13:19.450,40.309666666666665,-124.46866666666666,9.34,2.3,NC.KRP..HHZ,P,1.0,2020-05-04 08:13:35.600
nc73380030,2020-05-04 08:13:19.450,40.309666666666665,-124.46866666666666,9.34,2.3,NC.LBK..EHZ,P,-1.0,2020-05-04 08:13:46.050
nc73380030,2020-05-04 08:13:19.450,40.309666666666665,-124.46866666666666,9.34,2.3,NP.1586..HNZ,P,1.0,2020-05-04 08:13:28.250
nc73380030,2020-05-04 08:13:19.450,40.309666666666665,-124.46866666666666,9.34,2.3,PB.B045..EHZ,P,1.0,2020-05-04 08:13:27.790
nc73380030,2020-05-04 08:13:19.450,40.309666666666665,-124.46866666666666,9.34,2.3,PB.B046..EHZ,P,1.0,2020-05-04 08:13:22.490
nc73380030,2020-05-04 08:13:19.450,40.309666666666665,-124.46866666666666,9.34,2.3,PB.B049..EHZ,P,-1.0,2020-05-04 08:13:30.060
nc73380030,2020-05-04 08:13:19.450,40.309666666666665,-124.46866666666666,9.34,2.3,PB.B932..EHZ,P,-1.0,2020-05-04 08:13:24.000
nc73380030,2020-05-04 08:13:19.450,40.309666666666665,-124.46866666666666,9.34,2.3,PB.B935..EHZ,P,,2020-05-04 08:13:33.560
nc73380035,2020-05-04 08:24:08.910,40.30133333333333,-124.50333333333333,8.67,2.15,BK.BRIC..HHZ,P,-1.0,2020-05-04 08:24:19.730
nc73380035,2020-05-04 08:24:08.910,40.30133333333333,-124.50333333333333,8.67,2.15,BK.DMOR..HHZ,P,1.0,2020-05-04 08:24:23.490
nc73380035,2020-05-04 08:24:08.910,40.30133333333333,-124.50333333333333,8.67,2.15,BK.INGL..HHZ,P,1.0,2020-05-04 08:24:26.730
nc73380035,2020-05-04 08:24:08.910,40.30133333333333,-124.50333333333333,8.67,2.15,BK.JCC..HHZ,P,1.0,2020-05-04 08:24:20.900
nc73380035,2020-05-04 08:24:08.910,40.30133333333333,-124.50333333333333,8.67,2.15,BK.MNDO..HHZ,P,1.0,2020-05-04 08:24:28.520
nc73380035,2020-05-04 08:24:08.910,40.30133333333333,-124.50333333333333,8.67,2.15,BK.PETL..HHZ,P,-1.0,2020-05-04 08:24:12.420
nc73380035,2020-05-04 08:24:08.910,40.30133333333333,-124.50333333333333,8.67,2.15,BK.RVIT..HHZ,P,,2020-05-04 08:24:27.440
nc73380035,2020-05-04 08:24:08.910,40.30133333333333,-124.50333333333333,8.67,2.15,CE.79435..HNZ,P,,2020-05-04 08:24:22.960
nc73380035,2020-05-04 08:24:08.910,40.30133333333333,-124.50333333333333,8.67,2.15,CE.89101..HNZ,P,-1.0,2020-05-04 08:24:13.120
nc73380035,2020-05-04 08:24:08.910,40.30133333333333,-124.50333333333333,8.67,2.15,CE.89255..HNZ,P,-1.0,2020-05-04 08:24:18.220
nc73380035,2020-05-04 08:24:08.910,40.30133333333333,-124.50333333333333,8.67,2.15,CE.89462..HNZ,P,,2020-05-04 08:24:17.270
nc73380035,2020-05-04 08:24:08.910,40.30133333333333,-124.50333333333333,8.67,2.15,NC.GMR..EHZ,P,1.0,2020-05-04 08:24:32.350
nc73380035,2020-05-04 08:24:08.910,40.30133333333333,-124.50333333333333,8.67,2.15,NC.GNR..EHZ,P,-1.0,2020-05-04 08:24:30.500
nc73380035,2020-05-04 08:24:08.910,40.30133333333333,-124.50333333333333,8.67,2.15,NC.GTC..EHZ,P,1.0,2020-05-04 08:24:29.080
nc73380035,2020-05-04 08:24:08.910,40.30133333333333,-124.50333333333333,8.67,2.15,NC.KBU..EHZ,P,-1.0,2020-05-04 08:24:19.710
nc73380035,2020-05-04 08:24:08.910,40.30133333333333,-124.50333333333333,8.67,2.15,NC.KCO..EHZ,P,-1.0,2020-05-04 08:24:13.580
nc73380035,2020-05-04 08:24:08.910,40.30133333333333,-124.50333333333333,8.67,2.15,NC.KCPB..HHZ,P,-1.0,2020-05-04 08:24:26.340
nc73380035,2020-05-04 08:24:08.910,40.30133333333333,-124.50333333333333,8.67,2.15,NC.KCT..HHZ,P,1.0,2020-05-04 08:24:14.160
nc73380035,2020-05-04 08:24:08.910,40.30133333333333,-124.50333333333333,8.67,2.15,NC.KHBB..HHZ,P,1.0,2020-05-04 08:24:27.850
nc73380035,2020-05-04 08:24:08.910,40.30133333333333,-124.50333333333333,8.67,2.15,NC.KHMB..HHZ,P,1.0,2020-05-04 08:24:24.470
nc73380035,2020-05-04 08:24:08.910,40.30133333333333,-124.50333333333333,8.67,2.15,NC.KMPB..HHZ,P,1.0,2020-05-04 08:24:15.880
nc73380035,2020-05-04 08:24:08.910,40.30133333333333,-124.50333333333333,8.67,2.15,NC.KMR..HHZ,P,,2020-05-04 08:24:22.360
nc73380035,2020-05-04 08:24:08.910,40.30133333333333,-124.50333333333333,8.67,2.15,NC.KPR..EHZ,P,-1.0,2020-05-04 08:24:16.870
nc73380035,2020-05-04 08:24:08.910,40.30133333333333,-124.50333333333333,8.67,2.15,NC.KRP..HHZ,P,1.0,2020-05-04 08:24:25.490
nc73380035,2020-05-04 08:24:08.910,40.30133333333333,-124.50333333333333,8.67,2.15,NP.1582..HNZ,P,-1.0,2020-05-04 08:24:19.000
nc73380035,2020-05-04 08:24:08.910,40.30133333333333,-124.50333333333333,8.67,2.15,NP.1586..HNZ,P,1.0,2020-05-04 08:24:18.150
nc73380035,2020-05-04 08:24:08.910,40.30133333333333,-124.50333333333333,8.67,2.15,PB.B045..EHZ,P,1.0,2020-05-04 08:24:17.710
nc73380035,2020-05-04 08:24:08.910,40.30133333333333,-124.50333333333333,8.67,2.15,PB.B046..EHZ,P,1.0,2020-05-04 08:24:12.390
nc73380035,2020-05-04 08:24:08.910,40.30133333333333,-124.50333333333333,8.67,2.15,PB.B049..EHZ,P,,2020-05-04 08:24:20.020
nc73380035,2020-05-04 08:24:08.910,40.30133333333333,-124.50333333333333,8.67,2.15,PB.B932..EHZ,P,-1.0,2020-05-04 08:24:13.900
nc73380055,2020-05-04 09:42:41.220,40.30616666666667,-124.49883333333334,9.29,2.15,BK.BRIC..HHZ,P,-1.0,2020-05-04 09:42:51.970
nc73380055,2020-05-04 09:42:41.220,40.30616666666667,-124.49883333333334,9.29,2.15,BK.DMOR..HHZ,P,1.0,2020-05-04 09:42:55.810
nc73380055,2020-05-04 09:42:41.220,40.30616666666667,-124.49883333333334,9.29,2.15,BK.INGL..HHZ,P,-1.0,2020-05-04 09:42:58.960
nc73380055,2020-05-04 09:42:41.220,40.30616666666667,-124.49883333333334,9.29,2.15,BK.JCC..HHZ,P,1.0,2020-05-04 09:42:53.200
nc73380055,2020-05-04 09:42:41.220,40.30616666666667,-124.49883333333334,9.29,2.15,BK.PETL..HHZ,P,-1.0,2020-05-04 09:42:44.710
nc73380055,2020-05-04 09:42:41.220,40.30616666666667,-124.49883333333334,9.29,2.15,CE.89101..HNZ,P,,2020-05-04 09:42:45.400
nc73380055,2020-05-04 09:42:41.220,40.30616666666667,-124.49883333333334,9.29,2.15,NC.GNR..EHZ,P,-1.0,2020-05-04 09:43:02.800
nc73380055,2020-05-04 09:42:41.220,40.30616666666667,-124.49883333333334,9.29,2.15,NC.GTC..EHZ,P,1.0,2020-05-04 09:43:01.360
nc73380055,2020-05-04 09:42:41.220,40.30616666666667,-124.49883333333334,9.29,2.15,NC.KBU..EHZ,P,-1.0,2020-05-04 09:42:51.950
nc73380055,2020-05-04 09:42:41.220,40.30616666666667,-124.49883333333334,9.29,2.15,NC.KCO..EHZ,P,-1.0,2020-05-04 09:42:45.840
nc73380055,2020-05-04 09:42:41.220,40.30616666666667,-124.49883333333334,9.29,2.15,NC.KCPB..HHZ,P,1.0,2020-05-04 09:42:58.680
nc73380055,2020-05-04 09:42:41.220,40.30616666666667,-124.49883333333334,9.29,2.15,NC.KCT..HHZ,P,1.0,2020-05-04 09:42:46.430
nc73380055,2020-05-04 09:42:41.220,40.30616666666667,-124.49883333333334,9.29,2.15,NC.KHMB..HHZ,P,,2020-05-04 09:42:56.760
nc73380055,2020-05-04 09:42:41.220,40.30616666666667,-124.49883333333334,9.29,2.15,NC.KMPB..HHZ,P,1.0,2020-05-04 09:42:48.180
nc73380055,2020-05-04 09:42:41.220,40.30616666666667,-124.49883333333334,9.29,2.15,NC.KMR..HHZ,P,1.0,2020-05-04 09:42:54.150
nc73380055,2020-05-04 09:42:41.220,40.30616666666667,-124.49883333333334,9.29,2.15,NP.1586..HNZ,P,-1.0,2020-05-04 09:42:50.490
