event_id,etime,elat,elon,edep,emag,station_id,phase_type,phase_polarity,phase_time
nc73564280,2021-05-18 18:56:56.870,40.3015,-124.47083333333333,10.14,1.81,NC.GHO..EHZ,P,-1.0,2021-05-18 18:57:20.970
nc73564280,2021-05-18 18:56:56.870,40.3015,-124.47083333333333,10.14,1.81,NC.GNR..EHZ,P,-1.0,2021-05-18 18:57:18.640
nc73564280,2021-05-18 18:56:56.870,40.3015,-124.47083333333333,10.14,1.81,NC.GTC..EHZ,P,1.0,2021-05-18 18:57:17.060
nc73564280,2021-05-18 18:56:56.870,40.3015,-124.47083333333333,10.14,1.81,NC.KCO..EHZ,P,-1.0,2021-05-18 18:57:01.140
nc73564280,2021-05-18 18:56:56.870,40.3015,-124.47083333333333,10.14,1.81,NC.KCPB..HHZ,P,,2021-05-18 18:57:14.100
nc73564280,2021-05-18 18:56:56.870,40.3015,-124.47083333333333,10.14,1.81,NC.KCR..EHZ,P,1.0,2021-05-18 18:57:07.970
nc73564280,2021-05-18 18:56:56.870,40.3015,-124.47083333333333,10.14,1.81,NC.KCT..HHZ,P,1.0,2021-05-18 18:57:02.010
nc73564280,2021-05-18 18:56:56.870,40.3015,-124.47083333333333,10.14,1.81,NC.KFP..EHZ,P,-1.0,2021-05-18 18:57:15.750
nc73564280,2021-05-18 18:56:56.870,40.3015,-124.47083333333333,10.14,1.81,NC.KHBB..HHZ,P,,2021-05-18 18:57:15.760
nc73564280,2021-05-18 18:56:56.870,40.3015,-124.47083333333333,10.14,1.81,NC.KHMB..HHZ,P,-1.0,2021-05-18 18:57:12.690
nc73564280,2021-05-18 18:56:56.870,40.3015,-124.47083333333333,10.14,1.81,NC.KMPB..HHZ,P,1.0,2021-05-18 18:57:03.460
nc73564280,2021-05-18 18:56:56.870,40.3015,-124.47083333333333,10.14,1.81,NC.KMR..HHZ,P,,2021-05-18 18:57:07.790
nc73564280,2021-05-18 18:56:56.870,40.3015,-124.47083333333333,10.14,1.81,NC.KPR..EHZ,P,1.0,2021-05-18 18:57:04.330
nc73564280,2021-05-18 18:56:56.870,40.3015,-124.47083333333333,10.14,1.81,NC.KRMB..HHZ,P,,2021-05-18 18:57:18.980
nc73564280,2021-05-18 18:56:56.870,40.3015,-124.47083333333333,10.14,1.81,NC.KSXB..HHZ,P,-1.0,2021-05-18 18:57:23.280
nc73564280,2021-05-18 18:56:56.870,40.3015,-124.47083333333333,10.14,1.81,NP.1586..HNZ,P,-1.0,2021-05-18 18:57:06.450
nc73565630,2021-05-22 08:36:17.000,40.239333333333335,-124.19066666666667,11.15,1.44,BK.BRIC..HHZ,P,-1.0,2021-05-22 08:36:23.120
nc73565630,2021-05-22 08:36:17.000,40.239333333333335,-124.19066666666667,11.15,1.44,BK.PETL..HHZ,P,1.0,2021-05-22 08:36:20.590
nc73565630,2021-05-22 08:36:17.000,40.239333333333335,-124.19066666666667,11.15,1.44,BK.RBOW..HHZ,P,1.0,2021-05-22 08:36:20.500
nc73565630,2021-05-22 08:36:17.000,40.239333333333335,-124.19066666666667,11.15,1.44,CE.89688..HNZ,P,,2021-05-22 08:36:21.650
nc73565630,2021-05-22 08:36:17.000,40.239333333333335,-124.19066666666667,11.15,1.44,NC.KBU..EHZ,P,,2021-05-22 08:36:23.100
nc73565630,2021-05-22 08:36:17.000,40.239333333333335,-124.19066666666667,11.15,1.44,NC.KCO..EHZ,P,1.0,2021-05-22 08:36:19.890
nc73565630,2021-05-22 08:36:17.000,40.239333333333335,-124.19066666666667,11.15,1.44,NC.KCR..EHZ,P,-1.0,2021-05-22 08:36:24.600
nc73565630,2021-05-22 08:36:17.000,40.239333333333335,-124.19066666666667,11.15,1.44,NC.KCT..HHZ,P,-1.0,2021-05-22 08:36:23.530
nc73565630,2021-05-22 08:36:17.000,40.239333333333335,-124.19066666666667,11.15,1.44,NC.KMPB..HHZ,P,,2021-05-22 08:36:21.600
nc73565630,2021-05-22 08:36:17.000,40.239333333333335,-124.19066666666667,11.15,1.44,NC.KMR..HHZ,P,-1.0,2021-05-22 08:36:25.230
nc73565630,2021-05-22 08:36:17.000,40.239333333333335,-124.19066666666667,11.15,1.44,NC.KPR..EHZ,P,-1.0,2021-05-22 08:36:20.320
nc73565810,2021-05-22 19:35:42.880,40.881,-123.253,23.27,2.52,BK.DANT..HHZ,P,,2021-05-22 19:36:03.610
nc73565810,2021-05-22 19:35:42.880,40.881,-123.253,23.27,2.52,BK.HAYF..HHZ,P,-1.0,2021-05-22 19:35:50.520
nc73565810,2021-05-22 19:35:42.880,40.881,-123.253,23.27,2.52,BK.JCC..HHZ,P,,2021-05-22 19:35:53.670
nc73565810,2021-05-22 19:35:42.880,40.881,-123.253,23.27,2.52,BK.LCOW..HHZ,P,-1.0,2021-05-22 19:35:57.800
nc73565810,2021-05-22 19:35:42.880,40.881,-123.253,23.27,2.52,BK.MOGU..HHZ,P,,2021-05-22 19:36:02.760
nc73565810,2021-05-22 19:35:42.880,40.881,-123.253,23.27,2.52,BK.PETY..HHZ,P,,2021-05-22 19:35:56.920
nc73565810,2021-05-22 19:35:42.880,40.881,-123.253,23.27,2.52,BK.RBOW..HHZ,P,,2021-05-22 19:35:57.320
nc73565810,2021-05-22 19:35:42.880,40.881,-123.253,23.27,2.52,BK.RVIT..HHZ,P,,2021-05-22 19:35:58.880
nc73565810,2021-05-22 19:35:42.880,40.881,-123.253,23.27,2.52,BK.SAGE..HHZ,P,1.0,2021-05-22 19:35:59.130
nc73565810,2021-05-22 19:35:42.880,40.881,-123.253,23.27,2.52,BK.SCOT..HHZ,P,1.0,2021-05-22 19:35:54.150
nc73565810,2021-05-22 19:35:42.880,40.881,-123.253,23.27,2.52,BK.WEAV..HHZ,P,-1.0,2021-05-22 19:35:49.090
nc73565810,2021-05-22 19:35:42.880,40.881,-123.253,23.27,2.52,BK.YBH..HHZ,P,,2021-05-22 19:35:59.530
nc73565810,2021-05-22 19:35:42.880,40.881,-123.253,23.27,2.52,NC.KCO..EHZ,P,,2021-05-22 19:35:59.110
nc73565810,2021-05-22 19:35:42.880,40.881,-123.253,23.27,2.52,NC.KCR..EHZ,P,,2021-05-22 19:35:54.550
nc73565810,2021-05-22 19:35:42.880,40.881,-123.253,23.27,2.52,NC.KHBB..HHZ,P,-1.0,2021-05-22 19:35:48.980
nc73565810,2021-05-22 19:35:42.880,40.881,-123.253,23.27,2.52,NC.KHMB..HHZ,P,1.0,2021-05-22 19:35:50.870
nc73565810,2021-05-22 19:35:42.880,40.881,-123.253,23.27,2.52,NC.KIP..EHZ,P,,2021-05-22 19:36:00.640
nc73565810,2021-05-22 19:35:42.880,40.881,-123.253,23.27,2.52,NC.KMPB..HHZ,P,,2021-05-22 19:35:56.840
nc73565810,2021-05-22 19:35:42.880,40.881,-123.253,23.27,2.52,NC.KOM..EHZ,P,1.0,2021-05-22 19:35:51.760
nc73565810,2021-05-22 19:35:42.880,40.881,-123.253,23.27,2.52,NC.KPR..EHZ,P,,2021-05-22 19:35:57.980
nc73565810,2021-05-22 19:35:42.880,40.881,-123.253,23.27,2.52,NC.KRMB..HHZ,P,,2021-05-22 19:35:57.150
nc73565810,2021-05-22 19:35:42.880,40.881,-123.253,23.27,2.52,NC.KRP..HNZ,P,,2021-05-22 19:35:55.190
nc73565810,2021-05-22 19:35:42.880,40.881,-123.253,23.27,2.52,NC.LBF..EHZ,P,-1.0,2021-05-22 19:36:03.290
nc73565810,2021-05-22 19:35:42.880,40.881,-123.253,23.27,2.52,NC.LBK..EHZ,P,1.0,2021-05-22 19:35:52.470
nc73565810,2021-05-22 19:35:42.880,40.881,-123.253,23.27,2.52,NC.LBO..EHZ,P,,2021-05-22 19:36:00.810
nc73565810,2021-05-22 19:35:42.880,40.881,-123.253,23.27,2.52,NC.LDB..EHZ,P,,2021-05-22 19:36:02.730
nc73565810,2021-05-22 19:35:42.880,40.881,-123.253,23.27,2.52,NC.LDH..HHZ,P,,2021-05-22 19:36:05.210
nc73565810,2021-05-22 19:35:42.880,40.881,-123.253,23.27,2.52,NC.LDL..HHZ,P,,2021-05-22 19:35:59.150
nc73565810,2021-05-22 19:35:42.880,40.881,-123.253,23.27,2.52,NC.LGY..HHZ,P,,2021-05-22 19:35:59.890
nc73565810,2021-05-22 19:35:42.880,40.881,-123.253,23.27,2.52,NC.LMC..HHZ,P,-1.0,2021-05-22 19:35:59.920
nc73565810,2021-05-22 19:35:42.880,40.881,-123.253,23.27,2.52,NC.LMI..EHZ,P,1.0,2021-05-22 19:35:58.960
nc73565810,2021-05-22 19:35:42.880,40.881,-123.253,23.27,2.52,NC.LMP..EHZ,P,,2021-05-22 19:36:01.740
nc73565810,2021-05-22 19:35:42.880,40.881,-123.253,23.27,2.52,NC.LRB..EHZ,P,1.0,2021-05-22 19:35:59.680
nc73565810,2021-05-22 19:35:42.880,40.881,-123.253,23.27,2.52,NC.LRD..EHZ,P,,2021-05-22 19:36:06.490
nc73565810,2021-05-22 19:35:42.880,40.881,-123.253,23.27,2.52,NC.LSF..EHZ,P,1.0,2021-05-22 19:35:53.980
nc73565810,2021-05-22 19:35:42.880,40.881,-123.253,23.27,2.52,NC.LSH..EHZ,P,1.0,2021-05-22 19:35:59.130
nc73565810,2021-05-22 19:35:42.880,40.881,-123.253,23.27,2.52,NC.LSI..EHZ,P,,2021-05-22 19:36:07.320
nc73565810,2021-05-22 19:35:42.880,40.881,-123.253,23.27,2.52,NC.LTC..EHZ,P,,2021-05-22 19:36:01.310
nc73565810,2021-05-22 19:35:42.880,40.881,-123.253,23.27,2.52,NC.LTI..EHZ,P,,2021-05-22 19:36:06.050
nc73565810,2021-05-22 19:35:42.880,40.881,-123.253,23.27,2.52,NC.LWHB..EHZ,P,1.0,2021-05-22 19:36:00.300
nc73566515,2021-05-24 06:00:48.980,39.8885,-123.24766666666666,7.75,1.93,BK.BONV..HHZ,P,,2021-05-24 06:01:06.850
nc73566515,2021-05-24 06:00:48.980,39.8885,-123.24766666666666,7.75,1.93,BK.BRIC..HHZ,P,1.0,2021-05-24 06:01:00.550
nc73566515,2021-05-24 06:00:48.980,39.8885,-123.24766666666666,7.75,1.93,BK.DANT..HHZ,P,,2021-05-24 06:01:10.640
nc73566515,2021-05-24 06:00:48.980,39.8885,-123.24766666666666,7.75,1.93,BK.DCMP..HHZ,P,,2021-05-24 06:00:57.420
nc73566515,2021-05-24 06:00:48.980,39.8885,-123.24766666666666,7.75,1.93,BK.GTSB..HHZ,P,,2021-05-24 06:01:04.120
nc73566515,2021-05-24 06:00:48.980,39.8885,-123.24766666666666,7.75,1.93,BK.HAYF..HHZ,P,1.0,2021-05-24 06:01:01.540
nc73566515,2021-05-24 06:00:48.980,39.8885,-123.24766666666666,7.75,1.93,BK.INGL..HHZ,P,,2021-05-24 06:00:59.260
nc73566515,2021-05-24 06:00:48.980,39.8885,-123.24766666666666,7.75,1.93,BK.LCOW..HHZ,P,,2021-05-24 06:01:09.920
nc73566515,2021-05-24 06:00:48.980,39.8885,-123.24766666666666,7.75,1.93,BK.ORV..HHZ,P,,2021-05-24 06:01:13.160
nc73566515,2021-05-24 06:00:48.980,39.8885,-123.24766666666666,7.75,1.93,BK.PETY..HHZ,P,1.0,2021-05-24 06:00:58.470
nc73566515,2021-05-24 06:00:48.980,39.8885,-123.24766666666666,7.75,1.93,BK.RVIT..HHZ,P,1.0,2021-05-24 06:00:51.700
nc73566515,2021-05-24 06:00:48.980,39.8885,-123.24766666666666,7.75,1.93,BK.WEAV..HHZ,P,,2021-05-24 06:01:06.490
nc73566515,2021-05-24 06:00:48.980,39.8885,-123.24766666666666,7.75,1.93,NC.GBB..EHZ,P,,2021-05-24 06:01:04.370
nc73566515,2021-05-24 06:00:48.980,39.8885,-123.24766666666666,7.75,1.93,NC.GCK..EHZ,P,,2021-05-24 06:01:04.020
nc73566515,2021-05-24 06:00:48.980,39.8885,-123.24766666666666,7.75,1.93,NC.GHGB..EHZ,P,,2021-05-24 06:01:05.470
nc73566515,2021-05-24 06:00:48.980,39.8885,-123.24766666666666,7.75,1.93,NC.GHO..EHZ,P,,2021-05-24 06:01:06.960
nc73566515,2021-05-24 06:00:48.980,39.8885,-123.24766666666666,7.75,1.93,NC.GMR..EHZ,P,,2021-05-24 06:01:04.640
nc73566515,2021-05-24 06:00:48.980,39.8885,-123.24766666666666,7.75,1.93,NC.GNR..EHZ,P,,2021-05-24 06:01:03.730
nc73566515,2021-05-24 06:00:48.980,39.8885,-123.24766666666666,7.75,1.93,NC.GSN..EHZ,P,,2021-05-24 06:01:07.810
nc73566515,2021-05-24 06:00:48.980,39.8885,-123.24766666666666,7.75,1.93,NC.GTC..EHZ,P,-1.0,2021-05-24 06:01:00.070
nc73566515,2021-05-24 06:00:48.980,39.8885,-123.24766666666666,7.75,1.93,NC.GWR..EHZ,P,,2021-05-24 06:01:02.740
nc73566515,2021-05-24 06:00:48.980,39.8885,-123.24766666666666,7.75,1.93,NC.KBN..EHZ,P,1.0,2021-05-24 06:00:50.930
nc73566515,2021-05-24 06:00:48.980,39.8885,-123.24766666666666,7.75,1.93,NC.KBU..EHZ,P,,2021-05-24 06:01:01.280
nc73566515,2021-05-24 06:00:48.980,39.8885,-123.24766666666666,7.75,1.93,NC.KCPB..HHZ,P,,2021-05-24 06:00:56.040
nc73566515,2021-05-24 06:00:48.980,39.8885,-123.24766666666666,7.75,1.93,NC.KCR..EHZ,P,,2021-05-24 06:01:03.650
nc73566515,2021-05-24 06:00:48.980,39.8885,-123.24766666666666,7.75,1.93,NC.KCT..HHZ,P,,2021-05-24 06:01:09.010
nc73566515,2021-05-24 06:00:48.980,39.8885,-123.24766666666666,7.75,1.93,NC.KFP..EHZ,P,-1.0,2021-05-24 06:00:54.680
nc73566515,2021-05-24 06:00:48.980,39.8885,-123.24766666666666,7.75,1.93,NC.KIP..EHZ,P,1.0,2021-05-24 06:00:53.140
nc73566515,2021-05-24 06:00:48.980,39.8885,-123.24766666666666,7.75,1.93,NC.KMR..HHZ,P,1.0,2021-05-24 06:00:59.000
nc73566515,2021-05-24 06:00:48.980,39.8885,-123.24766666666666,7.75,1.93,NC.KPR..EHZ,P,,2021-05-24 06:01:03.600
nc73566515,2021-05-24 06:00:48.980,39.8885,-123.24766666666666,7.75,1.93,NC.KRK..EHZ,P,1.0,2021-05-24 06:00:55.940
nc73566515,2021-05-24 06:00:48.980,39.8885,-123.24766666666666,7.75,1.93,NC.LBK..EHZ,P,,2021-05-24 06:01:13.030
nc73566515,2021-05-24 06:00:48.980,39.8885,-123.24766666666666,7.75,1.93,NC.LMI..EHZ,P,,2021-05-24 06:01:09.160
nc73566515,2021-05-24 06:00:48.980,39.8885,-123.24766666666666,7.75,1.93,NC.LRB..EHZ,P,-1.0,2021-05-24 06:01:01.560
nc73566515,2021-05-24 06:00:48.980,39.8885,-123.24766666666666,7.75,1.93,NC.OSU..EHZ,P,,2021-05-24 06:01:11.740
nc73566565,2021-05-24 09:09:27.540,40.959833333333336,-123.65433333333333,23.19,2.22,BK.BRIC..HHZ,P,,2021-05-24 09:09:42.860
nc73566565,2021-05-24 09:09:27.540,40.959833333333336,-123.65433333333333,23.19,2.22,BK.HAYF..HHZ,P,-1.0,2021-05-24 09:09:38.130
nc73566565,2021-05-24 09:09:27.540,40.959833333333336,-123.65433333333333,23.19,2.22,BK.JCC..HHZ,P,1.0,2021-05-24 09:09:34.400
nc73566565,2021-05-24 09:09:27.540,40.959833333333336,-123.65433333333333,23.19,2.22,BK.LCOW..HHZ,P,,2021-05-24 09:09:47.530
nc73566565,2021-05-24 09:09:27.540,40.959833333333336,-123.65433333333333,23.19,2.22,BK.MOD..HHZ,P,,2021-05-24 09:10:00.450
nc73566565,2021-05-24 09:09:27.540,40.959833333333336,-123.65433333333333,23.19,2.22,BK.MOGU..HHZ,P,,2021-05-24 09:09:49.290
nc73566565,2021-05-24 09:09:27.540,40.959833333333336,-123.65433333333333,23.19,2.22,BK.PETL..HHZ,P,,2021-05-24 09:09:42.140
nc73566565,2021-05-24 09:09:27.540,40.959833333333336,-123.65433333333333,23.19,2.22,BK.PETY..HHZ,P,,2021-05-24 09:09:46.260
nc73566565,2021-05-24 09:09:27.540,40.959833333333336,-123.65433333333333,23.19,2.22,BK.RBOW..HHZ,P,,2021-05-24 09:09:40.460
nc73566565,2021-05-24 09:09:27.540,40.959833333333336,-123.65433333333333,23.19,2.22,BK.RVIT..HHZ,P,,2021-05-24 09:09:46.250
nc73566565,2021-05-24 09:09:27.540,40.959833333333336,-123.65433333333333,23.19,2.22,BK.SAGE..HHZ,P,,2021-05-24 09:09:49.180
nc73566565,2021-05-24 09:09:27.540,40.959833333333336,-123.65433333333333,23.19,2.22,BK.SCOT..HHZ,P,1.0,2021-05-24 09:09:40.940
nc73566565,2021-05-24 09:09:27.540,40.959833333333336,-123.65433333333333,23.19,2.22,BK.SHEP..HHZ,P,,2021-05-24 09:09:54.090
nc73566565,2021-05-24 09:09:27.540,40.959833333333336,-123.65433333333333,23.19,2.22,BK.WEAV..HHZ,P,,2021-05-24 09:09:38.170
nc73566565,2021-05-24 09:09:27.540,40.959833333333336,-123.65433333333333,23.19,2.22,BK.YBH..HHZ,P,,2021-05-24 09:09:45.740
nc73566565,2021-05-24 09:09:27.540,40.959833333333336,-123.65433333333333,23.19,2.22,CE.89781..HNZ,P,-1.0,2021-05-24 09:09:35.740
nc73566565,2021-05-24 09:09:27.540,40.959833333333336,-123.65433333333333,23.19,2.22,NC.KCR..EHZ,P,-1.0,2021-05-24 09:09:38.220
nc73566565,2021-05-24 09:09:27.540,40.959833333333336,-123.65433333333333,23.19,2.22,NC.KHBB..HHZ,P,1.0,2021-05-24 09:09:36.550
nc73566565,2021-05-24 09:09:27.540,40.959833333333336,-123.65433333333333,23.19,2.22,NC.KHMB..HHZ,P,1.0,2021-05-24 09:09:32.240
nc73566565,2021-05-24 09:09:27.540,40.959833333333336,-123.65433333333333,23.19,2.22,NC.KMPB..HHZ,P,,2021-05-24 09:09:39.270
nc73566565,2021-05-24 09:09:27.540,40.959833333333336,-123.65433333333333,23.19,2.22,NC.KMR..HHZ,P,1.0,2021-05-24 09:09:41.320
nc73566565,2021-05-24 09:09:27.540,40.959833333333336,-123.65433333333333,23.19,2.22,NC.KOM..EHZ,P,-1.0,2021-05-24 09:09:34.990
nc73566565,2021-05-24 09:09:27.540,40.959833333333336,-123.65433333333333,23.19,2.22,NC.KPR..EHZ,P,1.0,2021-05-24 09:09:41.740
nc73566565,2021-05-24 09:09:27.540,40.959833333333336,-123.65433333333333,23.19,2.22,NC.KRMB..HHZ,P,-1.0,2021-05-24 09:09:38.430
nc73566565,2021-05-24 09:09:27.540,40.959833333333336,-123.65433333333333,23.19,2.22,NC.KRP..HNZ,P,-1.0,2021-05-24 09:09:34.870
nc73566565,2021-05-24 09:09:27.540,40.959833333333336,-123.65433333333333,23.19,2.22,NC.KSXB..HHZ,P,,2021-05-24 09:09:42.430
nc73566565,2021-05-24 09:09:27.540,40.959833333333336,-123.65433333333333,23.19,2.22,NC.KTD..HNZ,P,,2021-05-24 09:09:35.270
nc73566565,2021-05-24 09:09:27.540,40.959833333333336,-123.65433333333333,23.19,2.22,NC.LBF..EHZ,P,,2021-05-24 09:09:52.560
nc73566565,2021-05-24 09:09:27.540,40.959833333333336,-123.65433333333333,23.19,2.22,NC.LBK..EHZ,P,1.0,2021-05-24 09:09:41.260
nc73566565,2021-05-24 09:09:27.540,40.959833333333336,-123.65433333333333,23.19,2.22,NC.LBO..EHZ,P,-1.0,2021-05-24 09:09:48.700
nc73566565,2021-05-24 09:09:27.540,40.959833333333336,-123.65433333333333,23.19,2.22,NC.LBR..HHZ,P,,2021-05-24 09:09:50.160
nc73566565,2021-05-24 09:09:27.540,40.959833333333336,-123.65433333333333,23.19,2.22,NC.LCSB..EHZ,P,,2021-05-24 09:09:46.400
nc73566565,2021-05-24 09:09:27.540,40.959833333333336,-123.65433333333333,23.19,2.22,NC.LDL..HHZ,P,,2021-05-24 09:09:47.010
nc73566565,2021-05-24 09:09:27.540,40.959833333333336,-123.65433333333333,23.19,2.22,NC.LMC..HHZ,P,,2021-05-24 09:09:48.690
nc73566565,2021-05-24 09:09:27.540,40.959833333333336,-123.65433333333333,23.19,2.22,NC.LMH..EHZ,P,,2021-05-24 09:09:56.550
nc73566565,2021-05-24 09:09:27.540,40.959833333333336,-123.65433333333333,23.19,2.22,NC.LMI..EHZ,P,,2021-05-24 09:09:48.590
nc73566565,2021-05-24 09:09:27.540,40.959833333333336,-123.65433333333333,23.19,2.22,NC.LMP..EHZ,P,,2021-05-24 09:09:49.750
nc73566565,2021-05-24 09:09:27.540,40.959833333333336,-123.65433333333333,23.19,2.22,NC.LSF..EHZ,P,,2021-05-24 09:09:44.460
nc73566565,2021-05-24 09:09:27.540,40.959833333333336,-123.65433333333333,23.19,2.22,NP.1581..HNZ,P,-1.0,2021-05-24 09:09:36.990
nc73566565,2021-05-24 09:09:27.540,40.959833333333336,-123.65433333333333,23.19,2.22,NP.1582..HNZ,P,,2021-05-24 09:09:36.960
nc73566565,2021-05-24 09:09:27.540,40.959833333333336,-123.65433333333333,23.19,2.22,UO.KBO..HHZ,P,,2021-05-24 09:09:48.710
nc73565596,2021-05-26 15:22:22.100,40.300333333333334,-124.28233333333333,9.08,1.02,BK.JCC..HHZ,P,1.0,2021-05-26 15:22:33.570
nc73565596,2021-05-26 15:22:22.100,40.300333333333334,-124.28233333333333,9.08,1.02,BK.PETL..HHZ,P,1.0,2021-05-26 15:22:24.280
nc73565596,2021-05-26 15:22:22.100,40.300333333333334,-124.28233333333333,9.08,1.02,BK.PETY..HHZ,P,,2021-05-26 15:22:43.140
nc73565596,2021-05-26 15:22:22.100,40.300333333333334,-124.28233333333333,9.08,1.02,BK.RBOW..HHZ,P,-1.0,2021-05-26 15:22:25.710
nc73565596,2021-05-26 15:22:22.100,40.300333333333334,-124.28233333333333,9.08,1.02,BK.RVIT..HHZ,P,,2021-05-26 15:22:38.020
nc73565596,2021-05-26 15:22:22.100,40.300333333333334,-124.28233333333333,9.08,1.02,CE.89688..HNZ,P,-1.0,2021-05-26 15:22:28.530
nc73565596,2021-05-26 15:22:22.100,40.300333333333334,-124.28233333333333,9.08,1.02,NC.KBU..EHZ,P,1.0,2021-05-26 15:22:29.690
nc73565596,2021-05-26 15:22:22.100,40.300333333333334,-124.28233333333333,9.08,1.02,NC.KCO..EHZ,P,-1.0,2021-05-26 15:22:24.480
nc73565596,2021-05-26 15:22:22.100,40.300333333333334,-124.28233333333333,9.08,1.02,NC.KCR..EHZ,P,,2021-05-26 15:22:30.410
nc73565596,2021-05-26 15:22:22.100,40.300333333333334,-124.28233333333333,9.08,1.02,NC.KCT..HHZ,P,,2021-05-26 15:22:26.810
nc73565596,2021-05-26 15:22:22.100,40.300333333333334,-124.28233333333333,9.08,1.02,NC.KMPB..HHZ,P,-1.0,2021-05-26 15:22:26.160
nc73565596,2021-05-26 15:22:22.100,40.300333333333334,-124.28233333333333,9.08,1.02,NC.KMR..HHZ,P,1.0,2021-05-26 15:22:31.820
nc73565596,2021-05-26 15:22:22.100,40.300333333333334,-124.28233333333333,9.08,1.02,NC.KPR..EHZ,P,1.0,2021-05-26 15:22:26.870
nc73565931,2021-05-27 06:18:48.240,40.51616666666666,-123.68166666666667,24.43,1.61,BK.BRIC..HHZ,P,1.0,2021-05-27 06:18:57.420
nc73565931,2021-05-27 06:18:48.240,40.51616666666666,-123.68166666666667,24.43,1.61,BK.HAYF..HHZ,P,1.0,2021-05-27 06:18:55.990
nc73565931,2021-05-27 06:18:48.240,40.51616666666666,-123.68166666666667,24.43,1.61,BK.JCC..HHZ,P,,2021-05-27 06:18:56.280
nc73565931,2021-05-27 06:18:48.240,40.51616666666666,-123.68166666666667,24.43,1.61,BK.PETL..HHZ,P,,2021-05-27 06:18:58.570
nc73565931,2021-05-27 06:18:48.240,40.51616666666666,-123.68166666666667,24.43,1.61,BK.RBOW..HHZ,P,1.0,2021-05-27 06:18:56.300
nc73565931,2021-05-27 06:18:48.240,40.51616666666666,-123.68166666666667,24.43,1.61,BK.RVIT..HHZ,P,,2021-05-27 06:19:01.140
nc73565931,2021-05-27 06:18:48.240,40.51616666666666,-123.68166666666667,24.43,1.61,BK.SCOT..HHZ,P,,2021-05-27 06:19:06.240
nc73565931,2021-05-27 06:18:48.240,40.51616666666666,-123.68166666666667,24.43,1.61,BK.WEAV..HHZ,P,1.0,2021-05-27 06:18:59.330
nc73565931,2021-05-27 06:18:48.240,40.51616666666666,-123.68166666666667,24.43,1.61,CE.89462..HNZ,P,,2021-05-27 06:18:55.780
nc73565931,2021-05-27 06:18:48.240,40.51616666666666,-123.68166666666667,24.43,1.61,NC.KBU..EHZ,P,1.0,2021-05-27 06:18:55.390
nc73565931,2021-05-27 06:18:48.240,40.51616666666666,-123.68166666666667,24.43,1.61,NC.KCR..EHZ,P,1.0,2021-05-27 06:18:53.440
nc73565931,2021-05-27 06:18:48.240,40.51616666666666,-123.68166666666667,24.43,1.61,NC.KCT..HHZ,P,1.0,2021-05-27 06:18:58.370
nc73565931,2021-05-27 06:18:48.240,40.51616666666666,-123.68166666666667,24.43,1.61,NC.KHBB..HHZ,P,1.0,2021-05-27 06:18:56.480
nc73565931,2021-05-27 06:18:48.240,40.51616666666666,-123.68166666666667,24.43,1.61,NC.KHMB..HHZ,P,1.0,2021-05-27 06:18:56.360
