event_id,etime,elat,elon,edep,emag,station_id,phase_type,phase_polarity,phase_time
nc73548175,2021-04-11 19:59:03.980,40.2395,-124.27583333333334,7.33,1.85,BK.DCMP..HHZ,P,,2021-04-11 19:59:22.660
nc73548175,2021-04-11 19:59:03.980,40.2395,-124.27583333333334,7.33,1.85,BK.HAYF..HHZ,P,,2021-04-11 19:59:21.110
nc73548175,2021-04-11 19:59:03.980,40.2395,-124.27583333333334,7.33,1.85,BK.INGL..HHZ,P,,2021-04-11 19:59:20.010
nc73548175,2021-04-11 19:59:03.980,40.2395,-124.27583333333334,7.33,1.85,BK.JCC..HHZ,P,,2021-04-11 19:59:16.650
nc73548175,2021-04-11 19:59:03.980,40.2395,-124.27583333333334,7.33,1.85,BK.PETL..HHZ,P,1.0,2021-04-11 19:59:06.250
nc73548175,2021-04-11 19:59:03.980,40.2395,-124.27583333333334,7.33,1.85,BK.PETY..HHZ,P,,2021-04-11 19:59:25.450
nc73548175,2021-04-11 19:59:03.980,40.2395,-124.27583333333334,7.33,1.85,BK.RBOW..HHZ,P,-1.0,2021-04-11 19:59:08.020
nc73548175,2021-04-11 19:59:03.980,40.2395,-124.27583333333334,7.33,1.85,BK.RVIT..HHZ,P,,2021-04-11 19:59:19.350
nc73548175,2021-04-11 19:59:03.980,40.2395,-124.27583333333334,7.33,1.85,CE.89688..HNZ,P,-1.0,2021-04-11 19:59:09.090
nc73548175,2021-04-11 19:59:03.980,40.2395,-124.27583333333334,7.33,1.85,NC.GTC..EHZ,P,,2021-04-11 19:59:21.940
nc73548175,2021-04-11 19:59:03.980,40.2395,-124.27583333333334,7.33,1.85,NC.KCO..EHZ,P,1.0,2021-04-11 19:59:05.760
nc73548175,2021-04-11 19:59:03.980,40.2395,-124.27583333333334,7.33,1.85,NC.KCR..EHZ,P,-1.0,2021-04-11 19:59:12.910
nc73548175,2021-04-11 19:59:03.980,40.2395,-124.27583333333334,7.33,1.85,NC.KCT..HHZ,P,-1.0,2021-04-11 19:59:10.110
nc73548175,2021-04-11 19:59:03.980,40.2395,-124.27583333333334,7.33,1.85,NC.KFP..EHZ,P,-1.0,2021-04-11 19:59:20.490
nc73548175,2021-04-11 19:59:03.980,40.2395,-124.27583333333334,7.33,1.85,NC.KIP..EHZ,P,-1.0,2021-04-11 19:59:19.120
nc73548175,2021-04-11 19:59:03.980,40.2395,-124.27583333333334,7.33,1.85,NC.KMPB..HHZ,P,-1.0,2021-04-11 19:59:09.030
nc73548175,2021-04-11 19:59:03.980,40.2395,-124.27583333333334,7.33,1.85,NC.KPR..EHZ,P,-1.0,2021-04-11 19:59:08.200
nc73548175,2021-04-11 19:59:03.980,40.2395,-124.27583333333334,7.33,1.85,PB.B045..EHZ,P,-1.0,2021-04-11 19:59:10.540
nc73548175,2021-04-11 19:59:03.980,40.2395,-124.27583333333334,7.33,1.85,PB.B046..EHZ,P,,2021-04-11 19:58:59.000
nc73548175,2021-04-11 19:59:03.980,40.2395,-124.27583333333334,7.33,1.85,PB.B047..EHZ,P,1.0,2021-04-11 19:59:06.440
nc73548175,2021-04-11 19:59:03.980,40.2395,-124.27583333333334,7.33,1.85,PB.B049..EHZ,P,,2021-04-11 19:59:11.210
nc73548175,2021-04-11 19:59:03.980,40.2395,-124.27583333333334,7.33,1.85,PB.B932..EHZ,P,1.0,2021-04-11 19:59:05.870
nc73548175,2021-04-11 19:59:03.980,40.2395,-124.27583333333334,7.33,1.85,PB.B935..EHZ,P,,2021-04-11 19:59:17.010
nc73549625,2021-04-15 07:58:28.750,40.277833333333334,-124.4635,12.85,2.54,BK.BARR..HHZ,P,,2021-04-15 07:58:52.180
nc73549625,2021-04-15 07:58:28.750,40.277833333333334,-124.4635,12.85,2.54,BK.BRIC..HHZ,P,1.0,2021-04-15 07:58:38.980
nc73549625,2021-04-15 07:58:28.750,40.277833333333334,-124.4635,12.85,2.54,BK.DCMP..HHZ,P,-1.0,2021-04-15 07:58:49.280
nc73549625,2021-04-15 07:58:28.750,40.277833333333334,-124.4635,12.85,2.54,BK.HAYF..HHZ,P,,2021-04-15 07:58:46.630
nc73549625,2021-04-15 07:58:28.750,40.277833333333334,-124.4635,12.85,2.54,BK.INGL..HHZ,P,-1.0,2021-04-15 07:58:46.160
nc73549625,2021-04-15 07:58:28.750,40.277833333333334,-124.4635,12.85,2.54,BK.JCC..HHZ,P,,2021-04-15 07:58:40.790
nc73549625,2021-04-15 07:58:28.750,40.277833333333334,-124.4635,12.85,2.54,BK.MNDO..HHZ,P,,2021-04-15 07:58:48.210
nc73549625,2021-04-15 07:58:28.750,40.277833333333334,-124.4635,12.85,2.54,BK.PETL..HHZ,P,1.0,2021-04-15 07:58:32.140
nc73549625,2021-04-15 07:58:28.750,40.277833333333334,-124.4635,12.85,2.54,BK.PETY..HHZ,P,,2021-04-15 07:58:51.670
nc73549625,2021-04-15 07:58:28.750,40.277833333333334,-124.4635,12.85,2.54,BK.RBOW..HHZ,P,1.0,2021-04-15 07:58:35.160
nc73549625,2021-04-15 07:58:28.750,40.277833333333334,-124.4635,12.85,2.54,BK.RVIT..HHZ,P,,2021-04-15 07:58:46.040
nc73549625,2021-04-15 07:58:28.750,40.277833333333334,-124.4635,12.85,2.54,BK.WEAV..HHZ,P,,2021-04-15 07:58:49.910
nc73549625,2021-04-15 07:58:28.750,40.277833333333334,-124.4635,12.85,2.54,CE.89462..HNZ,P,-1.0,2021-04-15 07:58:36.810
nc73549625,2021-04-15 07:58:28.750,40.277833333333334,-124.4635,12.85,2.54,CE.89688..HNZ,P,-1.0,2021-04-15 07:58:36.860
nc73549625,2021-04-15 07:58:28.750,40.277833333333334,-124.4635,12.85,2.54,NC.GBL..EHZ,P,,2021-04-15 07:58:50.890
nc73549625,2021-04-15 07:58:28.750,40.277833333333334,-124.4635,12.85,2.54,NC.GHO..EHZ,P,-1.0,2021-04-15 07:58:52.600
nc73549625,2021-04-15 07:58:28.750,40.277833333333334,-124.4635,12.85,2.54,NC.GMR..EHZ,P,,2021-04-15 07:58:51.950
nc73549625,2021-04-15 07:58:28.750,40.277833333333334,-124.4635,12.85,2.54,NC.GNR..EHZ,P,,2021-04-15 07:58:50.230
nc73549625,2021-04-15 07:58:28.750,40.277833333333334,-124.4635,12.85,2.54,NC.GSN..EHZ,P,,2021-04-15 07:58:56.040
nc73549625,2021-04-15 07:58:28.750,40.277833333333334,-124.4635,12.85,2.54,NC.GTC..EHZ,P,,2021-04-15 07:58:48.630
nc73549625,2021-04-15 07:58:28.750,40.277833333333334,-124.4635,12.85,2.54,NC.KBN..EHZ,P,,2021-04-15 07:58:47.940
nc73549625,2021-04-15 07:58:28.750,40.277833333333334,-124.4635,12.85,2.54,NC.KBU..EHZ,P,1.0,2021-04-15 07:58:38.890
nc73549625,2021-04-15 07:58:28.750,40.277833333333334,-124.4635,12.85,2.54,NC.KCO..EHZ,P,-1.0,2021-04-15 07:58:33.220
nc73549625,2021-04-15 07:58:28.750,40.277833333333334,-124.4635,12.85,2.54,NC.KCPB..HHZ,P,,2021-04-15 07:58:45.590
nc73549625,2021-04-15 07:58:28.750,40.277833333333334,-124.4635,12.85,2.54,NC.KCR..EHZ,P,1.0,2021-04-15 07:58:39.790
nc73549625,2021-04-15 07:58:28.750,40.277833333333334,-124.4635,12.85,2.54,NC.KCT..HHZ,P,1.0,2021-04-15 07:58:34.180
nc73549625,2021-04-15 07:58:28.750,40.277833333333334,-124.4635,12.85,2.54,NC.KFP..EHZ,P,1.0,2021-04-15 07:58:47.230
nc73549625,2021-04-15 07:58:28.750,40.277833333333334,-124.4635,12.85,2.54,NC.KHBB..HHZ,P,1.0,2021-04-15 07:58:47.340
nc73549625,2021-04-15 07:58:28.750,40.277833333333334,-124.4635,12.85,2.54,NC.KHMB..HHZ,P,,2021-04-15 07:58:44.260
nc73549625,2021-04-15 07:58:28.750,40.277833333333334,-124.4635,12.85,2.54,NC.KIP..EHZ,P,,2021-04-15 07:58:45.720
nc73549625,2021-04-15 07:58:28.750,40.277833333333334,-124.4635,12.85,2.54,NC.KMPB..HHZ,P,1.0,2021-04-15 07:58:35.380
nc73549625,2021-04-15 07:58:28.750,40.277833333333334,-124.4635,12.85,2.54,NC.KMR..HHZ,P,,2021-04-15 07:58:40.990
nc73549625,2021-04-15 07:58:28.750,40.277833333333334,-124.4635,12.85,2.54,NC.KOM..EHZ,P,1.0,2021-04-15 07:58:50.310
nc73549625,2021-04-15 07:58:28.750,40.277833333333334,-124.4635,12.85,2.54,NC.KPR..EHZ,P,1.0,2021-04-15 07:58:36.120
nc73549625,2021-04-15 07:58:28.750,40.277833333333334,-124.4635,12.85,2.54,NC.KRK..EHZ,P,,2021-04-15 07:58:50.230
nc73549625,2021-04-15 07:58:28.750,40.277833333333334,-124.4635,12.85,2.54,NC.LBK..EHZ,P,,2021-04-15 07:58:55.610
nc73549625,2021-04-15 07:58:28.750,40.277833333333334,-124.4635,12.85,2.54,NC.LSH..EHZ,P,,2021-04-15 07:59:00.520
nc73549625,2021-04-15 07:58:28.750,40.277833333333334,-124.4635,12.85,2.54,NP.1023..HNZ,P,,2021-04-15 07:58:36.670
nc73549625,2021-04-15 07:58:28.750,40.277833333333334,-124.4635,12.85,2.54,NP.1582..HNZ,P,1.0,2021-04-15 07:58:38.820
nc73549625,2021-04-15 07:58:28.750,40.277833333333334,-124.4635,12.85,2.54,NP.1586..HNZ,P,1.0,2021-04-15 07:58:38.120
nc73549625,2021-04-15 07:58:28.750,40.277833333333334,-124.4635,12.85,2.54,NP.1591..HNZ,P,1.0,2021-04-15 07:58:40.890
nc73549625,2021-04-15 07:58:28.750,40.277833333333334,-124.4635,12.85,2.54,PB.B045..EHZ,P,1.0,2021-04-15 07:58:37.130
nc73549625,2021-04-15 07:58:28.750,40.277833333333334,-124.4635,12.85,2.54,PB.B046..EHZ,P,1.0,2021-04-15 07:58:24.990
nc73549625,2021-04-15 07:58:28.750,40.277833333333334,-124.4635,12.85,2.54,PB.B047..EHZ,P,1.0,2021-04-15 07:58:34.310
nc73549625,2021-04-15 07:58:28.750,40.277833333333334,-124.4635,12.85,2.54,PB.B049..EHZ,P,1.0,2021-04-15 07:58:39.120
nc73549625,2021-04-15 07:58:28.750,40.277833333333334,-124.4635,12.85,2.54,PB.B932..EHZ,P,1.0,2021-04-15 07:58:33.380
nc73549625,2021-04-15 07:58:28.750,40.277833333333334,-124.4635,12.85,2.54,PB.B935..EHZ,P,,2021-04-15 07:58:42.870
nc73550105,2021-04-16 07:49:52.240,40.388333333333335,-123.77016666666667,22.76,1.48,BK.BRIC..HHZ,P,-1.0,2021-04-16 07:49:59.580
nc73550105,2021-04-16 07:49:52.240,40.388333333333335,-123.77016666666667,22.76,1.48,BK.HAYF..HHZ,P,1.0,2021-04-16 07:50:01.310
nc73550105,2021-04-16 07:49:52.240,40.388333333333335,-123.77016666666667,22.76,1.48,BK.JCC..HHZ,P,1.0,2021-04-16 07:50:01.360
nc73550105,2021-04-16 07:49:52.240,40.388333333333335,-123.77016666666667,22.76,1.48,BK.PETL..HHZ,P,-1.0,2021-04-16 07:50:01.340
nc73550105,2021-04-16 07:49:52.240,40.388333333333335,-123.77016666666667,22.76,1.48,BK.PETY..HHZ,P,,2021-04-16 07:50:06.850
nc73550105,2021-04-16 07:49:52.240,40.388333333333335,-123.77016666666667,22.76,1.48,BK.RBOW..HHZ,P,1.0,2021-04-16 07:49:58.750
nc73550105,2021-04-16 07:49:52.240,40.388333333333335,-123.77016666666667,22.76,1.48,BK.RVIT..HHZ,P,-1.0,2021-04-16 07:50:03.890
nc73550105,2021-04-16 07:49:52.240,40.388333333333335,-123.77016666666667,22.76,1.48,CE.89462..HNZ,P,-1.0,2021-04-16 07:49:59.220
nc73550105,2021-04-16 07:49:52.240,40.388333333333335,-123.77016666666667,22.76,1.48,NC.KBU..EHZ,P,-1.0,2021-04-16 07:49:57.520
nc73550105,2021-04-16 07:49:52.240,40.388333333333335,-123.77016666666667,22.76,1.48,NC.KCO..EHZ,P,-1.0,2021-04-16 07:50:00.800
nc73550105,2021-04-16 07:49:52.240,40.388333333333335,-123.77016666666667,22.76,1.48,NC.KCR..EHZ,P,-1.0,2021-04-16 07:49:56.570
nc73550105,2021-04-16 07:49:52.240,40.388333333333335,-123.77016666666667,22.76,1.48,NC.KCT..HHZ,P,1.0,2021-04-16 07:50:01.730
nc73550105,2021-04-16 07:49:52.240,40.388333333333335,-123.77016666666667,22.76,1.48,NC.KFP..EHZ,P,,2021-04-16 07:50:06.700
nc73550105,2021-04-16 07:49:52.240,40.388333333333335,-123.77016666666667,22.76,1.48,NC.KHBB..HHZ,P,1.0,2021-04-16 07:50:02.220
nc73550105,2021-04-16 07:49:52.240,40.388333333333335,-123.77016666666667,22.76,1.48,NC.KHMB..HHZ,P,,2021-04-16 07:50:02.390
nc73550105,2021-04-16 07:49:52.240,40.388333333333335,-123.77016666666667,22.76,1.48,NC.KIP..EHZ,P,,2021-04-16 07:50:04.620
nc73550105,2021-04-16 07:49:52.240,40.388333333333335,-123.77016666666667,22.76,1.48,NC.KMPB..HHZ,P,1.0,2021-04-16 07:49:58.810
nc73550105,2021-04-16 07:49:52.240,40.388333333333335,-123.77016666666667,22.76,1.48,NC.KMR..HHZ,P,-1.0,2021-04-16 07:49:57.970
nc73550105,2021-04-16 07:49:52.240,40.388333333333335,-123.77016666666667,22.76,1.48,NC.KPR..EHZ,P,1.0,2021-04-16 07:49:58.950
nc73550105,2021-04-16 07:49:52.240,40.388333333333335,-123.77016666666667,22.76,1.48,NP.1582..HNZ,P,1.0,2021-04-16 07:50:01.530
nc73550505,2021-04-17 05:48:33.020,40.61416666666667,-123.20783333333334,31.96,2.23,BK.BJES..BHZ,P,1.0,2021-04-17 05:48:43.500
nc73550505,2021-04-17 05:48:33.020,40.61416666666667,-123.20783333333334,31.96,2.23,BK.BRIC..HHZ,P,1.0,2021-04-17 05:48:46.300
nc73550505,2021-04-17 05:48:33.020,40.61416666666667,-123.20783333333334,31.96,2.23,BK.DANT..HHZ,P,,2021-04-17 05:48:52.290
nc73550505,2021-04-17 05:48:33.020,40.61416666666667,-123.20783333333334,31.96,2.23,BK.HAYF..HHZ,P,-1.0,2021-04-17 05:48:38.470
nc73550505,2021-04-17 05:48:33.020,40.61416666666667,-123.20783333333334,31.96,2.23,BK.JCC..HHZ,P,,2021-04-17 05:48:44.780
nc73550505,2021-04-17 05:48:33.020,40.61416666666667,-123.20783333333334,31.96,2.23,BK.LCOW..HHZ,P,1.0,2021-04-17 05:48:47.440
nc73550505,2021-04-17 05:48:33.020,40.61416666666667,-123.20783333333334,31.96,2.23,BK.PETY..HHZ,P,-1.0,2021-04-17 05:48:44.030
nc73550505,2021-04-17 05:48:33.020,40.61416666666667,-123.20783333333334,31.96,2.23,BK.RBOW..HHZ,P,,2021-04-17 05:48:46.220
nc73550505,2021-04-17 05:48:33.020,40.61416666666667,-123.20783333333334,31.96,2.23,BK.SAGE..HHZ,P,,2021-04-17 05:48:49.540
nc73550505,2021-04-17 05:48:33.020,40.61416666666667,-123.20783333333334,31.96,2.23,BK.SCOT..HHZ,P,,2021-04-17 05:48:47.900
nc73550505,2021-04-17 05:48:33.020,40.61416666666667,-123.20783333333334,31.96,2.23,BK.WEAV..HHZ,P,1.0,2021-04-17 05:48:39.620
nc73550505,2021-04-17 05:48:33.020,40.61416666666667,-123.20783333333334,31.96,2.23,NC.KBN..EHZ,P,-1.0,2021-04-17 05:48:46.650
nc73550505,2021-04-17 05:48:33.020,40.61416666666667,-123.20783333333334,31.96,2.23,NC.KBU..EHZ,P,1.0,2021-04-17 05:48:44.680
nc73550505,2021-04-17 05:48:33.020,40.61416666666667,-123.20783333333334,31.96,2.23,NC.KCR..EHZ,P,1.0,2021-04-17 05:48:43.220
nc73550505,2021-04-17 05:48:33.020,40.61416666666667,-123.20783333333334,31.96,2.23,NC.KCT..HHZ,P,,2021-04-17 05:48:48.420
nc73550505,2021-04-17 05:48:33.020,40.61416666666667,-123.20783333333334,31.96,2.23,NC.KHBB..HHZ,P,-1.0,2021-04-17 05:48:38.490
nc73550505,2021-04-17 05:48:33.020,40.61416666666667,-123.20783333333334,31.96,2.23,NC.KHMB..HHZ,P,1.0,2021-04-17 05:48:42.790
nc73550505,2021-04-17 05:48:33.020,40.61416666666667,-123.20783333333334,31.96,2.23,NC.KMR..HHZ,P,1.0,2021-04-17 05:48:44.150
nc73550505,2021-04-17 05:48:33.020,40.61416666666667,-123.20783333333334,31.96,2.23,NC.KOM..EHZ,P,,2021-04-17 05:48:46.150
nc73550505,2021-04-17 05:48:33.020,40.61416666666667,-123.20783333333334,31.96,2.23,NC.KPR..EHZ,P,1.0,2021-04-17 05:48:46.380
nc73550505,2021-04-17 05:48:33.020,40.61416666666667,-123.20783333333334,31.96,2.23,NC.LBK..EHZ,P,1.0,2021-04-17 05:48:45.320
nc73550505,2021-04-17 05:48:33.020,40.61416666666667,-123.20783333333334,31.96,2.23,NC.LMI..EHZ,P,1.0,2021-04-17 05:48:48.060
nc73550505,2021-04-17 05:48:33.020,40.61416666666667,-123.20783333333334,31.96,2.23,NC.LRB..EHZ,P,,2021-04-17 05:48:46.710
nc73550505,2021-04-17 05:48:33.020,40.61416666666667,-123.20783333333334,31.96,2.23,NC.LSF..EHZ,P,-1.0,2021-04-17 05:48:43.640
nc73550505,2021-04-17 05:48:33.020,40.61416666666667,-123.20783333333334,31.96,2.23,NC.LSH..EHZ,P,,2021-04-17 05:48:49.540
nc73550505,2021-04-17 05:48:33.020,40.61416666666667,-123.20783333333334,31.96,2.23,NC.LTC..EHZ,P,,2021-04-17 05:48:50.670
nc73553710,2021-04-24 06:14:12.130,40.63583333333333,-124.26683333333334,8.59,1.97,BK.BJES..HHZ,P,1.0,2021-04-24 06:14:19.020
nc73553710,2021-04-24 06:14:12.130,40.63583333333333,-124.26683333333334,8.59,1.97,BK.BRIC..HHZ,P,-1.0,2021-04-24 06:14:24.860
nc73553710,2021-04-24 06:14:12.130,40.63583333333333,-124.26683333333334,8.59,1.97,BK.JCC..HHZ,P,-1.0,2021-04-24 06:14:17.660
nc73553710,2021-04-24 06:14:12.130,40.63583333333333,-124.26683333333334,8.59,1.97,BK.PETL..HHZ,P,-1.0,2021-04-24 06:14:20.090
nc73553710,2021-04-24 06:14:12.130,40.63583333333333,-124.26683333333334,8.59,1.97,BK.RBOW..HHZ,P,-1.0,2021-04-24 06:14:19.290
nc73553710,2021-04-24 06:14:12.130,40.63583333333333,-124.26683333333334,8.59,1.97,CE.89462..HNZ,P,1.0,2021-04-24 06:14:17.000
nc73553710,2021-04-24 06:14:12.130,40.63583333333333,-124.26683333333334,8.59,1.97,CE.89781..HNZ,P,-1.0,2021-04-24 06:14:16.210
nc73553710,2021-04-24 06:14:12.130,40.63583333333333,-124.26683333333334,8.59,1.97,NC.KBU..EHZ,P,-1.0,2021-04-24 06:14:22.970
nc73553710,2021-04-24 06:14:12.130,40.63583333333333,-124.26683333333334,8.59,1.97,NC.KCO..EHZ,P,-1.0,2021-04-24 06:14:20.700
nc73553710,2021-04-24 06:14:12.130,40.63583333333333,-124.26683333333334,8.59,1.97,NC.KCR..EHZ,P,,2021-04-24 06:14:20.860
nc73553710,2021-04-24 06:14:12.130,40.63583333333333,-124.26683333333334,8.59,1.97,NC.KCT..HHZ,P,-1.0,2021-04-24 06:14:16.500
nc73553710,2021-04-24 06:14:12.130,40.63583333333333,-124.26683333333334,8.59,1.97,NC.KHMB..HHZ,P,1.0,2021-04-24 06:14:22.490
nc73553710,2021-04-24 06:14:12.130,40.63583333333333,-124.26683333333334,8.59,1.97,NC.KMPB..HHZ,P,-1.0,2021-04-24 06:14:17.870
nc73553710,2021-04-24 06:14:12.130,40.63583333333333,-124.26683333333334,8.59,1.97,NC.KMR..HHZ,P,1.0,2021-04-24 06:14:25.020
nc73553710,2021-04-24 06:14:12.130,40.63583333333333,-124.26683333333334,8.59,1.97,NC.KPR..EHZ,P,-1.0,2021-04-24 06:14:21.740
nc73553710,2021-04-24 06:14:12.130,40.63583333333333,-124.26683333333334,8.59,1.97,NP.1023..HNZ,P,,2021-04-24 06:14:14.780
nc73553710,2021-04-24 06:14:12.130,40.63583333333333,-124.26683333333334,8.59,1.97,NP.1581..HNZ,P,1.0,2021-04-24 06:14:15.260
nc73553710,2021-04-24 06:14:12.130,40.63583333333333,-124.26683333333334,8.59,1.97,NP.1582..HNZ,P,-1.0,2021-04-24 06:14:14.850
nc73553710,2021-04-24 06:14:12.130,40.63583333333333,-124.26683333333334,8.59,1.97,NP.1586..HNZ,P,1.0,2021-04-24 06:14:14.390
nc73557200,2021-05-02 12:53:57.040,40.667,-124.4455,9.65,1.79,BK.BRIC..HHZ,P,-1.0,2021-05-02 12:54:11.080
nc73557200,2021-05-02 12:53:57.040,40.667,-124.4455,9.65,1.79,BK.HAYF..HHZ,P,,2021-05-02 12:54:14.190
nc73557200,2021-05-02 12:53:57.040,40.667,-124.4455,9.65,1.79,BK.JCC..HHZ,P,,2021-05-02 12:54:04.580
nc73557200,2021-05-02 12:53:57.040,40.667,-124.4455,9.65,1.79,BK.MNDO..HHZ,P,,2021-05-02 12:54:22.100
nc73557200,2021-05-02 12:53:57.040,40.667,-124.4455,9.65,1.79,BK.PETL..HHZ,P,1.0,2021-05-02 12:54:05.910
nc73557200,2021-05-02 12:53:57.040,40.667,-124.4455,9.65,1.79,BK.RBOW..HHZ,P,,2021-05-02 12:54:06.220
nc73557200,2021-05-02 12:53:57.040,40.667,-124.4455,9.65,1.79,BK.SCOT..HHZ,P,,2021-05-02 12:54:21.010
nc73557200,2021-05-02 12:53:57.040,40.667,-124.4455,9.65,1.79,BK.WEAV..HHZ,P,,2021-05-02 12:54:16.870
nc73557200,2021-05-02 12:53:57.040,40.667,-124.4455,9.65,1.79,CE.89462..HNZ,P,-1.0,2021-05-02 12:54:04.050
nc73557200,2021-05-02 12:53:57.040,40.667,-124.4455,9.65,1.79,NC.KBU..EHZ,P,1.0,2021-05-02 12:54:09.840
nc73557200,2021-05-02 12:53:57.040,40.667,-124.4455,9.65,1.79,NC.KCO..EHZ,P,-1.0,2021-05-02 12:54:06.740
nc73557200,2021-05-02 12:53:57.040,40.667,-124.4455,9.65,1.79,NC.KCR..EHZ,P,1.0,2021-05-02 12:54:08.250
nc73557200,2021-05-02 12:53:57.040,40.667,-124.4455,9.65,1.79,NC.KCT..HHZ,P,-1.0,2021-05-02 12:54:02.100
nc73557200,2021-05-02 12:53:57.040,40.667,-124.4455,9.65,1.79,NC.KHBB..HHZ,P,,2021-05-02 12:54:14.080
nc73557200,2021-05-02 12:53:57.040,40.667,-124.4455,9.65,1.79,NC.KHMB..HHZ,P,1.0,2021-05-02 12:54:09.170
nc73557200,2021-05-02 12:53:57.040,40.667,-124.4455,9.65,1.79,NC.KMPB..HHZ,P,,2021-05-02 12:54:04.730
nc73557200,2021-05-02 12:53:57.040,40.667,-124.4455,9.65,1.79,NC.KMR..HHZ,P,,2021-05-02 12:54:11.630
nc73557200,2021-05-02 12:53:57.040,40.667,-124.4455,9.65,1.79,NC.KPR..EHZ,P,1.0,2021-05-02 12:54:08.420
nc73557200,2021-05-02 12:53:57.040,40.667,-124.4455,9.65,1.79,NC.KRMB..HHZ,P,-1.0,2021-05-02 12:54:14.840
nc73557200,2021-05-02 12:53:57.040,40.667,-124.4455,9.65,1.79,NC.KSXB..HHZ,P,1.0,2021-05-02 12:54:18.860
nc73557200,2021-05-02 12:53:57.040,40.667,-124.4455,9.65,1.79,NC.LBK..EHZ,P,,2021-05-02 12:54:21.240
nc73557200,2021-05-02 12:53:57.040,40.667,-124.4455,9.65,1.79,NP.1023..HNZ,P,,2021-05-02 12:54:01.230
nc73557200,2021-05-02 12:53:57.040,40.667,-124.4455,9.65,1.79,NP.1581..HNZ,P,,2021-05-02 12:54:01.700
nc73557200,2021-05-02 12:53:57.040,40.667,-124.4455,9.65,1.79,NP.1582..HNZ,P,-1.0,2021-05-02 12:54:01.670
nc73557200,2021-05-02 12:53:57.040,40.667,-124.4455,9.65,1.79,NP.1586..HNZ,P,1.0,2021-05-02 12:54:01.290
nc73558845,2021-05-06 10:51:30.650,40.2955,-124.43933333333334,12.79,1.69,BK.BRIC..HHZ,P,1.0,2021-05-06 10:51:40.360
nc73558845,2021-05-06 10:51:30.650,40.2955,-124.43933333333334,12.79,1.69,BK.INGL..HHZ,P,1.0,2021-05-06 10:51:47.650
nc73558845,2021-05-06 10:51:30.650,40.2955,-124.43933333333334,12.79,1.69,BK.JCC..HHZ,P,1.0,2021-05-06 10:51:42.420
nc73558845,2021-05-06 10:51:30.650,40.2955,-124.43933333333334,12.79,1.69,BK.MNDO..HHZ,P,1.0,2021-05-06 10:51:49.710
nc73558845,2021-05-06 10:51:30.650,40.2955,-124.43933333333334,12.79,1.69,BK.PETL..HHZ,P,1.0,2021-05-06 10:51:33.750
nc73558845,2021-05-06 10:51:30.650,40.2955,-124.43933333333334,12.79,1.69,BK.RBOW..HHZ,P,1.0,2021-05-06 10:51:36.570
nc73558845,2021-05-06 10:51:30.650,40.2955,-124.43933333333334,12.79,1.69,CE.79046..HNZ,P,,2021-05-06 10:51:44.550
nc73558845,2021-05-06 10:51:30.650,40.2955,-124.43933333333334,12.79,1.69,CE.89462..HNZ,P,1.0,2021-05-06 10:51:38.330
