event_id,etime,elat,elon,edep,emag,station_id,phase_type,phase_polarity,phase_time
nc73544975,2021-04-02 04:43:55.610,39.92033333333333,-123.50683333333333,7.01,1.65,PB.B046..EHZ,P,,2021-04-02 04:44:03.510
nc73544975,2021-04-02 04:43:55.610,39.92033333333333,-123.50683333333333,7.01,1.65,PB.B047..EHZ,P,,2021-04-02 04:44:08.520
nc73544975,2021-04-02 04:43:55.610,39.92033333333333,-123.50683333333333,7.01,1.65,PB.B049..EHZ,P,1.0,2021-04-02 04:44:03.970
nc73544975,2021-04-02 04:43:55.610,39.92033333333333,-123.50683333333333,7.01,1.65,PB.B932..EHZ,P,1.0,2021-04-02 04:44:09.270
nc73544975,2021-04-02 04:43:55.610,39.92033333333333,-123.50683333333333,7.01,1.65,PB.B934..EHZ,P,1.0,2021-04-02 04:43:59.450
nc73544975,2021-04-02 04:43:55.610,39.92033333333333,-123.50683333333333,7.01,1.65,PB.B935..EHZ,P,,2021-04-02 04:44:07.930
nc73545510,2021-04-04 19:33:42.270,40.21083333333333,-124.12266666666666,13.62,1.34,BK.BRIC..HHZ,P,-1.0,2021-04-04 19:33:47.450
nc73545510,2021-04-04 19:33:42.270,40.21083333333333,-124.12266666666666,13.62,1.34,BK.JCC..HHZ,P,1.0,2021-04-04 19:33:54.190
nc73545510,2021-04-04 19:33:42.270,40.21083333333333,-124.12266666666666,13.62,1.34,BK.PETL..HHZ,P,1.0,2021-04-04 19:33:46.780
nc73545510,2021-04-04 19:33:42.270,40.21083333333333,-124.12266666666666,13.62,1.34,BK.RBOW..HHZ,P,-1.0,2021-04-04 19:33:46.160
nc73545510,2021-04-04 19:33:42.270,40.21083333333333,-124.12266666666666,13.62,1.34,BK.RVIT..HHZ,P,,2021-04-04 19:33:55.230
nc73545510,2021-04-04 19:33:42.270,40.21083333333333,-124.12266666666666,13.62,1.34,CE.89688..HNZ,P,1.0,2021-04-04 19:33:46.510
nc73545510,2021-04-04 19:33:42.270,40.21083333333333,-124.12266666666666,13.62,1.34,NC.KBU..EHZ,P,1.0,2021-04-04 19:33:47.620
nc73545510,2021-04-04 19:33:42.270,40.21083333333333,-124.12266666666666,13.62,1.34,NC.KCO..EHZ,P,1.0,2021-04-04 19:33:45.990
nc73545510,2021-04-04 19:33:42.270,40.21083333333333,-124.12266666666666,13.62,1.34,NC.KCPB..HHZ,P,,2021-04-04 19:33:56.090
nc73545510,2021-04-04 19:33:42.270,40.21083333333333,-124.12266666666666,13.62,1.34,NC.KCR..EHZ,P,1.0,2021-04-04 19:33:49.480
nc73545510,2021-04-04 19:33:42.270,40.21083333333333,-124.12266666666666,13.62,1.34,NC.KCT..HHZ,P,-1.0,2021-04-04 19:33:49.640
nc73545510,2021-04-04 19:33:42.270,40.21083333333333,-124.12266666666666,13.62,1.34,NC.KIP..EHZ,P,-1.0,2021-04-04 19:33:55.120
nc73545510,2021-04-04 19:33:42.270,40.21083333333333,-124.12266666666666,13.62,1.34,NC.KMPB..HHZ,P,-1.0,2021-04-04 19:33:47.300
nc73545510,2021-04-04 19:33:42.270,40.21083333333333,-124.12266666666666,13.62,1.34,NC.KPR..EHZ,P,-1.0,2021-04-04 19:33:45.210
nc73545510,2021-04-04 19:33:42.270,40.21083333333333,-124.12266666666666,13.62,1.34,PB.B045..EHZ,P,1.0,2021-04-04 19:33:47.880
nc73545510,2021-04-04 19:33:42.270,40.21083333333333,-124.12266666666666,13.62,1.34,PB.B047..EHZ,P,1.0,2021-04-04 19:33:45.160
nc73545510,2021-04-04 19:33:42.270,40.21083333333333,-124.12266666666666,13.62,1.34,PB.B049..EHZ,P,1.0,2021-04-04 19:33:47.810
nc73545510,2021-04-04 19:33:42.270,40.21083333333333,-124.12266666666666,13.62,1.34,PB.B932..EHZ,P,1.0,2021-04-04 19:33:45.470
nc73545510,2021-04-04 19:33:42.270,40.21083333333333,-124.12266666666666,13.62,1.34,PB.B935..EHZ,P,1.0,2021-04-04 19:33:53.170
nc73545855,2021-04-05 22:35:53.330,40.4575,-124.12333333333333,6.86,1.08,BK.HAYF..HHZ,P,,2021-04-05 22:36:07.490
nc73545855,2021-04-05 22:35:53.330,40.4575,-124.12333333333333,6.86,1.08,BK.JCC..HHZ,P,1.0,2021-04-05 22:36:01.190
nc73545855,2021-04-05 22:35:53.330,40.4575,-124.12333333333333,6.86,1.08,BK.PETL..HHZ,P,-1.0,2021-04-05 22:35:58.970
nc73545855,2021-04-05 22:35:53.330,40.4575,-124.12333333333333,6.86,1.08,BK.RBOW..HHZ,P,-1.0,2021-04-05 22:35:56.430
nc73545855,2021-04-05 22:35:53.330,40.4575,-124.12333333333333,6.86,1.08,BK.RVIT..HHZ,P,,2021-04-05 22:36:10.070
nc73545855,2021-04-05 22:35:53.330,40.4575,-124.12333333333333,6.86,1.08,CE.89462..HNZ,P,-1.0,2021-04-05 22:35:55.250
nc73545855,2021-04-05 22:35:53.330,40.4575,-124.12333333333333,6.86,1.08,NC.KBU..EHZ,P,-1.0,2021-04-05 22:36:00.040
nc73545855,2021-04-05 22:35:53.330,40.4575,-124.12333333333333,6.86,1.08,NC.KCO..EHZ,P,-1.0,2021-04-05 22:35:58.800
nc73545855,2021-04-05 22:35:53.330,40.4575,-124.12333333333333,6.86,1.08,NC.KCR..EHZ,P,1.0,2021-04-05 22:35:58.830
nc73545855,2021-04-05 22:35:53.330,40.4575,-124.12333333333333,6.86,1.08,NC.KFP..EHZ,P,,2021-04-05 22:36:12.150
nc73545855,2021-04-05 22:35:53.330,40.4575,-124.12333333333333,6.86,1.08,NC.KHBB..HHZ,P,-1.0,2021-04-05 22:36:08.390
nc73545855,2021-04-05 22:35:53.330,40.4575,-124.12333333333333,6.86,1.08,NC.KHMB..HHZ,P,,2021-04-05 22:36:04.920
nc73545855,2021-04-05 22:35:53.330,40.4575,-124.12333333333333,6.86,1.08,NC.KIP..EHZ,P,,2021-04-05 22:36:10.180
nc73545855,2021-04-05 22:35:53.330,40.4575,-124.12333333333333,6.86,1.08,NC.KMPB..HHZ,P,-1.0,2021-04-05 22:35:55.150
nc73545855,2021-04-05 22:35:53.330,40.4575,-124.12333333333333,6.86,1.08,NC.KPR..EHZ,P,,2021-04-05 22:35:58.770
nc73545855,2021-04-05 22:35:53.330,40.4575,-124.12333333333333,6.86,1.08,NC.KSXB..HHZ,P,,2021-04-05 22:36:17.090
nc73545855,2021-04-05 22:35:53.330,40.4575,-124.12333333333333,6.86,1.08,PB.B045..EHZ,P,-1.0,2021-04-05 22:35:55.900
nc73545855,2021-04-05 22:35:53.330,40.4575,-124.12333333333333,6.86,1.08,PB.B047..EHZ,P,-1.0,2021-04-05 22:35:58.250
nc73545855,2021-04-05 22:35:53.330,40.4575,-124.12333333333333,6.86,1.08,PB.B049..EHZ,P,,2021-04-05 22:36:00.160
nc73545855,2021-04-05 22:35:53.330,40.4575,-124.12333333333333,6.86,1.08,PB.B932..EHZ,P,-1.0,2021-04-05 22:35:57.950
nc73545855,2021-04-05 22:35:53.330,40.4575,-124.12333333333333,6.86,1.08,PB.B935..EHZ,P,,2021-04-05 22:36:02.850
nc73545930,2021-04-06 04:29:46.030,40.207166666666666,-124.10883333333334,13.99,1.23,BK.BRIC..HHZ,P,-1.0,2021-04-06 04:29:51.020
nc73545930,2021-04-06 04:29:46.030,40.207166666666666,-124.10883333333334,13.99,1.23,BK.PETL..HHZ,P,-1.0,2021-04-06 04:29:50.670
nc73545930,2021-04-06 04:29:46.030,40.207166666666666,-124.10883333333334,13.99,1.23,BK.RBOW..BHZ,P,1.0,2021-04-06 04:29:50.050
nc73545930,2021-04-06 04:29:46.030,40.207166666666666,-124.10883333333334,13.99,1.23,NC.KBU..EHZ,P,,2021-04-06 04:29:50.760
nc73545930,2021-04-06 04:29:46.030,40.207166666666666,-124.10883333333334,13.99,1.23,NC.KCO..EHZ,P,1.0,2021-04-06 04:29:49.920
nc73545930,2021-04-06 04:29:46.030,40.207166666666666,-124.10883333333334,13.99,1.23,NC.KCR..EHZ,P,,2021-04-06 04:29:53.300
nc73545930,2021-04-06 04:29:46.030,40.207166666666666,-124.10883333333334,13.99,1.23,NC.KMPB..HHZ,P,,2021-04-06 04:29:51.160
nc73545930,2021-04-06 04:29:46.030,40.207166666666666,-124.10883333333334,13.99,1.23,NC.KMR..HHZ,P,,2021-04-06 04:29:53.090
nc73545930,2021-04-06 04:29:46.030,40.207166666666666,-124.10883333333334,13.99,1.23,NC.KPR..EHZ,P,1.0,2021-04-06 04:29:48.980
nc73545930,2021-04-06 04:29:46.030,40.207166666666666,-124.10883333333334,13.99,1.23,PB.B045..EHZ,P,-1.0,2021-04-06 04:29:51.750
nc73545930,2021-04-06 04:29:46.030,40.207166666666666,-124.10883333333334,13.99,1.23,PB.B047..EHZ,P,1.0,2021-04-06 04:29:49.070
nc73545930,2021-04-06 04:29:46.030,40.207166666666666,-124.10883333333334,13.99,1.23,PB.B049..EHZ,P,1.0,2021-04-06 04:29:51.420
nc73545930,2021-04-06 04:29:46.030,40.207166666666666,-124.10883333333334,13.99,1.23,PB.B932..EHZ,P,1.0,2021-04-06 04:29:49.400
nc73545930,2021-04-06 04:29:46.030,40.207166666666666,-124.10883333333334,13.99,1.23,PB.B935..EHZ,P,,2021-04-06 04:29:56.810
nc73546990,2021-04-09 00:39:31.190,40.236333333333334,-124.161,12.39,2.47,BK.BARR..HHZ,P,,2021-04-09 00:39:51.050
nc73546990,2021-04-09 00:39:31.190,40.236333333333334,-124.161,12.39,2.47,BK.BRIC..HHZ,P,-1.0,2021-04-09 00:39:36.950
nc73546990,2021-04-09 00:39:31.190,40.236333333333334,-124.161,12.39,2.47,BK.DANT..HHZ,P,,2021-04-09 00:40:00.030
nc73546990,2021-04-09 00:39:31.190,40.236333333333334,-124.161,12.39,2.47,BK.DCMP..HHZ,P,1.0,2021-04-09 00:39:48.280
nc73546990,2021-04-09 00:39:31.190,40.236333333333334,-124.161,12.39,2.47,BK.HAYF..HHZ,P,1.0,2021-04-09 00:39:46.160
nc73546990,2021-04-09 00:39:31.190,40.236333333333334,-124.161,12.39,2.47,BK.INGL..HHZ,P,,2021-04-09 00:39:46.380
nc73546990,2021-04-09 00:39:31.190,40.236333333333334,-124.161,12.39,2.47,BK.JCC..HHZ,P,,2021-04-09 00:39:42.960
nc73546990,2021-04-09 00:39:31.190,40.236333333333334,-124.161,12.39,2.47,BK.LCOW..HHZ,P,,2021-04-09 00:39:57.400
nc73546990,2021-04-09 00:39:31.190,40.236333333333334,-124.161,12.39,2.47,BK.PETL..HHZ,P,1.0,2021-04-09 00:39:35.110
nc73546990,2021-04-09 00:39:31.190,40.236333333333334,-124.161,12.39,2.47,BK.PETY..HHZ,P,1.0,2021-04-09 00:39:50.510
nc73546990,2021-04-09 00:39:31.190,40.236333333333334,-124.161,12.39,2.47,BK.RBOW..HHZ,P,1.0,2021-04-09 00:39:34.700
nc73546990,2021-04-09 00:39:31.190,40.236333333333334,-124.161,12.39,2.47,BK.RVIT..HHZ,P,1.0,2021-04-09 00:39:44.740
nc73546990,2021-04-09 00:39:31.190,40.236333333333334,-124.161,12.39,2.47,BK.SAGE..HHZ,P,,2021-04-09 00:39:59.840
nc73546990,2021-04-09 00:39:31.190,40.236333333333334,-124.161,12.39,2.47,BK.SCOT..HHZ,P,,2021-04-09 00:39:56.900
nc73546990,2021-04-09 00:39:31.190,40.236333333333334,-124.161,12.39,2.47,BK.WEAV..HHZ,P,-1.0,2021-04-09 00:39:49.980
nc73546990,2021-04-09 00:39:31.190,40.236333333333334,-124.161,12.39,2.47,CE.79046..HNZ,P,,2021-04-09 00:39:42.300
nc73546990,2021-04-09 00:39:31.190,40.236333333333334,-124.161,12.39,2.47,CE.89688..HNZ,P,,2021-04-09 00:39:35.660
nc73546990,2021-04-09 00:39:31.190,40.236333333333334,-124.161,12.39,2.47,NC.GHO..EHZ,P,,2021-04-09 00:39:52.170
nc73546990,2021-04-09 00:39:31.190,40.236333333333334,-124.161,12.39,2.47,NC.GMR..EHZ,P,,2021-04-09 00:39:51.420
nc73546990,2021-04-09 00:39:31.190,40.236333333333334,-124.161,12.39,2.47,NC.GNR..EHZ,P,,2021-04-09 00:39:49.880
nc73546990,2021-04-09 00:39:31.190,40.236333333333334,-124.161,12.39,2.47,NC.GRO..EHZ,P,,2021-04-09 00:39:52.340
nc73546990,2021-04-09 00:39:31.190,40.236333333333334,-124.161,12.39,2.47,NC.GTC..EHZ,P,,2021-04-09 00:39:47.780
nc73546990,2021-04-09 00:39:31.190,40.236333333333334,-124.161,12.39,2.47,NC.KBN..EHZ,P,,2021-04-09 00:39:46.960
nc73546990,2021-04-09 00:39:31.190,40.236333333333334,-124.161,12.39,2.47,NC.KBU..EHZ,P,1.0,2021-04-09 00:39:36.930
nc73546990,2021-04-09 00:39:31.190,40.236333333333334,-124.161,12.39,2.47,NC.KCO..EHZ,P,1.0,2021-04-09 00:39:34.360
nc73546990,2021-04-09 00:39:31.190,40.236333333333334,-124.161,12.39,2.47,NC.KCPB..HHZ,P,,2021-04-09 00:39:45.450
nc73546990,2021-04-09 00:39:31.190,40.236333333333334,-124.161,12.39,2.47,NC.KCR..EHZ,P,-1.0,2021-04-09 00:39:38.530
nc73546990,2021-04-09 00:39:31.190,40.236333333333334,-124.161,12.39,2.47,NC.KCT..HHZ,P,-1.0,2021-04-09 00:39:37.940
nc73546990,2021-04-09 00:39:31.190,40.236333333333334,-124.161,12.39,2.47,NC.KFP..EHZ,P,1.0,2021-04-09 00:39:46.150
nc73546990,2021-04-09 00:39:31.190,40.236333333333334,-124.161,12.39,2.47,NC.KHBB..HHZ,P,1.0,2021-04-09 00:39:47.030
nc73546990,2021-04-09 00:39:31.190,40.236333333333334,-124.161,12.39,2.47,NC.KHMB..HHZ,P,,2021-04-09 00:39:45.580
nc73546990,2021-04-09 00:39:31.190,40.236333333333334,-124.161,12.39,2.47,NC.KIP..EHZ,P,-1.0,2021-04-09 00:39:44.510
nc73546990,2021-04-09 00:39:31.190,40.236333333333334,-124.161,12.39,2.47,NC.KMPB..HHZ,P,1.0,2021-04-09 00:39:35.790
nc73546990,2021-04-09 00:39:31.190,40.236333333333334,-124.161,12.39,2.47,NC.KMR..HHZ,P,-1.0,2021-04-09 00:39:39.000
nc73546990,2021-04-09 00:39:31.190,40.236333333333334,-124.161,12.39,2.47,NC.KPR..EHZ,P,-1.0,2021-04-09 00:39:34.250
nc73546990,2021-04-09 00:39:31.190,40.236333333333334,-124.161,12.39,2.47,NC.KRK..EHZ,P,,2021-04-09 00:39:49.160
nc73546990,2021-04-09 00:39:31.190,40.236333333333334,-124.161,12.39,2.47,NC.LBK..EHZ,P,,2021-04-09 00:39:55.420
nc73546990,2021-04-09 00:39:31.190,40.236333333333334,-124.161,12.39,2.47,NC.LDB..EHZ,P,,2021-04-09 00:40:01.070
nc73546990,2021-04-09 00:39:31.190,40.236333333333334,-124.161,12.39,2.47,NC.LRB..EHZ,P,,2021-04-09 00:39:53.740
nc73546990,2021-04-09 00:39:31.190,40.236333333333334,-124.161,12.39,2.47,NC.LRD..EHZ,P,,2021-04-09 00:40:05.550
nc73546990,2021-04-09 00:39:31.190,40.236333333333334,-124.161,12.39,2.47,NC.LSH..EHZ,P,,2021-04-09 00:39:59.960
nc73546990,2021-04-09 00:39:31.190,40.236333333333334,-124.161,12.39,2.47,NC.LVR..EHZ,P,,2021-04-09 00:39:52.330
nc73546990,2021-04-09 00:39:31.190,40.236333333333334,-124.161,12.39,2.47,NC.OCR..EHZ,P,,2021-04-09 00:40:01.660
nc73546990,2021-04-09 00:39:31.190,40.236333333333334,-124.161,12.39,2.47,NP.1586..HNZ,P,1.0,2021-04-09 00:39:40.980
nc73546990,2021-04-09 00:39:31.190,40.236333333333334,-124.161,12.39,2.47,NP.1591..HNZ,P,-1.0,2021-04-09 00:39:38.510
nc73546990,2021-04-09 00:39:31.190,40.236333333333334,-124.161,12.39,2.47,PB.B045..EHZ,P,-1.0,2021-04-09 00:39:36.680
nc73546990,2021-04-09 00:39:31.190,40.236333333333334,-124.161,12.39,2.47,PB.B046..EHZ,P,-1.0,2021-04-09 00:39:27.390
nc73546990,2021-04-09 00:39:31.190,40.236333333333334,-124.161,12.39,2.47,PB.B047..EHZ,P,1.0,2021-04-09 00:39:33.670
nc73546990,2021-04-09 00:39:31.190,40.236333333333334,-124.161,12.39,2.47,PB.B049..EHZ,P,-1.0,2021-04-09 00:39:37.190
nc73546990,2021-04-09 00:39:31.190,40.236333333333334,-124.161,12.39,2.47,PB.B932..EHZ,P,1.0,2021-04-09 00:39:33.810
nc73546990,2021-04-09 00:39:31.190,40.236333333333334,-124.161,12.39,2.47,PB.B934..EHZ,P,,2021-04-09 00:39:42.130
nc73546990,2021-04-09 00:39:31.190,40.236333333333334,-124.161,12.39,2.47,PB.B935..EHZ,P,1.0,2021-04-09 00:39:42.410
nc73547155,2021-04-09 10:30:29.220,40.3125,-123.58516666666667,3.79,1.89,BK.BRIC..HHZ,P,-1.0,2021-04-09 10:30:36.540
nc73547155,2021-04-09 10:30:29.220,40.3125,-123.58516666666667,3.79,1.89,BK.DCMP..HHZ,P,,2021-04-09 10:30:45.950
nc73547155,2021-04-09 10:30:29.220,40.3125,-123.58516666666667,3.79,1.89,BK.HAYF..HHZ,P,-1.0,2021-04-09 10:30:36.980
nc73547155,2021-04-09 10:30:29.220,40.3125,-123.58516666666667,3.79,1.89,BK.JCC..HHZ,P,1.0,2021-04-09 10:30:42.590
nc73547155,2021-04-09 10:30:29.220,40.3125,-123.58516666666667,3.79,1.89,BK.PETL..HHZ,P,,2021-04-09 10:30:41.690
nc73547155,2021-04-09 10:30:29.220,40.3125,-123.58516666666667,3.79,1.89,BK.PETY..HHZ,P,,2021-04-09 10:30:42.900
nc73547155,2021-04-09 10:30:29.220,40.3125,-123.58516666666667,3.79,1.89,BK.RVIT..HHZ,P,,2021-04-09 10:30:39.310
nc73547155,2021-04-09 10:30:29.220,40.3125,-123.58516666666667,3.79,1.89,BK.WEAV..HHZ,P,,2021-04-09 10:30:42.010
nc73547155,2021-04-09 10:30:29.220,40.3125,-123.58516666666667,3.79,1.89,NC.KBN..EHZ,P,,2021-04-09 10:30:41.140
nc73547155,2021-04-09 10:30:29.220,40.3125,-123.58516666666667,3.79,1.89,NC.KBU..EHZ,P,-1.0,2021-04-09 10:30:34.360
nc73547155,2021-04-09 10:30:29.220,40.3125,-123.58516666666667,3.79,1.89,NC.KCO..EHZ,P,,2021-04-09 10:30:41.330
nc73547155,2021-04-09 10:30:29.220,40.3125,-123.58516666666667,3.79,1.89,NC.KCPB..HHZ,P,,2021-04-09 10:30:43.000
nc73547155,2021-04-09 10:30:29.220,40.3125,-123.58516666666667,3.79,1.89,NC.KCR..EHZ,P,,2021-04-09 10:30:34.170
nc73547155,2021-04-09 10:30:29.220,40.3125,-123.58516666666667,3.79,1.89,NC.KCT..HHZ,P,,2021-04-09 10:30:42.800
nc73547155,2021-04-09 10:30:29.220,40.3125,-123.58516666666667,3.79,1.89,NC.KFP..EHZ,P,-1.0,2021-04-09 10:30:43.870
nc73547155,2021-04-09 10:30:29.220,40.3125,-123.58516666666667,3.79,1.89,NC.KHBB..HHZ,P,-1.0,2021-04-09 10:30:38.820
nc73547155,2021-04-09 10:30:29.220,40.3125,-123.58516666666667,3.79,1.89,NC.KHMB..HHZ,P,1.0,2021-04-09 10:30:41.840
nc73547155,2021-04-09 10:30:29.220,40.3125,-123.58516666666667,3.79,1.89,NC.KIP..EHZ,P,1.0,2021-04-09 10:30:40.370
nc73547155,2021-04-09 10:30:29.220,40.3125,-123.58516666666667,3.79,1.89,NC.KMR..HHZ,P,-1.0,2021-04-09 10:30:33.150
nc73547155,2021-04-09 10:30:29.220,40.3125,-123.58516666666667,3.79,1.89,NC.KPR..EHZ,P,,2021-04-09 10:30:37.550
nc73547155,2021-04-09 10:30:29.220,40.3125,-123.58516666666667,3.79,1.89,NC.KRK..EHZ,P,,2021-04-09 10:30:46.500
nc73547155,2021-04-09 10:30:29.220,40.3125,-123.58516666666667,3.79,1.89,NC.LBK..EHZ,P,,2021-04-09 10:30:49.530
nc73547155,2021-04-09 10:30:29.220,40.3125,-123.58516666666667,3.79,1.89,NC.LRB..EHZ,P,,2021-04-09 10:30:46.480
nc73547155,2021-04-09 10:30:29.220,40.3125,-123.58516666666667,3.79,1.89,NC.LSF..EHZ,P,,2021-04-09 10:30:47.120
nc73547155,2021-04-09 10:30:29.220,40.3125,-123.58516666666667,3.79,1.89,NP.1591..HNZ,P,,2021-04-09 10:30:35.780
nc73547155,2021-04-09 10:30:29.220,40.3125,-123.58516666666667,3.79,1.89,PB.B045..EHZ,P,-1.0,2021-04-09 10:30:36.820
nc73547155,2021-04-09 10:30:29.220,40.3125,-123.58516666666667,3.79,1.89,PB.B046..EHZ,P,1.0,2021-04-09 10:30:33.340
nc73547155,2021-04-09 10:30:29.220,40.3125,-123.58516666666667,3.79,1.89,PB.B047..EHZ,P,,2021-04-09 10:30:39.150
nc73547155,2021-04-09 10:30:29.220,40.3125,-123.58516666666667,3.79,1.89,PB.B049..EHZ,P,-1.0,2021-04-09 10:30:33.860
nc73547155,2021-04-09 10:30:29.220,40.3125,-123.58516666666667,3.79,1.89,PB.B932..EHZ,P,1.0,2021-04-09 10:30:39.690
nc73547155,2021-04-09 10:30:29.220,40.3125,-123.58516666666667,3.79,1.89,PB.B935..EHZ,P,1.0,2021-04-09 10:30:33.450
nc73547575,2021-04-10 10:54:15.000,40.62683333333333,-123.64583333333333,24.31,1.79,BK.BJES..HHZ,P,1.0,2021-04-10 10:54:20.760
nc73547575,2021-04-10 10:54:15.000,40.62683333333333,-123.64583333333333,24.31,1.79,BK.BRIC..HHZ,P,1.0,2021-04-10 10:54:25.870
nc73547575,2021-04-10 10:54:15.000,40.62683333333333,-123.64583333333333,24.31,1.79,BK.HAYF..HHZ,P,1.0,2021-04-10 10:54:22.640
nc73547575,2021-04-10 10:54:15.000,40.62683333333333,-123.64583333333333,24.31,1.79,BK.JCC..HHZ,P,1.0,2021-04-10 10:54:22.340
nc73547575,2021-04-10 10:54:15.000,40.62683333333333,-123.64583333333333,24.31,1.79,BK.PETL..HHZ,P,1.0,2021-04-10 10:54:26.420
nc73547575,2021-04-10 10:54:15.000,40.62683333333333,-123.64583333333333,24.31,1.79,BK.PETY..HHZ,P,,2021-04-10 10:54:29.440
nc73547575,2021-04-10 10:54:15.000,40.62683333333333,-123.64583333333333,24.31,1.79,BK.WEAV..HHZ,P,1.0,2021-04-10 10:54:25.000
nc73547575,2021-04-10 10:54:15.000,40.62683333333333,-123.64583333333333,24.31,1.79,CE.89462..HNZ,P,-1.0,2021-04-10 10:54:23.190
nc73547575,2021-04-10 10:54:15.000,40.62683333333333,-123.64583333333333,24.31,1.79,NC.KCR..EHZ,P,1.0,2021-04-10 10:54:21.300
nc73547575,2021-04-10 10:54:15.000,40.62683333333333,-123.64583333333333,24.31,1.79,NC.KHBB..HHZ,P,1.0,2021-04-10 10:54:22.480
nc73547575,2021-04-10 10:54:15.000,40.62683333333333,-123.64583333333333,24.31,1.79,NC.KHMB..HHZ,P,1.0,2021-04-10 10:54:21.520
nc73547575,2021-04-10 10:54:15.000,40.62683333333333,-123.64583333333333,24.31,1.79,NC.KMR..HHZ,P,,2021-04-10 10:54:24.050
nc73547575,2021-04-10 10:54:15.000,40.62683333333333,-123.64583333333333,24.31,1.79,NC.KPR..EHZ,P,1.0,2021-04-10 10:54:25.080
nc73547575,2021-04-10 10:54:15.000,40.62683333333333,-123.64583333333333,24.31,1.79,NC.KRMB..HHZ,P,,2021-04-10 10:54:30.680
nc73547575,2021-04-10 10:54:15.000,40.62683333333333,-123.64583333333333,24.31,1.79,NC.LBK..EHZ,P,,2021-04-10 10:54:30.680
nc73547575,2021-04-10 10:54:15.000,40.62683333333333,-123.64583333333333,24.31,1.79,NC.LSH..EHZ,P,,2021-04-10 10:54:36.980
nc73547575,2021-04-10 10:54:15.000,40.62683333333333,-123.64583333333333,24.31,1.79,NP.1586..HNZ,P,1.0,2021-04-10 10:54:24.040
nc73547575,2021-04-10 10:54:15.000,40.62683333333333,-123.64583333333333,24.31,1.79,PB.B045..EHZ,P,1.0,2021-04-10 10:54:22.360
nc73547575,2021-04-10 10:54:15.000,40.62683333333333,-123.64583333333333,24.31,1.79,PB.B046..EHZ,P,1.0,2021-04-10 10:54:18.240
nc73547575,2021-04-10 10:54:15.000,40.62683333333333,-123.64583333333333,24.31,1.79,PB.B047..EHZ,P,,2021-04-10 10:54:25.460
nc73547575,2021-04-10 10:54:15.000,40.62683333333333,-123.64583333333333,24.31,1.79,PB.B049..EHZ,P,1.0,2021-04-10 10:54:23.620
nc73547575,2021-04-10 10:54:15.000,40.62683333333333,-123.64583333333333,24.31,1.79,PB.B932..EHZ,P,,2021-04-10 10:54:25.430
nc73547575,2021-04-10 10:54:15.000,40.62683333333333,-123.64583333333333,24.31,1.79,PB.B935..EHZ,P,-1.0,2021-04-10 10:54:20.290
nc73548175,2021-04-11 19:59:03.980,40.2395,-124.27583333333334,7.33,1.85,BK.BRIC..HHZ,P,-1.0,2021-04-11 19:59:11.270
