event_id,etime,elat,elon,edep,emag,station_id,phase_type,phase_polarity,phase_time
nc73565931,2021-05-27 06:18:48.240,40.51616666666666,-123.68166666666667,24.43,1.61,NC.KMPB..HHZ,P,1.0,2021-05-27 06:18:55.970
nc73565931,2021-05-27 06:18:48.240,40.51616666666666,-123.68166666666667,24.43,1.61,NC.KMR..HHZ,P,1.0,2021-05-27 06:18:55.600
nc73568876,2021-06-02 11:00:34.770,40.31316666666667,-123.57416666666667,22.55,2.15,BK.BRIC..HHZ,P,1.0,2021-06-02 11:00:42.230
nc73568876,2021-06-02 11:00:34.770,40.31316666666667,-123.57416666666667,22.55,2.15,BK.DANT..HHZ,P,-1.0,2021-06-02 11:00:56.700
nc73568876,2021-06-02 11:00:34.770,40.31316666666667,-123.57416666666667,22.55,2.15,BK.DCMP..HHZ,P,-1.0,2021-06-02 11:00:49.340
nc73568876,2021-06-02 11:00:34.770,40.31316666666667,-123.57416666666667,22.55,2.15,BK.HAYF..HHZ,P,1.0,2021-06-02 11:00:42.360
nc73568876,2021-06-02 11:00:34.770,40.31316666666667,-123.57416666666667,22.55,2.15,BK.JCC..HHZ,P,1.0,2021-06-02 11:00:46.490
nc73568876,2021-06-02 11:00:34.770,40.31316666666667,-123.57416666666667,22.55,2.15,BK.LCOW..HHZ,P,1.0,2021-06-02 11:00:54.040
nc73568876,2021-06-02 11:00:34.770,40.31316666666667,-123.57416666666667,22.55,2.15,BK.MNDO..HHZ,P,,2021-06-02 11:00:51.970
nc73568876,2021-06-02 11:00:34.770,40.31316666666667,-123.57416666666667,22.55,2.15,BK.PETL..HHZ,P,,2021-06-02 11:00:45.690
nc73568876,2021-06-02 11:00:34.770,40.31316666666667,-123.57416666666667,22.55,2.15,BK.PETY..HHZ,P,1.0,2021-06-02 11:00:46.560
nc73568876,2021-06-02 11:00:34.770,40.31316666666667,-123.57416666666667,22.55,2.15,BK.RBOW..HHZ,P,1.0,2021-06-02 11:00:43.370
nc73568876,2021-06-02 11:00:34.770,40.31316666666667,-123.57416666666667,22.55,2.15,BK.RVIT..HHZ,P,1.0,2021-06-02 11:00:43.960
nc73568876,2021-06-02 11:00:34.770,40.31316666666667,-123.57416666666667,22.55,2.15,BK.SAGE..HHZ,P,,2021-06-02 11:00:56.760
nc73568876,2021-06-02 11:00:34.770,40.31316666666667,-123.57416666666667,22.55,2.15,BK.SCOT..HHZ,P,,2021-06-02 11:00:55.200
nc73568876,2021-06-02 11:00:34.770,40.31316666666667,-123.57416666666667,22.55,2.15,BK.WEAV..HHZ,P,1.0,2021-06-02 11:00:46.650
nc73568876,2021-06-02 11:00:34.770,40.31316666666667,-123.57416666666667,22.55,2.15,CE.89688..HNZ,P,1.0,2021-06-02 11:00:44.250
nc73568876,2021-06-02 11:00:34.770,40.31316666666667,-123.57416666666667,22.55,2.15,NC.GCK..EHZ,P,,2021-06-02 11:00:55.960
nc73568876,2021-06-02 11:00:34.770,40.31316666666667,-123.57416666666667,22.55,2.15,NC.KBN..EHZ,P,1.0,2021-06-02 11:00:45.240
nc73568876,2021-06-02 11:00:34.770,40.31316666666667,-123.57416666666667,22.55,2.15,NC.KBU..EHZ,P,1.0,2021-06-02 11:00:40.780
nc73568876,2021-06-02 11:00:34.770,40.31316666666667,-123.57416666666667,22.55,2.15,NC.KCO..EHZ,P,,2021-06-02 11:00:45.060
nc73568876,2021-06-02 11:00:34.770,40.31316666666667,-123.57416666666667,22.55,2.15,NC.KCPB..HHZ,P,-1.0,2021-06-02 11:00:46.710
nc73568876,2021-06-02 11:00:34.770,40.31316666666667,-123.57416666666667,22.55,2.15,NC.KCR..EHZ,P,1.0,2021-06-02 11:00:40.760
nc73568876,2021-06-02 11:00:34.770,40.31316666666667,-123.57416666666667,22.55,2.15,NC.KFP..EHZ,P,1.0,2021-06-02 11:00:47.300
nc73568876,2021-06-02 11:00:34.770,40.31316666666667,-123.57416666666667,22.55,2.15,NC.KHBB..HHZ,P,1.0,2021-06-02 11:00:43.870
nc73568876,2021-06-02 11:00:34.770,40.31316666666667,-123.57416666666667,22.55,2.15,NC.KHMB..HHZ,P,1.0,2021-06-02 11:00:45.980
nc73568876,2021-06-02 11:00:34.770,40.31316666666667,-123.57416666666667,22.55,2.15,NC.KIP..EHZ,P,1.0,2021-06-02 11:00:44.920
nc73568876,2021-06-02 11:00:34.770,40.31316666666667,-123.57416666666667,22.55,2.15,NC.KMPB..HHZ,P,1.0,2021-06-02 11:00:43.780
nc73568876,2021-06-02 11:00:34.770,40.31316666666667,-123.57416666666667,22.55,2.15,NC.KMR..HHZ,P,-1.0,2021-06-02 11:00:39.950
nc73568876,2021-06-02 11:00:34.770,40.31316666666667,-123.57416666666667,22.55,2.15,NC.KPR..EHZ,P,1.0,2021-06-02 11:00:43.020
nc73568876,2021-06-02 11:00:34.770,40.31316666666667,-123.57416666666667,22.55,2.15,NC.KRK..EHZ,P,-1.0,2021-06-02 11:00:49.580
nc73568876,2021-06-02 11:00:34.770,40.31316666666667,-123.57416666666667,22.55,2.15,NC.LBK..EHZ,P,,2021-06-02 11:00:52.830
nc73568876,2021-06-02 11:00:34.770,40.31316666666667,-123.57416666666667,22.55,2.15,NC.LMI..EHZ,P,,2021-06-02 11:00:54.060
nc73568876,2021-06-02 11:00:34.770,40.31316666666667,-123.57416666666667,22.55,2.15,NC.LRB..EHZ,P,,2021-06-02 11:00:49.630
nc73568876,2021-06-02 11:00:34.770,40.31316666666667,-123.57416666666667,22.55,2.15,NC.LSF..EHZ,P,,2021-06-02 11:00:50.320
nc73568876,2021-06-02 11:00:34.770,40.31316666666667,-123.57416666666667,22.55,2.15,NP.1591..HNZ,P,1.0,2021-06-02 11:00:41.530
nc73569396,2021-06-03 12:20:23.200,40.2935,-124.40583333333333,8.09,1.33,BK.BRIC..HHZ,P,-1.0,2021-06-03 12:20:32.650
nc73569396,2021-06-03 12:20:23.200,40.2935,-124.40583333333333,8.09,1.33,BK.PETL..HHZ,P,-1.0,2021-06-03 12:20:25.290
nc73569396,2021-06-03 12:20:23.200,40.2935,-124.40583333333333,8.09,1.33,BK.RBOW..HHZ,P,,2021-06-03 12:20:28.630
nc73569396,2021-06-03 12:20:23.200,40.2935,-124.40583333333333,8.09,1.33,CE.89688..HNZ,P,,2021-06-03 12:20:30.440
nc73569396,2021-06-03 12:20:23.200,40.2935,-124.40583333333333,8.09,1.33,NC.KCO..EHZ,P,-1.0,2021-06-03 12:20:26.460
nc73569396,2021-06-03 12:20:23.200,40.2935,-124.40583333333333,8.09,1.33,NC.KCR..EHZ,P,1.0,2021-06-03 12:20:33.490
nc73569396,2021-06-03 12:20:23.200,40.2935,-124.40583333333333,8.09,1.33,NC.KFP..EHZ,P,1.0,2021-06-03 12:20:41.480
nc73569396,2021-06-03 12:20:23.200,40.2935,-124.40583333333333,8.09,1.33,NC.KPR..EHZ,P,-1.0,2021-06-03 12:20:29.670
nc73569396,2021-06-03 12:20:23.200,40.2935,-124.40583333333333,8.09,1.33,NP.1586..HNZ,P,,2021-06-03 12:20:30.530
nc73571131,2021-06-07 13:49:56.680,40.55866666666667,-123.55883333333334,6.23,2.12,BK.BRIC..HHZ,P,1.0,2021-06-07 13:50:08.000
nc73571131,2021-06-07 13:49:56.680,40.55866666666667,-123.55883333333334,6.23,2.12,BK.DANT..HHZ,P,,2021-06-07 13:50:20.250
nc73571131,2021-06-07 13:49:56.680,40.55866666666667,-123.55883333333334,6.23,2.12,BK.DCMP..HHZ,P,,2021-06-07 13:50:17.080
nc73571131,2021-06-07 13:49:56.680,40.55866666666667,-123.55883333333334,6.23,2.12,BK.HAYF..HHZ,P,1.0,2021-06-07 13:50:02.700
nc73571131,2021-06-07 13:49:56.680,40.55866666666667,-123.55883333333334,6.23,2.12,BK.JCC..HHZ,P,1.0,2021-06-07 13:50:06.380
nc73571131,2021-06-07 13:49:56.680,40.55866666666667,-123.55883333333334,6.23,2.12,BK.LCOW..HHZ,P,-1.0,2021-06-07 13:50:16.740
nc73571131,2021-06-07 13:49:56.680,40.55866666666667,-123.55883333333334,6.23,2.12,BK.PETL..HHZ,P,1.0,2021-06-07 13:50:10.860
nc73571131,2021-06-07 13:49:56.680,40.55866666666667,-123.55883333333334,6.23,2.12,BK.PETY..HHZ,P,1.0,2021-06-07 13:50:10.660
nc73571131,2021-06-07 13:49:56.680,40.55866666666667,-123.55883333333334,6.23,2.12,BK.SCOT..HHZ,P,1.0,2021-06-07 13:50:15.310
nc73571131,2021-06-07 13:49:56.680,40.55866666666667,-123.55883333333334,6.23,2.12,BK.WEAV..HHZ,P,1.0,2021-06-07 13:50:07.070
nc73571131,2021-06-07 13:49:56.680,40.55866666666667,-123.55883333333334,6.23,2.12,NC.GNR..EHZ,P,,2021-06-07 13:50:19.560
nc73571131,2021-06-07 13:49:56.680,40.55866666666667,-123.55883333333334,6.23,2.12,NC.KBN..EHZ,P,,2021-06-07 13:50:12.810
nc73571131,2021-06-07 13:49:56.680,40.55866666666667,-123.55883333333334,6.23,2.12,NC.KCO..EHZ,P,,2021-06-07 13:50:10.550
nc73571131,2021-06-07 13:49:56.680,40.55866666666667,-123.55883333333334,6.23,2.12,NC.KCR..EHZ,P,-1.0,2021-06-07 13:50:02.450
nc73571131,2021-06-07 13:49:56.680,40.55866666666667,-123.55883333333334,6.23,2.12,NC.KFP..EHZ,P,,2021-06-07 13:50:15.120
nc73571131,2021-06-07 13:49:56.680,40.55866666666667,-123.55883333333334,6.23,2.12,NC.KHBB..HHZ,P,1.0,2021-06-07 13:50:03.280
nc73571131,2021-06-07 13:49:56.680,40.55866666666667,-123.55883333333334,6.23,2.12,NC.KHMB..HHZ,P,1.0,2021-06-07 13:50:04.170
nc73571131,2021-06-07 13:49:56.680,40.55866666666667,-123.55883333333334,6.23,2.12,NC.KMR..HHZ,P,-1.0,2021-06-07 13:50:05.100
nc73571131,2021-06-07 13:49:56.680,40.55866666666667,-123.55883333333334,6.23,2.12,NC.KOM..EHZ,P,,2021-06-07 13:50:10.730
nc73571131,2021-06-07 13:49:56.680,40.55866666666667,-123.55883333333334,6.23,2.12,NC.KPR..EHZ,P,-1.0,2021-06-07 13:50:07.710
nc73571131,2021-06-07 13:49:56.680,40.55866666666667,-123.55883333333334,6.23,2.12,NC.KRMB..HHZ,P,1.0,2021-06-07 13:50:16.170
nc73571131,2021-06-07 13:49:56.680,40.55866666666667,-123.55883333333334,6.23,2.12,NC.LBK..EHZ,P,1.0,2021-06-07 13:50:13.180
nc73571131,2021-06-07 13:49:56.680,40.55866666666667,-123.55883333333334,6.23,2.12,NC.LMI..EHZ,P,1.0,2021-06-07 13:50:17.400
nc73571131,2021-06-07 13:49:56.680,40.55866666666667,-123.55883333333334,6.23,2.12,NC.LRB..EHZ,P,,2021-06-07 13:50:14.180
nc73571131,2021-06-07 13:49:56.680,40.55866666666667,-123.55883333333334,6.23,2.12,NC.LSF..EHZ,P,-1.0,2021-06-07 13:50:12.630
nc73576910,2021-06-14 22:44:50.220,40.479,-123.9435,19.7,1.17,BK.JCC..HHZ,P,1.0,2021-06-14 22:44:57.600
nc73576910,2021-06-14 22:44:50.220,40.479,-123.9435,19.7,1.17,BK.PETL..HHZ,P,,2021-06-14 22:44:58.000
nc73576910,2021-06-14 22:44:50.220,40.479,-123.9435,19.7,1.17,BK.RBOW..HHZ,P,1.0,2021-06-14 22:44:55.560
nc73576910,2021-06-14 22:44:50.220,40.479,-123.9435,19.7,1.17,NC.KBU..EHZ,P,-1.0,2021-06-14 22:44:56.460
nc73576910,2021-06-14 22:44:50.220,40.479,-123.9435,19.7,1.17,NC.KCO..EHZ,P,1.0,2021-06-14 22:44:57.700
nc73576910,2021-06-14 22:44:50.220,40.479,-123.9435,19.7,1.17,NC.KCR..EHZ,P,-1.0,2021-06-14 22:44:54.590
nc73576910,2021-06-14 22:44:50.220,40.479,-123.9435,19.7,1.17,NC.KCT..HHZ,P,,2021-06-14 22:44:57.540
nc73576910,2021-06-14 22:44:50.220,40.479,-123.9435,19.7,1.17,NC.KHBB..HHZ,P,1.0,2021-06-14 22:45:01.570
nc73576910,2021-06-14 22:44:50.220,40.479,-123.9435,19.7,1.17,NC.KMPB..HHZ,P,1.0,2021-06-14 22:44:55.030
nc73576910,2021-06-14 22:44:50.220,40.479,-123.9435,19.7,1.17,NC.KMR..HHZ,P,-1.0,2021-06-14 22:44:57.800
nc73577995,2021-06-17 03:03:27.420,40.891333333333336,-123.45716666666667,21.38,2.11,BK.HAYF..HHZ,P,-1.0,2021-06-17 03:03:35.970
nc73577995,2021-06-17 03:03:27.420,40.891333333333336,-123.45716666666667,21.38,2.11,BK.JCC..HHZ,P,1.0,2021-06-17 03:03:36.330
nc73577995,2021-06-17 03:03:27.420,40.891333333333336,-123.45716666666667,21.38,2.11,BK.LCOW..HHZ,P,-1.0,2021-06-17 03:03:45.200
nc73577995,2021-06-17 03:03:27.420,40.891333333333336,-123.45716666666667,21.38,2.11,BK.PETL..HHZ,P,1.0,2021-06-17 03:03:42.670
nc73577995,2021-06-17 03:03:27.420,40.891333333333336,-123.45716666666667,21.38,2.11,BK.PETY..HHZ,P,1.0,2021-06-17 03:03:43.340
nc73577995,2021-06-17 03:03:27.420,40.891333333333336,-123.45716666666667,21.38,2.11,BK.SAGE..HHZ,P,-1.0,2021-06-17 03:03:46.690
nc73577995,2021-06-17 03:03:27.420,40.891333333333336,-123.45716666666667,21.38,2.11,BK.SCOT..HHZ,P,,2021-06-17 03:03:39.770
nc73577995,2021-06-17 03:03:27.420,40.891333333333336,-123.45716666666667,21.38,2.11,BK.WEAV..HHZ,P,1.0,2021-06-17 03:03:35.670
nc73577995,2021-06-17 03:03:27.420,40.891333333333336,-123.45716666666667,21.38,2.11,NC.KCR..EHZ,P,1.0,2021-06-17 03:03:38.060
nc73577995,2021-06-17 03:03:27.420,40.891333333333336,-123.45716666666667,21.38,2.11,NC.KHBB..HHZ,P,-1.0,2021-06-17 03:03:34.390
nc73577995,2021-06-17 03:03:27.420,40.891333333333336,-123.45716666666667,21.38,2.11,NC.KHMB..HHZ,P,1.0,2021-06-17 03:03:33.270
nc73577995,2021-06-17 03:03:27.420,40.891333333333336,-123.45716666666667,21.38,2.11,NC.KOM..EHZ,P,1.0,2021-06-17 03:03:35.500
nc73577995,2021-06-17 03:03:27.420,40.891333333333336,-123.45716666666667,21.38,2.11,NC.KPR..EHZ,P,,2021-06-17 03:03:41.660
nc73577995,2021-06-17 03:03:27.420,40.891333333333336,-123.45716666666667,21.38,2.11,NC.KRMB..HHZ,P,,2021-06-17 03:03:40.390
nc73577995,2021-06-17 03:03:27.420,40.891333333333336,-123.45716666666667,21.38,2.11,NC.LBF..EHZ,P,1.0,2021-06-17 03:03:50.600
nc73577995,2021-06-17 03:03:27.420,40.891333333333336,-123.45716666666667,21.38,2.11,NC.LBK..EHZ,P,1.0,2021-06-17 03:03:39.190
nc73577995,2021-06-17 03:03:27.420,40.891333333333336,-123.45716666666667,21.38,2.11,NC.LDH..HHZ,P,,2021-06-17 03:03:52.990
nc73577995,2021-06-17 03:03:27.420,40.891333333333336,-123.45716666666667,21.38,2.11,NC.LMI..EHZ,P,,2021-06-17 03:03:46.530
nc73577995,2021-06-17 03:03:27.420,40.891333333333336,-123.45716666666667,21.38,2.11,NC.LSF..EHZ,P,-1.0,2021-06-17 03:03:41.490
nc73577995,2021-06-17 03:03:27.420,40.891333333333336,-123.45716666666667,21.38,2.11,NC.LSH..EHZ,P,,2021-06-17 03:03:46.570
nc73577995,2021-06-17 03:03:27.420,40.891333333333336,-123.45716666666667,21.38,2.11,NC.LWHB..EHZ,P,,2021-06-17 03:03:48.100
nc73577995,2021-06-17 03:03:27.420,40.891333333333336,-123.45716666666667,21.38,2.11,PB.B040..EHZ,P,,2021-06-17 03:03:48.410
nc73577995,2021-06-17 03:03:27.420,40.891333333333336,-123.45716666666667,21.38,2.11,PB.B045..EHZ,P,,2021-06-17 03:03:39.020
nc73577995,2021-06-17 03:03:27.420,40.891333333333336,-123.45716666666667,21.38,2.11,PB.B046..EHZ,P,1.0,2021-06-17 03:03:42.020
nc73577995,2021-06-17 03:03:27.420,40.891333333333336,-123.45716666666667,21.38,2.11,PB.B047..EHZ,P,1.0,2021-06-17 03:03:41.930
nc73577995,2021-06-17 03:03:27.420,40.891333333333336,-123.45716666666667,21.38,2.11,PB.B049..EHZ,P,-1.0,2021-06-17 03:03:40.260
nc73577995,2021-06-17 03:03:27.420,40.891333333333336,-123.45716666666667,21.38,2.11,PB.B932..EHZ,P,1.0,2021-06-17 03:03:41.880
nc73577995,2021-06-17 03:03:27.420,40.891333333333336,-123.45716666666667,21.38,2.11,PB.B935..EHZ,P,-1.0,2021-06-17 03:03:36.330
nc73577821,2021-06-21 22:57:57.180,40.300333333333334,-124.38166666666666,8.5,1.53,BK.JCC..HHZ,P,,2021-06-21 22:58:09.940
nc73577821,2021-06-21 22:57:57.180,40.300333333333334,-124.38166666666666,8.5,1.53,BK.PETL..HHZ,P,1.0,2021-06-21 22:57:59.170
nc73577821,2021-06-21 22:57:57.180,40.300333333333334,-124.38166666666666,8.5,1.53,BK.RBOW..HHZ,P,-1.0,2021-06-21 22:58:02.300
nc73577821,2021-06-21 22:57:57.180,40.300333333333334,-124.38166666666666,8.5,1.53,CE.89688..HNZ,P,1.0,2021-06-21 22:58:04.180
nc73577821,2021-06-21 22:57:57.180,40.300333333333334,-124.38166666666666,8.5,1.53,NC.GTC..EHZ,P,,2021-06-21 22:58:16.520
nc73577821,2021-06-21 22:57:57.180,40.300333333333334,-124.38166666666666,8.5,1.53,NC.KBU..EHZ,P,,2021-06-21 22:58:06.260
nc73577821,2021-06-21 22:57:57.180,40.300333333333334,-124.38166666666666,8.5,1.53,NC.KCO..EHZ,P,-1.0,2021-06-21 22:58:00.180
nc73577821,2021-06-21 22:57:57.180,40.300333333333334,-124.38166666666666,8.5,1.53,NC.KCPB..HHZ,P,1.0,2021-06-21 22:58:14.680
nc73577821,2021-06-21 22:57:57.180,40.300333333333334,-124.38166666666666,8.5,1.53,NC.KCR..EHZ,P,,2021-06-21 22:58:07.120
nc73577821,2021-06-21 22:57:57.180,40.300333333333334,-124.38166666666666,8.5,1.53,NC.KCT..HHZ,P,-1.0,2021-06-21 22:58:02.040
nc73577821,2021-06-21 22:57:57.180,40.300333333333334,-124.38166666666666,8.5,1.53,NC.KFP..EHZ,P,-1.0,2021-06-21 22:58:15.030
nc73577821,2021-06-21 22:57:57.180,40.300333333333334,-124.38166666666666,8.5,1.53,NC.KMPB..HHZ,P,-1.0,2021-06-21 22:58:02.610
nc73577821,2021-06-21 22:57:57.180,40.300333333333334,-124.38166666666666,8.5,1.53,NC.KPR..EHZ,P,-1.0,2021-06-21 22:58:03.330
nc73577821,2021-06-21 22:57:57.180,40.300333333333334,-124.38166666666666,8.5,1.53,PB.B046..EHZ,P,1.0,2021-06-21 22:57:59.610
nc73577821,2021-06-21 22:57:57.180,40.300333333333334,-124.38166666666666,8.5,1.53,PB.B047..EHZ,P,-1.0,2021-06-21 22:58:01.350
nc73577821,2021-06-21 22:57:57.180,40.300333333333334,-124.38166666666666,8.5,1.53,PB.B932..EHZ,P,-1.0,2021-06-21 22:58:00.350
nc73579566,2021-06-25 22:17:18.260,40.884166666666665,-123.21,31.56,2.18,BK.HAYF..HHZ,P,-1.0,2021-06-25 22:17:26.660
nc73579566,2021-06-25 22:17:18.260,40.884166666666665,-123.21,31.56,2.18,BK.JCC..HHZ,P,,2021-06-25 22:17:29.770
nc73579566,2021-06-25 22:17:18.260,40.884166666666665,-123.21,31.56,2.18,BK.LCOW..HHZ,P,,2021-06-25 22:17:33.470
nc73579566,2021-06-25 22:17:18.260,40.884166666666665,-123.21,31.56,2.18,BK.PETY..HHZ,P,,2021-06-25 22:17:32.830
nc73579566,2021-06-25 22:17:18.260,40.884166666666665,-123.21,31.56,2.18,BK.RBOW..HHZ,P,,2021-06-25 22:17:33.480
nc73579566,2021-06-25 22:17:18.260,40.884166666666665,-123.21,31.56,2.18,BK.SAGE..HHZ,P,1.0,2021-06-25 22:17:34.590
nc73579566,2021-06-25 22:17:18.260,40.884166666666665,-123.21,31.56,2.18,BK.SCOT..HHZ,P,-1.0,2021-06-25 22:17:29.540
nc73579566,2021-06-25 22:17:18.260,40.884166666666665,-123.21,31.56,2.18,BK.WEAV..HHZ,P,-1.0,2021-06-25 22:17:24.900
nc73579566,2021-06-25 22:17:18.260,40.884166666666665,-123.21,31.56,2.18,NC.KCR..EHZ,P,,2021-06-25 22:17:30.550
nc73579566,2021-06-25 22:17:18.260,40.884166666666665,-123.21,31.56,2.18,NC.KCT..HHZ,P,,2021-06-25 22:17:34.890
nc73579566,2021-06-25 22:17:18.260,40.884166666666665,-123.21,31.56,2.18,NC.KHBB..HHZ,P,1.0,2021-06-25 22:17:25.010
nc73579566,2021-06-25 22:17:18.260,40.884166666666665,-123.21,31.56,2.18,NC.KHMB..HHZ,P,-1.0,2021-06-25 22:17:26.970
nc73579566,2021-06-25 22:17:18.260,40.884166666666665,-123.21,31.56,2.18,NC.KOM..EHZ,P,,2021-06-25 22:17:27.660
nc73579566,2021-06-25 22:17:18.260,40.884166666666665,-123.21,31.56,2.18,NC.KRMB..HHZ,P,1.0,2021-06-25 22:17:32.780
nc73579566,2021-06-25 22:17:18.260,40.884166666666665,-123.21,31.56,2.18,NC.LBF..EHZ,P,,2021-06-25 22:17:38.270
nc73579566,2021-06-25 22:17:18.260,40.884166666666665,-123.21,31.56,2.18,NC.LBK..EHZ,P,-1.0,2021-06-25 22:17:27.840
nc73579566,2021-06-25 22:17:18.260,40.884166666666665,-123.21,31.56,2.18,NC.LGP..EHZ,P,-1.0,2021-06-25 22:17:25.580
nc73579566,2021-06-25 22:17:18.260,40.884166666666665,-123.21,31.56,2.18,NC.LMI..EHZ,P,-1.0,2021-06-25 22:17:34.580
nc73579566,2021-06-25 22:17:18.260,40.884166666666665,-123.21,31.56,2.18,NC.LSF..EHZ,P,,2021-06-25 22:17:29.720
nc73579566,2021-06-25 22:17:18.260,40.884166666666665,-123.21,31.56,2.18,NC.LSH..EHZ,P,1.0,2021-06-25 22:17:34.580
nc73579566,2021-06-25 22:17:18.260,40.884166666666665,-123.21,31.56,2.18,NC.LWHB..EHZ,P,,2021-06-25 22:17:35.960
nc73579566,2021-06-25 22:17:18.260,40.884166666666665,-123.21,31.56,2.18,PB.B046..EHZ,P,1.0,2021-06-25 22:17:34.930
nc73579566,2021-06-25 22:17:18.260,40.884166666666665,-123.21,31.56,2.18,PB.B047..EHZ,P,,2021-06-25 22:17:34.530
nc73579566,2021-06-25 22:17:18.260,40.884166666666665,-123.21,31.56,2.18,PB.B932..EHZ,P,,2021-06-25 22:17:34.510
nc73579566,2021-06-25 22:17:18.260,40.884166666666665,-123.21,31.56,2.18,PB.B935..EHZ,P,,2021-06-25 22:17:27.780
nc73579836,2021-06-26 16:15:23.520,40.81183333333333,-123.46316666666667,23.12,2.17,BK.HAYF..HHZ,P,-1.0,2021-06-26 16:15:31.130
nc73579836,2021-06-26 16:15:23.520,40.81183333333333,-123.46316666666667,23.12,2.17,BK.JCC..HHZ,P,1.0,2021-06-26 16:15:32.140
nc73579836,2021-06-26 16:15:23.520,40.81183333333333,-123.46316666666667,23.12,2.17,BK.LCOW..HHZ,P,,2021-06-26 16:15:40.770
nc73579836,2021-06-26 16:15:23.520,40.81183333333333,-123.46316666666667,23.12,2.17,BK.PETL..HHZ,P,,2021-06-26 16:15:37.990
nc73579836,2021-06-26 16:15:23.520,40.81183333333333,-123.46316666666667,23.12,2.17,BK.PETY..HHZ,P,-1.0,2021-06-26 16:15:38.260
nc73579836,2021-06-26 16:15:23.520,40.81183333333333,-123.46316666666667,23.12,2.17,BK.RBOW..BHZ,P,,2021-06-26 16:15:35.900
nc73579836,2021-06-26 16:15:23.520,40.81183333333333,-123.46316666666667,23.12,2.17,BK.RVIT..HHZ,P,1.0,2021-06-26 16:15:39.970
nc73579836,2021-06-26 16:15:23.520,40.81183333333333,-123.46316666666667,23.12,2.17,BK.SAGE..HHZ,P,,2021-06-26 16:15:42.100
nc73579836,2021-06-26 16:15:23.520,40.81183333333333,-123.46316666666667,23.12,2.17,BK.SCOT..HHZ,P,-1.0,2021-06-26 16:15:36.690
nc73579836,2021-06-26 16:15:23.520,40.81183333333333,-123.46316666666667,23.12,2.17,BK.WEAV..HHZ,P,1.0,2021-06-26 16:15:31.440
nc73579836,2021-06-26 16:15:23.520,40.81183333333333,-123.46316666666667,23.12,2.17,NC.KCR..EHZ,P,,2021-06-26 16:15:33.510
nc73579836,2021-06-26 16:15:23.520,40.81183333333333,-123.46316666666667,23.12,2.17,NC.KHBB..HHZ,P,-1.0,2021-06-26 16:15:29.840
nc73579836,2021-06-26 16:15:23.520,40.81183333333333,-123.46316666666667,23.12,2.17,NC.KHMB..HHZ,P,1.0,2021-06-26 16:15:29.480
nc73579836,2021-06-26 16:15:23.520,40.81183333333333,-123.46316666666667,23.12,2.17,NC.KMR..HHZ,P,-1.0,2021-06-26 16:15:35.460
