event_id,etime,elat,elon,edep,emag,station_id,phase_type,phase_polarity,phase_time
nc73563250,2021-05-16 13:26:28.980,40.11933333333333,-123.923,18.77,2.9,CE.89462..HNZ,P,1.0,2021-05-16 13:26:38.180
nc73563250,2021-05-16 13:26:28.980,40.11933333333333,-123.923,18.77,2.9,CE.89688..HNZ,P,1.0,2021-05-16 13:26:33.530
nc73563250,2021-05-16 13:26:28.980,40.11933333333333,-123.923,18.77,2.9,NC.GBB..EHZ,P,,2021-05-16 13:26:50.100
nc73563250,2021-05-16 13:26:28.980,40.11933333333333,-123.923,18.77,2.9,NC.GBL..EHZ,P,-1.0,2021-05-16 13:26:46.450
nc73563250,2021-05-16 13:26:28.980,40.11933333333333,-123.923,18.77,2.9,NC.GCK..EHZ,P,,2021-05-16 13:26:50.960
nc73563250,2021-05-16 13:26:28.980,40.11933333333333,-123.923,18.77,2.9,NC.GHGB..EHZ,P,,2021-05-16 13:26:50.570
nc73563250,2021-05-16 13:26:28.980,40.11933333333333,-123.923,18.77,2.9,NC.GHO..EHZ,P,1.0,2021-05-16 13:26:47.250
nc73563250,2021-05-16 13:26:28.980,40.11933333333333,-123.923,18.77,2.9,NC.GMR..EHZ,P,-1.0,2021-05-16 13:26:46.240
nc73563250,2021-05-16 13:26:28.980,40.11933333333333,-123.923,18.77,2.9,NC.GNR..EHZ,P,,2021-05-16 13:26:47.000
nc73563250,2021-05-16 13:26:28.980,40.11933333333333,-123.923,18.77,2.9,NC.GWR..EHZ,P,,2021-05-16 13:26:46.310
nc73563250,2021-05-16 13:26:28.980,40.11933333333333,-123.923,18.77,2.9,NC.GWW..EHZ,P,,2021-05-16 13:26:49.820
nc73563250,2021-05-16 13:26:28.980,40.11933333333333,-123.923,18.77,2.9,NC.KBN..EHZ,P,-1.0,2021-05-16 13:26:41.180
nc73563250,2021-05-16 13:26:28.980,40.11933333333333,-123.923,18.77,2.9,NC.KBU..EHZ,P,1.0,2021-05-16 13:26:33.440
nc73563250,2021-05-16 13:26:28.980,40.11933333333333,-123.923,18.77,2.9,NC.KCO..EHZ,P,-1.0,2021-05-16 13:26:35.900
nc73563250,2021-05-16 13:26:28.980,40.11933333333333,-123.923,18.77,2.9,NC.KCPB..HHZ,P,,2021-05-16 13:26:39.280
nc73563250,2021-05-16 13:26:28.980,40.11933333333333,-123.923,18.77,2.9,NC.KCR..EHZ,P,-1.0,2021-05-16 13:26:36.160
nc73563250,2021-05-16 13:26:28.980,40.11933333333333,-123.923,18.77,2.9,NC.KCT..HHZ,P,-1.0,2021-05-16 13:26:39.340
nc73563250,2021-05-16 13:26:28.980,40.11933333333333,-123.923,18.77,2.9,NC.KFP..EHZ,P,-1.0,2021-05-16 13:26:40.750
nc73563250,2021-05-16 13:26:28.980,40.11933333333333,-123.923,18.77,2.9,NC.KHBB..HHZ,P,1.0,2021-05-16 13:26:43.220
nc73563250,2021-05-16 13:26:28.980,40.11933333333333,-123.923,18.77,2.9,NC.KHMB..HHZ,P,1.0,2021-05-16 13:26:43.410
nc73563250,2021-05-16 13:26:28.980,40.11933333333333,-123.923,18.77,2.9,NC.KIP..EHZ,P,-1.0,2021-05-16 13:26:38.700
nc73563250,2021-05-16 13:26:28.980,40.11933333333333,-123.923,18.77,2.9,NC.KMPB..HHZ,P,-1.0,2021-05-16 13:26:36.450
nc73563250,2021-05-16 13:26:28.980,40.11933333333333,-123.923,18.77,2.9,NC.KMR..HHZ,P,-1.0,2021-05-16 13:26:34.050
nc73563250,2021-05-16 13:26:28.980,40.11933333333333,-123.923,18.77,2.9,NC.KOM..EHZ,P,,2021-05-16 13:26:49.300
nc73563250,2021-05-16 13:26:28.980,40.11933333333333,-123.923,18.77,2.9,NC.KPR..EHZ,P,-1.0,2021-05-16 13:26:33.630
nc73563250,2021-05-16 13:26:28.980,40.11933333333333,-123.923,18.77,2.9,NC.KRK..EHZ,P,-1.0,2021-05-16 13:26:43.520
nc73563250,2021-05-16 13:26:28.980,40.11933333333333,-123.923,18.77,2.9,NC.KRMB..HHZ,P,1.0,2021-05-16 13:26:52.030
nc73563250,2021-05-16 13:26:28.980,40.11933333333333,-123.923,18.77,2.9,NC.KSXB..HHZ,P,,2021-05-16 13:26:56.300
nc73563250,2021-05-16 13:26:28.980,40.11933333333333,-123.923,18.77,2.9,NC.LBK..EHZ,P,1.0,2021-05-16 13:26:51.710
nc73563250,2021-05-16 13:26:28.980,40.11933333333333,-123.923,18.77,2.9,NC.LBO..EHZ,P,-1.0,2021-05-16 13:27:00.300
nc73563250,2021-05-16 13:26:28.980,40.11933333333333,-123.923,18.77,2.9,NC.LCM..EHZ,P,,2021-05-16 13:27:00.350
nc73563250,2021-05-16 13:26:28.980,40.11933333333333,-123.923,18.77,2.9,NC.LDB..EHZ,P,,2021-05-16 13:26:55.730
nc73563250,2021-05-16 13:26:28.980,40.11933333333333,-123.923,18.77,2.9,NC.LDH..HHZ,P,,2021-05-16 13:26:58.880
nc73563250,2021-05-16 13:26:28.980,40.11933333333333,-123.923,18.77,2.9,NC.LEL..EHZ,P,,2021-05-16 13:26:59.190
nc73563250,2021-05-16 13:26:28.980,40.11933333333333,-123.923,18.77,2.9,NC.LGO..EHZ,P,,2021-05-16 13:27:06.790
nc73563250,2021-05-16 13:26:28.980,40.11933333333333,-123.923,18.77,2.9,NC.LGY..HHZ,P,-1.0,2021-05-16 13:26:58.940
nc73563250,2021-05-16 13:26:28.980,40.11933333333333,-123.923,18.77,2.9,NC.LMC..HHZ,P,,2021-05-16 13:26:58.410
nc73563250,2021-05-16 13:26:28.980,40.11933333333333,-123.923,18.77,2.9,NC.LMI..EHZ,P,,2021-05-16 13:26:52.440
nc73563250,2021-05-16 13:26:28.980,40.11933333333333,-123.923,18.77,2.9,NC.LMP..EHZ,P,-1.0,2021-05-16 13:27:00.990
nc73563250,2021-05-16 13:26:28.980,40.11933333333333,-123.923,18.77,2.9,NC.LRB..EHZ,P,,2021-05-16 13:26:48.190
nc73563250,2021-05-16 13:26:28.980,40.11933333333333,-123.923,18.77,2.9,NC.LRD..EHZ,P,,2021-05-16 13:26:59.860
nc73563250,2021-05-16 13:26:28.980,40.11933333333333,-123.923,18.77,2.9,NC.LSF..EHZ,P,,2021-05-16 13:26:49.350
nc73563250,2021-05-16 13:26:28.980,40.11933333333333,-123.923,18.77,2.9,NC.LSH..EHZ,P,,2021-05-16 13:26:54.980
nc73563250,2021-05-16 13:26:28.980,40.11933333333333,-123.923,18.77,2.9,NC.LSI..EHZ,P,,2021-05-16 13:26:59.870
nc73563250,2021-05-16 13:26:28.980,40.11933333333333,-123.923,18.77,2.9,NC.LTC..EHZ,P,,2021-05-16 13:26:52.330
nc73563250,2021-05-16 13:26:28.980,40.11933333333333,-123.923,18.77,2.9,NC.LTI..EHZ,P,,2021-05-16 13:27:03.010
nc73563250,2021-05-16 13:26:28.980,40.11933333333333,-123.923,18.77,2.9,NC.LWHB..EHZ,P,1.0,2021-05-16 13:26:54.910
nc73563250,2021-05-16 13:26:28.980,40.11933333333333,-123.923,18.77,2.9,NP.1023..HNZ,P,,2021-05-16 13:26:40.500
nc73563250,2021-05-16 13:26:28.980,40.11933333333333,-123.923,18.77,2.9,NP.1582..HNZ,P,1.0,2021-05-16 13:26:41.410
nc73563250,2021-05-16 13:26:28.980,40.11933333333333,-123.923,18.77,2.9,NP.1586..HNZ,P,1.0,2021-05-16 13:26:41.020
nc73563250,2021-05-16 13:26:28.980,40.11933333333333,-123.923,18.77,2.9,NP.1591..HNZ,P,-1.0,2021-05-16 13:26:33.120
nc73563290,2021-05-16 15:07:10.060,40.124833333333335,-123.92233333333333,17.72,1.82,BK.BRIC..HHZ,P,1.0,2021-05-16 15:07:13.540
nc73563290,2021-05-16 15:07:10.060,40.124833333333335,-123.92233333333333,17.72,1.82,BK.DCMP..HHZ,P,1.0,2021-05-16 15:07:23.890
nc73563290,2021-05-16 15:07:10.060,40.124833333333335,-123.92233333333333,17.72,1.82,BK.HAYF..HHZ,P,1.0,2021-05-16 15:07:22.990
nc73563290,2021-05-16 15:07:10.060,40.124833333333335,-123.92233333333333,17.72,1.82,BK.INGL..HHZ,P,1.0,2021-05-16 15:07:21.630
nc73563290,2021-05-16 15:07:10.060,40.124833333333335,-123.92233333333333,17.72,1.82,BK.JCC..HHZ,P,,2021-05-16 15:07:23.000
nc73563290,2021-05-16 15:07:10.060,40.124833333333335,-123.92233333333333,17.72,1.82,BK.PETL..HHZ,P,-1.0,2021-05-16 15:07:17.930
nc73563290,2021-05-16 15:07:10.060,40.124833333333335,-123.92233333333333,17.72,1.82,BK.PETY..HHZ,P,,2021-05-16 15:07:26.220
nc73563290,2021-05-16 15:07:10.060,40.124833333333335,-123.92233333333333,17.72,1.82,BK.RBOW..HHZ,P,-1.0,2021-05-16 15:07:16.190
nc73563290,2021-05-16 15:07:10.060,40.124833333333335,-123.92233333333333,17.72,1.82,BK.RVIT..HHZ,P,-1.0,2021-05-16 15:07:19.910
nc73563290,2021-05-16 15:07:10.060,40.124833333333335,-123.92233333333333,17.72,1.82,CE.79046..HNZ,P,,2021-05-16 15:07:18.360
nc73563290,2021-05-16 15:07:10.060,40.124833333333335,-123.92233333333333,17.72,1.82,CE.89688..HNZ,P,1.0,2021-05-16 15:07:14.450
nc73563290,2021-05-16 15:07:10.060,40.124833333333335,-123.92233333333333,17.72,1.82,NC.KBU..EHZ,P,1.0,2021-05-16 15:07:14.340
nc73563290,2021-05-16 15:07:10.060,40.124833333333335,-123.92233333333333,17.72,1.82,NC.KCO..EHZ,P,-1.0,2021-05-16 15:07:16.880
nc73563290,2021-05-16 15:07:10.060,40.124833333333335,-123.92233333333333,17.72,1.82,NC.KCPB..HHZ,P,1.0,2021-05-16 15:07:20.700
nc73563290,2021-05-16 15:07:10.060,40.124833333333335,-123.92233333333333,17.72,1.82,NC.KCR..EHZ,P,1.0,2021-05-16 15:07:17.050
nc73563290,2021-05-16 15:07:10.060,40.124833333333335,-123.92233333333333,17.72,1.82,NC.KCT..HHZ,P,-1.0,2021-05-16 15:07:20.250
nc73563290,2021-05-16 15:07:10.060,40.124833333333335,-123.92233333333333,17.72,1.82,NC.KFP..EHZ,P,-1.0,2021-05-16 15:07:21.690
nc73563290,2021-05-16 15:07:10.060,40.124833333333335,-123.92233333333333,17.72,1.82,NC.KHBB..HHZ,P,-1.0,2021-05-16 15:07:24.150
nc73563290,2021-05-16 15:07:10.060,40.124833333333335,-123.92233333333333,17.72,1.82,NC.KIP..EHZ,P,,2021-05-16 15:07:19.330
nc73563290,2021-05-16 15:07:10.060,40.124833333333335,-123.92233333333333,17.72,1.82,NC.KMPB..HHZ,P,-1.0,2021-05-16 15:07:17.390
nc73563290,2021-05-16 15:07:10.060,40.124833333333335,-123.92233333333333,17.72,1.82,NC.KMR..HHZ,P,-1.0,2021-05-16 15:07:14.950
nc73563290,2021-05-16 15:07:10.060,40.124833333333335,-123.92233333333333,17.72,1.82,NC.KPR..EHZ,P,-1.0,2021-05-16 15:07:14.520
nc73563290,2021-05-16 15:07:10.060,40.124833333333335,-123.92233333333333,17.72,1.82,NC.KRK..EHZ,P,,2021-05-16 15:07:24.510
nc73563290,2021-05-16 15:07:10.060,40.124833333333335,-123.92233333333333,17.72,1.82,NC.LBK..EHZ,P,,2021-05-16 15:07:32.960
nc73563290,2021-05-16 15:07:10.060,40.124833333333335,-123.92233333333333,17.72,1.82,NP.1591..HNZ,P,-1.0,2021-05-16 15:07:14.060
nc73563565,2021-05-17 06:36:10.320,40.12016666666667,-123.92133333333334,18.04,2.79,BK.BRIC..HHZ,P,1.0,2021-05-17 06:36:13.910
nc73563565,2021-05-17 06:36:10.320,40.12016666666667,-123.92133333333334,18.04,2.79,BK.DANT..HHZ,P,-1.0,2021-05-17 06:36:36.800
nc73563565,2021-05-17 06:36:10.320,40.12016666666667,-123.92133333333334,18.04,2.79,BK.DCMP..HHZ,P,-1.0,2021-05-17 06:36:24.150
nc73563565,2021-05-17 06:36:10.320,40.12016666666667,-123.92133333333334,18.04,2.79,BK.GALB..HHZ,P,,2021-05-17 06:36:31.850
nc73563565,2021-05-17 06:36:10.320,40.12016666666667,-123.92133333333334,18.04,2.79,BK.HAYF..HHZ,P,1.0,2021-05-17 06:36:23.410
nc73563565,2021-05-17 06:36:10.320,40.12016666666667,-123.92133333333334,18.04,2.79,BK.JCC..HHZ,P,1.0,2021-05-17 06:36:23.370
nc73563565,2021-05-17 06:36:10.320,40.12016666666667,-123.92133333333334,18.04,2.79,BK.LCOW..HHZ,P,1.0,2021-05-17 06:36:34.060
nc73563565,2021-05-17 06:36:10.320,40.12016666666667,-123.92133333333334,18.04,2.79,BK.MNDO..HHZ,P,,2021-05-17 06:36:24.800
nc73563565,2021-05-17 06:36:10.320,40.12016666666667,-123.92133333333334,18.04,2.79,BK.PETL..BHZ,P,-1.0,2021-05-17 06:36:18.070
nc73563565,2021-05-17 06:36:10.320,40.12016666666667,-123.92133333333334,18.04,2.79,BK.PETY..BHZ,P,1.0,2021-05-17 06:36:26.570
nc73563565,2021-05-17 06:36:10.320,40.12016666666667,-123.92133333333334,18.04,2.79,BK.RBOW..HHZ,P,-1.0,2021-05-17 06:36:16.600
nc73563565,2021-05-17 06:36:10.320,40.12016666666667,-123.92133333333334,18.04,2.79,BK.RVIT..HHZ,P,-1.0,2021-05-17 06:36:20.290
nc73563565,2021-05-17 06:36:10.320,40.12016666666667,-123.92133333333334,18.04,2.79,BK.SCOT..HHZ,P,1.0,2021-05-17 06:36:35.100
nc73563565,2021-05-17 06:36:10.320,40.12016666666667,-123.92133333333334,18.04,2.79,BK.SHEP..HHZ,P,,2021-05-17 06:36:46.490
nc73563565,2021-05-17 06:36:10.320,40.12016666666667,-123.92133333333334,18.04,2.79,BK.WEAV..HHZ,P,1.0,2021-05-17 06:36:27.020
nc73563565,2021-05-17 06:36:10.320,40.12016666666667,-123.92133333333334,18.04,2.79,BK.YBH..HHZ,P,,2021-05-17 06:36:40.330
nc73563565,2021-05-17 06:36:10.320,40.12016666666667,-123.92133333333334,18.04,2.79,CE.79046..HNZ,P,1.0,2021-05-17 06:36:18.730
nc73563565,2021-05-17 06:36:10.320,40.12016666666667,-123.92133333333334,18.04,2.79,CE.89688..HNZ,P,1.0,2021-05-17 06:36:14.820
nc73563565,2021-05-17 06:36:10.320,40.12016666666667,-123.92133333333334,18.04,2.79,NC.GBB..EHZ,P,1.0,2021-05-17 06:36:31.270
nc73563565,2021-05-17 06:36:10.320,40.12016666666667,-123.92133333333334,18.04,2.79,NC.GBL..EHZ,P,,2021-05-17 06:36:27.810
nc73563565,2021-05-17 06:36:10.320,40.12016666666667,-123.92133333333334,18.04,2.79,NC.GCK..EHZ,P,-1.0,2021-05-17 06:36:32.320
nc73563565,2021-05-17 06:36:10.320,40.12016666666667,-123.92133333333334,18.04,2.79,NC.GHGB..EHZ,P,,2021-05-17 06:36:31.550
nc73563565,2021-05-17 06:36:10.320,40.12016666666667,-123.92133333333334,18.04,2.79,NC.GHO..EHZ,P,1.0,2021-05-17 06:36:28.530
nc73563565,2021-05-17 06:36:10.320,40.12016666666667,-123.92133333333334,18.04,2.79,NC.GMR..EHZ,P,1.0,2021-05-17 06:36:27.520
nc73563565,2021-05-17 06:36:10.320,40.12016666666667,-123.92133333333334,18.04,2.79,NC.GNR..EHZ,P,1.0,2021-05-17 06:36:26.290
nc73563565,2021-05-17 06:36:10.320,40.12016666666667,-123.92133333333334,18.04,2.79,NC.GRO..EHZ,P,1.0,2021-05-17 06:36:27.680
nc73563565,2021-05-17 06:36:10.320,40.12016666666667,-123.92133333333334,18.04,2.79,NC.GWR..EHZ,P,,2021-05-17 06:36:27.510
nc73563565,2021-05-17 06:36:10.320,40.12016666666667,-123.92133333333334,18.04,2.79,NC.KBN..EHZ,P,-1.0,2021-05-17 06:36:22.450
nc73563565,2021-05-17 06:36:10.320,40.12016666666667,-123.92133333333334,18.04,2.79,NC.KBU..EHZ,P,-1.0,2021-05-17 06:36:14.710
nc73563565,2021-05-17 06:36:10.320,40.12016666666667,-123.92133333333334,18.04,2.79,NC.KCO..EHZ,P,-1.0,2021-05-17 06:36:17.220
nc73563565,2021-05-17 06:36:10.320,40.12016666666667,-123.92133333333334,18.04,2.79,NC.KCPB..HHZ,P,1.0,2021-05-17 06:36:20.580
nc73563565,2021-05-17 06:36:10.320,40.12016666666667,-123.92133333333334,18.04,2.79,NC.KCR..EHZ,P,1.0,2021-05-17 06:36:17.510
nc73563565,2021-05-17 06:36:10.320,40.12016666666667,-123.92133333333334,18.04,2.79,NC.KCT..HHZ,P,-1.0,2021-05-17 06:36:20.700
nc73563565,2021-05-17 06:36:10.320,40.12016666666667,-123.92133333333334,18.04,2.79,NC.KFP..EHZ,P,-1.0,2021-05-17 06:36:22.060
nc73563565,2021-05-17 06:36:10.320,40.12016666666667,-123.92133333333334,18.04,2.79,NC.KHBB..HHZ,P,1.0,2021-05-17 06:36:24.600
nc73563565,2021-05-17 06:36:10.320,40.12016666666667,-123.92133333333334,18.04,2.79,NC.KIP..EHZ,P,-1.0,2021-05-17 06:36:20.050
nc73563565,2021-05-17 06:36:10.320,40.12016666666667,-123.92133333333334,18.04,2.79,NC.KMPB..HNZ,P,-1.0,2021-05-17 06:36:17.810
nc73563565,2021-05-17 06:36:10.320,40.12016666666667,-123.92133333333334,18.04,2.79,NC.KMR..HHZ,P,-1.0,2021-05-17 06:36:15.350
nc73563565,2021-05-17 06:36:10.320,40.12016666666667,-123.92133333333334,18.04,2.79,NC.KOM..EHZ,P,,2021-05-17 06:36:29.870
nc73563565,2021-05-17 06:36:10.320,40.12016666666667,-123.92133333333334,18.04,2.79,NC.KPR..EHZ,P,-1.0,2021-05-17 06:36:14.920
nc73563565,2021-05-17 06:36:10.320,40.12016666666667,-123.92133333333334,18.04,2.79,NC.KRK..EHZ,P,-1.0,2021-05-17 06:36:24.820
nc73563565,2021-05-17 06:36:10.320,40.12016666666667,-123.92133333333334,18.04,2.79,NC.KRMB..HHZ,P,-1.0,2021-05-17 06:36:33.380
nc73563565,2021-05-17 06:36:10.320,40.12016666666667,-123.92133333333334,18.04,2.79,NC.LBF..EHZ,P,-1.0,2021-05-17 06:36:42.830
nc73563565,2021-05-17 06:36:10.320,40.12016666666667,-123.92133333333334,18.04,2.79,NC.LBK..EHZ,P,-1.0,2021-05-17 06:36:33.020
nc73563565,2021-05-17 06:36:10.320,40.12016666666667,-123.92133333333334,18.04,2.79,NC.LBO..EHZ,P,-1.0,2021-05-17 06:36:41.290
nc73563565,2021-05-17 06:36:10.320,40.12016666666667,-123.92133333333334,18.04,2.79,NC.LBR..HHZ,P,-1.0,2021-05-17 06:36:41.910
nc73563565,2021-05-17 06:36:10.320,40.12016666666667,-123.92133333333334,18.04,2.79,NC.LCSB..EHZ,P,,2021-05-17 06:36:37.820
nc73563565,2021-05-17 06:36:10.320,40.12016666666667,-123.92133333333334,18.04,2.79,NC.LDB..EHZ,P,,2021-05-17 06:36:36.930
nc73563565,2021-05-17 06:36:10.320,40.12016666666667,-123.92133333333334,18.04,2.79,NC.LDL..HHZ,P,-1.0,2021-05-17 06:36:39.860
nc73563565,2021-05-17 06:36:10.320,40.12016666666667,-123.92133333333334,18.04,2.79,NC.LGY..HHZ,P,1.0,2021-05-17 06:36:40.290
nc73563565,2021-05-17 06:36:10.320,40.12016666666667,-123.92133333333334,18.04,2.79,NC.LMC..HHZ,P,-1.0,2021-05-17 06:36:39.720
nc73563565,2021-05-17 06:36:10.320,40.12016666666667,-123.92133333333334,18.04,2.79,NC.LMH..EHZ,P,,2021-05-17 06:36:44.590
nc73563565,2021-05-17 06:36:10.320,40.12016666666667,-123.92133333333334,18.04,2.79,NC.LMI..EHZ,P,1.0,2021-05-17 06:36:33.930
nc73563565,2021-05-17 06:36:10.320,40.12016666666667,-123.92133333333334,18.04,2.79,NC.LMP..EHZ,P,1.0,2021-05-17 06:36:41.940
nc73563565,2021-05-17 06:36:10.320,40.12016666666667,-123.92133333333334,18.04,2.79,NC.LRB..EHZ,P,-1.0,2021-05-17 06:36:30.230
nc73563565,2021-05-17 06:36:10.320,40.12016666666667,-123.92133333333334,18.04,2.79,NC.LRD..EHZ,P,-1.0,2021-05-17 06:36:41.310
nc73563565,2021-05-17 06:36:10.320,40.12016666666667,-123.92133333333334,18.04,2.79,NC.LSF..EHZ,P,-1.0,2021-05-17 06:36:30.870
nc73563565,2021-05-17 06:36:10.320,40.12016666666667,-123.92133333333334,18.04,2.79,NC.LSH..EHZ,P,,2021-05-17 06:36:36.370
nc73563565,2021-05-17 06:36:10.320,40.12016666666667,-123.92133333333334,18.04,2.79,NC.LSI..EHZ,P,,2021-05-17 06:36:39.960
nc73563565,2021-05-17 06:36:10.320,40.12016666666667,-123.92133333333334,18.04,2.79,NC.LTI..EHZ,P,-1.0,2021-05-17 06:36:44.250
nc73563565,2021-05-17 06:36:10.320,40.12016666666667,-123.92133333333334,18.04,2.79,NC.LWHB..EHZ,P,1.0,2021-05-17 06:36:36.440
nc73563565,2021-05-17 06:36:10.320,40.12016666666667,-123.92133333333334,18.04,2.79,NP.1586..HNZ,P,1.0,2021-05-17 06:36:22.380
nc73563565,2021-05-17 06:36:10.320,40.12016666666667,-123.92133333333334,18.04,2.79,NP.1591..HNZ,P,-1.0,2021-05-17 06:36:14.440
nc73564125,2021-05-18 12:05:48.660,40.29083333333333,-124.44133333333333,11.84,1.62,BK.BRIC..HHZ,P,1.0,2021-05-18 12:05:58.380
nc73564125,2021-05-18 12:05:48.660,40.29083333333333,-124.44133333333333,11.84,1.62,BK.INGL..HHZ,P,,2021-05-18 12:06:05.440
nc73564125,2021-05-18 12:05:48.660,40.29083333333333,-124.44133333333333,11.84,1.62,BK.JCC..HHZ,P,1.0,2021-05-18 12:06:00.140
nc73564125,2021-05-18 12:05:48.660,40.29083333333333,-124.44133333333333,11.84,1.62,BK.PETL..HHZ,P,1.0,2021-05-18 12:05:51.630
nc73564125,2021-05-18 12:05:48.660,40.29083333333333,-124.44133333333333,11.84,1.62,BK.RBOW..HHZ,P,1.0,2021-05-18 12:05:54.550
nc73564125,2021-05-18 12:05:48.660,40.29083333333333,-124.44133333333333,11.84,1.62,BK.SCOT..HHZ,P,,2021-05-18 12:06:15.510
nc73564125,2021-05-18 12:05:48.660,40.29083333333333,-124.44133333333333,11.84,1.62,CE.89688..HNZ,P,,2021-05-18 12:05:56.280
nc73564125,2021-05-18 12:05:48.660,40.29083333333333,-124.44133333333333,11.84,1.62,NC.GNR..EHZ,P,,2021-05-18 12:06:09.630
nc73564125,2021-05-18 12:05:48.660,40.29083333333333,-124.44133333333333,11.84,1.62,NC.KBU..EHZ,P,1.0,2021-05-18 12:05:58.480
nc73564125,2021-05-18 12:05:48.660,40.29083333333333,-124.44133333333333,11.84,1.62,NC.KCO..EHZ,P,1.0,2021-05-18 12:05:52.660
nc73564125,2021-05-18 12:05:48.660,40.29083333333333,-124.44133333333333,11.84,1.62,NC.KCR..EHZ,P,1.0,2021-05-18 12:05:59.170
nc73564125,2021-05-18 12:05:48.660,40.29083333333333,-124.44133333333333,11.84,1.62,NC.KCT..HHZ,P,1.0,2021-05-18 12:05:53.690
nc73564125,2021-05-18 12:05:48.660,40.29083333333333,-124.44133333333333,11.84,1.62,NC.KFP..EHZ,P,,2021-05-18 12:06:06.510
nc73564125,2021-05-18 12:05:48.660,40.29083333333333,-124.44133333333333,11.84,1.62,NC.KMPB..HHZ,P,1.0,2021-05-18 12:05:54.810
nc73564125,2021-05-18 12:05:48.660,40.29083333333333,-124.44133333333333,11.84,1.62,NC.KMR..HHZ,P,,2021-05-18 12:06:00.340
nc73564125,2021-05-18 12:05:48.660,40.29083333333333,-124.44133333333333,11.84,1.62,NC.KPR..EHZ,P,1.0,2021-05-18 12:05:55.490
nc73564125,2021-05-18 12:05:48.660,40.29083333333333,-124.44133333333333,11.84,1.62,NC.KSXB..HHZ,P,,2021-05-18 12:06:14.310
nc73564125,2021-05-18 12:05:48.660,40.29083333333333,-124.44133333333333,11.84,1.62,NP.1586..HNZ,P,1.0,2021-05-18 12:05:57.490
nc73564280,2021-05-18 18:56:56.870,40.3015,-124.47083333333333,10.14,1.81,BK.BRIC..HHZ,P,,2021-05-18 18:57:07.260
nc73564280,2021-05-18 18:56:56.870,40.3015,-124.47083333333333,10.14,1.81,BK.INGL..HHZ,P,-1.0,2021-05-18 18:57:14.670
nc73564280,2021-05-18 18:56:56.870,40.3015,-124.47083333333333,10.14,1.81,BK.JCC..HHZ,P,1.0,2021-05-18 18:57:09.140
nc73564280,2021-05-18 18:56:56.870,40.3015,-124.47083333333333,10.14,1.81,BK.PETL..HHZ,P,-1.0,2021-05-18 18:56:59.970
nc73564280,2021-05-18 18:56:56.870,40.3015,-124.47083333333333,10.14,1.81,BK.RBOW..HHZ,P,1.0,2021-05-18 18:57:03.290
nc73564280,2021-05-18 18:56:56.870,40.3015,-124.47083333333333,10.14,1.81,CE.89688..HNZ,P,-1.0,2021-05-18 18:57:05.030
