event_id,etime,elat,elon,edep,emag,station_id,phase_type,phase_polarity,phase_time
nc73683711,2022-01-27 19:50:02.570,39.79933333333334,-123.18266666666666,5.92,2.34,BK.BONV..HHZ,P,-1.0,2022-01-27 19:50:18.180
nc73683711,2022-01-27 19:50:02.570,39.79933333333334,-123.18266666666666,5.92,2.34,BK.BRIC..HHZ,P,1.0,2022-01-27 19:50:15.630
nc73683711,2022-01-27 19:50:02.570,39.79933333333334,-123.18266666666666,5.92,2.34,BK.DCMP..HHZ,P,-1.0,2022-01-27 19:50:09.730
nc73683711,2022-01-27 19:50:02.570,39.79933333333334,-123.18266666666666,5.92,2.34,BK.GALB..HHZ,P,1.0,2022-01-27 19:50:20.950
nc73683711,2022-01-27 19:50:02.570,39.79933333333334,-123.18266666666666,5.92,2.34,BK.GTSB..HHZ,P,1.0,2022-01-27 19:50:15.900
nc73683711,2022-01-27 19:50:02.570,39.79933333333334,-123.18266666666666,5.92,2.34,BK.HAYF..HHZ,P,-1.0,2022-01-27 19:50:16.430
nc73683711,2022-01-27 19:50:02.570,39.79933333333334,-123.18266666666666,5.92,2.34,BK.PETY..HHZ,P,1.0,2022-01-27 19:50:12.480
nc73683711,2022-01-27 19:50:02.570,39.79933333333334,-123.18266666666666,5.92,2.34,BK.RBOW..HHZ,P,,2022-01-27 19:50:19.690
nc73683711,2022-01-27 19:50:02.570,39.79933333333334,-123.18266666666666,5.92,2.34,BK.WEAV..HHZ,P,1.0,2022-01-27 19:50:20.810
nc73683711,2022-01-27 19:50:02.570,39.79933333333334,-123.18266666666666,5.92,2.34,NC.GBL..EHZ,P,,2022-01-27 19:50:17.580
nc73683711,2022-01-27 19:50:02.570,39.79933333333334,-123.18266666666666,5.92,2.34,NC.GCK..EHZ,P,-1.0,2022-01-27 19:50:16.060
nc73683711,2022-01-27 19:50:02.570,39.79933333333334,-123.18266666666666,5.92,2.34,NC.GHGB..EHZ,P,-1.0,2022-01-27 19:50:16.860
nc73683711,2022-01-27 19:50:02.570,39.79933333333334,-123.18266666666666,5.92,2.34,NC.GHO..EHZ,P,1.0,2022-01-27 19:50:17.870
nc73683711,2022-01-27 19:50:02.570,39.79933333333334,-123.18266666666666,5.92,2.34,NC.GMR..EHZ,P,1.0,2022-01-27 19:50:16.500
nc73683711,2022-01-27 19:50:02.570,39.79933333333334,-123.18266666666666,5.92,2.34,NC.GNR..EHZ,P,-1.0,2022-01-27 19:50:16.270
nc73683711,2022-01-27 19:50:02.570,39.79933333333334,-123.18266666666666,5.92,2.34,NC.GROB..EHZ,P,1.0,2022-01-27 19:50:11.140
nc73683711,2022-01-27 19:50:02.570,39.79933333333334,-123.18266666666666,5.92,2.34,NC.GSN..EHZ,P,1.0,2022-01-27 19:50:19.880
nc73683711,2022-01-27 19:50:02.570,39.79933333333334,-123.18266666666666,5.92,2.34,NC.GVA..EHZ,P,-1.0,2022-01-27 19:50:11.190
nc73683711,2022-01-27 19:50:02.570,39.79933333333334,-123.18266666666666,5.92,2.34,NC.GWR..EHZ,P,1.0,2022-01-27 19:50:14.850
nc73683711,2022-01-27 19:50:02.570,39.79933333333334,-123.18266666666666,5.92,2.34,NC.GWW..EHZ,P,,2022-01-27 19:50:22.100
nc73683711,2022-01-27 19:50:02.570,39.79933333333334,-123.18266666666666,5.92,2.34,NC.KBN..EHZ,P,1.0,2022-01-27 19:50:05.120
nc73683711,2022-01-27 19:50:02.570,39.79933333333334,-123.18266666666666,5.92,2.34,NC.KBU..EHZ,P,-1.0,2022-01-27 19:50:16.440
nc73683711,2022-01-27 19:50:02.570,39.79933333333334,-123.18266666666666,5.92,2.34,NC.KCPB..HHZ,P,1.0,2022-01-27 19:50:09.520
nc73683711,2022-01-27 19:50:02.570,39.79933333333334,-123.18266666666666,5.92,2.34,NC.KCR..EHZ,P,-1.0,2022-01-27 19:50:18.370
nc73683711,2022-01-27 19:50:02.570,39.79933333333334,-123.18266666666666,5.92,2.34,NC.KFP..EHZ,P,1.0,2022-01-27 19:50:07.680
nc73683711,2022-01-27 19:50:02.570,39.79933333333334,-123.18266666666666,5.92,2.34,NC.KHBB..HHZ,P,-1.0,2022-01-27 19:50:18.800
nc73683711,2022-01-27 19:50:02.570,39.79933333333334,-123.18266666666666,5.92,2.34,NC.KIP..EHZ,P,1.0,2022-01-27 19:50:07.230
nc73683711,2022-01-27 19:50:02.570,39.79933333333334,-123.18266666666666,5.92,2.34,NC.KMR..HHZ,P,-1.0,2022-01-27 19:50:14.240
nc73683711,2022-01-27 19:50:02.570,39.79933333333334,-123.18266666666666,5.92,2.34,NC.KRK..EHZ,P,-1.0,2022-01-27 19:50:07.700
nc73683711,2022-01-27 19:50:02.570,39.79933333333334,-123.18266666666666,5.92,2.34,NC.LBK..EHZ,P,1.0,2022-01-27 19:50:27.710
nc73683711,2022-01-27 19:50:02.570,39.79933333333334,-123.18266666666666,5.92,2.34,NC.LSF..EHZ,P,,2022-01-27 19:50:21.510
nc73683711,2022-01-27 19:50:02.570,39.79933333333334,-123.18266666666666,5.92,2.34,NC.LVR..EHZ,P,-1.0,2022-01-27 19:50:11.920
nc73683711,2022-01-27 19:50:02.570,39.79933333333334,-123.18266666666666,5.92,2.34,PB.B049..EHZ,P,-1.0,2022-01-27 19:50:15.800
nc73683711,2022-01-27 19:50:02.570,39.79933333333334,-123.18266666666666,5.92,2.34,PB.B932..EHZ,P,1.0,2022-01-27 19:50:19.590
nc73683711,2022-01-27 19:50:02.570,39.79933333333334,-123.18266666666666,5.92,2.34,PB.B934..EHZ,P,-1.0,2022-01-27 19:50:10.450
nc73683711,2022-01-27 19:50:02.570,39.79933333333334,-123.18266666666666,5.92,2.34,PB.B935..EHZ,P,-1.0,2022-01-27 19:50:17.540
nc73683751,2022-01-27 22:01:08.710,39.79483333333334,-123.1815,6.52,2.38,BK.BONV..HHZ,P,-1.0,2022-01-27 22:01:25.020
nc73683751,2022-01-27 22:01:08.710,39.79483333333334,-123.1815,6.52,2.38,BK.BRIC..HHZ,P,-1.0,2022-01-27 22:01:21.720
nc73683751,2022-01-27 22:01:08.710,39.79483333333334,-123.1815,6.52,2.38,BK.DCMP..HHZ,P,-1.0,2022-01-27 22:01:15.770
nc73683751,2022-01-27 22:01:08.710,39.79483333333334,-123.1815,6.52,2.38,BK.GTSB..HHZ,P,-1.0,2022-01-27 22:01:21.960
nc73683751,2022-01-27 22:01:08.710,39.79483333333334,-123.1815,6.52,2.38,BK.HAYF..HHZ,P,-1.0,2022-01-27 22:01:22.560
nc73683751,2022-01-27 22:01:08.710,39.79483333333334,-123.1815,6.52,2.38,BK.PETY..HHZ,P,1.0,2022-01-27 22:01:18.650
nc73683751,2022-01-27 22:01:08.710,39.79483333333334,-123.1815,6.52,2.38,BK.WEAV..HHZ,P,-1.0,2022-01-27 22:01:26.830
nc73683751,2022-01-27 22:01:08.710,39.79483333333334,-123.1815,6.52,2.38,NC.GBL..EHZ,P,,2022-01-27 22:01:24.970
nc73683751,2022-01-27 22:01:08.710,39.79483333333334,-123.1815,6.52,2.38,NC.GCK..EHZ,P,-1.0,2022-01-27 22:01:22.270
nc73683751,2022-01-27 22:01:08.710,39.79483333333334,-123.1815,6.52,2.38,NC.GHGB..EHZ,P,,2022-01-27 22:01:22.950
nc73683751,2022-01-27 22:01:08.710,39.79483333333334,-123.1815,6.52,2.38,NC.GHO..EHZ,P,1.0,2022-01-27 22:01:24.680
nc73683751,2022-01-27 22:01:08.710,39.79483333333334,-123.1815,6.52,2.38,NC.GMR..EHZ,P,1.0,2022-01-27 22:01:22.590
nc73683751,2022-01-27 22:01:08.710,39.79483333333334,-123.1815,6.52,2.38,NC.GNR..EHZ,P,1.0,2022-01-27 22:01:22.420
nc73683751,2022-01-27 22:01:08.710,39.79483333333334,-123.1815,6.52,2.38,NC.GROB..EHZ,P,1.0,2022-01-27 22:01:17.290
nc73683751,2022-01-27 22:01:08.710,39.79483333333334,-123.1815,6.52,2.38,NC.GSN..EHZ,P,-1.0,2022-01-27 22:01:25.910
nc73683751,2022-01-27 22:01:08.710,39.79483333333334,-123.1815,6.52,2.38,NC.GVA..EHZ,P,-1.0,2022-01-27 22:01:17.290
nc73683751,2022-01-27 22:01:08.710,39.79483333333334,-123.1815,6.52,2.38,NC.GWR..EHZ,P,-1.0,2022-01-27 22:01:20.700
nc73683751,2022-01-27 22:01:08.710,39.79483333333334,-123.1815,6.52,2.38,NC.KBN..EHZ,P,1.0,2022-01-27 22:01:11.290
nc73683751,2022-01-27 22:01:08.710,39.79483333333334,-123.1815,6.52,2.38,NC.KBU..EHZ,P,-1.0,2022-01-27 22:01:22.570
nc73683751,2022-01-27 22:01:08.710,39.79483333333334,-123.1815,6.52,2.38,NC.KCPB..HHZ,P,1.0,2022-01-27 22:01:15.650
nc73683751,2022-01-27 22:01:08.710,39.79483333333334,-123.1815,6.52,2.38,NC.KFP..EHZ,P,1.0,2022-01-27 22:01:13.810
nc73683751,2022-01-27 22:01:08.710,39.79483333333334,-123.1815,6.52,2.38,NC.KHBB..HHZ,P,1.0,2022-01-27 22:01:24.970
nc73683751,2022-01-27 22:01:08.710,39.79483333333334,-123.1815,6.52,2.38,NC.KIP..EHZ,P,1.0,2022-01-27 22:01:13.380
nc73683751,2022-01-27 22:01:08.710,39.79483333333334,-123.1815,6.52,2.38,NC.KRK..EHZ,P,1.0,2022-01-27 22:01:13.780
nc73683751,2022-01-27 22:01:08.710,39.79483333333334,-123.1815,6.52,2.38,NC.LSF..EHZ,P,1.0,2022-01-27 22:01:27.680
nc73683751,2022-01-27 22:01:08.710,39.79483333333334,-123.1815,6.52,2.38,NC.LVR..EHZ,P,1.0,2022-01-27 22:01:18.350
nc73683751,2022-01-27 22:01:08.710,39.79483333333334,-123.1815,6.52,2.38,PB.B049..EHZ,P,-1.0,2022-01-27 22:01:21.900
nc73683751,2022-01-27 22:01:08.710,39.79483333333334,-123.1815,6.52,2.38,PB.B933..EHZ,P,,2022-01-27 22:01:22.160
nc73683751,2022-01-27 22:01:08.710,39.79483333333334,-123.1815,6.52,2.38,PB.B934..EHZ,P,1.0,2022-01-27 22:01:16.750
nc73683751,2022-01-27 22:01:08.710,39.79483333333334,-123.1815,6.52,2.38,PB.B935..EHZ,P,-1.0,2022-01-27 22:01:23.790
nc73683761,2022-01-27 22:03:12.610,39.79833333333333,-123.17766666666667,7.41,1.99,BK.BONV..HHZ,P,,2022-01-27 22:03:28.470
nc73683761,2022-01-27 22:03:12.610,39.79833333333333,-123.17766666666667,7.41,1.99,BK.BRIC..HHZ,P,,2022-01-27 22:03:25.690
nc73683761,2022-01-27 22:03:12.610,39.79833333333333,-123.17766666666667,7.41,1.99,BK.DCMP..HHZ,P,1.0,2022-01-27 22:03:19.770
nc73683761,2022-01-27 22:03:12.610,39.79833333333333,-123.17766666666667,7.41,1.99,BK.GTSB..HHZ,P,1.0,2022-01-27 22:03:25.980
nc73683761,2022-01-27 22:03:12.610,39.79833333333333,-123.17766666666667,7.41,1.99,BK.HAYF..HHZ,P,-1.0,2022-01-27 22:03:26.540
nc73683761,2022-01-27 22:03:12.610,39.79833333333333,-123.17766666666667,7.41,1.99,BK.PETY..HHZ,P,1.0,2022-01-27 22:03:22.570
nc73683761,2022-01-27 22:03:12.610,39.79833333333333,-123.17766666666667,7.41,1.99,BK.RBOW..HHZ,P,-1.0,2022-01-27 22:03:29.760
nc73683761,2022-01-27 22:03:12.610,39.79833333333333,-123.17766666666667,7.41,1.99,NC.GBL..EHZ,P,,2022-01-27 22:03:28.460
nc73683761,2022-01-27 22:03:12.610,39.79833333333333,-123.17766666666667,7.41,1.99,NC.GCK..EHZ,P,-1.0,2022-01-27 22:03:26.190
nc73683761,2022-01-27 22:03:12.610,39.79833333333333,-123.17766666666667,7.41,1.99,NC.GHGB..EHZ,P,1.0,2022-01-27 22:03:27.240
nc73683761,2022-01-27 22:03:12.610,39.79833333333333,-123.17766666666667,7.41,1.99,NC.GHO..EHZ,P,-1.0,2022-01-27 22:03:27.870
nc73683761,2022-01-27 22:03:12.610,39.79833333333333,-123.17766666666667,7.41,1.99,NC.GNR..EHZ,P,,2022-01-27 22:03:26.290
nc73683761,2022-01-27 22:03:12.610,39.79833333333333,-123.17766666666667,7.41,1.99,NC.GVA..EHZ,P,-1.0,2022-01-27 22:03:21.250
nc73683761,2022-01-27 22:03:12.610,39.79833333333333,-123.17766666666667,7.41,1.99,NC.GWR..EHZ,P,,2022-01-27 22:03:24.710
nc73683761,2022-01-27 22:03:12.610,39.79833333333333,-123.17766666666667,7.41,1.99,NC.KBN..EHZ,P,1.0,2022-01-27 22:03:15.280
nc73683761,2022-01-27 22:03:12.610,39.79833333333333,-123.17766666666667,7.41,1.99,NC.KCPB..HHZ,P,1.0,2022-01-27 22:03:19.600
nc73683761,2022-01-27 22:03:12.610,39.79833333333333,-123.17766666666667,7.41,1.99,NC.KFP..EHZ,P,1.0,2022-01-27 22:03:17.760
nc73683761,2022-01-27 22:03:12.610,39.79833333333333,-123.17766666666667,7.41,1.99,NC.KIP..EHZ,P,1.0,2022-01-27 22:03:17.330
nc73683761,2022-01-27 22:03:12.610,39.79833333333333,-123.17766666666667,7.41,1.99,NC.KMR..HHZ,P,,2022-01-27 22:03:24.300
nc73683761,2022-01-27 22:03:12.610,39.79833333333333,-123.17766666666667,7.41,1.99,NC.KRK..EHZ,P,-1.0,2022-01-27 22:03:17.760
nc73683761,2022-01-27 22:03:12.610,39.79833333333333,-123.17766666666667,7.41,1.99,NC.LVR..EHZ,P,,2022-01-27 22:03:22.240
nc73683761,2022-01-27 22:03:12.610,39.79833333333333,-123.17766666666667,7.41,1.99,PB.B047..EHZ,P,,2022-01-27 22:03:29.580
nc73683761,2022-01-27 22:03:12.610,39.79833333333333,-123.17766666666667,7.41,1.99,PB.B049..EHZ,P,1.0,2022-01-27 22:03:26.020
nc73683761,2022-01-27 22:03:12.610,39.79833333333333,-123.17766666666667,7.41,1.99,PB.B932..EHZ,P,,2022-01-27 22:03:29.690
nc73683761,2022-01-27 22:03:12.610,39.79833333333333,-123.17766666666667,7.41,1.99,PB.B933..EHZ,P,,2022-01-27 22:03:25.910
nc73683761,2022-01-27 22:03:12.610,39.79833333333333,-123.17766666666667,7.41,1.99,PB.B934..EHZ,P,-1.0,2022-01-27 22:03:20.700
nc73683761,2022-01-27 22:03:12.610,39.79833333333333,-123.17766666666667,7.41,1.99,PB.B935..EHZ,P,-1.0,2022-01-27 22:03:27.760
nc73684591,2022-01-28 00:24:37.600,39.797666666666665,-123.17833333333333,7.48,2.42,BG.AL1..DPZ,P,,2022-01-28 00:24:57.320
nc73684591,2022-01-28 00:24:37.600,39.797666666666665,-123.17833333333333,7.48,2.42,BK.BARR..HNZ,P,,2022-01-28 00:24:47.730
nc73684591,2022-01-28 00:24:37.600,39.797666666666665,-123.17833333333333,7.48,2.42,BK.BONV..HHZ,P,,2022-01-28 00:24:53.370
nc73684591,2022-01-28 00:24:37.600,39.797666666666665,-123.17833333333333,7.48,2.42,BK.BRIC..HHZ,P,1.0,2022-01-28 00:24:50.910
nc73684591,2022-01-28 00:24:37.600,39.797666666666665,-123.17833333333333,7.48,2.42,BK.DANT..HHZ,P,,2022-01-28 00:24:58.880
nc73684591,2022-01-28 00:24:37.600,39.797666666666665,-123.17833333333333,7.48,2.42,BK.DCMP..HHZ,P,-1.0,2022-01-28 00:24:44.710
nc73684591,2022-01-28 00:24:37.600,39.797666666666665,-123.17833333333333,7.48,2.42,BK.DMOR..HHZ,P,,2022-01-28 00:24:43.420
nc73684591,2022-01-28 00:24:37.600,39.797666666666665,-123.17833333333333,7.48,2.42,BK.GALB..HHZ,P,1.0,2022-01-28 00:24:56.050
nc73684591,2022-01-28 00:24:37.600,39.797666666666665,-123.17833333333333,7.48,2.42,BK.GRPK..HHZ,P,,2022-01-28 00:25:06.630
nc73684591,2022-01-28 00:24:37.600,39.797666666666665,-123.17833333333333,7.48,2.42,BK.GTSB..HHZ,P,-1.0,2022-01-28 00:24:50.790
nc73684591,2022-01-28 00:24:37.600,39.797666666666665,-123.17833333333333,7.48,2.42,BK.GUMB..HHZ,P,,2022-01-28 00:25:04.810
nc73684591,2022-01-28 00:24:37.600,39.797666666666665,-123.17833333333333,7.48,2.42,BK.HAYF..HHZ,P,-1.0,2022-01-28 00:24:51.460
nc73684591,2022-01-28 00:24:37.600,39.797666666666665,-123.17833333333333,7.48,2.42,BK.JCC..HHZ,P,,2022-01-28 00:24:59.600
nc73684591,2022-01-28 00:24:37.600,39.797666666666665,-123.17833333333333,7.48,2.42,BK.LCOW..HHZ,P,,2022-01-28 00:24:58.880
nc73684591,2022-01-28 00:24:37.600,39.797666666666665,-123.17833333333333,7.48,2.42,BK.MNRC..HHZ,P,,2022-01-28 00:25:00.980
nc73684591,2022-01-28 00:24:37.600,39.797666666666665,-123.17833333333333,7.48,2.42,BK.PETY..HHZ,P,1.0,2022-01-28 00:24:47.490
nc73684591,2022-01-28 00:24:37.600,39.797666666666665,-123.17833333333333,7.48,2.42,BK.RBOW..HHZ,P,,2022-01-28 00:24:54.690
nc73684591,2022-01-28 00:24:37.600,39.797666666666665,-123.17833333333333,7.48,2.42,BK.RVIT..HHZ,P,1.0,2022-01-28 00:24:41.940
nc73684591,2022-01-28 00:24:37.600,39.797666666666665,-123.17833333333333,7.48,2.42,BK.SAGE..HHZ,P,,2022-01-28 00:25:02.110
nc73684591,2022-01-28 00:24:37.600,39.797666666666665,-123.17833333333333,7.48,2.42,BK.SCOT..HHZ,P,,2022-01-28 00:25:06.220
nc73684591,2022-01-28 00:24:37.600,39.797666666666665,-123.17833333333333,7.48,2.42,BK.SUTB..HHZ,P,,2022-01-28 00:24:59.350
nc73684591,2022-01-28 00:24:37.600,39.797666666666665,-123.17833333333333,7.48,2.42,BK.WEAV..HHZ,P,,2022-01-28 00:24:55.650
nc73684591,2022-01-28 00:24:37.600,39.797666666666665,-123.17833333333333,7.48,2.42,CE.79046..HNZ,P,1.0,2022-01-28 00:24:47.570
nc73684591,2022-01-28 00:24:37.600,39.797666666666665,-123.17833333333333,7.48,2.42,NC.GBL..EHZ,P,,2022-01-28 00:24:52.620
nc73684591,2022-01-28 00:24:37.600,39.797666666666665,-123.17833333333333,7.48,2.42,NC.GCK..EHZ,P,1.0,2022-01-28 00:24:51.020
nc73684591,2022-01-28 00:24:37.600,39.797666666666665,-123.17833333333333,7.48,2.42,NC.GFC..EHZ,P,,2022-01-28 00:24:55.580
nc73684591,2022-01-28 00:24:37.600,39.797666666666665,-123.17833333333333,7.48,2.42,NC.GGPC..EHZ,P,,2022-01-28 00:24:58.940
nc73684591,2022-01-28 00:24:37.600,39.797666666666665,-123.17833333333333,7.48,2.42,NC.GHGB..EHZ,P,,2022-01-28 00:24:51.980
nc73684591,2022-01-28 00:24:37.600,39.797666666666665,-123.17833333333333,7.48,2.42,NC.GHO..EHZ,P,,2022-01-28 00:24:52.890
nc73684591,2022-01-28 00:24:37.600,39.797666666666665,-123.17833333333333,7.48,2.42,NC.GMR..EHZ,P,,2022-01-28 00:24:51.560
nc73684591,2022-01-28 00:24:37.600,39.797666666666665,-123.17833333333333,7.48,2.42,NC.GNR..EHZ,P,1.0,2022-01-28 00:24:51.320
nc73684591,2022-01-28 00:24:37.600,39.797666666666665,-123.17833333333333,7.48,2.42,NC.GPM..EHZ,P,,2022-01-28 00:24:57.140
nc73684591,2022-01-28 00:24:37.600,39.797666666666665,-123.17833333333333,7.48,2.42,NC.GROB..EHZ,P,1.0,2022-01-28 00:24:46.180
nc73684591,2022-01-28 00:24:37.600,39.797666666666665,-123.17833333333333,7.48,2.42,NC.GSN..EHZ,P,1.0,2022-01-28 00:24:54.920
nc73684591,2022-01-28 00:24:37.600,39.797666666666665,-123.17833333333333,7.48,2.42,NC.GVA..EHZ,P,-1.0,2022-01-28 00:24:46.210
nc73684591,2022-01-28 00:24:37.600,39.797666666666665,-123.17833333333333,7.48,2.42,NC.GWR..EHZ,P,,2022-01-28 00:24:49.870
nc73684591,2022-01-28 00:24:37.600,39.797666666666665,-123.17833333333333,7.48,2.42,NC.KBN..EHZ,P,1.0,2022-01-28 00:24:40.210
nc73684591,2022-01-28 00:24:37.600,39.797666666666665,-123.17833333333333,7.48,2.42,NC.KBU..EHZ,P,,2022-01-28 00:24:51.500
nc73684591,2022-01-28 00:24:37.600,39.797666666666665,-123.17833333333333,7.48,2.42,NC.KCPB..HHZ,P,1.0,2022-01-28 00:24:44.600
nc73684591,2022-01-28 00:24:37.600,39.797666666666665,-123.17833333333333,7.48,2.42,NC.KCT..HHZ,P,,2022-01-28 00:24:58.300
nc73684591,2022-01-28 00:24:37.600,39.797666666666665,-123.17833333333333,7.48,2.42,NC.KFP..EHZ,P,1.0,2022-01-28 00:24:42.750
nc73684591,2022-01-28 00:24:37.600,39.797666666666665,-123.17833333333333,7.48,2.42,NC.KHBB..HHZ,P,,2022-01-28 00:24:53.920
nc73684591,2022-01-28 00:24:37.600,39.797666666666665,-123.17833333333333,7.48,2.42,NC.KHMB..HHZ,P,,2022-01-28 00:24:59.320
nc73684591,2022-01-28 00:24:37.600,39.797666666666665,-123.17833333333333,7.48,2.42,NC.KIP..EHZ,P,1.0,2022-01-28 00:24:42.330
nc73684591,2022-01-28 00:24:37.600,39.797666666666665,-123.17833333333333,7.48,2.42,NC.KMPB..HHZ,P,,2022-01-28 00:24:56.020
nc73684591,2022-01-28 00:24:37.600,39.797666666666665,-123.17833333333333,7.48,2.42,NC.KMR..HHZ,P,,2022-01-28 00:24:49.390
nc73684591,2022-01-28 00:24:37.600,39.797666666666665,-123.17833333333333,7.48,2.42,NC.KPR..EHZ,P,,2022-01-28 00:24:53.160
nc73684591,2022-01-28 00:24:37.600,39.797666666666665,-123.17833333333333,7.48,2.42,NC.KRK..EHZ,P,-1.0,2022-01-28 00:24:42.750
nc73684591,2022-01-28 00:24:37.600,39.797666666666665,-123.17833333333333,7.48,2.42,NC.LBK..EHZ,P,,2022-01-28 00:25:02.310
nc73684591,2022-01-28 00:24:37.600,39.797666666666665,-123.17833333333333,7.48,2.42,NC.LDH..HHZ,P,,2022-01-28 00:25:03.480
nc73684591,2022-01-28 00:24:37.600,39.797666666666665,-123.17833333333333,7.48,2.42,NC.LMI..EHZ,P,,2022-01-28 00:24:57.960
nc73684591,2022-01-28 00:24:37.600,39.797666666666665,-123.17833333333333,7.48,2.42,NC.LSF..EHZ,P,-1.0,2022-01-28 00:24:56.440
nc73684591,2022-01-28 00:24:37.600,39.797666666666665,-123.17833333333333,7.48,2.42,NC.LVR..EHZ,P,1.0,2022-01-28 00:24:47.000
nc73684591,2022-01-28 00:24:37.600,39.797666666666665,-123.17833333333333,7.48,2.42,NP.1591..HNZ,P,,2022-01-28 00:24:49.130
nc73684591,2022-01-28 00:24:37.600,39.797666666666665,-123.17833333333333,7.48,2.42,PB.B039..EHZ,P,,2022-01-28 00:25:08.750
nc73684591,2022-01-28 00:24:37.600,39.797666666666665,-123.17833333333333,7.48,2.42,PB.B045..EHZ,P,,2022-01-28 00:24:55.060
nc73684591,2022-01-28 00:24:37.600,39.797666666666665,-123.17833333333333,7.48,2.42,PB.B046..EHZ,P,,2022-01-28 00:24:55.550
nc73684591,2022-01-28 00:24:37.600,39.797666666666665,-123.17833333333333,7.48,2.42,PB.B047..EHZ,P,,2022-01-28 00:24:54.440
nc73684591,2022-01-28 00:24:37.600,39.797666666666665,-123.17833333333333,7.48,2.42,PB.B049..EHZ,P,-1.0,2022-01-28 00:24:50.860
nc73684591,2022-01-28 00:24:37.600,39.797666666666665,-123.17833333333333,7.48,2.42,PB.B932..EHZ,P,-1.0,2022-01-28 00:24:54.720
nc73684591,2022-01-28 00:24:37.600,39.797666666666665,-123.17833333333333,7.48,2.42,PB.B933..EHZ,P,,2022-01-28 00:24:50.860
nc73684591,2022-01-28 00:24:37.600,39.797666666666665,-123.17833333333333,7.48,2.42,PB.B934..EHZ,P,1.0,2022-01-28 00:24:45.630
nc73684591,2022-01-28 00:24:37.600,39.797666666666665,-123.17833333333333,7.48,2.42,PB.B935..EHZ,P,,2022-01-28 00:24:52.690
nc73684621,2022-01-28 01:07:24.940,39.8005,-123.17366666666666,8.06,1.85,BK.BONV..HHZ,P,,2022-01-28 01:07:40.810
nc73684621,2022-01-28 01:07:24.940,39.8005,-123.17366666666666,8.06,1.85,BK.DCMP..HHZ,P,1.0,2022-01-28 01:07:32.160
nc73684621,2022-01-28 01:07:24.940,39.8005,-123.17366666666666,8.06,1.85,BK.MNDO..HHZ,P,,2022-01-28 01:07:38.320
nc73684621,2022-01-28 01:07:24.940,39.8005,-123.17366666666666,8.06,1.85,BK.PETY..HHZ,P,1.0,2022-01-28 01:07:34.920
nc73684621,2022-01-28 01:07:24.940,39.8005,-123.17366666666666,8.06,1.85,BK.RVIT..HHZ,P,-1.0,2022-01-28 01:07:29.190
nc73684621,2022-01-28 01:07:24.940,39.8005,-123.17366666666666,8.06,1.85,NC.GHO..EHZ,P,,2022-01-28 01:07:41.180
