event_id,etime,elat,elon,edep,emag,station_id,phase_type,phase_polarity,phase_time
nc73685091,2022-01-29 01:54:56.010,39.81,-123.17233333333333,9.67,1.79,NC.KRK..EHZ,P,-1.0,2022-01-29 01:55:01.460
nc73685091,2022-01-29 01:54:56.010,39.81,-123.17233333333333,9.67,1.79,PB.B047..EHZ,P,,2022-01-29 01:55:13.050
nc73685091,2022-01-29 01:54:56.010,39.81,-123.17233333333333,9.67,1.79,PB.B049..EHZ,P,,2022-01-29 01:55:09.520
nc73685091,2022-01-29 01:54:56.010,39.81,-123.17233333333333,9.67,1.79,PB.B932..EHZ,P,,2022-01-29 01:55:13.370
nc73685091,2022-01-29 01:54:56.010,39.81,-123.17233333333333,9.67,1.79,PB.B935..EHZ,P,,2022-01-29 01:55:11.410
nc73685336,2022-01-29 11:29:32.740,40.723166666666664,-123.35233333333333,26.98,2.19,BK.BJES..HNZ,P,,2022-01-29 11:29:42.190
nc73685336,2022-01-29 11:29:32.740,40.723166666666664,-123.35233333333333,26.98,2.19,BK.BRIC..HHZ,P,,2022-01-29 11:29:46.040
nc73685336,2022-01-29 11:29:32.740,40.723166666666664,-123.35233333333333,26.98,2.19,BK.DANT..HHZ,P,,2022-01-29 11:29:53.920
nc73685336,2022-01-29 11:29:32.740,40.723166666666664,-123.35233333333333,26.98,2.19,BK.DMOR..HHZ,P,1.0,2022-01-29 11:29:25.110
nc73685336,2022-01-29 11:29:32.740,40.723166666666664,-123.35233333333333,26.98,2.19,BK.GRPK..HHZ,P,,2022-01-29 11:29:52.390
nc73685336,2022-01-29 11:29:32.740,40.723166666666664,-123.35233333333333,26.98,2.19,BK.GUMB..HHZ,P,,2022-01-29 11:29:47.370
nc73685336,2022-01-29 11:29:32.740,40.723166666666664,-123.35233333333333,26.98,2.19,BK.HAYF..HHZ,P,-1.0,2022-01-29 11:29:38.930
nc73685336,2022-01-29 11:29:32.740,40.723166666666664,-123.35233333333333,26.98,2.19,BK.JCC..HHZ,P,1.0,2022-01-29 11:29:42.730
nc73685336,2022-01-29 11:29:32.740,40.723166666666664,-123.35233333333333,26.98,2.19,BK.LCOW..HHZ,P,,2022-01-29 11:29:48.980
nc73685336,2022-01-29 11:29:32.740,40.723166666666664,-123.35233333333333,26.98,2.19,BK.PETY..HHZ,P,1.0,2022-01-29 11:29:45.830
nc73685336,2022-01-29 11:29:32.740,40.723166666666664,-123.35233333333333,26.98,2.19,BK.RBOW..HHZ,P,1.0,2022-01-29 11:29:45.300
nc73685336,2022-01-29 11:29:32.740,40.723166666666664,-123.35233333333333,26.98,2.19,BK.SAGE..HHZ,P,,2022-01-29 11:29:50.740
nc73685336,2022-01-29 11:29:32.740,40.723166666666664,-123.35233333333333,26.98,2.19,BK.SBAR..HHZ,P,,2022-01-29 11:29:49.520
nc73685336,2022-01-29 11:29:32.740,40.723166666666664,-123.35233333333333,26.98,2.19,BK.SCOT..HHZ,P,,2022-01-29 11:29:46.800
nc73685336,2022-01-29 11:29:32.740,40.723166666666664,-123.35233333333333,26.98,2.19,BK.WEAV..HHZ,P,1.0,2022-01-29 11:29:39.700
nc73685336,2022-01-29 11:29:32.740,40.723166666666664,-123.35233333333333,26.98,2.19,CE.89462..HNZ,P,,2022-01-29 11:29:44.490
nc73685336,2022-01-29 11:29:32.740,40.723166666666664,-123.35233333333333,26.98,2.19,NC.KBN..EHZ,P,,2022-01-29 11:29:48.320
nc73685336,2022-01-29 11:29:32.740,40.723166666666664,-123.35233333333333,26.98,2.19,NC.KBU..EHZ,P,1.0,2022-01-29 11:29:44.260
nc73685336,2022-01-29 11:29:32.740,40.723166666666664,-123.35233333333333,26.98,2.19,NC.KCR..HNZ,P,1.0,2022-01-29 11:29:42.590
nc73685336,2022-01-29 11:29:32.740,40.723166666666664,-123.35233333333333,26.98,2.19,NC.KCSB..HNZ,P,-1.0,2022-01-29 11:29:39.180
nc73685336,2022-01-29 11:29:32.740,40.723166666666664,-123.35233333333333,26.98,2.19,NC.KCT..HHZ,P,,2022-01-29 11:29:46.790
nc73685336,2022-01-29 11:29:32.740,40.723166666666664,-123.35233333333333,26.98,2.19,NC.KHBB..HHZ,P,-1.0,2022-01-29 11:29:38.020
nc73685336,2022-01-29 11:29:32.740,40.723166666666664,-123.35233333333333,26.98,2.19,NC.KHMB..HHZ,P,1.0,2022-01-29 11:29:40.210
nc73685336,2022-01-29 11:29:32.740,40.723166666666664,-123.35233333333333,26.98,2.19,NC.KIP..EHZ,P,,2022-01-29 11:29:48.750
nc73685336,2022-01-29 11:29:32.740,40.723166666666664,-123.35233333333333,26.98,2.19,NC.KMPB..HHZ,P,,2022-01-29 11:29:44.910
nc73685336,2022-01-29 11:29:32.740,40.723166666666664,-123.35233333333333,26.98,2.19,NC.KMR..HHZ,P,,2022-01-29 11:29:44.140
nc73685336,2022-01-29 11:29:32.740,40.723166666666664,-123.35233333333333,26.98,2.19,NC.KPR..EHZ,P,,2022-01-29 11:29:45.700
nc73685336,2022-01-29 11:29:32.740,40.723166666666664,-123.35233333333333,26.98,2.19,NC.KRMB..HHZ,P,,2022-01-29 11:29:48.330
nc73685336,2022-01-29 11:29:32.740,40.723166666666664,-123.35233333333333,26.98,2.19,NC.KRP..HHZ,P,,2022-01-29 11:29:45.520
nc73685336,2022-01-29 11:29:32.740,40.723166666666664,-123.35233333333333,26.98,2.19,NC.LBK..EHZ,P,1.0,2022-01-29 11:29:44.650
nc73685336,2022-01-29 11:29:32.740,40.723166666666664,-123.35233333333333,26.98,2.19,NC.LMI..EHZ,P,,2022-01-29 11:29:49.820
nc73685336,2022-01-29 11:29:32.740,40.723166666666664,-123.35233333333333,26.98,2.19,NC.LSF..EHZ,P,,2022-01-29 11:29:45.030
nc73685336,2022-01-29 11:29:32.740,40.723166666666664,-123.35233333333333,26.98,2.19,NC.LTC..EHZ,P,,2022-01-29 11:29:52.400
nc73685336,2022-01-29 11:29:32.740,40.723166666666664,-123.35233333333333,26.98,2.19,PB.B039..EHZ,P,,2022-01-29 11:29:50.420
nc73685336,2022-01-29 11:29:32.740,40.723166666666664,-123.35233333333333,26.98,2.19,PB.B045..EHZ,P,1.0,2022-01-29 11:29:43.600
nc73685336,2022-01-29 11:29:32.740,40.723166666666664,-123.35233333333333,26.98,2.19,PB.B046..EHZ,P,1.0,2022-01-29 11:29:46.810
nc73685336,2022-01-29 11:29:32.740,40.723166666666664,-123.35233333333333,26.98,2.19,PB.B049..EHZ,P,1.0,2022-01-29 11:29:43.970
nc73685336,2022-01-29 11:29:32.740,40.723166666666664,-123.35233333333333,26.98,2.19,PB.B932..EHZ,P,1.0,2022-01-29 11:29:46.380
nc73685336,2022-01-29 11:29:32.740,40.723166666666664,-123.35233333333333,26.98,2.19,PB.B933..EHZ,P,1.0,2022-01-29 11:29:46.940
nc73685336,2022-01-29 11:29:32.740,40.723166666666664,-123.35233333333333,26.98,2.19,PB.B935..EHZ,P,1.0,2022-01-29 11:29:39.950
nc73685336,2022-01-29 11:29:32.740,40.723166666666664,-123.35233333333333,26.98,2.19,UO.SISQ..HHZ,P,,2022-01-29 11:29:57.070
nc73685406,2022-01-29 14:35:40.520,39.801,-123.184,7.48,2.91,BG.AL1..DPZ,P,,2022-01-29 14:36:00.330
nc73685406,2022-01-29 14:35:40.520,39.801,-123.184,7.48,2.91,BG.AL4..DPZ,P,,2022-01-29 14:36:00.660
nc73685406,2022-01-29 14:35:40.520,39.801,-123.184,7.48,2.91,BG.AL5..DPZ,P,,2022-01-29 14:36:00.280
nc73685406,2022-01-29 14:35:40.520,39.801,-123.184,7.48,2.91,BG.AL6..DPZ,P,,2022-01-29 14:36:00.090
nc73685406,2022-01-29 14:35:40.520,39.801,-123.184,7.48,2.91,BG.MCL..DPZ,P,,2022-01-29 14:36:00.290
nc73685406,2022-01-29 14:35:40.520,39.801,-123.184,7.48,2.91,BG.RGP..DPZ,P,,2022-01-29 14:36:00.230
nc73685406,2022-01-29 14:35:40.520,39.801,-123.184,7.48,2.91,BK.BARR..HNZ,P,-1.0,2022-01-29 14:35:50.750
nc73685406,2022-01-29 14:35:40.520,39.801,-123.184,7.48,2.91,BK.BCCR..HHZ,P,,2022-01-29 14:36:00.660
nc73685406,2022-01-29 14:35:40.520,39.801,-123.184,7.48,2.91,BK.BJES..HNZ,P,1.0,2022-01-29 14:35:59.030
nc73685406,2022-01-29 14:35:40.520,39.801,-123.184,7.48,2.91,BK.BONV..HHZ,P,1.0,2022-01-29 14:35:56.330
nc73685406,2022-01-29 14:35:40.520,39.801,-123.184,7.48,2.91,BK.BRIC..HHZ,P,1.0,2022-01-29 14:35:53.500
nc73685406,2022-01-29 14:35:40.520,39.801,-123.184,7.48,2.91,BK.BRIT..HHZ,P,,2022-01-29 14:36:11.000
nc73685406,2022-01-29 14:35:40.520,39.801,-123.184,7.48,2.91,BK.DANT..HHZ,P,,2022-01-29 14:36:01.840
nc73685406,2022-01-29 14:35:40.520,39.801,-123.184,7.48,2.91,BK.DCMP..HHZ,P,-1.0,2022-01-29 14:35:47.720
nc73685406,2022-01-29 14:35:40.520,39.801,-123.184,7.48,2.91,BK.DMOR..HHZ,P,,2022-01-29 14:35:45.400
nc73685406,2022-01-29 14:35:40.520,39.801,-123.184,7.48,2.91,BK.GALB..HHZ,P,,2022-01-29 14:35:57.830
nc73685406,2022-01-29 14:35:40.520,39.801,-123.184,7.48,2.91,BK.GRPK..HHZ,P,,2022-01-29 14:36:09.340
nc73685406,2022-01-29 14:35:40.520,39.801,-123.184,7.48,2.91,BK.GTSB..HHZ,P,-1.0,2022-01-29 14:35:53.870
nc73685406,2022-01-29 14:35:40.520,39.801,-123.184,7.48,2.91,BK.GUMB..HHZ,P,,2022-01-29 14:36:07.590
nc73685406,2022-01-29 14:35:40.520,39.801,-123.184,7.48,2.91,BK.HATC..HHZ,P,,2022-01-29 14:36:10.270
nc73685406,2022-01-29 14:35:40.520,39.801,-123.184,7.48,2.91,BK.HAYF..HHZ,P,-1.0,2022-01-29 14:35:54.360
nc73685406,2022-01-29 14:35:40.520,39.801,-123.184,7.48,2.91,BK.HOPS..HNZ,P,,2022-01-29 14:35:56.850
nc73685406,2022-01-29 14:35:40.520,39.801,-123.184,7.48,2.91,BK.JCC..HHZ,P,,2022-01-29 14:36:02.280
nc73685406,2022-01-29 14:35:40.520,39.801,-123.184,7.48,2.91,BK.LCOW..HHZ,P,,2022-01-29 14:36:01.770
nc73685406,2022-01-29 14:35:40.520,39.801,-123.184,7.48,2.91,BK.MILL..HHZ,P,-1.0,2022-01-29 14:36:13.490
nc73685406,2022-01-29 14:35:40.520,39.801,-123.184,7.48,2.91,BK.MNDO..HHZ,P,1.0,2022-01-29 14:35:53.740
nc73685406,2022-01-29 14:35:40.520,39.801,-123.184,7.48,2.91,BK.MNRC..HHZ,P,,2022-01-29 14:36:02.510
nc73685406,2022-01-29 14:35:40.520,39.801,-123.184,7.48,2.91,BK.MOGU..HHZ,P,1.0,2022-01-29 14:36:16.960
nc73685406,2022-01-29 14:35:40.520,39.801,-123.184,7.48,2.91,BK.ORV..HHZ,P,,2022-01-29 14:36:03.920
nc73685406,2022-01-29 14:35:40.520,39.801,-123.184,7.48,2.91,BK.PETY..HHZ,P,-1.0,2022-01-29 14:35:50.380
nc73685406,2022-01-29 14:35:40.520,39.801,-123.184,7.48,2.91,BK.RBOW..HHZ,P,,2022-01-29 14:35:57.730
nc73685406,2022-01-29 14:35:40.520,39.801,-123.184,7.48,2.91,BK.RVIT..HHZ,P,-1.0,2022-01-29 14:35:44.700
nc73685406,2022-01-29 14:35:40.520,39.801,-123.184,7.48,2.91,BK.SAGE..HHZ,P,,2022-01-29 14:36:04.460
nc73685406,2022-01-29 14:35:40.520,39.801,-123.184,7.48,2.91,BK.SANG..HHZ,P,1.0,2022-01-29 14:36:15.820
nc73685406,2022-01-29 14:35:40.520,39.801,-123.184,7.48,2.91,BK.SBAR..HHZ,P,,2022-01-29 14:36:12.540
nc73685406,2022-01-29 14:35:40.520,39.801,-123.184,7.48,2.91,BK.SCOT..HHZ,P,-1.0,2022-01-29 14:36:09.000
nc73685406,2022-01-29 14:35:40.520,39.801,-123.184,7.48,2.91,BK.SIGP..HHZ,P,,2022-01-29 14:36:16.000
nc73685406,2022-01-29 14:35:40.520,39.801,-123.184,7.48,2.91,BK.SUTB..HHZ,P,,2022-01-29 14:36:02.540
nc73685406,2022-01-29 14:35:40.520,39.801,-123.184,7.48,2.91,BK.WEAV..HHZ,P,-1.0,2022-01-29 14:35:58.540
nc73685406,2022-01-29 14:35:40.520,39.801,-123.184,7.48,2.91,BK.YBH..HHZ,P,1.0,2022-01-29 14:36:14.570
nc73685406,2022-01-29 14:35:40.520,39.801,-123.184,7.48,2.91,BK.YUBA..HHZ,P,,2022-01-29 14:36:17.590
nc73685406,2022-01-29 14:35:40.520,39.801,-123.184,7.48,2.91,CE.79046..HNZ,P,1.0,2022-01-29 14:35:50.480
nc73685406,2022-01-29 14:35:40.520,39.801,-123.184,7.48,2.91,CE.89688..HNZ,P,,2022-01-29 14:35:54.700
nc73685406,2022-01-29 14:35:40.520,39.801,-123.184,7.48,2.91,NC.AFD..HHZ,P,,2022-01-29 14:36:13.030
nc73685406,2022-01-29 14:35:40.520,39.801,-123.184,7.48,2.91,NC.GBL..EHZ,P,1.0,2022-01-29 14:35:55.630
nc73685406,2022-01-29 14:35:40.520,39.801,-123.184,7.48,2.91,NC.GCK..EHZ,P,1.0,2022-01-29 14:35:54.080
nc73685406,2022-01-29 14:35:40.520,39.801,-123.184,7.48,2.91,NC.GFC..EHZ,P,,2022-01-29 14:35:58.690
nc73685406,2022-01-29 14:35:40.520,39.801,-123.184,7.48,2.91,NC.GHGB..EHZ,P,-1.0,2022-01-29 14:35:54.990
nc73685406,2022-01-29 14:35:40.520,39.801,-123.184,7.48,2.91,NC.GHO..EHZ,P,1.0,2022-01-29 14:35:55.910
nc73685406,2022-01-29 14:35:40.520,39.801,-123.184,7.48,2.91,NC.GMR..EHZ,P,1.0,2022-01-29 14:35:54.530
nc73685406,2022-01-29 14:35:40.520,39.801,-123.184,7.48,2.91,NC.GNR..EHZ,P,1.0,2022-01-29 14:35:54.300
nc73685406,2022-01-29 14:35:40.520,39.801,-123.184,7.48,2.91,NC.GPM..EHZ,P,,2022-01-29 14:36:00.200
nc73685406,2022-01-29 14:35:40.520,39.801,-123.184,7.48,2.91,NC.GROB..EHZ,P,1.0,2022-01-29 14:35:49.150
nc73685406,2022-01-29 14:35:40.520,39.801,-123.184,7.48,2.91,NC.GRT..EHZ,P,,2022-01-29 14:35:59.640
nc73685406,2022-01-29 14:35:40.520,39.801,-123.184,7.48,2.91,NC.GSN..EHZ,P,1.0,2022-01-29 14:35:57.050
nc73685406,2022-01-29 14:35:40.520,39.801,-123.184,7.48,2.91,NC.GSX..EHZ,P,,2022-01-29 14:36:02.310
nc73685406,2022-01-29 14:35:40.520,39.801,-123.184,7.48,2.91,NC.GVA..EHZ,P,-1.0,2022-01-29 14:35:49.220
nc73685406,2022-01-29 14:35:40.520,39.801,-123.184,7.48,2.91,NC.GWR..EHZ,P,-1.0,2022-01-29 14:35:52.720
nc73685406,2022-01-29 14:35:40.520,39.801,-123.184,7.48,2.91,NC.GWW..EHZ,P,,2022-01-29 14:35:58.420
nc73685406,2022-01-29 14:35:40.520,39.801,-123.184,7.48,2.91,NC.KBN..EHZ,P,1.0,2022-01-29 14:35:43.040
nc73685406,2022-01-29 14:35:40.520,39.801,-123.184,7.48,2.91,NC.KBU..EHZ,P,-1.0,2022-01-29 14:35:54.360
nc73685406,2022-01-29 14:35:40.520,39.801,-123.184,7.48,2.91,NC.KCO..HNZ,P,,2022-01-29 14:35:58.120
nc73685406,2022-01-29 14:35:40.520,39.801,-123.184,7.48,2.91,NC.KCPB..HHZ,P,1.0,2022-01-29 14:35:47.450
nc73685406,2022-01-29 14:35:40.520,39.801,-123.184,7.48,2.91,NC.KCR..HNZ,P,,2022-01-29 14:35:56.350
nc73685406,2022-01-29 14:35:40.520,39.801,-123.184,7.48,2.91,NC.KCSB..HNZ,P,-1.0,2022-01-29 14:35:56.110
nc73685406,2022-01-29 14:35:40.520,39.801,-123.184,7.48,2.91,NC.KCT..HHZ,P,,2022-01-29 14:36:01.080
nc73685406,2022-01-29 14:35:40.520,39.801,-123.184,7.48,2.91,NC.KFP..EHZ,P,1.0,2022-01-29 14:35:45.660
nc73685406,2022-01-29 14:35:40.520,39.801,-123.184,7.48,2.91,NC.KHBB..HHZ,P,-1.0,2022-01-29 14:35:56.730
nc73685406,2022-01-29 14:35:40.520,39.801,-123.184,7.48,2.91,NC.KHMB..HHZ,P,1.0,2022-01-29 14:36:02.100
nc73685406,2022-01-29 14:35:40.520,39.801,-123.184,7.48,2.91,NC.KIP..EHZ,P,1.0,2022-01-29 14:35:45.190
nc73685406,2022-01-29 14:35:40.520,39.801,-123.184,7.48,2.91,NC.KMPB..HHZ,P,,2022-01-29 14:35:58.760
nc73685406,2022-01-29 14:35:40.520,39.801,-123.184,7.48,2.91,NC.KMR..HHZ,P,-1.0,2022-01-29 14:35:52.170
nc73685406,2022-01-29 14:35:40.520,39.801,-123.184,7.48,2.91,NC.KPR..EHZ,P,,2022-01-29 14:35:55.950
nc73685406,2022-01-29 14:35:40.520,39.801,-123.184,7.48,2.91,NC.KRK..EHZ,P,-1.0,2022-01-29 14:35:45.760
nc73685406,2022-01-29 14:35:40.520,39.801,-123.184,7.48,2.91,NC.KRMB..HHZ,P,1.0,2022-01-29 14:36:10.860
nc73685406,2022-01-29 14:35:40.520,39.801,-123.184,7.48,2.91,NC.KRP..HHZ,P,,2022-01-29 14:36:07.390
nc73685406,2022-01-29 14:35:40.520,39.801,-123.184,7.48,2.91,NC.KSXB..HHZ,P,,2022-01-29 14:36:14.960
nc73685406,2022-01-29 14:35:40.520,39.801,-123.184,7.48,2.91,NC.LBF..EHZ,P,1.0,2022-01-29 14:36:13.260
nc73685406,2022-01-29 14:35:40.520,39.801,-123.184,7.48,2.91,NC.LBR..HHZ,P,,2022-01-29 14:36:13.050
nc73685406,2022-01-29 14:35:40.520,39.801,-123.184,7.48,2.91,NC.LCSB..EHZ,P,,2022-01-29 14:36:08.950
nc73685406,2022-01-29 14:35:40.520,39.801,-123.184,7.48,2.91,NC.LDH..HHZ,P,1.0,2022-01-29 14:36:05.950
nc73685406,2022-01-29 14:35:40.520,39.801,-123.184,7.48,2.91,NC.LDL..HHZ,P,,2022-01-29 14:36:11.370
nc73685406,2022-01-29 14:35:40.520,39.801,-123.184,7.48,2.91,NC.LGO..EHZ,P,,2022-01-29 14:36:14.570
nc73685406,2022-01-29 14:35:40.520,39.801,-123.184,7.48,2.91,NC.LGY..HHZ,P,,2022-01-29 14:36:11.580
nc73685406,2022-01-29 14:35:40.520,39.801,-123.184,7.48,2.91,NC.LMC..HHZ,P,,2022-01-29 14:36:10.700
nc73685406,2022-01-29 14:35:40.520,39.801,-123.184,7.48,2.91,NC.LMH..EHZ,P,,2022-01-29 14:36:17.050
nc73685406,2022-01-29 14:35:40.520,39.801,-123.184,7.48,2.91,NC.LMI..EHZ,P,,2022-01-29 14:36:00.410
nc73685406,2022-01-29 14:35:40.520,39.801,-123.184,7.48,2.91,NC.LMP..EHZ,P,,2022-01-29 14:36:13.650
nc73685406,2022-01-29 14:35:40.520,39.801,-123.184,7.48,2.91,NC.LTC..EHZ,P,,2022-01-29 14:35:58.260
nc73685406,2022-01-29 14:35:40.520,39.801,-123.184,7.48,2.91,NC.LWHB..EHZ,P,,2022-01-29 14:36:03.690
nc73685406,2022-01-29 14:35:40.520,39.801,-123.184,7.48,2.91,NC.NLB..EHZ,P,,2022-01-29 14:36:03.680
nc73685406,2022-01-29 14:35:40.520,39.801,-123.184,7.48,2.91,NC.OST..EHZ,P,,2022-01-29 14:36:03.390
nc73685406,2022-01-29 14:35:40.520,39.801,-123.184,7.48,2.91,NC.OSU..EHZ,P,,2022-01-29 14:36:01.660
nc73685406,2022-01-29 14:35:40.520,39.801,-123.184,7.48,2.91,NN.BEK..HHZ,P,,2022-01-29 14:36:17.080
nc73685406,2022-01-29 14:35:40.520,39.801,-123.184,7.48,2.91,NN.DON..EHZ,P,,2022-01-29 14:36:19.620
nc73685406,2022-01-29 14:35:40.520,39.801,-123.184,7.48,2.91,NP.1591..HNZ,P,,2022-01-29 14:35:52.200
nc73685406,2022-01-29 14:35:40.520,39.801,-123.184,7.48,2.91,PB.B039..EHZ,P,,2022-01-29 14:36:11.080
nc73685406,2022-01-29 14:35:40.520,39.801,-123.184,7.48,2.91,PB.B040..EHZ,P,-1.0,2022-01-29 14:36:16.800
nc73685406,2022-01-29 14:35:40.520,39.801,-123.184,7.48,2.91,PB.B046..EHZ,P,,2022-01-29 14:35:58.510
nc73685406,2022-01-29 14:35:40.520,39.801,-123.184,7.48,2.91,PB.B049..EHZ,P,-1.0,2022-01-29 14:35:53.720
nc73685406,2022-01-29 14:35:40.520,39.801,-123.184,7.48,2.91,PB.B932..EHZ,P,,2022-01-29 14:35:57.630
nc73685406,2022-01-29 14:35:40.520,39.801,-123.184,7.48,2.91,PB.B933..EHZ,P,1.0,2022-01-29 14:35:53.750
nc73685406,2022-01-29 14:35:40.520,39.801,-123.184,7.48,2.91,PB.B934..EHZ,P,1.0,2022-01-29 14:35:48.540
nc73685406,2022-01-29 14:35:40.520,39.801,-123.184,7.48,2.91,PB.B935..EHZ,P,-1.0,2022-01-29 14:35:55.590
nc73685421,2022-01-29 15:24:40.210,39.797,-123.18133333333333,5.38,1.74,BK.BONV..HHZ,P,,2022-01-29 15:24:56.740
nc73685421,2022-01-29 15:24:40.210,39.797,-123.18133333333333,5.38,1.74,BK.BRIC..HHZ,P,1.0,2022-01-29 15:24:53.200
nc73685421,2022-01-29 15:24:40.210,39.797,-123.18133333333333,5.38,1.74,BK.DCMP..HHZ,P,1.0,2022-01-29 15:24:47.270
nc73685421,2022-01-29 15:24:40.210,39.797,-123.18133333333333,5.38,1.74,BK.HAYF..HHZ,P,1.0,2022-01-29 15:24:54.150
nc73685421,2022-01-29 15:24:40.210,39.797,-123.18133333333333,5.38,1.74,BK.PETY..HHZ,P,1.0,2022-01-29 15:24:50.160
nc73685421,2022-01-29 15:24:40.210,39.797,-123.18133333333333,5.38,1.74,BK.RVIT..HHZ,P,-1.0,2022-01-29 15:24:44.360
nc73685421,2022-01-29 15:24:40.210,39.797,-123.18133333333333,5.38,1.74,BK.WEAV..HHZ,P,,2022-01-29 15:24:58.860
nc73685421,2022-01-29 15:24:40.210,39.797,-123.18133333333333,5.38,1.74,NC.GHGB..EHZ,P,,2022-01-29 15:24:54.990
nc73685421,2022-01-29 15:24:40.210,39.797,-123.18133333333333,5.38,1.74,NC.GHO..EHZ,P,,2022-01-29 15:24:56.270
nc73685421,2022-01-29 15:24:40.210,39.797,-123.18133333333333,5.38,1.74,NC.GMR..EHZ,P,-1.0,2022-01-29 15:24:54.290
nc73685421,2022-01-29 15:24:40.210,39.797,-123.18133333333333,5.38,1.74,NC.GNR..EHZ,P,,2022-01-29 15:24:54.110
nc73685421,2022-01-29 15:24:40.210,39.797,-123.18133333333333,5.38,1.74,NC.GROB..EHZ,P,1.0,2022-01-29 15:24:48.810
nc73685421,2022-01-29 15:24:40.210,39.797,-123.18133333333333,5.38,1.74,NC.GSN..EHZ,P,,2022-01-29 15:24:57.460
nc73685421,2022-01-29 15:24:40.210,39.797,-123.18133333333333,5.38,1.74,NC.GVA..EHZ,P,,2022-01-29 15:24:48.810
nc73685421,2022-01-29 15:24:40.210,39.797,-123.18133333333333,5.38,1.74,NC.KBN..EHZ,P,1.0,2022-01-29 15:24:42.750
nc73685421,2022-01-29 15:24:40.210,39.797,-123.18133333333333,5.38,1.74,NC.KBU..EHZ,P,1.0,2022-01-29 15:24:54.130
nc73685421,2022-01-29 15:24:40.210,39.797,-123.18133333333333,5.38,1.74,NC.KCPB..HHZ,P,1.0,2022-01-29 15:24:47.100
nc73685421,2022-01-29 15:24:40.210,39.797,-123.18133333333333,5.38,1.74,NC.KFP..EHZ,P,1.0,2022-01-29 15:24:45.260
nc73685421,2022-01-29 15:24:40.210,39.797,-123.18133333333333,5.38,1.74,NC.KHBB..HHZ,P,,2022-01-29 15:24:56.710
nc73685421,2022-01-29 15:24:40.210,39.797,-123.18133333333333,5.38,1.74,NC.KIP..EHZ,P,1.0,2022-01-29 15:24:44.820
nc73685421,2022-01-29 15:24:40.210,39.797,-123.18133333333333,5.38,1.74,NC.KMR..HHZ,P,,2022-01-29 15:24:51.900
nc73685421,2022-01-29 15:24:40.210,39.797,-123.18133333333333,5.38,1.74,NC.KRK..EHZ,P,-1.0,2022-01-29 15:24:45.290
nc73685421,2022-01-29 15:24:40.210,39.797,-123.18133333333333,5.38,1.74,NC.LBK..EHZ,P,,2022-01-29 15:25:05.310
nc73685421,2022-01-29 15:24:40.210,39.797,-123.18133333333333,5.38,1.74,PB.B046..EHZ,P,,2022-01-29 15:24:59.040
nc73685421,2022-01-29 15:24:40.210,39.797,-123.18133333333333,5.38,1.74,PB.B049..EHZ,P,,2022-01-29 15:24:53.270
nc73685421,2022-01-29 15:24:40.210,39.797,-123.18133333333333,5.38,1.74,PB.B932..EHZ,P,,2022-01-29 15:24:57.760
nc73685421,2022-01-29 15:24:40.210,39.797,-123.18133333333333,5.38,1.74,PB.B933..EHZ,P,,2022-01-29 15:24:53.500
nc73685421,2022-01-29 15:24:40.210,39.797,-123.18133333333333,5.38,1.74,PB.B935..EHZ,P,,2022-01-29 15:24:55.340
nc73685486,2022-01-29 18:37:31.400,40.284333333333336,-124.33916666666667,8.3,2.77,BK.BCCR..HHZ,P,,2022-01-29 18:38:04.580
nc73685486,2022-01-29 18:37:31.400,40.284333333333336,-124.33916666666667,8.3,2.77,BK.BJES..HNZ,P,1.0,2022-01-29 18:37:41.150
nc73685486,2022-01-29 18:37:31.400,40.284333333333336,-124.33916666666667,8.3,2.77,BK.BONV..HHZ,P,-1.0,2022-01-29 18:37:55.960
