event_id,etime,elat,elon,edep,emag,station_id,phase_type,phase_polarity,phase_time
nc73684621,2022-01-28 01:07:24.940,39.8005,-123.17366666666666,8.06,1.85,NC.GMR..EHZ,P,-1.0,2022-01-28 01:07:39.200
nc73684621,2022-01-28 01:07:24.940,39.8005,-123.17366666666666,8.06,1.85,NC.GNR..EHZ,P,,2022-01-28 01:07:38.590
nc73684621,2022-01-28 01:07:24.940,39.8005,-123.17366666666666,8.06,1.85,NC.GROB..EHZ,P,-1.0,2022-01-28 01:07:33.690
nc73684621,2022-01-28 01:07:24.940,39.8005,-123.17366666666666,8.06,1.85,NC.GVA..EHZ,P,-1.0,2022-01-28 01:07:33.640
nc73684621,2022-01-28 01:07:24.940,39.8005,-123.17366666666666,8.06,1.85,NC.GWR..EHZ,P,,2022-01-28 01:07:37.270
nc73684621,2022-01-28 01:07:24.940,39.8005,-123.17366666666666,8.06,1.85,NC.KBN..EHZ,P,1.0,2022-01-28 01:07:27.650
nc73684621,2022-01-28 01:07:24.940,39.8005,-123.17366666666666,8.06,1.85,NC.KCPB..HHZ,P,1.0,2022-01-28 01:07:31.960
nc73684621,2022-01-28 01:07:24.940,39.8005,-123.17366666666666,8.06,1.85,NC.KFP..EHZ,P,1.0,2022-01-28 01:07:30.140
nc73684621,2022-01-28 01:07:24.940,39.8005,-123.17366666666666,8.06,1.85,NC.KIP..EHZ,P,1.0,2022-01-28 01:07:29.740
nc73684621,2022-01-28 01:07:24.940,39.8005,-123.17366666666666,8.06,1.85,NC.KRK..EHZ,P,-1.0,2022-01-28 01:07:30.180
nc73684671,2022-01-28 03:40:17.270,39.7995,-123.18416666666667,8.89,2.51,BK.BARR..HNZ,P,1.0,2022-01-28 03:40:27.440
nc73684671,2022-01-28 03:40:17.270,39.7995,-123.18416666666667,8.89,2.51,BK.BONV..HHZ,P,,2022-01-28 03:40:33.190
nc73684671,2022-01-28 03:40:17.270,39.7995,-123.18416666666667,8.89,2.51,BK.BRIC..HHZ,P,-1.0,2022-01-28 03:40:30.360
nc73684671,2022-01-28 03:40:17.270,39.7995,-123.18416666666667,8.89,2.51,BK.DANT..BHZ,P,-1.0,2022-01-28 03:40:38.740
nc73684671,2022-01-28 03:40:17.270,39.7995,-123.18416666666667,8.89,2.51,BK.DCMP..HHZ,P,1.0,2022-01-28 03:40:24.450
nc73684671,2022-01-28 03:40:17.270,39.7995,-123.18416666666667,8.89,2.51,BK.GTSB..HHZ,P,1.0,2022-01-28 03:40:30.540
nc73684671,2022-01-28 03:40:17.270,39.7995,-123.18416666666667,8.89,2.51,BK.HAYF..HHZ,P,-1.0,2022-01-28 03:40:31.240
nc73684671,2022-01-28 03:40:17.270,39.7995,-123.18416666666667,8.89,2.51,BK.LCOW..BHZ,P,,2022-01-28 03:40:38.470
nc73684671,2022-01-28 03:40:17.270,39.7995,-123.18416666666667,8.89,2.51,BK.MNDO..HHZ,P,,2022-01-28 03:40:30.530
nc73684671,2022-01-28 03:40:17.270,39.7995,-123.18416666666667,8.89,2.51,BK.MNRC..HHZ,P,1.0,2022-01-28 03:40:40.710
nc73684671,2022-01-28 03:40:17.270,39.7995,-123.18416666666667,8.89,2.51,BK.PETY..BHZ,P,1.0,2022-01-28 03:40:27.290
nc73684671,2022-01-28 03:40:17.270,39.7995,-123.18416666666667,8.89,2.51,BK.RBOW..HHZ,P,1.0,2022-01-28 03:40:34.390
nc73684671,2022-01-28 03:40:17.270,39.7995,-123.18416666666667,8.89,2.51,BK.RVIT..HHZ,P,-1.0,2022-01-28 03:40:21.550
nc73684671,2022-01-28 03:40:17.270,39.7995,-123.18416666666667,8.89,2.51,BK.SUTB..HHZ,P,1.0,2022-01-28 03:40:39.280
nc73684671,2022-01-28 03:40:17.270,39.7995,-123.18416666666667,8.89,2.51,BK.WEAV..HHZ,P,-1.0,2022-01-28 03:40:35.420
nc73684671,2022-01-28 03:40:17.270,39.7995,-123.18416666666667,8.89,2.51,CE.79046..HNZ,P,1.0,2022-01-28 03:40:27.280
nc73684671,2022-01-28 03:40:17.270,39.7995,-123.18416666666667,8.89,2.51,NC.GBL..EHZ,P,,2022-01-28 03:40:32.420
nc73684671,2022-01-28 03:40:17.270,39.7995,-123.18416666666667,8.89,2.51,NC.GCK..EHZ,P,,2022-01-28 03:40:30.870
nc73684671,2022-01-28 03:40:17.270,39.7995,-123.18416666666667,8.89,2.51,NC.GFC..EHZ,P,,2022-01-28 03:40:35.460
nc73684671,2022-01-28 03:40:17.270,39.7995,-123.18416666666667,8.89,2.51,NC.GGPC..EHZ,P,-1.0,2022-01-28 03:40:38.750
nc73684671,2022-01-28 03:40:17.270,39.7995,-123.18416666666667,8.89,2.51,NC.GHGB..EHZ,P,-1.0,2022-01-28 03:40:31.720
nc73684671,2022-01-28 03:40:17.270,39.7995,-123.18416666666667,8.89,2.51,NC.GHO..EHZ,P,,2022-01-28 03:40:33.500
nc73684671,2022-01-28 03:40:17.270,39.7995,-123.18416666666667,8.89,2.51,NC.GMR..EHZ,P,,2022-01-28 03:40:31.280
nc73684671,2022-01-28 03:40:17.270,39.7995,-123.18416666666667,8.89,2.51,NC.GNR..EHZ,P,1.0,2022-01-28 03:40:31.050
nc73684671,2022-01-28 03:40:17.270,39.7995,-123.18416666666667,8.89,2.51,NC.GPM..EHZ,P,,2022-01-28 03:40:36.340
nc73684671,2022-01-28 03:40:17.270,39.7995,-123.18416666666667,8.89,2.51,NC.GROB..EHZ,P,1.0,2022-01-28 03:40:26.010
nc73684671,2022-01-28 03:40:17.270,39.7995,-123.18416666666667,8.89,2.51,NC.GRT..EHZ,P,,2022-01-28 03:40:36.270
nc73684671,2022-01-28 03:40:17.270,39.7995,-123.18416666666667,8.89,2.51,NC.GSN..EHZ,P,-1.0,2022-01-28 03:40:34.510
nc73684671,2022-01-28 03:40:17.270,39.7995,-123.18416666666667,8.89,2.51,NC.GSX..EHZ,P,1.0,2022-01-28 03:40:39.250
nc73684671,2022-01-28 03:40:17.270,39.7995,-123.18416666666667,8.89,2.51,NC.GVA..EHZ,P,-1.0,2022-01-28 03:40:25.960
nc73684671,2022-01-28 03:40:17.270,39.7995,-123.18416666666667,8.89,2.51,NC.GWR..EHZ,P,1.0,2022-01-28 03:40:29.460
nc73684671,2022-01-28 03:40:17.270,39.7995,-123.18416666666667,8.89,2.51,NC.GWW..EHZ,P,1.0,2022-01-28 03:40:35.110
nc73684671,2022-01-28 03:40:17.270,39.7995,-123.18416666666667,8.89,2.51,NC.KBN..EHZ,P,1.0,2022-01-28 03:40:19.930
nc73684671,2022-01-28 03:40:17.270,39.7995,-123.18416666666667,8.89,2.51,NC.KBU..EHZ,P,-1.0,2022-01-28 03:40:31.130
nc73684671,2022-01-28 03:40:17.270,39.7995,-123.18416666666667,8.89,2.51,NC.KCPB..HHZ,P,1.0,2022-01-28 03:40:24.250
nc73684671,2022-01-28 03:40:17.270,39.7995,-123.18416666666667,8.89,2.51,NC.KCT..HHZ,P,-1.0,2022-01-28 03:40:38.110
nc73684671,2022-01-28 03:40:17.270,39.7995,-123.18416666666667,8.89,2.51,NC.KFP..EHZ,P,1.0,2022-01-28 03:40:22.450
nc73684671,2022-01-28 03:40:17.270,39.7995,-123.18416666666667,8.89,2.51,NC.KHBB..HHZ,P,1.0,2022-01-28 03:40:33.710
nc73684671,2022-01-28 03:40:17.270,39.7995,-123.18416666666667,8.89,2.51,NC.KIP..EHZ,P,1.0,2022-01-28 03:40:22.020
nc73684671,2022-01-28 03:40:17.270,39.7995,-123.18416666666667,8.89,2.51,NC.KMPB..HHZ,P,,2022-01-28 03:40:35.520
nc73684671,2022-01-28 03:40:17.270,39.7995,-123.18416666666667,8.89,2.51,NC.KMR..HHZ,P,1.0,2022-01-28 03:40:28.940
nc73684671,2022-01-28 03:40:17.270,39.7995,-123.18416666666667,8.89,2.51,NC.KPR..EHZ,P,-1.0,2022-01-28 03:40:32.720
nc73684671,2022-01-28 03:40:17.270,39.7995,-123.18416666666667,8.89,2.51,NC.KRK..EHZ,P,-1.0,2022-01-28 03:40:22.500
nc73684671,2022-01-28 03:40:17.270,39.7995,-123.18416666666667,8.89,2.51,NC.LBK..EHZ,P,-1.0,2022-01-28 03:40:42.150
nc73684671,2022-01-28 03:40:17.270,39.7995,-123.18416666666667,8.89,2.51,NC.LMI..EHZ,P,1.0,2022-01-28 03:40:37.990
nc73684671,2022-01-28 03:40:17.270,39.7995,-123.18416666666667,8.89,2.51,NC.LSF..EHZ,P,1.0,2022-01-28 03:40:36.370
nc73684671,2022-01-28 03:40:17.270,39.7995,-123.18416666666667,8.89,2.51,NC.LTC..EHZ,P,1.0,2022-01-28 03:40:35.310
nc73684671,2022-01-28 03:40:17.270,39.7995,-123.18416666666667,8.89,2.51,NC.LWHB..EHZ,P,,2022-01-28 03:40:39.650
nc73684671,2022-01-28 03:40:17.270,39.7995,-123.18416666666667,8.89,2.51,NC.OSU..EHZ,P,1.0,2022-01-28 03:40:39.020
nc73684671,2022-01-28 03:40:17.270,39.7995,-123.18416666666667,8.89,2.51,PB.B047..EHZ,P,1.0,2022-01-28 03:40:34.110
nc73684671,2022-01-28 03:40:17.270,39.7995,-123.18416666666667,8.89,2.51,PB.B049..EHZ,P,-1.0,2022-01-28 03:40:30.560
nc73684671,2022-01-28 03:40:17.270,39.7995,-123.18416666666667,8.89,2.51,PB.B932..EHZ,P,,2022-01-28 03:40:34.230
nc73684671,2022-01-28 03:40:17.270,39.7995,-123.18416666666667,8.89,2.51,PB.B934..EHZ,P,1.0,2022-01-28 03:40:25.050
nc73684671,2022-01-28 03:40:17.270,39.7995,-123.18416666666667,8.89,2.51,PB.B935..EHZ,P,-1.0,2022-01-28 03:40:32.500
nc73684786,2022-01-28 08:57:20.880,39.79966666666667,-123.17966666666666,7.2,2.13,BG.BUC..DPZ,P,,2022-01-28 08:57:39.680
nc73684786,2022-01-28 08:57:20.880,39.79966666666667,-123.17966666666666,7.2,2.13,BG.TCH..DPZ,P,,2022-01-28 08:57:39.570
nc73684786,2022-01-28 08:57:20.880,39.79966666666667,-123.17966666666666,7.2,2.13,BK.BONV..HHZ,P,,2022-01-28 08:57:36.630
nc73684786,2022-01-28 08:57:20.880,39.79966666666667,-123.17966666666666,7.2,2.13,BK.BRIC..HHZ,P,-1.0,2022-01-28 08:57:33.800
nc73684786,2022-01-28 08:57:20.880,39.79966666666667,-123.17966666666666,7.2,2.13,BK.DCMP..HHZ,P,1.0,2022-01-28 08:57:28.020
nc73684786,2022-01-28 08:57:20.880,39.79966666666667,-123.17966666666666,7.2,2.13,BK.GTSB..HHZ,P,1.0,2022-01-28 08:57:34.310
nc73684786,2022-01-28 08:57:20.880,39.79966666666667,-123.17966666666666,7.2,2.13,BK.HAYF..HHZ,P,-1.0,2022-01-28 08:57:34.810
nc73684786,2022-01-28 08:57:20.880,39.79966666666667,-123.17966666666666,7.2,2.13,BK.MNDO..HHZ,P,1.0,2022-01-28 08:57:34.060
nc73684786,2022-01-28 08:57:20.880,39.79966666666667,-123.17966666666666,7.2,2.13,BK.PETY..HHZ,P,1.0,2022-01-28 08:57:30.810
nc73684786,2022-01-28 08:57:20.880,39.79966666666667,-123.17966666666666,7.2,2.13,BK.RVIT..HHZ,P,-1.0,2022-01-28 08:57:25.090
nc73684786,2022-01-28 08:57:20.880,39.79966666666667,-123.17966666666666,7.2,2.13,NC.GHGB..EHZ,P,,2022-01-28 08:57:35.100
nc73684786,2022-01-28 08:57:20.880,39.79966666666667,-123.17966666666666,7.2,2.13,NC.GHO..EHZ,P,1.0,2022-01-28 08:57:36.240
nc73684786,2022-01-28 08:57:20.880,39.79966666666667,-123.17966666666666,7.2,2.13,NC.GMR..EHZ,P,-1.0,2022-01-28 08:57:35.110
nc73684786,2022-01-28 08:57:20.880,39.79966666666667,-123.17966666666666,7.2,2.13,NC.GNR..EHZ,P,,2022-01-28 08:57:34.650
nc73684786,2022-01-28 08:57:20.880,39.79966666666667,-123.17966666666666,7.2,2.13,NC.GSN..EHZ,P,1.0,2022-01-28 08:57:38.250
nc73684786,2022-01-28 08:57:20.880,39.79966666666667,-123.17966666666666,7.2,2.13,NC.GWR..EHZ,P,,2022-01-28 08:57:33.050
nc73684786,2022-01-28 08:57:20.880,39.79966666666667,-123.17966666666666,7.2,2.13,NC.GWW..EHZ,P,,2022-01-28 08:57:38.810
nc73684786,2022-01-28 08:57:20.880,39.79966666666667,-123.17966666666666,7.2,2.13,NC.KBN..EHZ,P,1.0,2022-01-28 08:57:23.490
nc73684786,2022-01-28 08:57:20.880,39.79966666666667,-123.17966666666666,7.2,2.13,NC.KCPB..HHZ,P,1.0,2022-01-28 08:57:27.850
nc73684786,2022-01-28 08:57:20.880,39.79966666666667,-123.17966666666666,7.2,2.13,NC.KFP..EHZ,P,1.0,2022-01-28 08:57:26.030
nc73684786,2022-01-28 08:57:20.880,39.79966666666667,-123.17966666666666,7.2,2.13,NC.KIP..EHZ,P,1.0,2022-01-28 08:57:25.580
nc73684786,2022-01-28 08:57:20.880,39.79966666666667,-123.17966666666666,7.2,2.13,NC.KMR..HHZ,P,-1.0,2022-01-28 08:57:32.560
nc73684786,2022-01-28 08:57:20.880,39.79966666666667,-123.17966666666666,7.2,2.13,NC.KRK..EHZ,P,-1.0,2022-01-28 08:57:26.050
nc73684786,2022-01-28 08:57:20.880,39.79966666666667,-123.17966666666666,7.2,2.13,PB.B046..EHZ,P,-1.0,2022-01-28 08:57:38.650
nc73684786,2022-01-28 08:57:20.880,39.79966666666667,-123.17966666666666,7.2,2.13,PB.B047..EHZ,P,,2022-01-28 08:57:37.560
nc73684786,2022-01-28 08:57:20.880,39.79966666666667,-123.17966666666666,7.2,2.13,PB.B049..EHZ,P,-1.0,2022-01-28 08:57:34.090
nc73684786,2022-01-28 08:57:20.880,39.79966666666667,-123.17966666666666,7.2,2.13,PB.B932..EHZ,P,1.0,2022-01-28 08:57:37.840
nc73684786,2022-01-28 08:57:20.880,39.79966666666667,-123.17966666666666,7.2,2.13,PB.B933..EHZ,P,1.0,2022-01-28 08:57:34.080
nc73684786,2022-01-28 08:57:20.880,39.79966666666667,-123.17966666666666,7.2,2.13,PB.B935..EHZ,P,-1.0,2022-01-28 08:57:35.620
nc73684801,2022-01-28 09:36:06.460,39.794333333333334,-123.17816666666667,5.49,1.78,BK.BRIC..HHZ,P,1.0,2022-01-28 09:36:19.520
nc73684801,2022-01-28 09:36:06.460,39.794333333333334,-123.17816666666667,5.49,1.78,BK.DCMP..HHZ,P,1.0,2022-01-28 09:36:13.480
nc73684801,2022-01-28 09:36:06.460,39.794333333333334,-123.17816666666667,5.49,1.78,BK.HAYF..HHZ,P,1.0,2022-01-28 09:36:20.450
nc73684801,2022-01-28 09:36:06.460,39.794333333333334,-123.17816666666667,5.49,1.78,BK.PETY..HHZ,P,1.0,2022-01-28 09:36:16.400
nc73684801,2022-01-28 09:36:06.460,39.794333333333334,-123.17816666666667,5.49,1.78,BK.RVIT..HHZ,P,-1.0,2022-01-28 09:36:10.640
nc73684801,2022-01-28 09:36:06.460,39.794333333333334,-123.17816666666667,5.49,1.78,NC.GCK..EHZ,P,-1.0,2022-01-28 09:36:19.940
nc73684801,2022-01-28 09:36:06.460,39.794333333333334,-123.17816666666667,5.49,1.78,NC.GMR..EHZ,P,1.0,2022-01-28 09:36:20.470
nc73684801,2022-01-28 09:36:06.460,39.794333333333334,-123.17816666666667,5.49,1.78,NC.GROB..EHZ,P,,2022-01-28 09:36:15.070
nc73684801,2022-01-28 09:36:06.460,39.794333333333334,-123.17816666666667,5.49,1.78,NC.GSN..EHZ,P,1.0,2022-01-28 09:36:23.720
nc73684801,2022-01-28 09:36:06.460,39.794333333333334,-123.17816666666667,5.49,1.78,NC.GVA..EHZ,P,-1.0,2022-01-28 09:36:15.010
nc73684801,2022-01-28 09:36:06.460,39.794333333333334,-123.17816666666667,5.49,1.78,NC.KBN..EHZ,P,1.0,2022-01-28 09:36:09.070
nc73684801,2022-01-28 09:36:06.460,39.794333333333334,-123.17816666666667,5.49,1.78,NC.KBU..EHZ,P,1.0,2022-01-28 09:36:20.430
nc73684801,2022-01-28 09:36:06.460,39.794333333333334,-123.17816666666667,5.49,1.78,NC.KCPB..HHZ,P,1.0,2022-01-28 09:36:13.380
nc73684801,2022-01-28 09:36:06.460,39.794333333333334,-123.17816666666667,5.49,1.78,NC.KFP..EHZ,P,1.0,2022-01-28 09:36:11.490
nc73684801,2022-01-28 09:36:06.460,39.794333333333334,-123.17816666666667,5.49,1.78,NC.KIP..EHZ,P,1.0,2022-01-28 09:36:11.120
nc73684801,2022-01-28 09:36:06.460,39.794333333333334,-123.17816666666667,5.49,1.78,NC.KRK..EHZ,P,-1.0,2022-01-28 09:36:11.510
nc73684801,2022-01-28 09:36:06.460,39.794333333333334,-123.17816666666667,5.49,1.78,NC.LMI..EHZ,P,-1.0,2022-01-28 09:36:27.060
nc73684801,2022-01-28 09:36:06.460,39.794333333333334,-123.17816666666667,5.49,1.78,PB.B047..EHZ,P,1.0,2022-01-28 09:36:23.250
nc73684801,2022-01-28 09:36:06.460,39.794333333333334,-123.17816666666667,5.49,1.78,PB.B049..EHZ,P,1.0,2022-01-28 09:36:19.800
nc73684801,2022-01-28 09:36:06.460,39.794333333333334,-123.17816666666667,5.49,1.78,PB.B932..EHZ,P,1.0,2022-01-28 09:36:23.490
nc73684801,2022-01-28 09:36:06.460,39.794333333333334,-123.17816666666667,5.49,1.78,PB.B933..EHZ,P,,2022-01-28 09:36:19.840
nc73684801,2022-01-28 09:36:06.460,39.794333333333334,-123.17816666666667,5.49,1.78,PB.B935..EHZ,P,,2022-01-28 09:36:21.640
nc73684826,2022-01-28 10:55:12.450,39.7975,-123.1845,6.09,2.18,BK.BONV..HHZ,P,,2022-01-28 10:55:28.300
nc73684826,2022-01-28 10:55:12.450,39.7975,-123.1845,6.09,2.18,BK.BRIC..HHZ,P,-1.0,2022-01-28 10:55:25.390
nc73684826,2022-01-28 10:55:12.450,39.7975,-123.1845,6.09,2.18,BK.DCMP..HHZ,P,1.0,2022-01-28 10:55:19.500
nc73684826,2022-01-28 10:55:12.450,39.7975,-123.1845,6.09,2.18,BK.GTSB..HHZ,P,,2022-01-28 10:55:25.880
nc73684826,2022-01-28 10:55:12.450,39.7975,-123.1845,6.09,2.18,BK.HAYF..HHZ,P,-1.0,2022-01-28 10:55:26.350
nc73684826,2022-01-28 10:55:12.450,39.7975,-123.1845,6.09,2.18,BK.MNDO..HHZ,P,1.0,2022-01-28 10:55:25.640
nc73684826,2022-01-28 10:55:12.450,39.7975,-123.1845,6.09,2.18,BK.PETY..HHZ,P,1.0,2022-01-28 10:55:22.410
nc73684826,2022-01-28 10:55:12.450,39.7975,-123.1845,6.09,2.18,BK.RVIT..HHZ,P,-1.0,2022-01-28 10:55:16.610
nc73684826,2022-01-28 10:55:12.450,39.7975,-123.1845,6.09,2.18,NC.GCK..EHZ,P,1.0,2022-01-28 10:55:26.010
nc73684826,2022-01-28 10:55:12.450,39.7975,-123.1845,6.09,2.18,NC.GHGB..EHZ,P,1.0,2022-01-28 10:55:27.060
nc73684826,2022-01-28 10:55:12.450,39.7975,-123.1845,6.09,2.18,NC.GHO..EHZ,P,1.0,2022-01-28 10:55:27.710
nc73684826,2022-01-28 10:55:12.450,39.7975,-123.1845,6.09,2.18,NC.GROB..EHZ,P,1.0,2022-01-28 10:55:21.100
nc73684826,2022-01-28 10:55:12.450,39.7975,-123.1845,6.09,2.18,NC.GSN..EHZ,P,,2022-01-28 10:55:29.640
nc73684826,2022-01-28 10:55:12.450,39.7975,-123.1845,6.09,2.18,NC.GVA..EHZ,P,-1.0,2022-01-28 10:55:21.030
nc73684826,2022-01-28 10:55:12.450,39.7975,-123.1845,6.09,2.18,NC.GWR..EHZ,P,1.0,2022-01-28 10:55:24.710
nc73684826,2022-01-28 10:55:12.450,39.7975,-123.1845,6.09,2.18,NC.KBN..EHZ,P,1.0,2022-01-28 10:55:15.030
nc73684826,2022-01-28 10:55:12.450,39.7975,-123.1845,6.09,2.18,NC.KBU..EHZ,P,,2022-01-28 10:55:26.290
nc73684826,2022-01-28 10:55:12.450,39.7975,-123.1845,6.09,2.18,NC.KCPB..HHZ,P,,2022-01-28 10:55:19.310
nc73684826,2022-01-28 10:55:12.450,39.7975,-123.1845,6.09,2.18,NC.KFP..EHZ,P,1.0,2022-01-28 10:55:17.480
nc73684826,2022-01-28 10:55:12.450,39.7975,-123.1845,6.09,2.18,NC.KIP..EHZ,P,1.0,2022-01-28 10:55:17.060
nc73684826,2022-01-28 10:55:12.450,39.7975,-123.1845,6.09,2.18,NC.KMR..HHZ,P,1.0,2022-01-28 10:55:24.230
nc73684826,2022-01-28 10:55:12.450,39.7975,-123.1845,6.09,2.18,NC.KPR..EHZ,P,1.0,2022-01-28 10:55:27.880
nc73684826,2022-01-28 10:55:12.450,39.7975,-123.1845,6.09,2.18,NC.KRK..EHZ,P,-1.0,2022-01-28 10:55:17.550
nc73684826,2022-01-28 10:55:12.450,39.7975,-123.1845,6.09,2.18,NC.LTC..EHZ,P,1.0,2022-01-28 10:55:30.960
nc73684826,2022-01-28 10:55:12.450,39.7975,-123.1845,6.09,2.18,PB.B045..EHZ,P,,2022-01-28 10:55:29.850
nc73684826,2022-01-28 10:55:12.450,39.7975,-123.1845,6.09,2.18,PB.B049..EHZ,P,-1.0,2022-01-28 10:55:25.630
nc73684826,2022-01-28 10:55:12.450,39.7975,-123.1845,6.09,2.18,PB.B933..EHZ,P,1.0,2022-01-28 10:55:25.740
nc73684826,2022-01-28 10:55:12.450,39.7975,-123.1845,6.09,2.18,PB.B935..EHZ,P,-1.0,2022-01-28 10:55:27.560
nc73684871,2022-01-28 12:47:36.960,39.795833333333334,-123.17433333333334,6.4,1.78,BK.BONV..HHZ,P,,2022-01-28 12:47:52.860
nc73684871,2022-01-28 12:47:36.960,39.795833333333334,-123.17433333333334,6.4,1.78,BK.BRIC..HHZ,P,1.0,2022-01-28 12:47:50.050
nc73684871,2022-01-28 12:47:36.960,39.795833333333334,-123.17433333333334,6.4,1.78,BK.DCMP..HHZ,P,1.0,2022-01-28 12:47:44.040
nc73684871,2022-01-28 12:47:36.960,39.795833333333334,-123.17433333333334,6.4,1.78,BK.HAYF..HHZ,P,1.0,2022-01-28 12:47:50.990
nc73684871,2022-01-28 12:47:36.960,39.795833333333334,-123.17433333333334,6.4,1.78,BK.PETY..HHZ,P,1.0,2022-01-28 12:47:46.940
nc73684871,2022-01-28 12:47:36.960,39.795833333333334,-123.17433333333334,6.4,1.78,BK.RVIT..HHZ,P,-1.0,2022-01-28 12:47:41.190
nc73684871,2022-01-28 12:47:36.960,39.795833333333334,-123.17433333333334,6.4,1.78,BK.WEAV..HHZ,P,,2022-01-28 12:47:55.210
nc73684871,2022-01-28 12:47:36.960,39.795833333333334,-123.17433333333334,6.4,1.78,NC.GHO..EHZ,P,1.0,2022-01-28 12:47:53.100
nc73684871,2022-01-28 12:47:36.960,39.795833333333334,-123.17433333333334,6.4,1.78,NC.GMR..EHZ,P,-1.0,2022-01-28 12:47:51.070
nc73684871,2022-01-28 12:47:36.960,39.795833333333334,-123.17433333333334,6.4,1.78,NC.GNR..EHZ,P,,2022-01-28 12:47:51.320
nc73684871,2022-01-28 12:47:36.960,39.795833333333334,-123.17433333333334,6.4,1.78,NC.GROB..EHZ,P,,2022-01-28 12:47:45.600
nc73684871,2022-01-28 12:47:36.960,39.795833333333334,-123.17433333333334,6.4,1.78,NC.GSN..EHZ,P,,2022-01-28 12:47:54.210
nc73684871,2022-01-28 12:47:36.960,39.795833333333334,-123.17433333333334,6.4,1.78,NC.GVA..EHZ,P,,2022-01-28 12:47:45.540
nc73684871,2022-01-28 12:47:36.960,39.795833333333334,-123.17433333333334,6.4,1.78,NC.GWR..EHZ,P,,2022-01-28 12:47:49.680
nc73684871,2022-01-28 12:47:36.960,39.795833333333334,-123.17433333333334,6.4,1.78,NC.KBN..EHZ,P,1.0,2022-01-28 12:47:39.620
nc73684871,2022-01-28 12:47:36.960,39.795833333333334,-123.17433333333334,6.4,1.78,NC.KCPB..HHZ,P,-1.0,2022-01-28 12:47:43.990
nc73684871,2022-01-28 12:47:36.960,39.795833333333334,-123.17433333333334,6.4,1.78,NC.KFP..EHZ,P,1.0,2022-01-28 12:47:42.060
nc73684871,2022-01-28 12:47:36.960,39.795833333333334,-123.17433333333334,6.4,1.78,NC.KHBB..HHZ,P,,2022-01-28 12:47:53.650
nc73684871,2022-01-28 12:47:36.960,39.795833333333334,-123.17433333333334,6.4,1.78,NC.KIP..EHZ,P,,2022-01-28 12:47:41.680
nc73684871,2022-01-28 12:47:36.960,39.795833333333334,-123.17433333333334,6.4,1.78,NC.KMR..HHZ,P,1.0,2022-01-28 12:47:48.760
nc73684871,2022-01-28 12:47:36.960,39.795833333333334,-123.17433333333334,6.4,1.78,NC.KPR..EHZ,P,,2022-01-28 12:47:52.440
nc73684871,2022-01-28 12:47:36.960,39.795833333333334,-123.17433333333334,6.4,1.78,NC.KRK..EHZ,P,-1.0,2022-01-28 12:47:42.060
nc73684871,2022-01-28 12:47:36.960,39.795833333333334,-123.17433333333334,6.4,1.78,PB.B045..EHZ,P,,2022-01-28 12:47:54.470
nc73684871,2022-01-28 12:47:36.960,39.795833333333334,-123.17433333333334,6.4,1.78,PB.B049..EHZ,P,1.0,2022-01-28 12:47:50.350
nc73684871,2022-01-28 12:47:36.960,39.795833333333334,-123.17433333333334,6.4,1.78,PB.B932..EHZ,P,,2022-01-28 12:47:56.060
nc73684871,2022-01-28 12:47:36.960,39.795833333333334,-123.17433333333334,6.4,1.78,PB.B933..EHZ,P,,2022-01-28 12:47:50.320
