event_id,etime,elat,elon,edep,emag,station_id,phase_type,phase_polarity,phase_time
nc73684871,2022-01-28 12:47:36.960,39.795833333333334,-123.17433333333334,6.4,1.78,PB.B935..EHZ,P,1.0,2022-01-28 12:47:52.170
nc73684876,2022-01-28 13:06:22.530,39.7935,-123.17916666666666,7.08,1.99,BG.TCH..DPZ,P,,2022-01-28 13:06:41.740
nc73684876,2022-01-28 13:06:22.530,39.7935,-123.17916666666666,7.08,1.99,BK.BONV..HHZ,P,,2022-01-28 13:06:38.250
nc73684876,2022-01-28 13:06:22.530,39.7935,-123.17916666666666,7.08,1.99,BK.BRIC..HHZ,P,-1.0,2022-01-28 13:06:35.530
nc73684876,2022-01-28 13:06:22.530,39.7935,-123.17916666666666,7.08,1.99,BK.DCMP..HHZ,P,1.0,2022-01-28 13:06:29.600
nc73684876,2022-01-28 13:06:22.530,39.7935,-123.17916666666666,7.08,1.99,BK.GTSB..HHZ,P,1.0,2022-01-28 13:06:35.830
nc73684876,2022-01-28 13:06:22.530,39.7935,-123.17916666666666,7.08,1.99,BK.MNDO..HHZ,P,,2022-01-28 13:06:35.560
nc73684876,2022-01-28 13:06:22.530,39.7935,-123.17916666666666,7.08,1.99,BK.PETY..BHZ,P,1.0,2022-01-28 13:06:32.500
nc73684876,2022-01-28 13:06:22.530,39.7935,-123.17916666666666,7.08,1.99,BK.RVIT..HHZ,P,-1.0,2022-01-28 13:06:26.760
nc73684876,2022-01-28 13:06:22.530,39.7935,-123.17916666666666,7.08,1.99,NC.GCK..EHZ,P,,2022-01-28 13:06:35.030
nc73684876,2022-01-28 13:06:22.530,39.7935,-123.17916666666666,7.08,1.99,NC.GHGB..EHZ,P,,2022-01-28 13:06:36.970
nc73684876,2022-01-28 13:06:22.530,39.7935,-123.17916666666666,7.08,1.99,NC.GMR..EHZ,P,-1.0,2022-01-28 13:06:36.610
nc73684876,2022-01-28 13:06:22.530,39.7935,-123.17916666666666,7.08,1.99,NC.GNR..EHZ,P,1.0,2022-01-28 13:06:36.200
nc73684876,2022-01-28 13:06:22.530,39.7935,-123.17916666666666,7.08,1.99,NC.GROB..EHZ,P,1.0,2022-01-28 13:06:31.130
nc73684876,2022-01-28 13:06:22.530,39.7935,-123.17916666666666,7.08,1.99,NC.GSN..EHZ,P,,2022-01-28 13:06:39.630
nc73684876,2022-01-28 13:06:22.530,39.7935,-123.17916666666666,7.08,1.99,NC.GVA..EHZ,P,1.0,2022-01-28 13:06:31.050
nc73684876,2022-01-28 13:06:22.530,39.7935,-123.17916666666666,7.08,1.99,NC.GWR..EHZ,P,,2022-01-28 13:06:34.930
nc73684876,2022-01-28 13:06:22.530,39.7935,-123.17916666666666,7.08,1.99,NC.KBN..EHZ,P,1.0,2022-01-28 13:06:25.190
nc73684876,2022-01-28 13:06:22.530,39.7935,-123.17916666666666,7.08,1.99,NC.KBU..EHZ,P,-1.0,2022-01-28 13:06:36.420
nc73684876,2022-01-28 13:06:22.530,39.7935,-123.17916666666666,7.08,1.99,NC.KCPB..HHZ,P,1.0,2022-01-28 13:06:29.490
nc73684876,2022-01-28 13:06:22.530,39.7935,-123.17916666666666,7.08,1.99,NC.KCT..HHZ,P,,2022-01-28 13:06:43.160
nc73684876,2022-01-28 13:06:22.530,39.7935,-123.17916666666666,7.08,1.99,NC.KFP..EHZ,P,1.0,2022-01-28 13:06:27.610
nc73684876,2022-01-28 13:06:22.530,39.7935,-123.17916666666666,7.08,1.99,NC.KIP..EHZ,P,1.0,2022-01-28 13:06:27.240
nc73684876,2022-01-28 13:06:22.530,39.7935,-123.17916666666666,7.08,1.99,NC.KMR..HHZ,P,,2022-01-28 13:06:34.340
nc73684876,2022-01-28 13:06:22.530,39.7935,-123.17916666666666,7.08,1.99,NC.KRK..EHZ,P,-1.0,2022-01-28 13:06:27.570
nc73684876,2022-01-28 13:06:22.530,39.7935,-123.17916666666666,7.08,1.99,PB.B046..EHZ,P,,2022-01-28 13:06:40.340
nc73684876,2022-01-28 13:06:22.530,39.7935,-123.17916666666666,7.08,1.99,PB.B049..EHZ,P,1.0,2022-01-28 13:06:35.760
nc73684876,2022-01-28 13:06:22.530,39.7935,-123.17916666666666,7.08,1.99,PB.B932..EHZ,P,,2022-01-28 13:06:39.430
nc73684876,2022-01-28 13:06:22.530,39.7935,-123.17916666666666,7.08,1.99,PB.B933..EHZ,P,1.0,2022-01-28 13:06:35.870
nc73684876,2022-01-28 13:06:22.530,39.7935,-123.17916666666666,7.08,1.99,PB.B935..EHZ,P,,2022-01-28 13:06:37.570
nc73684881,2022-01-28 13:33:01.120,39.79366666666667,-123.17583333333333,6.51,1.78,BK.BRIC..HHZ,P,1.0,2022-01-28 13:33:14.210
nc73684881,2022-01-28 13:33:01.120,39.79366666666667,-123.17583333333333,6.51,1.78,BK.DCMP..HHZ,P,1.0,2022-01-28 13:33:08.200
nc73684881,2022-01-28 13:33:01.120,39.79366666666667,-123.17583333333333,6.51,1.78,BK.GALB..HHZ,P,,2022-01-28 13:33:19.400
nc73684881,2022-01-28 13:33:01.120,39.79366666666667,-123.17583333333333,6.51,1.78,BK.PETY..HHZ,P,1.0,2022-01-28 13:33:11.140
nc73684881,2022-01-28 13:33:01.120,39.79366666666667,-123.17583333333333,6.51,1.78,BK.RVIT..HHZ,P,-1.0,2022-01-28 13:33:05.390
nc73684881,2022-01-28 13:33:01.120,39.79366666666667,-123.17583333333333,6.51,1.78,NC.GMR..EHZ,P,-1.0,2022-01-28 13:33:15.240
nc73684881,2022-01-28 13:33:01.120,39.79366666666667,-123.17583333333333,6.51,1.78,NC.GROB..EHZ,P,,2022-01-28 13:33:09.780
nc73684881,2022-01-28 13:33:01.120,39.79366666666667,-123.17583333333333,6.51,1.78,NC.GSN..EHZ,P,,2022-01-28 13:33:18.420
nc73684881,2022-01-28 13:33:01.120,39.79366666666667,-123.17583333333333,6.51,1.78,NC.GVA..EHZ,P,-1.0,2022-01-28 13:33:09.700
nc73684881,2022-01-28 13:33:01.120,39.79366666666667,-123.17583333333333,6.51,1.78,NC.KBN..EHZ,P,1.0,2022-01-28 13:33:03.810
nc73684881,2022-01-28 13:33:01.120,39.79366666666667,-123.17583333333333,6.51,1.78,NC.KBU..EHZ,P,,2022-01-28 13:33:15.100
nc73684881,2022-01-28 13:33:01.120,39.79366666666667,-123.17583333333333,6.51,1.78,NC.KCPB..HHZ,P,,2022-01-28 13:33:08.020
nc73684881,2022-01-28 13:33:01.120,39.79366666666667,-123.17583333333333,6.51,1.78,NC.KFP..EHZ,P,1.0,2022-01-28 13:33:06.200
nc73684881,2022-01-28 13:33:01.120,39.79366666666667,-123.17583333333333,6.51,1.78,NC.KIP..EHZ,P,1.0,2022-01-28 13:33:05.840
nc73684881,2022-01-28 13:33:01.120,39.79366666666667,-123.17583333333333,6.51,1.78,NC.KMR..HHZ,P,1.0,2022-01-28 13:33:12.950
nc73684881,2022-01-28 13:33:01.120,39.79366666666667,-123.17583333333333,6.51,1.78,NC.KRK..EHZ,P,-1.0,2022-01-28 13:33:06.220
nc73684881,2022-01-28 13:33:01.120,39.79366666666667,-123.17583333333333,6.51,1.78,PB.B049..EHZ,P,,2022-01-28 13:33:14.510
nc73684881,2022-01-28 13:33:01.120,39.79366666666667,-123.17583333333333,6.51,1.78,PB.B932..EHZ,P,,2022-01-28 13:33:18.160
nc73684881,2022-01-28 13:33:01.120,39.79366666666667,-123.17583333333333,6.51,1.78,PB.B935..EHZ,P,1.0,2022-01-28 13:33:16.360
nc73684886,2022-01-28 13:35:47.410,39.7965,-123.18433333333333,7.6,2.32,BG.BUC..DPZ,P,,2022-01-28 13:36:07.170
nc73684886,2022-01-28 13:35:47.410,39.7965,-123.18433333333333,7.6,2.32,BK.BONV..HHZ,P,-1.0,2022-01-28 13:36:03.270
nc73684886,2022-01-28 13:35:47.410,39.7965,-123.18433333333333,7.6,2.32,BK.BRIC..HHZ,P,-1.0,2022-01-28 13:36:00.320
nc73684886,2022-01-28 13:35:47.410,39.7965,-123.18433333333333,7.6,2.32,BK.DCMP..HHZ,P,-1.0,2022-01-28 13:35:54.500
nc73684886,2022-01-28 13:35:47.410,39.7965,-123.18433333333333,7.6,2.32,BK.GTSB..HHZ,P,1.0,2022-01-28 13:36:00.860
nc73684886,2022-01-28 13:35:47.410,39.7965,-123.18433333333333,7.6,2.32,BK.HAYF..HHZ,P,-1.0,2022-01-28 13:36:01.330
nc73684886,2022-01-28 13:35:47.410,39.7965,-123.18433333333333,7.6,2.32,BK.LCOW..HHZ,P,1.0,2022-01-28 13:36:08.740
nc73684886,2022-01-28 13:35:47.410,39.7965,-123.18433333333333,7.6,2.32,BK.MNDO..HHZ,P,1.0,2022-01-28 13:36:00.640
nc73684886,2022-01-28 13:35:47.410,39.7965,-123.18433333333333,7.6,2.32,BK.PETY..HHZ,P,1.0,2022-01-28 13:35:57.420
nc73684886,2022-01-28 13:35:47.410,39.7965,-123.18433333333333,7.6,2.32,BK.RBOW..HHZ,P,,2022-01-28 13:36:04.450
nc73684886,2022-01-28 13:35:47.410,39.7965,-123.18433333333333,7.6,2.32,BK.RVIT..HHZ,P,-1.0,2022-01-28 13:35:51.550
nc73684886,2022-01-28 13:35:47.410,39.7965,-123.18433333333333,7.6,2.32,NC.GCK..EHZ,P,1.0,2022-01-28 13:36:00.900
nc73684886,2022-01-28 13:35:47.410,39.7965,-123.18433333333333,7.6,2.32,NC.GHGB..EHZ,P,,2022-01-28 13:36:01.770
nc73684886,2022-01-28 13:35:47.410,39.7965,-123.18433333333333,7.6,2.32,NC.GHO..EHZ,P,,2022-01-28 13:36:02.710
nc73684886,2022-01-28 13:35:47.410,39.7965,-123.18433333333333,7.6,2.32,NC.GMR..EHZ,P,-1.0,2022-01-28 13:36:01.350
nc73684886,2022-01-28 13:35:47.410,39.7965,-123.18433333333333,7.6,2.32,NC.GNR..EHZ,P,-1.0,2022-01-28 13:36:01.290
nc73684886,2022-01-28 13:35:47.410,39.7965,-123.18433333333333,7.6,2.32,NC.GROB..EHZ,P,1.0,2022-01-28 13:35:56.110
nc73684886,2022-01-28 13:35:47.410,39.7965,-123.18433333333333,7.6,2.32,NC.GRT..EHZ,P,,2022-01-28 13:36:06.520
nc73684886,2022-01-28 13:35:47.410,39.7965,-123.18433333333333,7.6,2.32,NC.GSN..EHZ,P,,2022-01-28 13:36:04.570
nc73684886,2022-01-28 13:35:47.410,39.7965,-123.18433333333333,7.6,2.32,NC.GVA..EHZ,P,-1.0,2022-01-28 13:35:56.030
nc73684886,2022-01-28 13:35:47.410,39.7965,-123.18433333333333,7.6,2.32,NC.GWR..EHZ,P,-1.0,2022-01-28 13:35:59.480
nc73684886,2022-01-28 13:35:47.410,39.7965,-123.18433333333333,7.6,2.32,NC.KBN..EHZ,P,1.0,2022-01-28 13:35:49.960
nc73684886,2022-01-28 13:35:47.410,39.7965,-123.18433333333333,7.6,2.32,NC.KBU..EHZ,P,-1.0,2022-01-28 13:36:01.210
nc73684886,2022-01-28 13:35:47.410,39.7965,-123.18433333333333,7.6,2.32,NC.KCPB..HHZ,P,1.0,2022-01-28 13:35:54.300
nc73684886,2022-01-28 13:35:47.410,39.7965,-123.18433333333333,7.6,2.32,NC.KFP..EHZ,P,1.0,2022-01-28 13:35:52.500
nc73684886,2022-01-28 13:35:47.410,39.7965,-123.18433333333333,7.6,2.32,NC.KHBB..HHZ,P,,2022-01-28 13:36:03.660
nc73684886,2022-01-28 13:35:47.410,39.7965,-123.18433333333333,7.6,2.32,NC.KIP..EHZ,P,1.0,2022-01-28 13:35:52.040
nc73684886,2022-01-28 13:35:47.410,39.7965,-123.18433333333333,7.6,2.32,NC.KMR..HHZ,P,-1.0,2022-01-28 13:35:58.950
nc73684886,2022-01-28 13:35:47.410,39.7965,-123.18433333333333,7.6,2.32,NC.KPR..EHZ,P,-1.0,2022-01-28 13:36:02.730
nc73684886,2022-01-28 13:35:47.410,39.7965,-123.18433333333333,7.6,2.32,NC.KRK..EHZ,P,-1.0,2022-01-28 13:35:52.550
nc73684886,2022-01-28 13:35:47.410,39.7965,-123.18433333333333,7.6,2.32,NC.LBK..EHZ,P,,2022-01-28 13:36:12.200
nc73684886,2022-01-28 13:35:47.410,39.7965,-123.18433333333333,7.6,2.32,NC.LMI..EHZ,P,-1.0,2022-01-28 13:36:07.950
nc73684886,2022-01-28 13:35:47.410,39.7965,-123.18433333333333,7.6,2.32,NC.LSF..EHZ,P,,2022-01-28 13:36:06.350
nc73684886,2022-01-28 13:35:47.410,39.7965,-123.18433333333333,7.6,2.32,PB.B046..EHZ,P,,2022-01-28 13:36:05.220
nc73684886,2022-01-28 13:35:47.410,39.7965,-123.18433333333333,7.6,2.32,PB.B049..EHZ,P,-1.0,2022-01-28 13:36:00.610
nc73684886,2022-01-28 13:35:47.410,39.7965,-123.18433333333333,7.6,2.32,PB.B933..EHZ,P,,2022-01-28 13:36:00.600
nc73684886,2022-01-28 13:35:47.410,39.7965,-123.18433333333333,7.6,2.32,PB.B934..EHZ,P,,2022-01-28 13:35:55.450
nc73684886,2022-01-28 13:35:47.410,39.7965,-123.18433333333333,7.6,2.32,PB.B935..EHZ,P,,2022-01-28 13:36:02.500
nc73684891,2022-01-28 13:39:00.170,39.79966666666667,-123.18866666666666,6.89,2.37,BK.BONV..HHZ,P,1.0,2022-01-28 13:39:15.960
nc73684891,2022-01-28 13:39:00.170,39.79966666666667,-123.18866666666666,6.89,2.37,BK.BRIC..HHZ,P,-1.0,2022-01-28 13:39:13.100
nc73684891,2022-01-28 13:39:00.170,39.79966666666667,-123.18866666666666,6.89,2.37,BK.DCMP..HHZ,P,-1.0,2022-01-28 13:39:07.290
nc73684891,2022-01-28 13:39:00.170,39.79966666666667,-123.18866666666666,6.89,2.37,BK.GTSB..HHZ,P,-1.0,2022-01-28 13:39:13.480
nc73684891,2022-01-28 13:39:00.170,39.79966666666667,-123.18866666666666,6.89,2.37,BK.HAYF..HHZ,P,-1.0,2022-01-28 13:39:14.060
nc73684891,2022-01-28 13:39:00.170,39.79966666666667,-123.18866666666666,6.89,2.37,BK.MNDO..HHZ,P,,2022-01-28 13:39:13.400
nc73684891,2022-01-28 13:39:00.170,39.79966666666667,-123.18866666666666,6.89,2.37,BK.PETY..HHZ,P,1.0,2022-01-28 13:39:10.160
nc73684891,2022-01-28 13:39:00.170,39.79966666666667,-123.18866666666666,6.89,2.37,BK.RBOW..HHZ,P,1.0,2022-01-28 13:39:17.270
nc73684891,2022-01-28 13:39:00.170,39.79966666666667,-123.18866666666666,6.89,2.37,BK.RVIT..HHZ,P,-1.0,2022-01-28 13:39:04.240
nc73684891,2022-01-28 13:39:00.170,39.79966666666667,-123.18866666666666,6.89,2.37,BK.WEAV..HHZ,P,,2022-01-28 13:39:18.320
nc73684891,2022-01-28 13:39:00.170,39.79966666666667,-123.18866666666666,6.89,2.37,NC.GCK..EHZ,P,-1.0,2022-01-28 13:39:13.730
nc73684891,2022-01-28 13:39:00.170,39.79966666666667,-123.18866666666666,6.89,2.37,NC.GHGB..EHZ,P,,2022-01-28 13:39:14.630
nc73684891,2022-01-28 13:39:00.170,39.79966666666667,-123.18866666666666,6.89,2.37,NC.GHO..EHZ,P,1.0,2022-01-28 13:39:15.510
nc73684891,2022-01-28 13:39:00.170,39.79966666666667,-123.18866666666666,6.89,2.37,NC.GMR..EHZ,P,1.0,2022-01-28 13:39:14.130
nc73684891,2022-01-28 13:39:00.170,39.79966666666667,-123.18866666666666,6.89,2.37,NC.GNR..EHZ,P,1.0,2022-01-28 13:39:13.930
nc73684891,2022-01-28 13:39:00.170,39.79966666666667,-123.18866666666666,6.89,2.37,NC.GROB..EHZ,P,1.0,2022-01-28 13:39:08.850
nc73684891,2022-01-28 13:39:00.170,39.79966666666667,-123.18866666666666,6.89,2.37,NC.GRT..EHZ,P,,2022-01-28 13:39:19.200
nc73684891,2022-01-28 13:39:00.170,39.79966666666667,-123.18866666666666,6.89,2.37,NC.GSN..EHZ,P,-1.0,2022-01-28 13:39:17.370
nc73684891,2022-01-28 13:39:00.170,39.79966666666667,-123.18866666666666,6.89,2.37,NC.GVA..EHZ,P,-1.0,2022-01-28 13:39:08.850
nc73684891,2022-01-28 13:39:00.170,39.79966666666667,-123.18866666666666,6.89,2.37,NC.GWR..EHZ,P,-1.0,2022-01-28 13:39:12.320
nc73684891,2022-01-28 13:39:00.170,39.79966666666667,-123.18866666666666,6.89,2.37,NC.KBN..EHZ,P,1.0,2022-01-28 13:39:02.740
nc73684891,2022-01-28 13:39:00.170,39.79966666666667,-123.18866666666666,6.89,2.37,NC.KBU..EHZ,P,-1.0,2022-01-28 13:39:13.980
nc73684891,2022-01-28 13:39:00.170,39.79966666666667,-123.18866666666666,6.89,2.37,NC.KCPB..HHZ,P,,2022-01-28 13:39:07.050
nc73684891,2022-01-28 13:39:00.170,39.79966666666667,-123.18866666666666,6.89,2.37,NC.KFP..EHZ,P,1.0,2022-01-28 13:39:05.260
nc73684891,2022-01-28 13:39:00.170,39.79966666666667,-123.18866666666666,6.89,2.37,NC.KHBB..HHZ,P,,2022-01-28 13:39:16.470
nc73684891,2022-01-28 13:39:00.170,39.79966666666667,-123.18866666666666,6.89,2.37,NC.KIP..EHZ,P,1.0,2022-01-28 13:39:04.800
nc73684891,2022-01-28 13:39:00.170,39.79966666666667,-123.18866666666666,6.89,2.37,NC.KMR..HHZ,P,-1.0,2022-01-28 13:39:11.770
nc73684891,2022-01-28 13:39:00.170,39.79966666666667,-123.18866666666666,6.89,2.37,NC.KRK..EHZ,P,-1.0,2022-01-28 13:39:05.330
nc73684891,2022-01-28 13:39:00.170,39.79966666666667,-123.18866666666666,6.89,2.37,NC.LMI..EHZ,P,,2022-01-28 13:39:20.830
nc73684891,2022-01-28 13:39:00.170,39.79966666666667,-123.18866666666666,6.89,2.37,NC.LSF..EHZ,P,-1.0,2022-01-28 13:39:19.130
nc73684891,2022-01-28 13:39:00.170,39.79966666666667,-123.18866666666666,6.89,2.37,PB.B049..EHZ,P,-1.0,2022-01-28 13:39:13.400
nc73684891,2022-01-28 13:39:00.170,39.79966666666667,-123.18866666666666,6.89,2.37,PB.B932..EHZ,P,1.0,2022-01-28 13:39:17.120
nc73684891,2022-01-28 13:39:00.170,39.79966666666667,-123.18866666666666,6.89,2.37,PB.B933..EHZ,P,-1.0,2022-01-28 13:39:13.390
nc73684891,2022-01-28 13:39:00.170,39.79966666666667,-123.18866666666666,6.89,2.37,PB.B935..EHZ,P,,2022-01-28 13:39:15.300
nc73684906,2022-01-28 15:14:03.070,39.79966666666667,-123.183,6.97,2.36,BK.BRIC..HHZ,P,-1.0,2022-01-28 15:14:16.010
nc73684906,2022-01-28 15:14:03.070,39.79966666666667,-123.183,6.97,2.36,BK.DCMP..HHZ,P,1.0,2022-01-28 15:14:10.190
nc73684906,2022-01-28 15:14:03.070,39.79966666666667,-123.183,6.97,2.36,BK.GTSB..HHZ,P,,2022-01-28 15:14:16.370
nc73684906,2022-01-28 15:14:03.070,39.79966666666667,-123.183,6.97,2.36,BK.HAYF..HHZ,P,-1.0,2022-01-28 15:14:16.970
nc73684906,2022-01-28 15:14:03.070,39.79966666666667,-123.183,6.97,2.36,BK.MNDO..HHZ,P,1.0,2022-01-28 15:14:16.300
nc73684906,2022-01-28 15:14:03.070,39.79966666666667,-123.183,6.97,2.36,BK.PETY..HHZ,P,1.0,2022-01-28 15:14:13.040
nc73684906,2022-01-28 15:14:03.070,39.79966666666667,-123.183,6.97,2.36,BK.RVIT..HHZ,P,-1.0,2022-01-28 15:14:07.230
nc73684906,2022-01-28 15:14:03.070,39.79966666666667,-123.183,6.97,2.36,BK.WEAV..HHZ,P,,2022-01-28 15:14:21.210
nc73684906,2022-01-28 15:14:03.070,39.79966666666667,-123.183,6.97,2.36,NC.GCK..EHZ,P,-1.0,2022-01-28 15:14:16.610
nc73684906,2022-01-28 15:14:03.070,39.79966666666667,-123.183,6.97,2.36,NC.GHGB..EHZ,P,1.0,2022-01-28 15:14:17.760
nc73684906,2022-01-28 15:14:03.070,39.79966666666667,-123.183,6.97,2.36,NC.GMR..EHZ,P,1.0,2022-01-28 15:14:17.070
nc73684906,2022-01-28 15:14:03.070,39.79966666666667,-123.183,6.97,2.36,NC.GNR..EHZ,P,1.0,2022-01-28 15:14:16.820
nc73684906,2022-01-28 15:14:03.070,39.79966666666667,-123.183,6.97,2.36,NC.GROB..EHZ,P,1.0,2022-01-28 15:14:11.730
nc73684906,2022-01-28 15:14:03.070,39.79966666666667,-123.183,6.97,2.36,NC.GSN..EHZ,P,-1.0,2022-01-28 15:14:20.300
nc73684906,2022-01-28 15:14:03.070,39.79966666666667,-123.183,6.97,2.36,NC.GVA..EHZ,P,-1.0,2022-01-28 15:14:11.730
nc73684906,2022-01-28 15:14:03.070,39.79966666666667,-123.183,6.97,2.36,NC.GWR..EHZ,P,-1.0,2022-01-28 15:14:15.370
nc73684906,2022-01-28 15:14:03.070,39.79966666666667,-123.183,6.97,2.36,NC.KBN..EHZ,P,1.0,2022-01-28 15:14:05.630
nc73684906,2022-01-28 15:14:03.070,39.79966666666667,-123.183,6.97,2.36,NC.KBU..EHZ,P,-1.0,2022-01-28 15:14:16.880
nc73684906,2022-01-28 15:14:03.070,39.79966666666667,-123.183,6.97,2.36,NC.KCPB..HHZ,P,1.0,2022-01-28 15:14:09.980
nc73684906,2022-01-28 15:14:03.070,39.79966666666667,-123.183,6.97,2.36,NC.KFP..EHZ,P,1.0,2022-01-28 15:14:08.190
nc73684906,2022-01-28 15:14:03.070,39.79966666666667,-123.183,6.97,2.36,NC.KHBB..HHZ,P,-1.0,2022-01-28 15:14:19.320
nc73684906,2022-01-28 15:14:03.070,39.79966666666667,-123.183,6.97,2.36,NC.KIP..EHZ,P,1.0,2022-01-28 15:14:07.740
nc73684906,2022-01-28 15:14:03.070,39.79966666666667,-123.183,6.97,2.36,NC.KMR..HHZ,P,1.0,2022-01-28 15:14:14.800
nc73684906,2022-01-28 15:14:03.070,39.79966666666667,-123.183,6.97,2.36,NC.KPR..EHZ,P,,2022-01-28 15:14:18.560
nc73684906,2022-01-28 15:14:03.070,39.79966666666667,-123.183,6.97,2.36,NC.KRK..EHZ,P,-1.0,2022-01-28 15:14:08.240
nc73684906,2022-01-28 15:14:03.070,39.79966666666667,-123.183,6.97,2.36,NC.LSF..EHZ,P,,2022-01-28 15:14:22.010
nc73684906,2022-01-28 15:14:03.070,39.79966666666667,-123.183,6.97,2.36,PB.B049..EHZ,P,-1.0,2022-01-28 15:14:16.340
nc73684906,2022-01-28 15:14:03.070,39.79966666666667,-123.183,6.97,2.36,PB.B932..EHZ,P,,2022-01-28 15:14:20.020
nc73684906,2022-01-28 15:14:03.070,39.79966666666667,-123.183,6.97,2.36,PB.B933..EHZ,P,-1.0,2022-01-28 15:14:16.290
nc73684906,2022-01-28 15:14:03.070,39.79966666666667,-123.183,6.97,2.36,PB.B935..EHZ,P,-1.0,2022-01-28 15:14:18.170
nc73685091,2022-01-29 01:54:56.010,39.81,-123.17233333333333,9.67,1.79,BK.DCMP..HHZ,P,1.0,2022-01-29 01:55:03.430
nc73685091,2022-01-29 01:54:56.010,39.81,-123.17233333333333,9.67,1.79,BK.GTSB..HHZ,P,1.0,2022-01-29 01:55:09.720
nc73685091,2022-01-29 01:54:56.010,39.81,-123.17233333333333,9.67,1.79,BK.HAYF..HHZ,P,1.0,2022-01-29 01:55:10.140
nc73685091,2022-01-29 01:54:56.010,39.81,-123.17233333333333,9.67,1.79,BK.PETY..HHZ,P,,2022-01-29 01:55:06.220
nc73685091,2022-01-29 01:54:56.010,39.81,-123.17233333333333,9.67,1.79,BK.RVIT..HHZ,P,1.0,2022-01-29 01:55:00.420
nc73685091,2022-01-29 01:54:56.010,39.81,-123.17233333333333,9.67,1.79,NC.GHO..EHZ,P,,2022-01-29 01:55:11.740
nc73685091,2022-01-29 01:54:56.010,39.81,-123.17233333333333,9.67,1.79,NC.GMR..EHZ,P,1.0,2022-01-29 01:55:10.450
nc73685091,2022-01-29 01:54:56.010,39.81,-123.17233333333333,9.67,1.79,NC.GNR..EHZ,P,,2022-01-29 01:55:10.070
nc73685091,2022-01-29 01:54:56.010,39.81,-123.17233333333333,9.67,1.79,NC.GRT..EHZ,P,,2022-01-29 01:55:13.240
nc73685091,2022-01-29 01:54:56.010,39.81,-123.17233333333333,9.67,1.79,NC.GSN..EHZ,P,,2022-01-29 01:55:13.690
nc73685091,2022-01-29 01:54:56.010,39.81,-123.17233333333333,9.67,1.79,NC.GVA..EHZ,P,,2022-01-29 01:55:04.950
nc73685091,2022-01-29 01:54:56.010,39.81,-123.17233333333333,9.67,1.79,NC.KBN..EHZ,P,1.0,2022-01-29 01:54:58.840
nc73685091,2022-01-29 01:54:56.010,39.81,-123.17233333333333,9.67,1.79,NC.KBU..EHZ,P,,2022-01-29 01:55:10.230
nc73685091,2022-01-29 01:54:56.010,39.81,-123.17233333333333,9.67,1.79,NC.KCPB..HHZ,P,-1.0,2022-01-29 01:55:03.340
nc73685091,2022-01-29 01:54:56.010,39.81,-123.17233333333333,9.67,1.79,NC.KFP..EHZ,P,1.0,2022-01-29 01:55:01.400
nc73685091,2022-01-29 01:54:56.010,39.81,-123.17233333333333,9.67,1.79,NC.KHBB..HHZ,P,,2022-01-29 01:55:12.590
nc73685091,2022-01-29 01:54:56.010,39.81,-123.17233333333333,9.67,1.79,NC.KIP..EHZ,P,1.0,2022-01-29 01:55:00.930
nc73685091,2022-01-29 01:54:56.010,39.81,-123.17233333333333,9.67,1.79,NC.KMR..HHZ,P,,2022-01-29 01:55:07.880
