event_id,etime,elat,elon,edep,emag,station_id,phase_type,phase_polarity,phase_time
nc73885286,2023-05-08 05:17:40.240,40.13283333333333,-123.07183333333333,40.25,2.81,BK.BCCR..HHZ,P,1.0,2023-05-08 05:17:57.730
nc73885286,2023-05-08 05:17:40.240,40.13283333333333,-123.07183333333333,40.25,2.81,BK.BIGV..HHZ,P,,2023-05-08 05:18:07.610
nc73885286,2023-05-08 05:17:40.240,40.13283333333333,-123.07183333333333,40.25,2.81,BK.BONV..HHZ,P,,2023-05-08 05:17:59.220
nc73885286,2023-05-08 05:17:40.240,40.13283333333333,-123.07183333333333,40.25,2.81,BK.DANT..HHZ,P,,2023-05-08 05:17:56.880
nc73885286,2023-05-08 05:17:40.240,40.13283333333333,-123.07183333333333,40.25,2.81,BK.DCMP..HHZ,P,-1.0,2023-05-08 05:17:52.880
nc73885286,2023-05-08 05:17:40.240,40.13283333333333,-123.07183333333333,40.25,2.81,BK.DLIK..HHZ,P,-1.0,2023-05-08 05:17:48.960
nc73885286,2023-05-08 05:17:40.240,40.13283333333333,-123.07183333333333,40.25,2.81,BK.GTSB..HHZ,P,,2023-05-08 05:17:56.410
nc73885286,2023-05-08 05:17:40.240,40.13283333333333,-123.07183333333333,40.25,2.81,BK.HAYF..HHZ,P,-1.0,2023-05-08 05:17:49.650
nc73885286,2023-05-08 05:17:40.240,40.13283333333333,-123.07183333333333,40.25,2.81,BK.JCC..HHZ,P,,2023-05-08 05:17:57.230
nc73885286,2023-05-08 05:17:40.240,40.13283333333333,-123.07183333333333,40.25,2.81,BK.LCOW..HHZ,P,1.0,2023-05-08 05:17:55.300
nc73885286,2023-05-08 05:17:40.240,40.13283333333333,-123.07183333333333,40.25,2.81,BK.LITV..HHZ,P,,2023-05-08 05:18:06.190
nc73885286,2023-05-08 05:17:40.240,40.13283333333333,-123.07183333333333,40.25,2.81,BK.MILL..HHZ,P,,2023-05-08 05:18:07.310
nc73885286,2023-05-08 05:17:40.240,40.13283333333333,-123.07183333333333,40.25,2.81,BK.ORV..HHZ,P,,2023-05-08 05:18:01.590
nc73885286,2023-05-08 05:17:40.240,40.13283333333333,-123.07183333333333,40.25,2.81,BK.PRDS..HHZ,P,1.0,2023-05-08 05:17:53.660
nc73885286,2023-05-08 05:17:40.240,40.13283333333333,-123.07183333333333,40.25,2.81,BK.RBOW..BHZ,P,,2023-05-08 05:17:54.790
nc73885286,2023-05-08 05:17:40.240,40.13283333333333,-123.07183333333333,40.25,2.81,BK.RVIT..HNZ,P,,2023-05-08 05:17:49.240
nc73885286,2023-05-08 05:17:40.240,40.13283333333333,-123.07183333333333,40.25,2.81,BK.SAGE..HHZ,P,,2023-05-08 05:17:57.840
nc73885286,2023-05-08 05:17:40.240,40.13283333333333,-123.07183333333333,40.25,2.81,BK.SANG..HHZ,P,1.0,2023-05-08 05:18:09.030
nc73885286,2023-05-08 05:17:40.240,40.13283333333333,-123.07183333333333,40.25,2.81,BK.SBAR..HHZ,P,-1.0,2023-05-08 05:18:05.130
nc73885286,2023-05-08 05:17:40.240,40.13283333333333,-123.07183333333333,40.25,2.81,BK.SCOT..HHZ,P,1.0,2023-05-08 05:18:01.680
nc73885286,2023-05-08 05:17:40.240,40.13283333333333,-123.07183333333333,40.25,2.81,BK.SHEP..HHZ,P,,2023-05-08 05:18:10.620
nc73885286,2023-05-08 05:17:40.240,40.13283333333333,-123.07183333333333,40.25,2.81,BK.SHWD..HHZ,P,-1.0,2023-05-08 05:17:53.140
nc73885286,2023-05-08 05:17:40.240,40.13283333333333,-123.07183333333333,40.25,2.81,BK.SKGS..HHZ,P,,2023-05-08 05:18:03.150
nc73885286,2023-05-08 05:17:40.240,40.13283333333333,-123.07183333333333,40.25,2.81,BK.SUTB..HHZ,P,,2023-05-08 05:18:01.320
nc73885286,2023-05-08 05:17:40.240,40.13283333333333,-123.07183333333333,40.25,2.81,BK.TRIN..HHZ,P,,2023-05-08 05:17:55.950
nc73885286,2023-05-08 05:17:40.240,40.13283333333333,-123.07183333333333,40.25,2.81,BK.WEAV..HHZ,P,1.0,2023-05-08 05:17:52.230
nc73885286,2023-05-08 05:17:40.240,40.13283333333333,-123.07183333333333,40.25,2.81,BK.YBH..HHZ,P,,2023-05-08 05:18:06.810
nc73885286,2023-05-08 05:17:40.240,40.13283333333333,-123.07183333333333,40.25,2.81,CE.79668..HNZ,P,,2023-05-08 05:17:54.310
nc73885286,2023-05-08 05:17:40.240,40.13283333333333,-123.07183333333333,40.25,2.81,CE.88059..HNZ,P,-1.0,2023-05-08 05:17:53.730
nc73885286,2023-05-08 05:17:40.240,40.13283333333333,-123.07183333333333,40.25,2.81,NC.AFD..HHZ,P,,2023-05-08 05:18:11.540
nc73885286,2023-05-08 05:17:40.240,40.13283333333333,-123.07183333333333,40.25,2.81,NC.AFL..EHZ,P,,2023-05-08 05:18:12.440
nc73885286,2023-05-08 05:17:40.240,40.13283333333333,-123.07183333333333,40.25,2.81,NC.GBL..EHZ,P,-1.0,2023-05-08 05:17:58.460
nc73885286,2023-05-08 05:17:40.240,40.13283333333333,-123.07183333333333,40.25,2.81,NC.GCVB..EHZ,P,,2023-05-08 05:18:02.030
nc73885286,2023-05-08 05:17:40.240,40.13283333333333,-123.07183333333333,40.25,2.81,NC.GCWB..EHZ,P,-1.0,2023-05-08 05:17:57.310
nc73885286,2023-05-08 05:17:40.240,40.13283333333333,-123.07183333333333,40.25,2.81,NC.GFC..EHZ,P,,2023-05-08 05:17:57.880
nc73885286,2023-05-08 05:17:40.240,40.13283333333333,-123.07183333333333,40.25,2.81,NC.GHGB..HHZ,P,-1.0,2023-05-08 05:17:57.730
nc73885286,2023-05-08 05:17:40.240,40.13283333333333,-123.07183333333333,40.25,2.81,NC.GHO..EHZ,P,-1.0,2023-05-08 05:17:58.820
nc73885286,2023-05-08 05:17:40.240,40.13283333333333,-123.07183333333333,40.25,2.81,NC.GMR..EHZ,P,-1.0,2023-05-08 05:17:57.500
nc73885286,2023-05-08 05:17:40.240,40.13283333333333,-123.07183333333333,40.25,2.81,NC.GNR..EHZ,P,-1.0,2023-05-08 05:17:57.250
nc73885286,2023-05-08 05:17:40.240,40.13283333333333,-123.07183333333333,40.25,2.81,NC.GPM..EHZ,P,,2023-05-08 05:18:01.180
nc73885286,2023-05-08 05:17:40.240,40.13283333333333,-123.07183333333333,40.25,2.81,NC.GROB..EHZ,P,1.0,2023-05-08 05:17:49.580
nc73885286,2023-05-08 05:17:40.240,40.13283333333333,-123.07183333333333,40.25,2.81,NC.GRT..HHZ,P,,2023-05-08 05:18:00.070
nc73885286,2023-05-08 05:17:40.240,40.13283333333333,-123.07183333333333,40.25,2.81,NC.GSN..EHZ,P,-1.0,2023-05-08 05:17:59.760
nc73885286,2023-05-08 05:17:40.240,40.13283333333333,-123.07183333333333,40.25,2.81,NC.GVA..EHZ,P,-1.0,2023-05-08 05:17:53.880
nc73885286,2023-05-08 05:17:40.240,40.13283333333333,-123.07183333333333,40.25,2.81,NC.GWR..EHZ,P,-1.0,2023-05-08 05:17:56.360
nc73885286,2023-05-08 05:17:40.240,40.13283333333333,-123.07183333333333,40.25,2.81,NC.KBU..EHZ,P,1.0,2023-05-08 05:17:52.170
nc73885286,2023-05-08 05:17:40.240,40.13283333333333,-123.07183333333333,40.25,2.81,NC.KCR..EHZ,P,1.0,2023-05-08 05:17:52.660
nc73885286,2023-05-08 05:17:40.240,40.13283333333333,-123.07183333333333,40.25,2.81,NC.KFP..EHZ,P,-1.0,2023-05-08 05:17:51.380
nc73885286,2023-05-08 05:17:40.240,40.13283333333333,-123.07183333333333,40.25,2.81,NC.KHBB..HHZ,P,-1.0,2023-05-08 05:17:51.360
nc73885286,2023-05-08 05:17:40.240,40.13283333333333,-123.07183333333333,40.25,2.81,NC.KIP..EHZ,P,,2023-05-08 05:17:50.170
nc73885286,2023-05-08 05:17:40.240,40.13283333333333,-123.07183333333333,40.25,2.81,NC.KLR..EHZ,P,1.0,2023-05-08 05:17:47.640
nc73885286,2023-05-08 05:17:40.240,40.13283333333333,-123.07183333333333,40.25,2.81,NC.KMR..HHZ,P,1.0,2023-05-08 05:17:50.830
nc73885286,2023-05-08 05:17:40.240,40.13283333333333,-123.07183333333333,40.25,2.81,NC.KPR..EHZ,P,1.0,2023-05-08 05:17:54.110
nc73885286,2023-05-08 05:17:40.240,40.13283333333333,-123.07183333333333,40.25,2.81,NC.KRK..EHZ,P,-1.0,2023-05-08 05:17:51.960
nc73885286,2023-05-08 05:17:40.240,40.13283333333333,-123.07183333333333,40.25,2.81,NC.KSXB..HHZ,P,,2023-05-08 05:18:08.370
nc73885286,2023-05-08 05:17:40.240,40.13283333333333,-123.07183333333333,40.25,2.81,NC.KTJ..HNZ,P,,2023-05-08 05:17:52.940
nc73885286,2023-05-08 05:17:40.240,40.13283333333333,-123.07183333333333,40.25,2.81,NC.LBK..EHZ,P,,2023-05-08 05:17:57.770
nc73885286,2023-05-08 05:17:40.240,40.13283333333333,-123.07183333333333,40.25,2.81,NC.LGO..EHZ,P,,2023-05-08 05:18:08.410
nc73885286,2023-05-08 05:17:40.240,40.13283333333333,-123.07183333333333,40.25,2.81,NC.LGY..HHZ,P,,2023-05-08 05:18:03.700
nc73885286,2023-05-08 05:17:40.240,40.13283333333333,-123.07183333333333,40.25,2.81,NC.LMI..EHZ,P,1.0,2023-05-08 05:17:54.490
nc73885286,2023-05-08 05:17:40.240,40.13283333333333,-123.07183333333333,40.25,2.81,NC.LSF..EHZ,P,1.0,2023-05-08 05:17:53.090
nc73885286,2023-05-08 05:17:40.240,40.13283333333333,-123.07183333333333,40.25,2.81,NC.LSG..EHZ,P,1.0,2023-05-08 05:17:59.470
nc73885286,2023-05-08 05:17:40.240,40.13283333333333,-123.07183333333333,40.25,2.81,NC.LSH..EHZ,P,,2023-05-08 05:17:57.760
nc73885286,2023-05-08 05:17:40.240,40.13283333333333,-123.07183333333333,40.25,2.81,NC.LTC..HHZ,P,1.0,2023-05-08 05:17:53.580
nc73885286,2023-05-08 05:17:40.240,40.13283333333333,-123.07183333333333,40.25,2.81,NC.NFRB..EHZ,P,,2023-05-08 05:18:05.610
nc73885286,2023-05-08 05:17:40.240,40.13283333333333,-123.07183333333333,40.25,2.81,NC.NFVB..EHZ,P,,2023-05-08 05:18:06.340
nc73885286,2023-05-08 05:17:40.240,40.13283333333333,-123.07183333333333,40.25,2.81,NC.NHV..EHZ,P,,2023-05-08 05:18:10.600
nc73885286,2023-05-08 05:17:40.240,40.13283333333333,-123.07183333333333,40.25,2.81,NC.NTR..EHZ,P,,2023-05-08 05:18:09.620
nc73885286,2023-05-08 05:17:40.240,40.13283333333333,-123.07183333333333,40.25,2.81,NC.OWY..EHZ,P,,2023-05-08 05:18:02.190
nc73885286,2023-05-08 05:17:40.240,40.13283333333333,-123.07183333333333,40.25,2.81,NN.BEK..HHZ,P,,2023-05-08 05:18:12.330
nc73885286,2023-05-08 05:17:40.240,40.13283333333333,-123.07183333333333,40.25,2.81,NP.1591..HNZ,P,1.0,2023-05-08 05:17:51.670
nc73885286,2023-05-08 05:17:40.240,40.13283333333333,-123.07183333333333,40.25,2.81,PB.B039..EHZ,P,,2023-05-08 05:18:03.530
nc73885286,2023-05-08 05:17:40.240,40.13283333333333,-123.07183333333333,40.25,2.81,PB.B040..EHZ,P,,2023-05-08 05:18:09.070
nc73885286,2023-05-08 05:17:40.240,40.13283333333333,-123.07183333333333,40.25,2.81,PB.B045..EHZ,P,1.0,2023-05-08 05:17:54.110
nc73885286,2023-05-08 05:17:40.240,40.13283333333333,-123.07183333333333,40.25,2.81,PB.B046..EHZ,P,1.0,2023-05-08 05:17:56.410
nc73885286,2023-05-08 05:17:40.240,40.13283333333333,-123.07183333333333,40.25,2.81,PB.B047..EHZ,P,1.0,2023-05-08 05:17:55.270
nc73885286,2023-05-08 05:17:40.240,40.13283333333333,-123.07183333333333,40.25,2.81,PB.B049..EHZ,P,1.0,2023-05-08 05:17:51.610
nc73885286,2023-05-08 05:17:40.240,40.13283333333333,-123.07183333333333,40.25,2.81,PB.B932..EHZ,P,1.0,2023-05-08 05:17:55.650
nc73885286,2023-05-08 05:17:40.240,40.13283333333333,-123.07183333333333,40.25,2.81,PB.B935..EHZ,P,1.0,2023-05-08 05:17:51.170
nc73887531,2023-05-13 07:12:42.790,40.553666666666665,-124.24083333333333,15.05,2.16,BK.DMOR..HHZ,P,1.0,2023-05-13 07:12:51.440
nc73887531,2023-05-13 07:12:42.790,40.553666666666665,-124.24083333333333,15.05,2.16,BK.HAYF..HHZ,P,,2023-05-13 07:12:57.070
nc73887531,2023-05-13 07:12:42.790,40.553666666666665,-124.24083333333333,15.05,2.16,BK.JCC..HHZ,P,-1.0,2023-05-13 07:12:49.520
nc73887531,2023-05-13 07:12:42.790,40.553666666666665,-124.24083333333333,15.05,2.16,BK.KNEE..HHZ,P,,2023-05-13 07:12:49.760
nc73887531,2023-05-13 07:12:42.790,40.553666666666665,-124.24083333333333,15.05,2.16,BK.PETL..HNZ,P,-1.0,2023-05-13 07:12:49.210
nc73887531,2023-05-13 07:12:42.790,40.553666666666665,-124.24083333333333,15.05,2.16,BK.PRDS..HHZ,P,,2023-05-13 07:12:52.600
nc73887531,2023-05-13 07:12:42.790,40.553666666666665,-124.24083333333333,15.05,2.16,BK.RBOW..HHZ,P,1.0,2023-05-13 07:12:48.430
nc73887531,2023-05-13 07:12:42.790,40.553666666666665,-124.24083333333333,15.05,2.16,NC.KCO..HNZ,P,-1.0,2023-05-13 07:12:49.690
nc73887531,2023-05-13 07:12:42.790,40.553666666666665,-124.24083333333333,15.05,2.16,NC.KCR..EHZ,P,1.0,2023-05-13 07:12:50.600
nc73887531,2023-05-13 07:12:42.790,40.553666666666665,-124.24083333333333,15.05,2.16,NC.KCT..HHZ,P,1.0,2023-05-13 07:12:46.430
nc73887531,2023-05-13 07:12:42.790,40.553666666666665,-124.24083333333333,15.05,2.16,NC.KHMB..HHZ,P,,2023-05-13 07:12:53.020
nc73887531,2023-05-13 07:12:42.790,40.553666666666665,-124.24083333333333,15.05,2.16,NC.KIP..EHZ,P,,2023-05-13 07:13:00.480
nc73887531,2023-05-13 07:12:42.790,40.553666666666665,-124.24083333333333,15.05,2.16,NC.KLR..EHZ,P,,2023-05-13 07:12:58.370
nc73887531,2023-05-13 07:12:42.790,40.553666666666665,-124.24083333333333,15.05,2.16,NC.KMR..HHZ,P,1.0,2023-05-13 07:12:53.870
nc73887531,2023-05-13 07:12:42.790,40.553666666666665,-124.24083333333333,15.05,2.16,NC.KPR..EHZ,P,1.0,2023-05-13 07:12:50.810
nc73887531,2023-05-13 07:12:42.790,40.553666666666665,-124.24083333333333,15.05,2.16,NC.LBK..EHZ,P,,2023-05-13 07:13:05.020
nc73887531,2023-05-13 07:12:42.790,40.553666666666665,-124.24083333333333,15.05,2.16,NP.1023..HNZ,P,1.0,2023-05-13 07:12:45.990
nc73887531,2023-05-13 07:12:42.790,40.553666666666665,-124.24083333333333,15.05,2.16,NP.1581..HNZ,P,,2023-05-13 07:12:47.610
nc73887531,2023-05-13 07:12:42.790,40.553666666666665,-124.24083333333333,15.05,2.16,NP.1582..HNZ,P,-1.0,2023-05-13 07:12:47.170
nc73887531,2023-05-13 07:12:42.790,40.553666666666665,-124.24083333333333,15.05,2.16,NP.1584B..HNZ,P,,2023-05-13 07:12:45.950
nc73887531,2023-05-13 07:12:42.790,40.553666666666665,-124.24083333333333,15.05,2.16,NP.1586..HNZ,P,1.0,2023-05-13 07:12:46.450
nc73887531,2023-05-13 07:12:42.790,40.553666666666665,-124.24083333333333,15.05,2.16,PB.B045..EHZ,P,1.0,2023-05-13 07:12:48.210
nc73887531,2023-05-13 07:12:42.790,40.553666666666665,-124.24083333333333,15.05,2.16,PB.B046..EHZ,P,-1.0,2023-05-13 07:12:48.550
nc73887531,2023-05-13 07:12:42.790,40.553666666666665,-124.24083333333333,15.05,2.16,PB.B047..EHZ,P,-1.0,2023-05-13 07:12:49.790
nc73887531,2023-05-13 07:12:42.790,40.553666666666665,-124.24083333333333,15.05,2.16,PB.B049..EHZ,P,1.0,2023-05-13 07:12:52.290
nc73887531,2023-05-13 07:12:42.790,40.553666666666665,-124.24083333333333,15.05,2.16,PB.B932..EHZ,P,-1.0,2023-05-13 07:12:49.160
nc73888446,2023-05-15 14:48:54.500,40.091166666666666,-123.75733333333334,21.27,1.74,BK.BRIC..HHZ,P,,2023-05-15 14:48:58.390
nc73888446,2023-05-15 14:48:54.500,40.091166666666666,-123.75733333333334,21.27,1.74,BK.DMOR..HHZ,P,,2023-05-15 14:49:04.280
nc73888446,2023-05-15 14:48:54.500,40.091166666666666,-123.75733333333334,21.27,1.74,BK.HAYF..HHZ,P,-1.0,2023-05-15 14:49:06.170
nc73888446,2023-05-15 14:48:54.500,40.091166666666666,-123.75733333333334,21.27,1.74,BK.JCC..HHZ,P,,2023-05-15 14:49:08.470
nc73888446,2023-05-15 14:48:54.500,40.091166666666666,-123.75733333333334,21.27,1.74,BK.PRDS..HHZ,P,1.0,2023-05-15 14:49:00.420
nc73888446,2023-05-15 14:48:54.500,40.091166666666666,-123.75733333333334,21.27,1.74,BK.RBOW..HHZ,P,1.0,2023-05-15 14:49:02.570
nc73888446,2023-05-15 14:48:54.500,40.091166666666666,-123.75733333333334,21.27,1.74,BK.SHWD..HHZ,P,-1.0,2023-05-15 14:49:05.710
nc73888446,2023-05-15 14:48:54.500,40.091166666666666,-123.75733333333334,21.27,1.74,CE.89688..HNZ,P,,2023-05-15 14:49:00.590
nc73888446,2023-05-15 14:48:54.500,40.091166666666666,-123.75733333333334,21.27,1.74,NC.GNR..EHZ,P,,2023-05-15 14:49:09.270
nc73888446,2023-05-15 14:48:54.500,40.091166666666666,-123.75733333333334,21.27,1.74,NC.KBU..EHZ,P,1.0,2023-05-15 14:48:59.780
nc73888446,2023-05-15 14:48:54.500,40.091166666666666,-123.75733333333334,21.27,1.74,NC.KCR..EHZ,P,,2023-05-15 14:49:02.090
nc73888446,2023-05-15 14:48:54.500,40.091166666666666,-123.75733333333334,21.27,1.74,NC.KFP..EHZ,P,,2023-05-15 14:49:04.550
nc73888446,2023-05-15 14:48:54.500,40.091166666666666,-123.75733333333334,21.27,1.74,NC.KIP..EHZ,P,-1.0,2023-05-15 14:49:02.420
nc73888446,2023-05-15 14:48:54.500,40.091166666666666,-123.75733333333334,21.27,1.74,NC.KLR..EHZ,P,1.0,2023-05-15 14:49:02.090
nc73888446,2023-05-15 14:48:54.500,40.091166666666666,-123.75733333333334,21.27,1.74,NC.KMR..HHZ,P,,2023-05-15 14:48:58.920
nc73888446,2023-05-15 14:48:54.500,40.091166666666666,-123.75733333333334,21.27,1.74,NC.KPR..EHZ,P,1.0,2023-05-15 14:49:00.980
nc73888446,2023-05-15 14:48:54.500,40.091166666666666,-123.75733333333334,21.27,1.74,NC.KTJ..HNZ,P,,2023-05-15 14:48:59.770
nc73888446,2023-05-15 14:48:54.500,40.091166666666666,-123.75733333333334,21.27,1.74,NP.1591..HNZ,P,,2023-05-15 14:48:58.650
nc73888446,2023-05-15 14:48:54.500,40.091166666666666,-123.75733333333334,21.27,1.74,PB.B047..EHZ,P,1.0,2023-05-15 14:49:02.360
nc73888446,2023-05-15 14:48:54.500,40.091166666666666,-123.75733333333334,21.27,1.74,PB.B049..EHZ,P,1.0,2023-05-15 14:48:59.340
nc73888446,2023-05-15 14:48:54.500,40.091166666666666,-123.75733333333334,21.27,1.74,PB.B932..EHZ,P,1.0,2023-05-15 14:49:02.750
nc73888446,2023-05-15 14:48:54.500,40.091166666666666,-123.75733333333334,21.27,1.74,PB.B935..EHZ,P,-1.0,2023-05-15 14:49:03.320
nc73889561,2023-05-18 11:27:14.260,40.586666666666666,-124.11183333333334,16.12,2.19,BK.DLIK..HHZ,P,-1.0,2023-05-18 11:27:31.030
nc73889561,2023-05-18 11:27:14.260,40.586666666666666,-124.11183333333334,16.12,2.19,BK.HAYF..HHZ,P,1.0,2023-05-18 11:27:27.280
nc73889561,2023-05-18 11:27:14.260,40.586666666666666,-124.11183333333334,16.12,2.19,BK.JCC..HHZ,P,-1.0,2023-05-18 11:27:19.800
nc73889561,2023-05-18 11:27:14.260,40.586666666666666,-124.11183333333334,16.12,2.19,BK.KNEE..HHZ,P,-1.0,2023-05-18 11:27:19.440
nc73889561,2023-05-18 11:27:14.260,40.586666666666666,-124.11183333333334,16.12,2.19,BK.MILL..HHZ,P,-1.0,2023-05-18 11:27:33.330
nc73889561,2023-05-18 11:27:14.260,40.586666666666666,-124.11183333333334,16.12,2.19,BK.PETL..HNZ,P,-1.0,2023-05-18 11:27:21.850
nc73889561,2023-05-18 11:27:14.260,40.586666666666666,-124.11183333333334,16.12,2.19,BK.PRDS..HHZ,P,-1.0,2023-05-18 11:27:24.290
nc73889561,2023-05-18 11:27:14.260,40.586666666666666,-124.11183333333334,16.12,2.19,BK.RBOW..HHZ,P,-1.0,2023-05-18 11:27:20.190
nc73889561,2023-05-18 11:27:14.260,40.586666666666666,-124.11183333333334,16.12,2.19,BK.SAGE..HHZ,P,,2023-05-18 11:27:41.030
nc73889561,2023-05-18 11:27:14.260,40.586666666666666,-124.11183333333334,16.12,2.19,BK.SANG..HHZ,P,,2023-05-18 11:27:36.820
nc73889561,2023-05-18 11:27:14.260,40.586666666666666,-124.11183333333334,16.12,2.19,BK.SBAR..HHZ,P,,2023-05-18 11:27:36.230
nc73889561,2023-05-18 11:27:14.260,40.586666666666666,-124.11183333333334,16.12,2.19,BK.SCOT..HHZ,P,-1.0,2023-05-18 11:27:35.600
nc73889561,2023-05-18 11:27:14.260,40.586666666666666,-124.11183333333334,16.12,2.19,BK.SIGP..HHZ,P,,2023-05-18 11:27:35.590
nc73889561,2023-05-18 11:27:14.260,40.586666666666666,-124.11183333333334,16.12,2.19,BK.TRIN..HHZ,P,,2023-05-18 11:27:33.970
nc73889561,2023-05-18 11:27:14.260,40.586666666666666,-124.11183333333334,16.12,2.19,BK.WEAV..HHZ,P,-1.0,2023-05-18 11:27:30.010
nc73889561,2023-05-18 11:27:14.260,40.586666666666666,-124.11183333333334,16.12,2.19,CE.89688..HNZ,P,,2023-05-18 11:27:25.030
nc73889561,2023-05-18 11:27:14.260,40.586666666666666,-124.11183333333334,16.12,2.19,CE.89781..HNZ,P,1.0,2023-05-18 11:27:19.210
nc73889561,2023-05-18 11:27:14.260,40.586666666666666,-124.11183333333334,16.12,2.19,NC.KBU..EHZ,P,1.0,2023-05-18 11:27:22.970
nc73889561,2023-05-18 11:27:14.260,40.586666666666666,-124.11183333333334,16.12,2.19,NC.KCO..HNZ,P,-1.0,2023-05-18 11:27:22.070
nc73889561,2023-05-18 11:27:14.260,40.586666666666666,-124.11183333333334,16.12,2.19,NC.KCR..EHZ,P,-1.0,2023-05-18 11:27:20.700
nc73889561,2023-05-18 11:27:14.260,40.586666666666666,-124.11183333333334,16.12,2.19,NC.KFP..EHZ,P,,2023-05-18 11:27:33.010
nc73889561,2023-05-18 11:27:14.260,40.586666666666666,-124.11183333333334,16.12,2.19,NC.KHBB..HNZ,P,,2023-05-18 11:27:27.420
nc73889561,2023-05-18 11:27:14.260,40.586666666666666,-124.11183333333334,16.12,2.19,NC.KHMB..HHZ,P,1.0,2023-05-18 11:27:23.120
nc73889561,2023-05-18 11:27:14.260,40.586666666666666,-124.11183333333334,16.12,2.19,NC.KIP..EHZ,P,,2023-05-18 11:27:31.070
nc73889561,2023-05-18 11:27:14.260,40.586666666666666,-124.11183333333334,16.12,2.19,NC.KLR..EHZ,P,,2023-05-18 11:27:29.180
nc73889561,2023-05-18 11:27:14.260,40.586666666666666,-124.11183333333334,16.12,2.19,NC.KMR..HHZ,P,1.0,2023-05-18 11:27:24.650
nc73889561,2023-05-18 11:27:14.260,40.586666666666666,-124.11183333333334,16.12,2.19,NC.KPR..EHZ,P,-1.0,2023-05-18 11:27:22.300
nc73889561,2023-05-18 11:27:14.260,40.586666666666666,-124.11183333333334,16.12,2.19,NC.KRP..HHZ,P,-1.0,2023-05-18 11:27:25.460
nc73889561,2023-05-18 11:27:14.260,40.586666666666666,-124.11183333333334,16.12,2.19,NC.KSXB..HHZ,P,,2023-05-18 11:27:35.140
nc73889561,2023-05-18 11:27:14.260,40.586666666666666,-124.11183333333334,16.12,2.19,NC.KTJ..HNZ,P,-1.0,2023-05-18 11:27:25.260
