event_id,etime,elat,elon,edep,emag,station_id,phase_type,phase_polarity,phase_time
nc73889561,2023-05-18 11:27:14.260,40.586666666666666,-124.11183333333334,16.12,2.19,NC.LBK..EHZ,P,,2023-05-18 11:27:34.920
nc73889561,2023-05-18 11:27:14.260,40.586666666666666,-124.11183333333334,16.12,2.19,NC.LSG..EHZ,P,,2023-05-18 11:27:39.660
nc73889561,2023-05-18 11:27:14.260,40.586666666666666,-124.11183333333334,16.12,2.19,NP.1023..HNZ,P,1.0,2023-05-18 11:27:18.380
nc73889561,2023-05-18 11:27:14.260,40.586666666666666,-124.11183333333334,16.12,2.19,NP.1581..HNZ,P,,2023-05-18 11:27:18.830
nc73889561,2023-05-18 11:27:14.260,40.586666666666666,-124.11183333333334,16.12,2.19,NP.1582..HNZ,P,1.0,2023-05-18 11:27:18.280
nc73889561,2023-05-18 11:27:14.260,40.586666666666666,-124.11183333333334,16.12,2.19,NP.1586..HNZ,P,-1.0,2023-05-18 11:27:18.040
nc73889561,2023-05-18 11:27:14.260,40.586666666666666,-124.11183333333334,16.12,2.19,PB.B047..EHZ,P,-1.0,2023-05-18 11:27:21.810
nc73889561,2023-05-18 11:27:14.260,40.586666666666666,-124.11183333333334,16.12,2.19,PB.B049..EHZ,P,1.0,2023-05-18 11:27:23.100
nc73889561,2023-05-18 11:27:14.260,40.586666666666666,-124.11183333333334,16.12,2.19,PB.B932..EHZ,P,-1.0,2023-05-18 11:27:21.360
nc73889561,2023-05-18 11:27:14.260,40.586666666666666,-124.11183333333334,16.12,2.19,PB.B935..EHZ,P,1.0,2023-05-18 11:27:23.420
nc73889561,2023-05-18 11:27:14.260,40.586666666666666,-124.11183333333334,16.12,2.19,UO.CAVE..HHZ,P,,2023-05-18 11:27:39.980
nc73889561,2023-05-18 11:27:14.260,40.586666666666666,-124.11183333333334,16.12,2.19,UO.SISQ..HHZ,P,,2023-05-18 11:27:42.170
nc73889801,2023-05-19 06:06:45.570,40.598166666666664,-124.08083333333333,16.11,2.05,BK.DLIK..HHZ,P,,2023-05-19 06:07:01.920
nc73889801,2023-05-19 06:06:45.570,40.598166666666664,-124.08083333333333,16.11,2.05,BK.HAYF..HHZ,P,1.0,2023-05-19 06:06:58.250
nc73889801,2023-05-19 06:06:45.570,40.598166666666664,-124.08083333333333,16.11,2.05,BK.JCC..HHZ,P,-1.0,2023-05-19 06:06:50.740
nc73889801,2023-05-19 06:06:45.570,40.598166666666664,-124.08083333333333,16.11,2.05,BK.KNEE..HHZ,P,-1.0,2023-05-19 06:06:50.330
nc73889801,2023-05-19 06:06:45.570,40.598166666666664,-124.08083333333333,16.11,2.05,BK.MILL..HHZ,P,,2023-05-19 06:07:03.960
nc73889801,2023-05-19 06:06:45.570,40.598166666666664,-124.08083333333333,16.11,2.05,BK.PETL..HNZ,P,-1.0,2023-05-19 06:06:53.510
nc73889801,2023-05-19 06:06:45.570,40.598166666666664,-124.08083333333333,16.11,2.05,BK.PRDS..HHZ,P,1.0,2023-05-19 06:06:55.740
nc73889801,2023-05-19 06:06:45.570,40.598166666666664,-124.08083333333333,16.11,2.05,BK.RBOW..HHZ,P,-1.0,2023-05-19 06:06:51.740
nc73889801,2023-05-19 06:06:45.570,40.598166666666664,-124.08083333333333,16.11,2.05,BK.SANG..HHZ,P,1.0,2023-05-19 06:07:07.890
nc73889801,2023-05-19 06:06:45.570,40.598166666666664,-124.08083333333333,16.11,2.05,BK.SCOT..HHZ,P,,2023-05-19 06:07:06.510
nc73889801,2023-05-19 06:06:45.570,40.598166666666664,-124.08083333333333,16.11,2.05,BK.SIGP..HHZ,P,,2023-05-19 06:07:06.570
nc73889801,2023-05-19 06:06:45.570,40.598166666666664,-124.08083333333333,16.11,2.05,BK.WEAV..HHZ,P,,2023-05-19 06:07:00.240
nc73889801,2023-05-19 06:06:45.570,40.598166666666664,-124.08083333333333,16.11,2.05,BK.YBH..HHZ,P,,2023-05-19 06:07:10.390
nc73889801,2023-05-19 06:06:45.570,40.598166666666664,-124.08083333333333,16.11,2.05,CE.89688..HNZ,P,,2023-05-19 06:06:56.400
nc73889801,2023-05-19 06:06:45.570,40.598166666666664,-124.08083333333333,16.11,2.05,CE.89781..HNZ,P,-1.0,2023-05-19 06:06:50.370
nc73889801,2023-05-19 06:06:45.570,40.598166666666664,-124.08083333333333,16.11,2.05,NC.KBU..EHZ,P,1.0,2023-05-19 06:06:54.250
nc73889801,2023-05-19 06:06:45.570,40.598166666666664,-124.08083333333333,16.11,2.05,NC.KCO..HNZ,P,,2023-05-19 06:06:53.670
nc73889801,2023-05-19 06:06:45.570,40.598166666666664,-124.08083333333333,16.11,2.05,NC.KCR..EHZ,P,1.0,2023-05-19 06:06:51.800
nc73889801,2023-05-19 06:06:45.570,40.598166666666664,-124.08083333333333,16.11,2.05,NC.KFP..EHZ,P,,2023-05-19 06:07:04.170
nc73889801,2023-05-19 06:06:45.570,40.598166666666664,-124.08083333333333,16.11,2.05,NC.KHMB..HHZ,P,-1.0,2023-05-19 06:06:53.990
nc73889801,2023-05-19 06:06:45.570,40.598166666666664,-124.08083333333333,16.11,2.05,NC.KLR..EHZ,P,-1.0,2023-05-19 06:07:00.810
nc73889801,2023-05-19 06:06:45.570,40.598166666666664,-124.08083333333333,16.11,2.05,NC.KMR..HHZ,P,,2023-05-19 06:06:55.870
nc73889801,2023-05-19 06:06:45.570,40.598166666666664,-124.08083333333333,16.11,2.05,NC.KPR..EHZ,P,-1.0,2023-05-19 06:06:53.750
nc73889801,2023-05-19 06:06:45.570,40.598166666666664,-124.08083333333333,16.11,2.05,NC.KSXB..HHZ,P,,2023-05-19 06:07:06.030
nc73889801,2023-05-19 06:06:45.570,40.598166666666664,-124.08083333333333,16.11,2.05,NC.KTJ..HNZ,P,1.0,2023-05-19 06:06:56.580
nc73889801,2023-05-19 06:06:45.570,40.598166666666664,-124.08083333333333,16.11,2.05,NC.LBK..EHZ,P,,2023-05-19 06:07:05.880
nc73889801,2023-05-19 06:06:45.570,40.598166666666664,-124.08083333333333,16.11,2.05,NP.1023..HNZ,P,1.0,2023-05-19 06:06:50.140
nc73889801,2023-05-19 06:06:45.570,40.598166666666664,-124.08083333333333,16.11,2.05,NP.1582..HNZ,P,1.0,2023-05-19 06:06:49.690
nc73889801,2023-05-19 06:06:45.570,40.598166666666664,-124.08083333333333,16.11,2.05,NP.1586..HNZ,P,1.0,2023-05-19 06:06:49.620
nc73889801,2023-05-19 06:06:45.570,40.598166666666664,-124.08083333333333,16.11,2.05,PB.B047..EHZ,P,-1.0,2023-05-19 06:06:53.370
nc73889801,2023-05-19 06:06:45.570,40.598166666666664,-124.08083333333333,16.11,2.05,PB.B049..EHZ,P,1.0,2023-05-19 06:06:54.370
nc73889801,2023-05-19 06:06:45.570,40.598166666666664,-124.08083333333333,16.11,2.05,PB.B932..EHZ,P,-1.0,2023-05-19 06:06:52.990
nc73889801,2023-05-19 06:06:45.570,40.598166666666664,-124.08083333333333,16.11,2.05,PB.B935..EHZ,P,1.0,2023-05-19 06:06:54.360
nc73889801,2023-05-19 06:06:45.570,40.598166666666664,-124.08083333333333,16.11,2.05,UO.SISQ..HHZ,P,,2023-05-19 06:07:13.230
nc73889911,2023-05-19 13:56:50.730,40.095666666666666,-123.76833333333333,20.5,1.77,BK.DLIK..HHZ,P,,2023-05-19 13:57:04.730
nc73889911,2023-05-19 13:56:50.730,40.095666666666666,-123.76833333333333,20.5,1.77,BK.HAYF..HHZ,P,-1.0,2023-05-19 13:57:02.520
nc73889911,2023-05-19 13:56:50.730,40.095666666666666,-123.76833333333333,20.5,1.77,BK.KNEE..HHZ,P,,2023-05-19 13:57:02.930
nc73889911,2023-05-19 13:56:50.730,40.095666666666666,-123.76833333333333,20.5,1.77,BK.PRDS..HHZ,P,1.0,2023-05-19 13:56:56.450
nc73889911,2023-05-19 13:56:50.730,40.095666666666666,-123.76833333333333,20.5,1.77,BK.RBOW..HHZ,P,,2023-05-19 13:56:58.620
nc73889911,2023-05-19 13:56:50.730,40.095666666666666,-123.76833333333333,20.5,1.77,BK.SHWD..HHZ,P,1.0,2023-05-19 13:57:02.110
nc73889911,2023-05-19 13:56:50.730,40.095666666666666,-123.76833333333333,20.5,1.77,CE.79046..HNZ,P,,2023-05-19 13:56:58.490
nc73889911,2023-05-19 13:56:50.730,40.095666666666666,-123.76833333333333,20.5,1.77,CE.89688..HNZ,P,-1.0,2023-05-19 13:56:56.660
nc73889911,2023-05-19 13:56:50.730,40.095666666666666,-123.76833333333333,20.5,1.77,NC.KBU..EHZ,P,-1.0,2023-05-19 13:56:55.800
nc73889911,2023-05-19 13:56:50.730,40.095666666666666,-123.76833333333333,20.5,1.77,NC.KCR..EHZ,P,-1.0,2023-05-19 13:56:58.270
nc73889911,2023-05-19 13:56:50.730,40.095666666666666,-123.76833333333333,20.5,1.77,NC.KFP..EHZ,P,1.0,2023-05-19 13:57:00.980
nc73889911,2023-05-19 13:56:50.730,40.095666666666666,-123.76833333333333,20.5,1.77,NC.KIP..EHZ,P,-1.0,2023-05-19 13:56:58.710
nc73889911,2023-05-19 13:56:50.730,40.095666666666666,-123.76833333333333,20.5,1.77,NC.KLR..EHZ,P,1.0,2023-05-19 13:56:58.490
nc73889911,2023-05-19 13:56:50.730,40.095666666666666,-123.76833333333333,20.5,1.77,NC.KMR..HHZ,P,1.0,2023-05-19 13:56:55.280
nc73889911,2023-05-19 13:56:50.730,40.095666666666666,-123.76833333333333,20.5,1.77,NC.KPR..EHZ,P,1.0,2023-05-19 13:56:57.000
nc73889911,2023-05-19 13:56:50.730,40.095666666666666,-123.76833333333333,20.5,1.77,NC.KTJ..HNZ,P,1.0,2023-05-19 13:56:55.790
nc73889911,2023-05-19 13:56:50.730,40.095666666666666,-123.76833333333333,20.5,1.77,NP.1591..HNZ,P,1.0,2023-05-19 13:56:54.760
nc73889911,2023-05-19 13:56:50.730,40.095666666666666,-123.76833333333333,20.5,1.77,PB.B047..EHZ,P,1.0,2023-05-19 13:56:58.420
nc73889911,2023-05-19 13:56:50.730,40.095666666666666,-123.76833333333333,20.5,1.77,PB.B049..EHZ,P,1.0,2023-05-19 13:56:55.380
nc73889911,2023-05-19 13:56:50.730,40.095666666666666,-123.76833333333333,20.5,1.77,PB.B932..EHZ,P,1.0,2023-05-19 13:56:58.810
nc73889911,2023-05-19 13:56:50.730,40.095666666666666,-123.76833333333333,20.5,1.77,PB.B935..EHZ,P,,2023-05-19 13:56:59.620
nc73889275,2023-05-24 04:30:08.170,40.227,-124.1815,11.05,1.51,BK.JCC..HHZ,P,,2023-05-24 04:30:20.220
nc73889275,2023-05-24 04:30:08.170,40.227,-124.1815,11.05,1.51,BK.KNEE..HHZ,P,,2023-05-24 04:30:19.660
nc73889275,2023-05-24 04:30:08.170,40.227,-124.1815,11.05,1.51,BK.PETL..HNZ,P,,2023-05-24 04:30:11.700
nc73889275,2023-05-24 04:30:08.170,40.227,-124.1815,11.05,1.51,BK.PRDS..HHZ,P,-1.0,2023-05-24 04:30:12.420
nc73889275,2023-05-24 04:30:08.170,40.227,-124.1815,11.05,1.51,BK.RBOW..HHZ,P,1.0,2023-05-24 04:30:11.590
nc73889275,2023-05-24 04:30:08.170,40.227,-124.1815,11.05,1.51,NC.KBU..EHZ,P,,2023-05-24 04:30:14.210
nc73889275,2023-05-24 04:30:08.170,40.227,-124.1815,11.05,1.51,NC.KCO..HNZ,P,1.0,2023-05-24 04:30:11.030
nc73889275,2023-05-24 04:30:08.170,40.227,-124.1815,11.05,1.51,NC.KCR..EHZ,P,,2023-05-24 04:30:15.710
nc73889275,2023-05-24 04:30:08.170,40.227,-124.1815,11.05,1.51,NC.KCT..HHZ,P,-1.0,2023-05-24 04:30:14.670
nc73889275,2023-05-24 04:30:08.170,40.227,-124.1815,11.05,1.51,NC.KFP..EHZ,P,,2023-05-24 04:30:23.480
nc73889275,2023-05-24 04:30:08.170,40.227,-124.1815,11.05,1.51,NC.KLR..EHZ,P,,2023-05-24 04:30:22.270
nc73889275,2023-05-24 04:30:08.170,40.227,-124.1815,11.05,1.51,NC.KMR..HHZ,P,,2023-05-24 04:30:16.390
nc73889275,2023-05-24 04:30:08.170,40.227,-124.1815,11.05,1.51,NC.KPR..EHZ,P,-1.0,2023-05-24 04:30:11.380
nc73889275,2023-05-24 04:30:08.170,40.227,-124.1815,11.05,1.51,NC.KTJ..HNZ,P,-1.0,2023-05-24 04:30:13.660
nc73889275,2023-05-24 04:30:08.170,40.227,-124.1815,11.05,1.51,PB.B045..EHZ,P,1.0,2023-05-24 04:30:13.780
nc73889275,2023-05-24 04:30:08.170,40.227,-124.1815,11.05,1.51,PB.B047..EHZ,P,1.0,2023-05-24 04:30:10.510
nc73889275,2023-05-24 04:30:08.170,40.227,-124.1815,11.05,1.51,PB.B049..EHZ,P,1.0,2023-05-24 04:30:14.480
nc73889275,2023-05-24 04:30:08.170,40.227,-124.1815,11.05,1.51,PB.B932..EHZ,P,1.0,2023-05-24 04:30:10.540
nc73889275,2023-05-24 04:30:08.170,40.227,-124.1815,11.05,1.51,PB.B935..EHZ,P,1.0,2023-05-24 04:30:19.600
nc73890550,2023-05-27 09:34:20.350,40.56066666666667,-123.68983333333334,22.74,1.75,BK.DLIK..HHZ,P,,2023-05-27 09:34:31.950
nc73890550,2023-05-27 09:34:20.350,40.56066666666667,-123.68983333333334,22.74,1.75,BK.HAYF..HHZ,P,1.0,2023-05-27 09:34:28.210
nc73890550,2023-05-27 09:34:20.350,40.56066666666667,-123.68983333333334,22.74,1.75,BK.JCC..HHZ,P,1.0,2023-05-27 09:34:27.980
nc73890550,2023-05-27 09:34:20.350,40.56066666666667,-123.68983333333334,22.74,1.75,BK.KNEE..HHZ,P,1.0,2023-05-27 09:34:26.330
nc73890550,2023-05-27 09:34:20.350,40.56066666666667,-123.68983333333334,22.74,1.75,BK.PRDS..HHZ,P,,2023-05-27 09:34:30.610
nc73890550,2023-05-27 09:34:20.350,40.56066666666667,-123.68983333333334,22.74,1.75,BK.RBOW..HHZ,P,,2023-05-27 09:34:28.860
nc73890550,2023-05-27 09:34:20.350,40.56066666666667,-123.68983333333334,22.74,1.75,BK.WEAV..HHZ,P,,2023-05-27 09:34:31.370
nc73890550,2023-05-27 09:34:20.350,40.56066666666667,-123.68983333333334,22.74,1.75,NC.KBU..EHZ,P,-1.0,2023-05-27 09:34:28.110
nc73890550,2023-05-27 09:34:20.350,40.56066666666667,-123.68983333333334,22.74,1.75,NC.KCR..EHZ,P,-1.0,2023-05-27 09:34:25.720
nc73890550,2023-05-27 09:34:20.350,40.56066666666667,-123.68983333333334,22.74,1.75,NC.KFP..EHZ,P,,2023-05-27 09:34:36.740
nc73890550,2023-05-27 09:34:20.350,40.56066666666667,-123.68983333333334,22.74,1.75,NC.KHBB..HNZ,P,-1.0,2023-05-27 09:34:28.470
nc73890550,2023-05-27 09:34:20.350,40.56066666666667,-123.68983333333334,22.74,1.75,NC.KHMB..HHZ,P,-1.0,2023-05-27 09:34:27.780
nc73890550,2023-05-27 09:34:20.350,40.56066666666667,-123.68983333333334,22.74,1.75,NC.KLR..EHZ,P,1.0,2023-05-27 09:34:31.700
nc73890550,2023-05-27 09:34:20.350,40.56066666666667,-123.68983333333334,22.74,1.75,NC.KMR..HHZ,P,-1.0,2023-05-27 09:34:28.420
nc73890550,2023-05-27 09:34:20.350,40.56066666666667,-123.68983333333334,22.74,1.75,NC.KPR..EHZ,P,-1.0,2023-05-27 09:34:29.430
nc73890550,2023-05-27 09:34:20.350,40.56066666666667,-123.68983333333334,22.74,1.75,NC.KTJ..HNZ,P,,2023-05-27 09:34:31.040
nc73890550,2023-05-27 09:34:20.350,40.56066666666667,-123.68983333333334,22.74,1.75,NP.1582..HNZ,P,,2023-05-27 09:34:29.080
nc73890550,2023-05-27 09:34:20.350,40.56066666666667,-123.68983333333334,22.74,1.75,NP.1586..HNZ,P,,2023-05-27 09:34:29.240
nc73890550,2023-05-27 09:34:20.350,40.56066666666667,-123.68983333333334,22.74,1.75,PB.B045..EHZ,P,-1.0,2023-05-27 09:34:26.920
nc73890550,2023-05-27 09:34:20.350,40.56066666666667,-123.68983333333334,22.74,1.75,PB.B047..EHZ,P,-1.0,2023-05-27 09:34:29.870
nc73890550,2023-05-27 09:34:20.350,40.56066666666667,-123.68983333333334,22.74,1.75,PB.B049..EHZ,P,-1.0,2023-05-27 09:34:27.850
nc73890550,2023-05-27 09:34:20.350,40.56066666666667,-123.68983333333334,22.74,1.75,PB.B932..EHZ,P,-1.0,2023-05-27 09:34:29.870
nc73890550,2023-05-27 09:34:20.350,40.56066666666667,-123.68983333333334,22.74,1.75,PB.B935..EHZ,P,1.0,2023-05-27 09:34:25.250
nc73891980,2023-05-31 10:31:36.140,40.422333333333334,-123.78,9.06,2.02,BK.DCMP..HHZ,P,,2023-05-31 10:31:55.070
nc73891980,2023-05-31 10:31:36.140,40.422333333333334,-123.78,9.06,2.02,BK.HAYF..HHZ,P,-1.0,2023-05-31 10:31:45.440
nc73891980,2023-05-31 10:31:36.140,40.422333333333334,-123.78,9.06,2.02,BK.JCC..HHZ,P,,2023-05-31 10:31:45.980
nc73891980,2023-05-31 10:31:36.140,40.422333333333334,-123.78,9.06,2.02,BK.KNEE..HHZ,P,,2023-05-31 10:31:43.230
nc73891980,2023-05-31 10:31:36.140,40.422333333333334,-123.78,9.06,2.02,BK.PETL..HNZ,P,,2023-05-31 10:31:45.580
nc73891980,2023-05-31 10:31:36.140,40.422333333333334,-123.78,9.06,2.02,BK.PRDS..HHZ,P,-1.0,2023-05-31 10:31:44.620
nc73891980,2023-05-31 10:31:36.140,40.422333333333334,-123.78,9.06,2.02,BK.RBOW..HHZ,P,-1.0,2023-05-31 10:31:42.240
nc73891980,2023-05-31 10:31:36.140,40.422333333333334,-123.78,9.06,2.02,BK.SCOT..HHZ,P,,2023-05-31 10:31:58.500
nc73891980,2023-05-31 10:31:36.140,40.422333333333334,-123.78,9.06,2.02,BK.SHWD..HHZ,P,1.0,2023-05-31 10:31:54.150
nc73891980,2023-05-31 10:31:36.140,40.422333333333334,-123.78,9.06,2.02,BK.TRIN..HHZ,P,,2023-05-31 10:31:55.100
nc73891980,2023-05-31 10:31:36.140,40.422333333333334,-123.78,9.06,2.02,BK.WEAV..HHZ,P,-1.0,2023-05-31 10:31:49.790
nc73891980,2023-05-31 10:31:36.140,40.422333333333334,-123.78,9.06,2.02,NC.GNR..EHZ,P,-1.0,2023-05-31 10:31:57.650
nc73891980,2023-05-31 10:31:36.140,40.422333333333334,-123.78,9.06,2.02,NC.KBU..EHZ,P,-1.0,2023-05-31 10:31:40.760
nc73891980,2023-05-31 10:31:36.140,40.422333333333334,-123.78,9.06,2.02,NC.KCR..EHZ,P,1.0,2023-05-31 10:31:38.260
nc73891980,2023-05-31 10:31:36.140,40.422333333333334,-123.78,9.06,2.02,NC.KCT..HHZ,P,,2023-05-31 10:31:44.930
nc73891980,2023-05-31 10:31:36.140,40.422333333333334,-123.78,9.06,2.02,NC.KFP..EHZ,P,-1.0,2023-05-31 10:31:52.970
nc73891980,2023-05-31 10:31:36.140,40.422333333333334,-123.78,9.06,2.02,NC.KHMB..HHZ,P,,2023-05-31 10:31:46.670
nc73891980,2023-05-31 10:31:36.140,40.422333333333334,-123.78,9.06,2.02,NC.KIP..EHZ,P,,2023-05-31 10:31:50.220
nc73891980,2023-05-31 10:31:36.140,40.422333333333334,-123.78,9.06,2.02,NC.KLR..EHZ,P,1.0,2023-05-31 10:31:47.230
nc73891980,2023-05-31 10:31:36.140,40.422333333333334,-123.78,9.06,2.02,NC.KMR..HHZ,P,-1.0,2023-05-31 10:31:41.680
nc73891980,2023-05-31 10:31:36.140,40.422333333333334,-123.78,9.06,2.02,NC.KPR..EHZ,P,-1.0,2023-05-31 10:31:42.900
nc73891980,2023-05-31 10:31:36.140,40.422333333333334,-123.78,9.06,2.02,NC.KRK..EHZ,P,,2023-05-31 10:31:55.600
nc73891980,2023-05-31 10:31:36.140,40.422333333333334,-123.78,9.06,2.02,NC.KTJ..HNZ,P,-1.0,2023-05-31 10:31:44.960
nc73891980,2023-05-31 10:31:36.140,40.422333333333334,-123.78,9.06,2.02,NC.LBK..EHZ,P,,2023-05-31 10:31:56.520
nc73891980,2023-05-31 10:31:36.140,40.422333333333334,-123.78,9.06,2.02,NC.LSF..EHZ,P,1.0,2023-05-31 10:31:55.450
nc73891980,2023-05-31 10:31:36.140,40.422333333333334,-123.78,9.06,2.02,NC.LSG..EHZ,P,,2023-05-31 10:32:01.330
nc73891980,2023-05-31 10:31:36.140,40.422333333333334,-123.78,9.06,2.02,NP.1591..HNZ,P,,2023-05-31 10:31:43.180
nc73891980,2023-05-31 10:31:36.140,40.422333333333334,-123.78,9.06,2.02,PB.B045..EHZ,P,-1.0,2023-05-31 10:31:40.340
nc73891980,2023-05-31 10:31:36.140,40.422333333333334,-123.78,9.06,2.02,PB.B047..EHZ,P,-1.0,2023-05-31 10:31:43.900
nc73891980,2023-05-31 10:31:36.140,40.422333333333334,-123.78,9.06,2.02,PB.B049..EHZ,P,-1.0,2023-05-31 10:31:40.670
nc73891980,2023-05-31 10:31:36.140,40.422333333333334,-123.78,9.06,2.02,PB.B932..EHZ,P,-1.0,2023-05-31 10:31:44.300
nc73891980,2023-05-31 10:31:36.140,40.422333333333334,-123.78,9.06,2.02,PB.B935..EHZ,P,-1.0,2023-05-31 10:31:40.590
nc73897616,2023-06-06 06:45:35.750,40.55283333333333,-123.87133333333334,8.09,1.79,BK.BJES..HNZ,P,-1.0,2023-06-06 06:45:37.630
nc73897616,2023-06-06 06:45:35.750,40.55283333333333,-123.87133333333334,8.09,1.79,BK.GHOP..HHZ,P,-1.0,2023-06-06 06:45:41.810
nc73897616,2023-06-06 06:45:35.750,40.55283333333333,-123.87133333333334,8.09,1.79,BK.HAYF..HHZ,P,,2023-06-06 06:45:46.460
nc73897616,2023-06-06 06:45:35.750,40.55283333333333,-123.87133333333334,8.09,1.79,BK.JCC..HHZ,P,,2023-06-06 06:45:42.130
nc73897616,2023-06-06 06:45:35.750,40.55283333333333,-123.87133333333334,8.09,1.79,BK.KNEE..HHZ,P,-1.0,2023-06-06 06:45:39.830
nc73897616,2023-06-06 06:45:35.750,40.55283333333333,-123.87133333333334,8.09,1.79,BK.PRDS..HHZ,P,-1.0,2023-06-06 06:45:45.850
nc73897616,2023-06-06 06:45:35.750,40.55283333333333,-123.87133333333334,8.09,1.79,NC.KBU..EHZ,P,-1.0,2023-06-06 06:45:42.670
nc73897616,2023-06-06 06:45:35.750,40.55283333333333,-123.87133333333334,8.09,1.79,NC.KCR..EHZ,P,-1.0,2023-06-06 06:45:39.280
nc73897616,2023-06-06 06:45:35.750,40.55283333333333,-123.87133333333334,8.09,1.79,NC.KIP..EHZ,P,,2023-06-06 06:45:52.570
nc73897616,2023-06-06 06:45:35.750,40.55283333333333,-123.87133333333334,8.09,1.79,NC.KLR..EHZ,P,-1.0,2023-06-06 06:45:49.640
nc73897616,2023-06-06 06:45:35.750,40.55283333333333,-123.87133333333334,8.09,1.79,NC.KMR..HHZ,P,,2023-06-06 06:45:44.120
nc73897616,2023-06-06 06:45:35.750,40.55283333333333,-123.87133333333334,8.09,1.79,NC.KPR..EHZ,P,-1.0,2023-06-06 06:45:43.560
nc73897616,2023-06-06 06:45:35.750,40.55283333333333,-123.87133333333334,8.09,1.79,NC.KSM..EHZ,P,1.0,2023-06-06 06:45:45.320
nc73897616,2023-06-06 06:45:35.750,40.55283333333333,-123.87133333333334,8.09,1.79,NC.LGP..EHZ,P,1.0,2023-06-06 06:45:53.830
nc73897616,2023-06-06 06:45:35.750,40.55283333333333,-123.87133333333334,8.09,1.79,PB.B047..EHZ,P,-1.0,2023-06-06 06:45:43.950
nc73897616,2023-06-06 06:45:35.750,40.55283333333333,-123.87133333333334,8.09,1.79,PB.B049..EHZ,P,-1.0,2023-06-06 06:45:42.700
nc73897616,2023-06-06 06:45:35.750,40.55283333333333,-123.87133333333334,8.09,1.79,PB.B932..EHZ,P,-1.0,2023-06-06 06:45:43.980
nc73897616,2023-06-06 06:45:35.750,40.55283333333333,-123.87133333333334,8.09,1.79,PB.B935..EHZ,P,1.0,2023-06-06 06:45:41.710
nc73898041,2023-06-07 05:37:15.380,40.140166666666666,-123.82916666666667,22.28,1.73,BK.BLAS..HHZ,P,1.0,2023-06-07 05:37:22.280
nc73898041,2023-06-07 05:37:15.380,40.140166666666666,-123.82916666666667,22.28,1.73,BK.GHOP..HHZ,P,1.0,2023-06-07 05:37:21.220
nc73898041,2023-06-07 05:37:15.380,40.140166666666666,-123.82916666666667,22.28,1.73,BK.HAYF..HHZ,P,,2023-06-07 05:37:26.810
nc73898041,2023-06-07 05:37:15.380,40.140166666666666,-123.82916666666667,22.28,1.73,BK.HUNT..HHZ,P,1.0,2023-06-07 05:37:25.940
nc73898041,2023-06-07 05:37:15.380,40.140166666666666,-123.82916666666667,22.28,1.73,BK.JCC..HHZ,P,,2023-06-07 05:37:27.770
