event_id,etime,elat,elon,edep,emag,station_id,phase_type,phase_polarity,phase_time
nc73854886,2023-03-03 08:33:00.020,40.767833333333336,-123.86283333333333,1.49,2.02,BK.SCOT..HHZ,P,,2023-03-03 08:33:18.660
nc73854886,2023-03-03 08:33:00.020,40.767833333333336,-123.86283333333333,1.49,2.02,BK.SIGP..HHZ,P,1.0,2023-03-03 08:33:20.790
nc73854886,2023-03-03 08:33:00.020,40.767833333333336,-123.86283333333333,1.49,2.02,BK.TRIN..HHZ,P,,2023-03-03 08:33:17.040
nc73854886,2023-03-03 08:33:00.020,40.767833333333336,-123.86283333333333,1.49,2.02,NC.KCR..EHZ,P,-1.0,2023-03-03 08:33:08.010
nc73854886,2023-03-03 08:33:00.020,40.767833333333336,-123.86283333333333,1.49,2.02,NC.KHMB..HHZ,P,-1.0,2023-03-03 08:33:03.910
nc73854886,2023-03-03 08:33:00.020,40.767833333333336,-123.86283333333333,1.49,2.02,NC.KLR..EHZ,P,-1.0,2023-03-03 08:33:17.580
nc73854886,2023-03-03 08:33:00.020,40.767833333333336,-123.86283333333333,1.49,2.02,NC.KMR..HHZ,P,,2023-03-03 08:33:12.830
nc73854886,2023-03-03 08:33:00.020,40.767833333333336,-123.86283333333333,1.49,2.02,NC.KPR..EHZ,P,,2023-03-03 08:33:12.360
nc73854886,2023-03-03 08:33:00.020,40.767833333333336,-123.86283333333333,1.49,2.02,NC.KSM..EHZ,P,1.0,2023-03-03 08:33:13.940
nc73854886,2023-03-03 08:33:00.020,40.767833333333336,-123.86283333333333,1.49,2.02,NC.KSXB..HHZ,P,1.0,2023-03-03 08:33:20.190
nc73854886,2023-03-03 08:33:00.020,40.767833333333336,-123.86283333333333,1.49,2.02,NC.KTJ..HNZ,P,,2023-03-03 08:33:15.080
nc73854886,2023-03-03 08:33:00.020,40.767833333333336,-123.86283333333333,1.49,2.02,NC.LSG..EHZ,P,,2023-03-03 08:33:23.650
nc73854886,2023-03-03 08:33:00.020,40.767833333333336,-123.86283333333333,1.49,2.02,NP.1586..HNZ,P,-1.0,2023-03-03 08:33:07.380
nc73854886,2023-03-03 08:33:00.020,40.767833333333336,-123.86283333333333,1.49,2.02,PB.B040..EHZ,P,,2023-03-03 08:33:28.400
nc73854886,2023-03-03 08:33:00.020,40.767833333333336,-123.86283333333333,1.49,2.02,PB.B045..EHZ,P,-1.0,2023-03-03 08:33:07.960
nc73854886,2023-03-03 08:33:00.020,40.767833333333336,-123.86283333333333,1.49,2.02,PB.B046..EHZ,P,-1.0,2023-03-03 08:33:12.180
nc73854886,2023-03-03 08:33:00.020,40.767833333333336,-123.86283333333333,1.49,2.02,PB.B047..EHZ,P,-1.0,2023-03-03 08:33:12.460
nc73854886,2023-03-03 08:33:00.020,40.767833333333336,-123.86283333333333,1.49,2.02,PB.B049..EHZ,P,1.0,2023-03-03 08:33:11.640
nc73854886,2023-03-03 08:33:00.020,40.767833333333336,-123.86283333333333,1.49,2.02,PB.B932..EHZ,P,-1.0,2023-03-03 08:33:12.270
nc73854886,2023-03-03 08:33:00.020,40.767833333333336,-123.86283333333333,1.49,2.02,PB.B935..EHZ,P,,2023-03-03 08:33:08.260
nc73854886,2023-03-03 08:33:00.020,40.767833333333336,-123.86283333333333,1.49,2.02,UO.SISQ..HHZ,P,,2023-03-03 08:33:27.580
nc73855396,2023-03-04 17:16:16.860,40.603,-124.077,15.75,1.88,BK.BJES..HNZ,P,1.0,2023-03-04 17:16:21.400
nc73855396,2023-03-04 17:16:16.860,40.603,-124.077,15.75,1.88,BK.BRIC..HHZ,P,,2023-03-04 17:16:27.890
nc73855396,2023-03-04 17:16:16.860,40.603,-124.077,15.75,1.88,BK.HAYF..HHZ,P,1.0,2023-03-04 17:16:29.540
nc73855396,2023-03-04 17:16:16.860,40.603,-124.077,15.75,1.88,BK.JCC..HHZ,P,-1.0,2023-03-04 17:16:22.040
nc73855396,2023-03-04 17:16:16.860,40.603,-124.077,15.75,1.88,BK.KNEE..HHZ,P,,2023-03-04 17:16:21.620
nc73855396,2023-03-04 17:16:16.860,40.603,-124.077,15.75,1.88,BK.PRDS..HHZ,P,1.0,2023-03-04 17:16:27.140
nc73855396,2023-03-04 17:16:16.860,40.603,-124.077,15.75,1.88,BK.RBOW..HHZ,P,-1.0,2023-03-04 17:16:23.050
nc73855396,2023-03-04 17:16:16.860,40.603,-124.077,15.75,1.88,BK.WEAV..HHZ,P,,2023-03-04 17:16:31.960
nc73855396,2023-03-04 17:16:16.860,40.603,-124.077,15.75,1.88,CE.89781..HNZ,P,-1.0,2023-03-04 17:16:21.660
nc73855396,2023-03-04 17:16:16.860,40.603,-124.077,15.75,1.88,NC.KBU..EHZ,P,,2023-03-04 17:16:25.640
nc73855396,2023-03-04 17:16:16.860,40.603,-124.077,15.75,1.88,NC.KCO..HNZ,P,,2023-03-04 17:16:24.240
nc73855396,2023-03-04 17:16:16.860,40.603,-124.077,15.75,1.88,NC.KCR..EHZ,P,1.0,2023-03-04 17:16:23.090
nc73855396,2023-03-04 17:16:16.860,40.603,-124.077,15.75,1.88,NC.KCT..HHZ,P,,2023-03-04 17:16:22.680
nc73855396,2023-03-04 17:16:16.860,40.603,-124.077,15.75,1.88,NC.KHBB..HHZ,P,1.0,2023-03-04 17:16:29.710
nc73855396,2023-03-04 17:16:16.860,40.603,-124.077,15.75,1.88,NC.KHMB..HHZ,P,-1.0,2023-03-04 17:16:25.300
nc73855396,2023-03-04 17:16:16.860,40.603,-124.077,15.75,1.88,NC.KLR..EHZ,P,,2023-03-04 17:16:32.080
nc73855396,2023-03-04 17:16:16.860,40.603,-124.077,15.75,1.88,NC.KMR..HHZ,P,,2023-03-04 17:16:27.170
nc73855396,2023-03-04 17:16:16.860,40.603,-124.077,15.75,1.88,NC.KPR..EHZ,P,-1.0,2023-03-04 17:16:25.080
nc73855396,2023-03-04 17:16:16.860,40.603,-124.077,15.75,1.88,NC.KRP..HHZ,P,,2023-03-04 17:16:27.910
nc73855396,2023-03-04 17:16:16.860,40.603,-124.077,15.75,1.88,NP.1582..HNZ,P,1.0,2023-03-04 17:16:21.000
nc73855396,2023-03-04 17:16:16.860,40.603,-124.077,15.75,1.88,NP.1586..HNZ,P,1.0,2023-03-04 17:16:20.940
nc73855396,2023-03-04 17:16:16.860,40.603,-124.077,15.75,1.88,PB.B045..EHZ,P,-1.0,2023-03-04 17:16:21.640
nc73855396,2023-03-04 17:16:16.860,40.603,-124.077,15.75,1.88,PB.B046..EHZ,P,-1.0,2023-03-04 17:16:24.040
nc73855396,2023-03-04 17:16:16.860,40.603,-124.077,15.75,1.88,PB.B047..EHZ,P,-1.0,2023-03-04 17:16:24.680
nc73855396,2023-03-04 17:16:16.860,40.603,-124.077,15.75,1.88,PB.B049..EHZ,P,1.0,2023-03-04 17:16:25.690
nc73855396,2023-03-04 17:16:16.860,40.603,-124.077,15.75,1.88,PB.B932..EHZ,P,-1.0,2023-03-04 17:16:24.290
nc73855396,2023-03-04 17:16:16.860,40.603,-124.077,15.75,1.88,PB.B935..EHZ,P,1.0,2023-03-04 17:16:25.650
nc73855970,2023-03-12 22:33:37.660,41.3515,-123.46683333333333,34.67,2.88,BK.JCC..HHZ,P,,2023-03-12 22:33:49.970
nc73855970,2023-03-12 22:33:37.660,41.3515,-123.46683333333333,34.67,2.88,BK.MILL..HHZ,P,1.0,2023-03-12 22:33:49.330
nc73855970,2023-03-12 22:33:37.660,41.3515,-123.46683333333333,34.67,2.88,BK.MOGU..BHZ,P,-1.0,2023-03-12 22:33:55.030
nc73855970,2023-03-12 22:33:37.660,41.3515,-123.46683333333333,34.67,2.88,BK.SANG..HHZ,P,1.0,2023-03-12 22:33:49.490
nc73855970,2023-03-12 22:33:37.660,41.3515,-123.46683333333333,34.67,2.88,BK.SBAR..HHZ,P,-1.0,2023-03-12 22:33:47.110
nc73855970,2023-03-12 22:33:37.660,41.3515,-123.46683333333333,34.67,2.88,BK.SCOT..HHZ,P,-1.0,2023-03-12 22:33:47.620
nc73855970,2023-03-12 22:33:37.660,41.3515,-123.46683333333333,34.67,2.88,BK.SIGP..HHZ,P,1.0,2023-03-12 22:33:51.140
nc73855970,2023-03-12 22:33:37.660,41.3515,-123.46683333333333,34.67,2.88,BK.TRIN..HHZ,P,1.0,2023-03-12 22:33:50.970
nc73855970,2023-03-12 22:33:37.660,41.3515,-123.46683333333333,34.67,2.88,BK.WEAV..HHZ,P,-1.0,2023-03-12 22:33:51.570
nc73855970,2023-03-12 22:33:37.660,41.3515,-123.46683333333333,34.67,2.88,BK.WHMT..HHZ,P,,2023-03-12 22:33:57.160
nc73855970,2023-03-12 22:33:37.660,41.3515,-123.46683333333333,34.67,2.88,BK.YBH..HHZ,P,1.0,2023-03-12 22:33:50.870
nc73855970,2023-03-12 22:33:37.660,41.3515,-123.46683333333333,34.67,2.88,NC.KOM..EHZ,P,,2023-03-12 22:33:44.100
nc73855970,2023-03-12 22:33:37.660,41.3515,-123.46683333333333,34.67,2.88,NC.KRP..HHZ,P,,2023-03-12 22:33:48.390
nc73855970,2023-03-12 22:33:37.660,41.3515,-123.46683333333333,34.67,2.88,NC.KSXB..HHZ,P,1.0,2023-03-12 22:33:49.640
nc73855970,2023-03-12 22:33:37.660,41.3515,-123.46683333333333,34.67,2.88,NC.LDL..HHZ,P,1.0,2023-03-12 22:33:54.440
nc73855970,2023-03-12 22:33:37.660,41.3515,-123.46683333333333,34.67,2.88,NC.LGY..HHZ,P,1.0,2023-03-12 22:33:55.760
nc73855970,2023-03-12 22:33:37.660,41.3515,-123.46683333333333,34.67,2.88,NC.LMC..HHZ,P,1.0,2023-03-12 22:33:56.210
nc73855970,2023-03-12 22:33:37.660,41.3515,-123.46683333333333,34.67,2.88,NC.LSB..EHZ,P,1.0,2023-03-12 22:33:53.170
nc73855970,2023-03-12 22:33:37.660,41.3515,-123.46683333333333,34.67,2.88,NC.LSG..EHZ,P,1.0,2023-03-12 22:33:55.340
nc73855970,2023-03-12 22:33:37.660,41.3515,-123.46683333333333,34.67,2.88,PB.B039..EHZ,P,,2023-03-12 22:33:51.280
nc73855970,2023-03-12 22:33:37.660,41.3515,-123.46683333333333,34.67,2.88,PB.B040..EHZ,P,-1.0,2023-03-12 22:33:54.970
nc73855970,2023-03-12 22:33:37.660,41.3515,-123.46683333333333,34.67,2.88,UO.CAVE..HHZ,P,-1.0,2023-03-12 22:33:52.530
nc73855970,2023-03-12 22:33:37.660,41.3515,-123.46683333333333,34.67,2.88,UO.SISQ..HHZ,P,,2023-03-12 22:33:54.900
nc73856350,2023-03-13 21:27:24.400,40.608,-124.07083333333334,17.32,1.89,BK.GHOP..HHZ,P,-1.0,2023-03-13 21:27:31.670
nc73856350,2023-03-13 21:27:24.400,40.608,-124.07083333333334,17.32,1.89,BK.HAYF..HHZ,P,,2023-03-13 21:27:37.030
nc73856350,2023-03-13 21:27:24.400,40.608,-124.07083333333334,17.32,1.89,BK.HUNT..HHZ,P,,2023-03-13 21:27:39.550
nc73856350,2023-03-13 21:27:24.400,40.608,-124.07083333333334,17.32,1.89,BK.JCC..HHZ,P,-1.0,2023-03-13 21:27:29.450
nc73856350,2023-03-13 21:27:24.400,40.608,-124.07083333333334,17.32,1.89,BK.KNEE..HHZ,P,,2023-03-13 21:27:30.020
nc73856350,2023-03-13 21:27:24.400,40.608,-124.07083333333334,17.32,1.89,BK.MILL..HHZ,P,,2023-03-13 21:27:42.730
nc73856350,2023-03-13 21:27:24.400,40.608,-124.07083333333334,17.32,1.89,BK.PETL..HNZ,P,,2023-03-13 21:27:32.530
nc73856350,2023-03-13 21:27:24.400,40.608,-124.07083333333334,17.32,1.89,BK.PETY..HHZ,P,,2023-03-13 21:27:43.340
nc73856350,2023-03-13 21:27:24.400,40.608,-124.07083333333334,17.32,1.89,BK.PRDS..HHZ,P,,2023-03-13 21:27:34.770
nc73856350,2023-03-13 21:27:24.400,40.608,-124.07083333333334,17.32,1.89,BK.RBOW..HHZ,P,-1.0,2023-03-13 21:27:30.710
nc73856350,2023-03-13 21:27:24.400,40.608,-124.07083333333334,17.32,1.89,BK.SIGP..HHZ,P,,2023-03-13 21:27:45.280
nc73856350,2023-03-13 21:27:24.400,40.608,-124.07083333333334,17.32,1.89,BK.TRIN..HHZ,P,,2023-03-13 21:27:43.040
nc73856350,2023-03-13 21:27:24.400,40.608,-124.07083333333334,17.32,1.89,BK.WEAV..HHZ,P,,2023-03-13 21:27:39.560
nc73856350,2023-03-13 21:27:24.400,40.608,-124.07083333333334,17.32,1.89,CE.89781..HNZ,P,-1.0,2023-03-13 21:27:29.140
nc73856350,2023-03-13 21:27:24.400,40.608,-124.07083333333334,17.32,1.89,NC.KBU..EHZ,P,1.0,2023-03-13 21:27:33.210
nc73856350,2023-03-13 21:27:24.400,40.608,-124.07083333333334,17.32,1.89,NC.KCR..EHZ,P,,2023-03-13 21:27:30.560
nc73856350,2023-03-13 21:27:24.400,40.608,-124.07083333333334,17.32,1.89,NC.KCT..HHZ,P,,2023-03-13 21:27:30.470
nc73856350,2023-03-13 21:27:24.400,40.608,-124.07083333333334,17.32,1.89,NC.KFP..EHZ,P,,2023-03-13 21:27:42.780
nc73856350,2023-03-13 21:27:24.400,40.608,-124.07083333333334,17.32,1.89,NC.KHBB..HHZ,P,,2023-03-13 21:27:37.030
nc73856350,2023-03-13 21:27:24.400,40.608,-124.07083333333334,17.32,1.89,NC.KHMB..HHZ,P,,2023-03-13 21:27:32.260
nc73856350,2023-03-13 21:27:24.400,40.608,-124.07083333333334,17.32,1.89,NC.KIP..EHZ,P,,2023-03-13 21:27:51.000
nc73856350,2023-03-13 21:27:24.400,40.608,-124.07083333333334,17.32,1.89,NC.KMR..HHZ,P,1.0,2023-03-13 21:27:34.750
nc73856350,2023-03-13 21:27:24.400,40.608,-124.07083333333334,17.32,1.89,NC.KPR..EHZ,P,,2023-03-13 21:27:32.720
nc73856350,2023-03-13 21:27:24.400,40.608,-124.07083333333334,17.32,1.89,NC.KSM..EHZ,P,-1.0,2023-03-13 21:27:33.480
nc73856350,2023-03-13 21:27:24.400,40.608,-124.07083333333334,17.32,1.89,NC.KTJ..HNZ,P,,2023-03-13 21:27:35.560
nc73856350,2023-03-13 21:27:24.400,40.608,-124.07083333333334,17.32,1.89,NP.1582..HNZ,P,1.0,2023-03-13 21:27:28.580
nc73856350,2023-03-13 21:27:24.400,40.608,-124.07083333333334,17.32,1.89,NP.1586..HNZ,P,1.0,2023-03-13 21:27:28.590
nc73856350,2023-03-13 21:27:24.400,40.608,-124.07083333333334,17.32,1.89,PB.B045..EHZ,P,-1.0,2023-03-13 21:27:29.190
nc73856350,2023-03-13 21:27:24.400,40.608,-124.07083333333334,17.32,1.89,PB.B046..EHZ,P,-1.0,2023-03-13 21:27:31.730
nc73856350,2023-03-13 21:27:24.400,40.608,-124.07083333333334,17.32,1.89,PB.B047..EHZ,P,-1.0,2023-03-13 21:27:32.310
nc73856350,2023-03-13 21:27:24.400,40.608,-124.07083333333334,17.32,1.89,PB.B049..EHZ,P,-1.0,2023-03-13 21:27:33.310
nc73856350,2023-03-13 21:27:24.400,40.608,-124.07083333333334,17.32,1.89,PB.B932..EHZ,P,-1.0,2023-03-13 21:27:31.980
nc73856350,2023-03-13 21:27:24.400,40.608,-124.07083333333334,17.32,1.89,PB.B933..EHZ,P,,2023-03-13 21:27:45.000
nc73856350,2023-03-13 21:27:24.400,40.608,-124.07083333333334,17.32,1.89,PB.B935..EHZ,P,1.0,2023-03-13 21:27:33.020
nc73857180,2023-03-15 13:19:28.760,40.23233333333334,-124.1375,13.93,1.3,BK.BRIC..HHZ,P,-1.0,2023-03-15 13:19:34.690
nc73857180,2023-03-15 13:19:28.760,40.23233333333334,-124.1375,13.93,1.3,BK.GHOP..HHZ,P,-1.0,2023-03-15 13:19:32.970
nc73857180,2023-03-15 13:19:28.760,40.23233333333334,-124.1375,13.93,1.3,BK.KNEE..HHZ,P,1.0,2023-03-15 13:19:40.010
nc73857180,2023-03-15 13:19:28.760,40.23233333333334,-124.1375,13.93,1.3,BK.PRDS..HHZ,P,-1.0,2023-03-15 13:19:32.920
nc73857180,2023-03-15 13:19:28.760,40.23233333333334,-124.1375,13.93,1.3,BK.RBOW..HHZ,P,-1.0,2023-03-15 13:19:32.340
nc73857180,2023-03-15 13:19:28.760,40.23233333333334,-124.1375,13.93,1.3,CE.89688..HNZ,P,,2023-03-15 13:19:33.540
nc73857180,2023-03-15 13:19:28.760,40.23233333333334,-124.1375,13.93,1.3,NC.KBU..EHZ,P,-1.0,2023-03-15 13:19:34.300
nc73857180,2023-03-15 13:19:28.760,40.23233333333334,-124.1375,13.93,1.3,NC.KCO..HNZ,P,1.0,2023-03-15 13:19:32.350
nc73857180,2023-03-15 13:19:28.760,40.23233333333334,-124.1375,13.93,1.3,NC.KCR..EHZ,P,-1.0,2023-03-15 13:19:35.910
nc73857180,2023-03-15 13:19:28.760,40.23233333333334,-124.1375,13.93,1.3,NC.KMR..HHZ,P,-1.0,2023-03-15 13:19:36.320
nc73857180,2023-03-15 13:19:28.760,40.23233333333334,-124.1375,13.93,1.3,NC.KPR..EHZ,P,1.0,2023-03-15 13:19:31.850
nc73857180,2023-03-15 13:19:28.760,40.23233333333334,-124.1375,13.93,1.3,NC.KTJ..HNZ,P,1.0,2023-03-15 13:19:34.130
nc73857180,2023-03-15 13:19:28.760,40.23233333333334,-124.1375,13.93,1.3,PB.B045..EHZ,P,-1.0,2023-03-15 13:19:34.210
nc73857180,2023-03-15 13:19:28.760,40.23233333333334,-124.1375,13.93,1.3,PB.B046..EHZ,P,1.0,2023-03-15 13:19:32.830
nc73857180,2023-03-15 13:19:28.760,40.23233333333334,-124.1375,13.93,1.3,PB.B047..EHZ,P,1.0,2023-03-15 13:19:31.530
nc73857180,2023-03-15 13:19:28.760,40.23233333333334,-124.1375,13.93,1.3,PB.B049..EHZ,P,-1.0,2023-03-15 13:19:34.530
nc73857180,2023-03-15 13:19:28.760,40.23233333333334,-124.1375,13.93,1.3,PB.B932..EHZ,P,1.0,2023-03-15 13:19:31.730
nc73857180,2023-03-15 13:19:28.760,40.23233333333334,-124.1375,13.93,1.3,PB.B935..EHZ,P,1.0,2023-03-15 13:19:39.790
nc73858110,2023-03-17 11:55:13.960,40.28766666666667,-124.481,10.03,2.33,BK.BJES..HNZ,P,1.0,2023-03-17 11:55:25.460
nc73858110,2023-03-17 11:55:13.960,40.28766666666667,-124.481,10.03,2.33,BK.BLAS..HHZ,P,,2023-03-17 11:55:29.050
nc73858110,2023-03-17 11:55:13.960,40.28766666666667,-124.481,10.03,2.33,BK.BONV..HHZ,P,,2023-03-17 11:55:40.020
nc73858110,2023-03-17 11:55:13.960,40.28766666666667,-124.481,10.03,2.33,BK.BRIC..HHZ,P,1.0,2023-03-17 11:55:24.770
nc73858110,2023-03-17 11:55:13.960,40.28766666666667,-124.481,10.03,2.33,BK.DCMP..HHZ,P,-1.0,2023-03-17 11:55:35.220
nc73858110,2023-03-17 11:55:13.960,40.28766666666667,-124.481,10.03,2.33,BK.DMOR..HHZ,P,1.0,2023-03-17 11:55:27.470
nc73858110,2023-03-17 11:55:13.960,40.28766666666667,-124.481,10.03,2.33,BK.GHOP..HHZ,P,1.0,2023-03-17 11:55:22.530
nc73858110,2023-03-17 11:55:13.960,40.28766666666667,-124.481,10.03,2.33,BK.HAYF..HHZ,P,,2023-03-17 11:55:32.050
nc73858110,2023-03-17 11:55:13.960,40.28766666666667,-124.481,10.03,2.33,BK.HUNT..HHZ,P,,2023-03-17 11:55:33.720
nc73858110,2023-03-17 11:55:13.960,40.28766666666667,-124.481,10.03,2.33,BK.JCC..HHZ,P,-1.0,2023-03-17 11:55:26.670
nc73858110,2023-03-17 11:55:13.960,40.28766666666667,-124.481,10.03,2.33,BK.KNEE..HHZ,P,,2023-03-17 11:55:26.750
nc73858110,2023-03-17 11:55:13.960,40.28766666666667,-124.481,10.03,2.33,BK.MILL..HHZ,P,,2023-03-17 11:55:38.180
nc73858110,2023-03-17 11:55:13.960,40.28766666666667,-124.481,10.03,2.33,BK.PETL..HNZ,P,-1.0,2023-03-17 11:55:17.250
nc73858110,2023-03-17 11:55:13.960,40.28766666666667,-124.481,10.03,2.33,BK.PETY..HHZ,P,,2023-03-17 11:55:37.410
nc73858110,2023-03-17 11:55:13.960,40.28766666666667,-124.481,10.03,2.33,BK.PRDS..HHZ,P,-1.0,2023-03-17 11:55:22.210
nc73858110,2023-03-17 11:55:13.960,40.28766666666667,-124.481,10.03,2.33,BK.RBOW..HHZ,P,1.0,2023-03-17 11:55:20.580
nc73858110,2023-03-17 11:55:13.960,40.28766666666667,-124.481,10.03,2.33,BK.SAGE..HHZ,P,,2023-03-17 11:55:46.750
nc73858110,2023-03-17 11:55:13.960,40.28766666666667,-124.481,10.03,2.33,BK.SANG..HHZ,P,,2023-03-17 11:55:42.680
nc73858110,2023-03-17 11:55:13.960,40.28766666666667,-124.481,10.03,2.33,BK.SBAR..HHZ,P,,2023-03-17 11:55:42.450
nc73858110,2023-03-17 11:55:13.960,40.28766666666667,-124.481,10.03,2.33,BK.SCOT..HHZ,P,,2023-03-17 11:55:41.740
nc73858110,2023-03-17 11:55:13.960,40.28766666666667,-124.481,10.03,2.33,BK.SHWD..HHZ,P,-1.0,2023-03-17 11:55:33.650
nc73858110,2023-03-17 11:55:13.960,40.28766666666667,-124.481,10.03,2.33,BK.TRIN..HHZ,P,,2023-03-17 11:55:39.780
nc73858110,2023-03-17 11:55:13.960,40.28766666666667,-124.481,10.03,2.33,BK.YBH..HHZ,P,,2023-03-17 11:55:44.870
nc73858110,2023-03-17 11:55:13.960,40.28766666666667,-124.481,10.03,2.33,CE.89688..HNZ,P,-1.0,2023-03-17 11:55:22.360
nc73858110,2023-03-17 11:55:13.960,40.28766666666667,-124.481,10.03,2.33,NC.GHO..EHZ,P,-1.0,2023-03-17 11:55:38.350
nc73858110,2023-03-17 11:55:13.960,40.28766666666667,-124.481,10.03,2.33,NC.GMR..EHZ,P,,2023-03-17 11:55:37.650
nc73858110,2023-03-17 11:55:13.960,40.28766666666667,-124.481,10.03,2.33,NC.GNR..EHZ,P,-1.0,2023-03-17 11:55:35.990
nc73858110,2023-03-17 11:55:13.960,40.28766666666667,-124.481,10.03,2.33,NC.KBN..EHZ,P,,2023-03-17 11:55:33.940
nc73858110,2023-03-17 11:55:13.960,40.28766666666667,-124.481,10.03,2.33,NC.KBU..EHZ,P,,2023-03-17 11:55:24.470
nc73858110,2023-03-17 11:55:13.960,40.28766666666667,-124.481,10.03,2.33,NC.KCO..HNZ,P,-1.0,2023-03-17 11:55:18.410
nc73858110,2023-03-17 11:55:13.960,40.28766666666667,-124.481,10.03,2.33,NC.KCR..EHZ,P,1.0,2023-03-17 11:55:25.280
nc73858110,2023-03-17 11:55:13.960,40.28766666666667,-124.481,10.03,2.33,NC.KCT..HHZ,P,1.0,2023-03-17 11:55:19.270
nc73858110,2023-03-17 11:55:13.960,40.28766666666667,-124.481,10.03,2.33,NC.KFP..EHZ,P,-1.0,2023-03-17 11:55:33.080
nc73858110,2023-03-17 11:55:13.960,40.28766666666667,-124.481,10.03,2.33,NC.KHBB..HHZ,P,,2023-03-17 11:55:33.190
nc73858110,2023-03-17 11:55:13.960,40.28766666666667,-124.481,10.03,2.33,NC.KHMB..HHZ,P,1.0,2023-03-17 11:55:29.940
nc73858110,2023-03-17 11:55:13.960,40.28766666666667,-124.481,10.03,2.33,NC.KIP..EHZ,P,,2023-03-17 11:55:31.490
nc73858110,2023-03-17 11:55:13.960,40.28766666666667,-124.481,10.03,2.33,NC.KLR..EHZ,P,,2023-03-17 11:55:31.780
nc73858110,2023-03-17 11:55:13.960,40.28766666666667,-124.481,10.03,2.33,NC.KMR..HHZ,P,1.0,2023-03-17 11:55:26.530
nc73858110,2023-03-17 11:55:13.960,40.28766666666667,-124.481,10.03,2.33,NC.KPPB..EHZ,P,,2023-03-17 11:55:30.890
nc73858110,2023-03-17 11:55:13.960,40.28766666666667,-124.481,10.03,2.33,NC.KPR..EHZ,P,1.0,2023-03-17 11:55:21.610
nc73858110,2023-03-17 11:55:13.960,40.28766666666667,-124.481,10.03,2.33,NC.KRK..EHZ,P,-1.0,2023-03-17 11:55:35.980
nc73858110,2023-03-17 11:55:13.960,40.28766666666667,-124.481,10.03,2.33,NC.KRP..HHZ,P,,2023-03-17 11:55:31.120
nc73858110,2023-03-17 11:55:13.960,40.28766666666667,-124.481,10.03,2.33,NC.KSM..EHZ,P,-1.0,2023-03-17 11:55:20.100
nc73858110,2023-03-17 11:55:13.960,40.28766666666667,-124.481,10.03,2.33,NC.KSXB..HHZ,P,1.0,2023-03-17 11:55:40.460
nc73858110,2023-03-17 11:55:13.960,40.28766666666667,-124.481,10.03,2.33,NC.KTJ..HNZ,P,1.0,2023-03-17 11:55:23.580
nc73858110,2023-03-17 11:55:13.960,40.28766666666667,-124.481,10.03,2.33,NC.LSB..EHZ,P,,2023-03-17 11:55:48.160
nc73858110,2023-03-17 11:55:13.960,40.28766666666667,-124.481,10.03,2.33,NP.1582..HNZ,P,-1.0,2023-03-17 11:55:24.480
nc73858110,2023-03-17 11:55:13.960,40.28766666666667,-124.481,10.03,2.33,NP.1586..HNZ,P,,2023-03-17 11:55:23.600
nc73858110,2023-03-17 11:55:13.960,40.28766666666667,-124.481,10.03,2.33,NP.1591..HNZ,P,-1.0,2023-03-17 11:55:26.560
nc73858110,2023-03-17 11:55:13.960,40.28766666666667,-124.481,10.03,2.33,PB.B045..EHZ,P,1.0,2023-03-17 11:55:22.550
