event_id,etime,elat,elon,edep,emag,station_id,phase_type,phase_polarity,phase_time
nc73844406,2023-02-10 05:46:41.570,40.912166666666664,-123.28866666666667,30.07,2.06,BK.TRIN..HHZ,P,,2023-02-10 05:46:50.820
nc73844406,2023-02-10 05:46:41.570,40.912166666666664,-123.28866666666667,30.07,2.06,BK.WEAV..HHZ,P,-1.0,2023-02-10 05:46:48.780
nc73844406,2023-02-10 05:46:41.570,40.912166666666664,-123.28866666666667,30.07,2.06,NC.KCR..EHZ,P,-1.0,2023-02-10 05:46:53.510
nc73844406,2023-02-10 05:46:41.570,40.912166666666664,-123.28866666666667,30.07,2.06,NC.KHBB..HHZ,P,,2023-02-10 05:46:48.530
nc73844406,2023-02-10 05:46:41.570,40.912166666666664,-123.28866666666667,30.07,2.06,NC.KHMB..HHZ,P,1.0,2023-02-10 05:46:49.340
nc73844406,2023-02-10 05:46:41.570,40.912166666666664,-123.28866666666667,30.07,2.06,NC.LBK..EHZ,P,1.0,2023-02-10 05:46:51.830
nc73844406,2023-02-10 05:46:41.570,40.912166666666664,-123.28866666666667,30.07,2.06,NC.LGP..EHZ,P,-1.0,2023-02-10 05:46:49.570
nc73844406,2023-02-10 05:46:41.570,40.912166666666664,-123.28866666666667,30.07,2.06,NC.LSF..EHZ,P,,2023-02-10 05:46:54.250
nc73844406,2023-02-10 05:46:41.570,40.912166666666664,-123.28866666666667,30.07,2.06,PB.B935..EHZ,P,1.0,2023-02-10 05:46:51.470
nc73844891,2023-02-11 07:57:48.510,40.46083333333333,-123.38016666666667,29.92,2.21,BK.BAKR..HHZ,P,,2023-02-11 07:58:01.990
nc73844891,2023-02-11 07:57:48.510,40.46083333333333,-123.38016666666667,29.92,2.21,BK.BLAS..HHZ,P,1.0,2023-02-11 07:57:54.640
nc73844891,2023-02-11 07:57:48.510,40.46083333333333,-123.38016666666667,29.92,2.21,BK.BRIC..HHZ,P,1.0,2023-02-11 07:57:59.110
nc73844891,2023-02-11 07:57:48.510,40.46083333333333,-123.38016666666667,29.92,2.21,BK.DMOR..HHZ,P,1.0,2023-02-11 07:57:43.750
nc73844891,2023-02-11 07:57:48.510,40.46083333333333,-123.38016666666667,29.92,2.21,BK.HAYF..HHZ,P,-1.0,2023-02-11 07:57:54.090
nc73844891,2023-02-11 07:57:48.510,40.46083333333333,-123.38016666666667,29.92,2.21,BK.JCC..HHZ,P,,2023-02-11 07:58:00.030
nc73844891,2023-02-11 07:57:48.510,40.46083333333333,-123.38016666666667,29.92,2.21,BK.KNEE..HHZ,P,,2023-02-11 07:57:58.310
nc73844891,2023-02-11 07:57:48.510,40.46083333333333,-123.38016666666667,29.92,2.21,BK.LCOW..HHZ,P,1.0,2023-02-11 07:58:05.070
nc73844891,2023-02-11 07:57:48.510,40.46083333333333,-123.38016666666667,29.92,2.21,BK.MOGU..HHZ,P,,2023-02-11 07:58:15.040
nc73844891,2023-02-11 07:57:48.510,40.46083333333333,-123.38016666666667,29.92,2.21,BK.PETY..HHZ,P,1.0,2023-02-11 07:57:59.150
nc73844891,2023-02-11 07:57:48.510,40.46083333333333,-123.38016666666667,29.92,2.21,BK.PRDS..HHZ,P,-1.0,2023-02-11 07:58:00.110
nc73844891,2023-02-11 07:57:48.510,40.46083333333333,-123.38016666666667,29.92,2.21,BK.RBOW..HHZ,P,,2023-02-11 07:57:59.290
nc73844891,2023-02-11 07:57:48.510,40.46083333333333,-123.38016666666667,29.92,2.21,BK.SAGE..HHZ,P,,2023-02-11 07:58:07.410
nc73844891,2023-02-11 07:57:48.510,40.46083333333333,-123.38016666666667,29.92,2.21,BK.SBAR..HHZ,P,,2023-02-11 07:58:09.350
nc73844891,2023-02-11 07:57:48.510,40.46083333333333,-123.38016666666667,29.92,2.21,BK.SCOT..HHZ,P,,2023-02-11 07:58:06.430
nc73844891,2023-02-11 07:57:48.510,40.46083333333333,-123.38016666666667,29.92,2.21,BK.SHWD..HHZ,P,,2023-02-11 07:58:05.090
nc73844891,2023-02-11 07:57:48.510,40.46083333333333,-123.38016666666667,29.92,2.21,BK.TRIN..HHZ,P,,2023-02-11 07:58:02.060
nc73844891,2023-02-11 07:57:48.510,40.46083333333333,-123.38016666666667,29.92,2.21,BK.WEAV..HHZ,P,,2023-02-11 07:57:57.420
nc73844891,2023-02-11 07:57:48.510,40.46083333333333,-123.38016666666667,29.92,2.21,BK.YBH..HHZ,P,,2023-02-11 07:58:11.820
nc73844891,2023-02-11 07:57:48.510,40.46083333333333,-123.38016666666667,29.92,2.21,NC.KBN..EHZ,P,1.0,2023-02-11 07:58:00.140
nc73844891,2023-02-11 07:57:48.510,40.46083333333333,-123.38016666666667,29.92,2.21,NC.KBU..EHZ,P,1.0,2023-02-11 07:57:57.530
nc73844891,2023-02-11 07:57:48.510,40.46083333333333,-123.38016666666667,29.92,2.21,NC.KCR..EHZ,P,1.0,2023-02-11 07:57:56.490
nc73844891,2023-02-11 07:57:48.510,40.46083333333333,-123.38016666666667,29.92,2.21,NC.KFP..EHZ,P,,2023-02-11 07:58:03.110
nc73844891,2023-02-11 07:57:48.510,40.46083333333333,-123.38016666666667,29.92,2.21,NC.KHBB..HHZ,P,-1.0,2023-02-11 07:57:55.220
nc73844891,2023-02-11 07:57:48.510,40.46083333333333,-123.38016666666667,29.92,2.21,NC.KHMB..HHZ,P,,2023-02-11 07:57:58.910
nc73844891,2023-02-11 07:57:48.510,40.46083333333333,-123.38016666666667,29.92,2.21,NC.KIP..EHZ,P,,2023-02-11 07:58:00.230
nc73844891,2023-02-11 07:57:48.510,40.46083333333333,-123.38016666666667,29.92,2.21,NC.KLR..EHZ,P,1.0,2023-02-11 07:57:57.260
nc73844891,2023-02-11 07:57:48.510,40.46083333333333,-123.38016666666667,29.92,2.21,NC.KMR..HHZ,P,1.0,2023-02-11 07:57:56.760
nc73844891,2023-02-11 07:57:48.510,40.46083333333333,-123.38016666666667,29.92,2.21,NC.KPR..EHZ,P,,2023-02-11 07:57:59.250
nc73844891,2023-02-11 07:57:48.510,40.46083333333333,-123.38016666666667,29.92,2.21,NC.LBK..EHZ,P,,2023-02-11 07:58:03.720
nc73844891,2023-02-11 07:57:48.510,40.46083333333333,-123.38016666666667,29.92,2.21,NC.LBO..EHZ,P,,2023-02-11 07:58:12.370
nc73844891,2023-02-11 07:57:48.510,40.46083333333333,-123.38016666666667,29.92,2.21,NC.LMI..EHZ,P,,2023-02-11 07:58:05.390
nc73844891,2023-02-11 07:57:48.510,40.46083333333333,-123.38016666666667,29.92,2.21,NC.LSB..EHZ,P,,2023-02-11 07:58:12.430
nc73844891,2023-02-11 07:57:48.510,40.46083333333333,-123.38016666666667,29.92,2.21,NC.LSF..EHZ,P,1.0,2023-02-11 07:58:01.460
nc73844891,2023-02-11 07:57:48.510,40.46083333333333,-123.38016666666667,29.92,2.21,NC.LSG..EHZ,P,,2023-02-11 07:58:07.350
nc73844891,2023-02-11 07:57:48.510,40.46083333333333,-123.38016666666667,29.92,2.21,PB.B039..EHZ,P,,2023-02-11 07:58:09.160
nc73844891,2023-02-11 07:57:48.510,40.46083333333333,-123.38016666666667,29.92,2.21,PB.B040..EHZ,P,-1.0,2023-02-11 07:58:14.980
nc73844891,2023-02-11 07:57:48.510,40.46083333333333,-123.38016666666667,29.92,2.21,PB.B045..EHZ,P,-1.0,2023-02-11 07:57:58.060
nc73844891,2023-02-11 07:57:48.510,40.46083333333333,-123.38016666666667,29.92,2.21,PB.B046..EHZ,P,,2023-02-11 07:58:00.970
nc73844891,2023-02-11 07:57:48.510,40.46083333333333,-123.38016666666667,29.92,2.21,PB.B047..EHZ,P,-1.0,2023-02-11 07:58:00.150
nc73844891,2023-02-11 07:57:48.510,40.46083333333333,-123.38016666666667,29.92,2.21,PB.B049..EHZ,P,1.0,2023-02-11 07:57:57.140
nc73844891,2023-02-11 07:57:48.510,40.46083333333333,-123.38016666666667,29.92,2.21,PB.B932..EHZ,P,,2023-02-11 07:58:00.280
nc73844891,2023-02-11 07:57:48.510,40.46083333333333,-123.38016666666667,29.92,2.21,PB.B935..EHZ,P,-1.0,2023-02-11 07:57:54.330
nc73848931,2023-02-20 10:54:31.330,40.134,-123.81366666666666,21.97,1.38,BK.BLAS..HHZ,P,1.0,2023-02-20 10:54:38.330
nc73848931,2023-02-20 10:54:31.330,40.134,-123.81366666666666,21.97,1.38,BK.BRIC..HHZ,P,1.0,2023-02-20 10:54:35.820
nc73848931,2023-02-20 10:54:31.330,40.134,-123.81366666666666,21.97,1.38,BK.GHOP..BHZ,P,,2023-02-20 10:54:37.330
nc73848931,2023-02-20 10:54:31.330,40.134,-123.81366666666666,21.97,1.38,BK.PRDS..HHZ,P,1.0,2023-02-20 10:54:36.700
nc73848931,2023-02-20 10:54:31.330,40.134,-123.81366666666666,21.97,1.38,BK.RBOW..BHZ,P,,2023-02-20 10:54:38.460
nc73848931,2023-02-20 10:54:31.330,40.134,-123.81366666666666,21.97,1.38,NC.KBU..EHZ,P,1.0,2023-02-20 10:54:36.050
nc73848931,2023-02-20 10:54:31.330,40.134,-123.81366666666666,21.97,1.38,NC.KCR..EHZ,P,,2023-02-20 10:54:38.250
nc73848931,2023-02-20 10:54:31.330,40.134,-123.81366666666666,21.97,1.38,NC.KMPB..HHZ,P,,2023-02-20 10:54:38.980
nc73848931,2023-02-20 10:54:31.330,40.134,-123.81366666666666,21.97,1.38,NC.KMR..HHZ,P,1.0,2023-02-20 10:54:35.950
nc73848931,2023-02-20 10:54:31.330,40.134,-123.81366666666666,21.97,1.38,NC.KPR..EHZ,P,1.0,2023-02-20 10:54:37.010
nc73848931,2023-02-20 10:54:31.330,40.134,-123.81366666666666,21.97,1.38,NC.KSM..EHZ,P,-1.0,2023-02-20 10:54:37.950
nc73848931,2023-02-20 10:54:31.330,40.134,-123.81366666666666,21.97,1.38,NC.KTJ..HNZ,P,1.0,2023-02-20 10:54:36.250
nc73848931,2023-02-20 10:54:31.330,40.134,-123.81366666666666,21.97,1.38,NP.1591..HNZ,P,-1.0,2023-02-20 10:54:35.580
nc73848931,2023-02-20 10:54:31.330,40.134,-123.81366666666666,21.97,1.38,PB.B045..EHZ,P,,2023-02-20 10:54:38.720
nc73848931,2023-02-20 10:54:31.330,40.134,-123.81366666666666,21.97,1.38,PB.B046..EHZ,P,,2023-02-20 10:54:39.760
nc73848931,2023-02-20 10:54:31.330,40.134,-123.81366666666666,21.97,1.38,PB.B047..EHZ,P,1.0,2023-02-20 10:54:38.350
nc73848931,2023-02-20 10:54:31.330,40.134,-123.81366666666666,21.97,1.38,PB.B049..EHZ,P,1.0,2023-02-20 10:54:35.670
nc73848931,2023-02-20 10:54:31.330,40.134,-123.81366666666666,21.97,1.38,PB.B932..EHZ,P,1.0,2023-02-20 10:54:38.740
nc73848931,2023-02-20 10:54:31.330,40.134,-123.81366666666666,21.97,1.38,PB.B933..EHZ,P,1.0,2023-02-20 10:54:36.160
nc73850141,2023-02-22 15:48:21.610,40.5595,-124.22033333333333,15.63,3.07,BG.BUC..DPZ,P,,2023-02-22 15:48:54.190
nc73850141,2023-02-22 15:48:21.610,40.5595,-124.22033333333333,15.63,3.07,BK.BJES..HNZ,P,1.0,2023-02-22 15:48:27.820
nc73850141,2023-02-22 15:48:21.610,40.5595,-124.22033333333333,15.63,3.07,BK.BLAS..HHZ,P,1.0,2023-02-22 15:48:33.360
nc73850141,2023-02-22 15:48:21.610,40.5595,-124.22033333333333,15.63,3.07,BK.BRIC..HHZ,P,,2023-02-22 15:48:32.550
nc73850141,2023-02-22 15:48:21.610,40.5595,-124.22033333333333,15.63,3.07,BK.BRIT..HHZ,P,,2023-02-22 15:48:54.610
nc73850141,2023-02-22 15:48:21.610,40.5595,-124.22033333333333,15.63,3.07,BK.GHOP..HHZ,P,1.0,2023-02-22 15:48:28.910
nc73850141,2023-02-22 15:48:21.610,40.5595,-124.22033333333333,15.63,3.07,BK.GRPK..HHZ,P,-1.0,2023-02-22 15:48:52.160
nc73850141,2023-02-22 15:48:21.610,40.5595,-124.22033333333333,15.63,3.07,BK.HAYF..HHZ,P,1.0,2023-02-22 15:48:35.770
nc73850141,2023-02-22 15:48:21.610,40.5595,-124.22033333333333,15.63,3.07,BK.JCC..HHZ,P,-1.0,2023-02-22 15:48:28.140
nc73850141,2023-02-22 15:48:21.610,40.5595,-124.22033333333333,15.63,3.07,BK.KNEE..HHZ,P,-1.0,2023-02-22 15:48:28.310
nc73850141,2023-02-22 15:48:21.610,40.5595,-124.22033333333333,15.63,3.07,BK.MILL..HHZ,P,-1.0,2023-02-22 15:48:40.950
nc73850141,2023-02-22 15:48:21.610,40.5595,-124.22033333333333,15.63,3.07,BK.PETL..HNZ,P,-1.0,2023-02-22 15:48:28.060
nc73850141,2023-02-22 15:48:21.610,40.5595,-124.22033333333333,15.63,3.07,BK.PRDS..HHZ,P,-1.0,2023-02-22 15:48:31.320
nc73850141,2023-02-22 15:48:21.610,40.5595,-124.22033333333333,15.63,3.07,BK.RBOW..HHZ,P,1.0,2023-02-22 15:48:27.230
nc73850141,2023-02-22 15:48:21.610,40.5595,-124.22033333333333,15.63,3.07,BK.SCOT..HHZ,P,1.0,2023-02-22 15:48:44.070
nc73850141,2023-02-22 15:48:21.610,40.5595,-124.22033333333333,15.63,3.07,BK.WEAV..HHZ,P,-1.0,2023-02-22 15:48:38.980
nc73850141,2023-02-22 15:48:21.610,40.5595,-124.22033333333333,15.63,3.07,CE.89688..HNZ,P,,2023-02-22 15:48:31.850
nc73850141,2023-02-22 15:48:21.610,40.5595,-124.22033333333333,15.63,3.07,CE.89781..HNZ,P,-1.0,2023-02-22 15:48:27.140
nc73850141,2023-02-22 15:48:21.610,40.5595,-124.22033333333333,15.63,3.07,NC.JSB..EHZ,P,,2023-02-22 15:49:10.330
nc73850141,2023-02-22 15:48:21.610,40.5595,-124.22033333333333,15.63,3.07,NC.KBU..EHZ,P,1.0,2023-02-22 15:48:30.800
nc73850141,2023-02-22 15:48:21.610,40.5595,-124.22033333333333,15.63,3.07,NC.KCO..HNZ,P,-1.0,2023-02-22 15:48:28.560
nc73850141,2023-02-22 15:48:21.610,40.5595,-124.22033333333333,15.63,3.07,NC.KCR..EHZ,P,1.0,2023-02-22 15:48:29.210
nc73850141,2023-02-22 15:48:21.610,40.5595,-124.22033333333333,15.63,3.07,NC.KCT..HHZ,P,-1.0,2023-02-22 15:48:25.400
nc73850141,2023-02-22 15:48:21.610,40.5595,-124.22033333333333,15.63,3.07,NC.KHBB..HHZ,P,1.0,2023-02-22 15:48:35.930
nc73850141,2023-02-22 15:48:21.610,40.5595,-124.22033333333333,15.63,3.07,NC.KHMB..HHZ,P,-1.0,2023-02-22 15:48:31.760
nc73850141,2023-02-22 15:48:21.610,40.5595,-124.22033333333333,15.63,3.07,NC.KIP..EHZ,P,1.0,2023-02-22 15:48:41.010
nc73850141,2023-02-22 15:48:21.610,40.5595,-124.22033333333333,15.63,3.07,NC.KLR..EHZ,P,1.0,2023-02-22 15:48:37.250
nc73850141,2023-02-22 15:48:21.610,40.5595,-124.22033333333333,15.63,3.07,NC.KMR..HHZ,P,1.0,2023-02-22 15:48:32.620
nc73850141,2023-02-22 15:48:21.610,40.5595,-124.22033333333333,15.63,3.07,NC.KPR..EHZ,P,,2023-02-22 15:48:29.550
nc73850141,2023-02-22 15:48:21.610,40.5595,-124.22033333333333,15.63,3.07,NC.KRP..HHZ,P,-1.0,2023-02-22 15:48:33.310
nc73850141,2023-02-22 15:48:21.610,40.5595,-124.22033333333333,15.63,3.07,NC.KSXB..HHZ,P,,2023-02-22 15:48:43.150
nc73850141,2023-02-22 15:48:21.610,40.5595,-124.22033333333333,15.63,3.07,NC.LBK..EHZ,P,1.0,2023-02-22 15:48:43.700
nc73850141,2023-02-22 15:48:21.610,40.5595,-124.22033333333333,15.63,3.07,NC.LMI..EHZ,P,-1.0,2023-02-22 15:48:48.340
nc73850141,2023-02-22 15:48:21.610,40.5595,-124.22033333333333,15.63,3.07,NC.NHV..EHZ,P,,2023-02-22 15:49:02.330
nc73850141,2023-02-22 15:48:21.610,40.5595,-124.22033333333333,15.63,3.07,NP.1023..HNZ,P,1.0,2023-02-22 15:48:24.840
nc73850141,2023-02-22 15:48:21.610,40.5595,-124.22033333333333,15.63,3.07,NP.1581..HNZ,P,-1.0,2023-02-22 15:48:26.390
nc73850141,2023-02-22 15:48:21.610,40.5595,-124.22033333333333,15.63,3.07,NP.1582..HNZ,P,-1.0,2023-02-22 15:48:25.890
nc73850141,2023-02-22 15:48:21.610,40.5595,-124.22033333333333,15.63,3.07,NP.1584B..HNZ,P,-1.0,2023-02-22 15:48:24.870
nc73850141,2023-02-22 15:48:21.610,40.5595,-124.22033333333333,15.63,3.07,NP.1586..HNZ,P,-1.0,2023-02-22 15:48:25.270
nc73850141,2023-02-22 15:48:21.610,40.5595,-124.22033333333333,15.63,3.07,NP.1591..HNZ,P,,2023-02-22 15:48:33.180
nc73850141,2023-02-22 15:48:21.610,40.5595,-124.22033333333333,15.63,3.07,NP.MOD..HHZ,P,,2023-02-22 15:49:21.300
nc73850141,2023-02-22 15:48:21.610,40.5595,-124.22033333333333,15.63,3.07,PB.B045..EHZ,P,1.0,2023-02-22 15:48:26.890
nc73850141,2023-02-22 15:48:21.610,40.5595,-124.22033333333333,15.63,3.07,PB.B046..EHZ,P,-1.0,2023-02-22 15:48:27.440
nc73850141,2023-02-22 15:48:21.610,40.5595,-124.22033333333333,15.63,3.07,PB.B047..EHZ,P,-1.0,2023-02-22 15:48:28.600
nc73850141,2023-02-22 15:48:21.610,40.5595,-124.22033333333333,15.63,3.07,PB.B049..EHZ,P,1.0,2023-02-22 15:48:30.980
nc73850141,2023-02-22 15:48:21.610,40.5595,-124.22033333333333,15.63,3.07,PB.B932..EHZ,P,-1.0,2023-02-22 15:48:28.010
nc73850141,2023-02-22 15:48:21.610,40.5595,-124.22033333333333,15.63,3.07,PB.B935..EHZ,P,1.0,2023-02-22 15:48:31.980
nc73851681,2023-02-25 16:37:00.680,40.944833333333335,-123.43216666666666,30.22,2.38,BK.BLAS..HHZ,P,,2023-02-25 16:37:12.140
nc73851681,2023-02-25 16:37:00.680,40.944833333333335,-123.43216666666666,30.22,2.38,BK.BRIC..HHZ,P,1.0,2023-02-25 16:37:16.790
nc73851681,2023-02-25 16:37:00.680,40.944833333333335,-123.43216666666666,30.22,2.38,BK.GHOP..HHZ,P,,2023-02-25 16:37:14.580
nc73851681,2023-02-25 16:37:00.680,40.944833333333335,-123.43216666666666,30.22,2.38,BK.GRPK..HHZ,P,,2023-02-25 16:37:20.420
nc73851681,2023-02-25 16:37:00.680,40.944833333333335,-123.43216666666666,30.22,2.38,BK.HAYF..HHZ,P,1.0,2023-02-25 16:37:10.020
nc73851681,2023-02-25 16:37:00.680,40.944833333333335,-123.43216666666666,30.22,2.38,BK.JCC..HHZ,P,1.0,2023-02-25 16:37:10.040
nc73851681,2023-02-25 16:37:00.680,40.944833333333335,-123.43216666666666,30.22,2.38,BK.KNEE..HHZ,P,1.0,2023-02-25 16:37:09.670
nc73851681,2023-02-25 16:37:00.680,40.944833333333335,-123.43216666666666,30.22,2.38,BK.LCOW..HHZ,P,-1.0,2023-02-25 16:37:18.440
nc73851681,2023-02-25 16:37:00.680,40.944833333333335,-123.43216666666666,30.22,2.38,BK.MILL..HHZ,P,1.0,2023-02-25 16:37:15.710
nc73851681,2023-02-25 16:37:00.680,40.944833333333335,-123.43216666666666,30.22,2.38,BK.SBAR..HHZ,P,,2023-02-25 16:37:14.360
nc73851681,2023-02-25 16:37:00.680,40.944833333333335,-123.43216666666666,30.22,2.38,BK.SCOT..HHZ,P,-1.0,2023-02-25 16:37:12.290
nc73851681,2023-02-25 16:37:00.680,40.944833333333335,-123.43216666666666,30.22,2.38,BK.TRIN..HHZ,P,1.0,2023-02-25 16:37:11.220
nc73851681,2023-02-25 16:37:00.680,40.944833333333335,-123.43216666666666,30.22,2.38,BK.WEAV..HHZ,P,1.0,2023-02-25 16:37:09.150
nc73851681,2023-02-25 16:37:00.680,40.944833333333335,-123.43216666666666,30.22,2.38,BK.WHMT..HHZ,P,-1.0,2023-02-25 16:37:23.200
nc73851681,2023-02-25 16:37:00.680,40.944833333333335,-123.43216666666666,30.22,2.38,BK.YBH..HHZ,P,-1.0,2023-02-25 16:37:17.490
nc73851681,2023-02-25 16:37:00.680,40.944833333333335,-123.43216666666666,30.22,2.38,NC.KBU..EHZ,P,1.0,2023-02-25 16:37:14.560
nc73851681,2023-02-25 16:37:00.680,40.944833333333335,-123.43216666666666,30.22,2.38,NC.KCR..EHZ,P,1.0,2023-02-25 16:37:12.130
nc73851681,2023-02-25 16:37:00.680,40.944833333333335,-123.43216666666666,30.22,2.38,NC.KHBB..HHZ,P,1.0,2023-02-25 16:37:08.530
nc73851681,2023-02-25 16:37:00.680,40.944833333333335,-123.43216666666666,30.22,2.38,NC.KHMB..HHZ,P,-1.0,2023-02-25 16:37:07.320
nc73851681,2023-02-25 16:37:00.680,40.944833333333335,-123.43216666666666,30.22,2.38,NC.KOM..EHZ,P,1.0,2023-02-25 16:37:08.510
nc73851681,2023-02-25 16:37:00.680,40.944833333333335,-123.43216666666666,30.22,2.38,NC.KPR..EHZ,P,,2023-02-25 16:37:15.640
nc73851681,2023-02-25 16:37:00.680,40.944833333333335,-123.43216666666666,30.22,2.38,NC.KRP..HHZ,P,,2023-02-25 16:37:10.510
nc73851681,2023-02-25 16:37:00.680,40.944833333333335,-123.43216666666666,30.22,2.38,NC.LBK..EHZ,P,1.0,2023-02-25 16:37:11.940
nc73851681,2023-02-25 16:37:00.680,40.944833333333335,-123.43216666666666,30.22,2.38,NC.LBO..EHZ,P,,2023-02-25 16:37:19.830
nc73851681,2023-02-25 16:37:00.680,40.944833333333335,-123.43216666666666,30.22,2.38,NC.LMC..HHZ,P,1.0,2023-02-25 16:37:19.570
nc73851681,2023-02-25 16:37:00.680,40.944833333333335,-123.43216666666666,30.22,2.38,NC.LMI..EHZ,P,1.0,2023-02-25 16:37:20.040
nc73851681,2023-02-25 16:37:00.680,40.944833333333335,-123.43216666666666,30.22,2.38,NC.LRB..EHZ,P,,2023-02-25 16:37:20.150
nc73851681,2023-02-25 16:37:00.680,40.944833333333335,-123.43216666666666,30.22,2.38,NC.LSF..EHZ,P,,2023-02-25 16:37:14.550
nc73851681,2023-02-25 16:37:00.680,40.944833333333335,-123.43216666666666,30.22,2.38,PB.B039..EHZ,P,-1.0,2023-02-25 16:37:16.330
nc73851681,2023-02-25 16:37:00.680,40.944833333333335,-123.43216666666666,30.22,2.38,PB.B040..EHZ,P,-1.0,2023-02-25 16:37:21.260
nc73851681,2023-02-25 16:37:00.680,40.944833333333335,-123.43216666666666,30.22,2.38,PB.B046..EHZ,P,1.0,2023-02-25 16:37:16.040
nc73851681,2023-02-25 16:37:00.680,40.944833333333335,-123.43216666666666,30.22,2.38,PB.B047..EHZ,P,1.0,2023-02-25 16:37:15.990
nc73851681,2023-02-25 16:37:00.680,40.944833333333335,-123.43216666666666,30.22,2.38,PB.B049..EHZ,P,-1.0,2023-02-25 16:37:14.220
nc73851681,2023-02-25 16:37:00.680,40.944833333333335,-123.43216666666666,30.22,2.38,PB.B935..EHZ,P,1.0,2023-02-25 16:37:10.580
nc73854886,2023-03-03 08:33:00.020,40.767833333333336,-123.86283333333333,1.49,2.02,BK.BJES..HNZ,P,,2023-03-03 08:33:05.730
nc73854886,2023-03-03 08:33:00.020,40.767833333333336,-123.86283333333333,1.49,2.02,BK.BRIC..HHZ,P,-1.0,2023-03-03 08:33:14.800
nc73854886,2023-03-03 08:33:00.020,40.767833333333336,-123.86283333333333,1.49,2.02,BK.GHOP..HHZ,P,-1.0,2023-03-03 08:33:10.660
nc73854886,2023-03-03 08:33:00.020,40.767833333333336,-123.86283333333333,1.49,2.02,BK.HAYF..HHZ,P,,2023-03-03 08:33:11.500
nc73854886,2023-03-03 08:33:00.020,40.767833333333336,-123.86283333333333,1.49,2.02,BK.JCC..HHZ,P,1.0,2023-03-03 08:33:03.250
nc73854886,2023-03-03 08:33:00.020,40.767833333333336,-123.86283333333333,1.49,2.02,BK.KNEE..HHZ,P,1.0,2023-03-03 08:33:01.820
nc73854886,2023-03-03 08:33:00.020,40.767833333333336,-123.86283333333333,1.49,2.02,BK.MILL..HHZ,P,1.0,2023-03-03 08:33:18.310
nc73854886,2023-03-03 08:33:00.020,40.767833333333336,-123.86283333333333,1.49,2.02,BK.PRDS..HHZ,P,1.0,2023-03-03 08:33:14.750
nc73854886,2023-03-03 08:33:00.020,40.767833333333336,-123.86283333333333,1.49,2.02,BK.RBOW..BHZ,P,,2023-03-03 08:33:10.370
nc73854886,2023-03-03 08:33:00.020,40.767833333333336,-123.86283333333333,1.49,2.02,BK.SANG..HHZ,P,,2023-03-03 08:33:21.400
nc73854886,2023-03-03 08:33:00.020,40.767833333333336,-123.86283333333333,1.49,2.02,BK.SBAR..HHZ,P,-1.0,2023-03-03 08:33:20.190
