event_id,etime,elat,elon,edep,emag,station_id,phase_type,phase_polarity,phase_time
nc73875585,2023-04-19 22:54:30.710,40.352333333333334,-123.36133333333333,27.32,2.5,NC.KIP..EHZ,P,1.0,2023-04-19 22:54:41.660
nc73875585,2023-04-19 22:54:30.710,40.352333333333334,-123.36133333333333,27.32,2.5,NC.KLR..EHZ,P,1.0,2023-04-19 22:54:37.910
nc73875585,2023-04-19 22:54:30.710,40.352333333333334,-123.36133333333333,27.32,2.5,NC.KMR..HHZ,P,1.0,2023-04-19 22:54:38.120
nc73875585,2023-04-19 22:54:30.710,40.352333333333334,-123.36133333333333,27.32,2.5,NC.KPPB..EHZ,P,-1.0,2023-04-19 22:54:35.750
nc73875585,2023-04-19 22:54:30.710,40.352333333333334,-123.36133333333333,27.32,2.5,NC.KPR..EHZ,P,,2023-04-19 22:54:41.220
nc73875585,2023-04-19 22:54:30.710,40.352333333333334,-123.36133333333333,27.32,2.5,NC.KRK..EHZ,P,,2023-04-19 22:54:45.660
nc73875585,2023-04-19 22:54:30.710,40.352333333333334,-123.36133333333333,27.32,2.5,NC.LBK..EHZ,P,-1.0,2023-04-19 22:54:47.130
nc73875585,2023-04-19 22:54:30.710,40.352333333333334,-123.36133333333333,27.32,2.5,NC.LDB..EHZ,P,,2023-04-19 22:54:51.330
nc73875585,2023-04-19 22:54:30.710,40.352333333333334,-123.36133333333333,27.32,2.5,NC.LMI..EHZ,P,-1.0,2023-04-19 22:54:47.590
nc73875585,2023-04-19 22:54:30.710,40.352333333333334,-123.36133333333333,27.32,2.5,NC.LSF..EHZ,P,,2023-04-19 22:54:43.900
nc73875585,2023-04-19 22:54:30.710,40.352333333333334,-123.36133333333333,27.32,2.5,NC.LSG..EHZ,P,,2023-04-19 22:54:50.780
nc73875585,2023-04-19 22:54:30.710,40.352333333333334,-123.36133333333333,27.32,2.5,NC.LSH..EHZ,P,,2023-04-19 22:54:50.220
nc73875585,2023-04-19 22:54:30.710,40.352333333333334,-123.36133333333333,27.32,2.5,NC.LTC..HHZ,P,,2023-04-19 22:54:48.210
nc73875585,2023-04-19 22:54:30.710,40.352333333333334,-123.36133333333333,27.32,2.5,NP.1591..HNZ,P,,2023-04-19 22:54:39.720
nc73875585,2023-04-19 22:54:30.710,40.352333333333334,-123.36133333333333,27.32,2.5,PB.B045..EHZ,P,1.0,2023-04-19 22:54:40.460
nc73875585,2023-04-19 22:54:30.710,40.352333333333334,-123.36133333333333,27.32,2.5,PB.B046..EHZ,P,1.0,2023-04-19 22:54:43.040
nc73875585,2023-04-19 22:54:30.710,40.352333333333334,-123.36133333333333,27.32,2.5,PB.B047..EHZ,P,1.0,2023-04-19 22:54:42.220
nc73875585,2023-04-19 22:54:30.710,40.352333333333334,-123.36133333333333,27.32,2.5,PB.B049..EHZ,P,1.0,2023-04-19 22:54:38.760
nc73875585,2023-04-19 22:54:30.710,40.352333333333334,-123.36133333333333,27.32,2.5,PB.B932..EHZ,P,1.0,2023-04-19 22:54:42.430
nc73875585,2023-04-19 22:54:30.710,40.352333333333334,-123.36133333333333,27.32,2.5,PB.B935..EHZ,P,-1.0,2023-04-19 22:54:36.890
nc73881061,2023-04-27 18:21:25.070,40.8295,-123.41933333333333,27.71,2.16,BK.BLAS..HHZ,P,-1.0,2023-04-27 18:21:35.600
nc73881061,2023-04-27 18:21:25.070,40.8295,-123.41933333333333,27.71,2.16,BK.DLIK..HHZ,P,1.0,2023-04-27 18:21:35.680
nc73881061,2023-04-27 18:21:25.070,40.8295,-123.41933333333333,27.71,2.16,BK.GHOP..HHZ,P,1.0,2023-04-27 18:21:37.710
nc73881061,2023-04-27 18:21:25.070,40.8295,-123.41933333333333,27.71,2.16,BK.HAYF..HHZ,P,,2023-04-27 18:21:32.710
nc73881061,2023-04-27 18:21:25.070,40.8295,-123.41933333333333,27.71,2.16,BK.HUNT..HHZ,P,-1.0,2023-04-27 18:21:37.600
nc73881061,2023-04-27 18:21:25.070,40.8295,-123.41933333333333,27.71,2.16,BK.JCC..HHZ,P,1.0,2023-04-27 18:21:34.160
nc73881061,2023-04-27 18:21:25.070,40.8295,-123.41933333333333,27.71,2.16,BK.KNEE..HHZ,P,1.0,2023-04-27 18:21:33.430
nc73881061,2023-04-27 18:21:25.070,40.8295,-123.41933333333333,27.71,2.16,BK.LCOW..HHZ,P,-1.0,2023-04-27 18:21:41.620
nc73881061,2023-04-27 18:21:25.070,40.8295,-123.41933333333333,27.71,2.16,BK.MILL..HHZ,P,,2023-04-27 18:21:41.090
nc73881061,2023-04-27 18:21:25.070,40.8295,-123.41933333333333,27.71,2.16,BK.PRDS..HHZ,P,1.0,2023-04-27 18:21:40.070
nc73881061,2023-04-27 18:21:25.070,40.8295,-123.41933333333333,27.71,2.16,BK.RBOW..HHZ,P,1.0,2023-04-27 18:21:38.060
nc73881061,2023-04-27 18:21:25.070,40.8295,-123.41933333333333,27.71,2.16,BK.SAGE..HHZ,P,-1.0,2023-04-27 18:21:42.820
nc73881061,2023-04-27 18:21:25.070,40.8295,-123.41933333333333,27.71,2.16,BK.SBAR..HHZ,P,,2023-04-27 18:21:40.090
nc73881061,2023-04-27 18:21:25.070,40.8295,-123.41933333333333,27.71,2.16,BK.SCOT..HHZ,P,,2023-04-27 18:21:37.490
nc73881061,2023-04-27 18:21:25.070,40.8295,-123.41933333333333,27.71,2.16,BK.TRIN..HHZ,P,,2023-04-27 18:21:35.330
nc73881061,2023-04-27 18:21:25.070,40.8295,-123.41933333333333,27.71,2.16,BK.WEAV..HHZ,P,1.0,2023-04-27 18:21:32.730
nc73881061,2023-04-27 18:21:25.070,40.8295,-123.41933333333333,27.71,2.16,BK.YBH..HHZ,P,,2023-04-27 18:21:42.540
nc73881061,2023-04-27 18:21:25.070,40.8295,-123.41933333333333,27.71,2.16,CC.CLBH..BHZ,P,,2023-04-27 18:21:54.600
nc73881061,2023-04-27 18:21:25.070,40.8295,-123.41933333333333,27.71,2.16,NC.KBU..EHZ,P,1.0,2023-04-27 18:21:37.440
nc73881061,2023-04-27 18:21:25.070,40.8295,-123.41933333333333,27.71,2.16,NC.KCR..EHZ,P,1.0,2023-04-27 18:21:35.260
nc73881061,2023-04-27 18:21:25.070,40.8295,-123.41933333333333,27.71,2.16,NC.KCT..HHZ,P,1.0,2023-04-27 18:21:38.820
nc73881061,2023-04-27 18:21:25.070,40.8295,-123.41933333333333,27.71,2.16,NC.KHBB..HHZ,P,-1.0,2023-04-27 18:21:31.490
nc73881061,2023-04-27 18:21:25.070,40.8295,-123.41933333333333,27.71,2.16,NC.KHMB..HHZ,P,1.0,2023-04-27 18:21:31.660
nc73881061,2023-04-27 18:21:25.070,40.8295,-123.41933333333333,27.71,2.16,NC.KMR..HHZ,P,1.0,2023-04-27 18:21:37.430
nc73881061,2023-04-27 18:21:25.070,40.8295,-123.41933333333333,27.71,2.16,NC.KOM..EHZ,P,,2023-04-27 18:21:34.020
nc73881061,2023-04-27 18:21:25.070,40.8295,-123.41933333333333,27.71,2.16,NC.KPPB..EHZ,P,1.0,2023-04-27 18:21:35.090
nc73881061,2023-04-27 18:21:25.070,40.8295,-123.41933333333333,27.71,2.16,NC.KPR..EHZ,P,1.0,2023-04-27 18:21:38.820
nc73881061,2023-04-27 18:21:25.070,40.8295,-123.41933333333333,27.71,2.16,NC.KSM..EHZ,P,1.0,2023-04-27 18:21:39.910
nc73881061,2023-04-27 18:21:25.070,40.8295,-123.41933333333333,27.71,2.16,NC.LBK..EHZ,P,1.0,2023-04-27 18:21:36.410
nc73881061,2023-04-27 18:21:25.070,40.8295,-123.41933333333333,27.71,2.16,NC.LGP..EHZ,P,1.0,2023-04-27 18:21:33.950
nc73881061,2023-04-27 18:21:25.070,40.8295,-123.41933333333333,27.71,2.16,NC.LMC..HHZ,P,,2023-04-27 18:21:43.700
nc73881061,2023-04-27 18:21:25.070,40.8295,-123.41933333333333,27.71,2.16,NC.LSB..EHZ,P,,2023-04-27 18:21:43.950
nc73881061,2023-04-27 18:21:25.070,40.8295,-123.41933333333333,27.71,2.16,NC.LSF..EHZ,P,1.0,2023-04-27 18:21:37.980
nc73881061,2023-04-27 18:21:25.070,40.8295,-123.41933333333333,27.71,2.16,NC.LSG..EHZ,P,-1.0,2023-04-27 18:21:41.010
nc73881061,2023-04-27 18:21:25.070,40.8295,-123.41933333333333,27.71,2.16,NC.LSH..EHZ,P,-1.0,2023-04-27 18:21:42.830
nc73881061,2023-04-27 18:21:25.070,40.8295,-123.41933333333333,27.71,2.16,PB.B039..EHZ,P,-1.0,2023-04-27 18:21:41.340
nc73881061,2023-04-27 18:21:25.070,40.8295,-123.41933333333333,27.71,2.16,PB.B045..EHZ,P,1.0,2023-04-27 18:21:36.280
nc73881061,2023-04-27 18:21:25.070,40.8295,-123.41933333333333,27.71,2.16,PB.B046..EHZ,P,1.0,2023-04-27 18:21:39.420
nc73881061,2023-04-27 18:21:25.070,40.8295,-123.41933333333333,27.71,2.16,PB.B047..EHZ,P,1.0,2023-04-27 18:21:39.210
nc73881061,2023-04-27 18:21:25.070,40.8295,-123.41933333333333,27.71,2.16,PB.B049..EHZ,P,1.0,2023-04-27 18:21:37.170
nc73881061,2023-04-27 18:21:25.070,40.8295,-123.41933333333333,27.71,2.16,PB.B932..EHZ,P,1.0,2023-04-27 18:21:39.190
nc73881061,2023-04-27 18:21:25.070,40.8295,-123.41933333333333,27.71,2.16,PB.B935..EHZ,P,1.0,2023-04-27 18:21:33.370
nc73882946,2023-05-02 06:10:03.790,41.1945,-124.23233333333333,16.31,2.84,BK.DLIK..HHZ,P,-1.0,2023-05-02 06:10:25.820
nc73882946,2023-05-02 06:10:03.790,41.1945,-124.23233333333333,16.31,2.84,BK.HAYF..HHZ,P,1.0,2023-05-02 06:10:21.340
nc73882946,2023-05-02 06:10:03.790,41.1945,-124.23233333333333,16.31,2.84,BK.JCC..HHZ,P,1.0,2023-05-02 06:10:12.300
nc73882946,2023-05-02 06:10:03.790,41.1945,-124.23233333333333,16.31,2.84,BK.KNEE..HHZ,P,-1.0,2023-05-02 06:10:14.670
nc73882946,2023-05-02 06:10:03.790,41.1945,-124.23233333333333,16.31,2.84,BK.LCOW..HHZ,P,,2023-05-02 06:10:30.790
nc73882946,2023-05-02 06:10:03.790,41.1945,-124.23233333333333,16.31,2.84,BK.LGMB..HHZ,P,,2023-05-02 06:10:34.420
nc73882946,2023-05-02 06:10:03.790,41.1945,-124.23233333333333,16.31,2.84,BK.MILL..HHZ,P,1.0,2023-05-02 06:10:14.610
nc73882946,2023-05-02 06:10:03.790,41.1945,-124.23233333333333,16.31,2.84,BK.MOGU..HHZ,P,,2023-05-02 06:10:29.570
nc73882946,2023-05-02 06:10:03.790,41.1945,-124.23233333333333,16.31,2.84,BK.PRDS..HHZ,P,,2023-05-02 06:10:22.800
nc73882946,2023-05-02 06:10:03.790,41.1945,-124.23233333333333,16.31,2.84,BK.SAGE..HHZ,P,,2023-05-02 06:10:32.180
nc73882946,2023-05-02 06:10:03.790,41.1945,-124.23233333333333,16.31,2.84,BK.SBAR..HHZ,P,-1.0,2023-05-02 06:10:21.430
nc73882946,2023-05-02 06:10:03.790,41.1945,-124.23233333333333,16.31,2.84,BK.SCOT..HHZ,P,1.0,2023-05-02 06:10:22.140
nc73882946,2023-05-02 06:10:03.790,41.1945,-124.23233333333333,16.31,2.84,BK.SHEP..HHZ,P,,2023-05-02 06:10:35.220
nc73882946,2023-05-02 06:10:03.790,41.1945,-124.23233333333333,16.31,2.84,BK.SIGP..HHZ,P,1.0,2023-05-02 06:10:17.380
nc73882946,2023-05-02 06:10:03.790,41.1945,-124.23233333333333,16.31,2.84,BK.TRIN..HHZ,P,,2023-05-02 06:10:23.830
nc73882946,2023-05-02 06:10:03.790,41.1945,-124.23233333333333,16.31,2.84,BK.WEAV..HHZ,P,-1.0,2023-05-02 06:10:22.000
nc73882946,2023-05-02 06:10:03.790,41.1945,-124.23233333333333,16.31,2.84,BK.WHMT..HHZ,P,,2023-05-02 06:10:33.000
nc73882946,2023-05-02 06:10:03.790,41.1945,-124.23233333333333,16.31,2.84,BK.YBH..HHZ,P,,2023-05-02 06:10:25.710
nc73882946,2023-05-02 06:10:03.790,41.1945,-124.23233333333333,16.31,2.84,CE.89781..HNZ,P,-1.0,2023-05-02 06:10:12.640
nc73882946,2023-05-02 06:10:03.790,41.1945,-124.23233333333333,16.31,2.84,CE.99017..HNZ,P,-1.0,2023-05-02 06:10:15.690
nc73882946,2023-05-02 06:10:03.790,41.1945,-124.23233333333333,16.31,2.84,NC.KBU..EHZ,P,,2023-05-02 06:10:21.270
nc73882946,2023-05-02 06:10:03.790,41.1945,-124.23233333333333,16.31,2.84,NC.KCR..EHZ,P,-1.0,2023-05-02 06:10:18.890
nc73882946,2023-05-02 06:10:03.790,41.1945,-124.23233333333333,16.31,2.84,NC.KCT..HHZ,P,,2023-05-02 06:10:17.480
nc73882946,2023-05-02 06:10:03.790,41.1945,-124.23233333333333,16.31,2.84,NC.KFB..HNZ,P,1.0,2023-05-02 06:10:16.260
nc73882946,2023-05-02 06:10:03.790,41.1945,-124.23233333333333,16.31,2.84,NC.KHBB..HHZ,P,,2023-05-02 06:10:20.050
nc73882946,2023-05-02 06:10:03.790,41.1945,-124.23233333333333,16.31,2.84,NC.KHMB..HHZ,P,1.0,2023-05-02 06:10:13.940
nc73882946,2023-05-02 06:10:03.790,41.1945,-124.23233333333333,16.31,2.84,NC.KLR..EHZ,P,,2023-05-02 06:10:27.440
nc73882946,2023-05-02 06:10:03.790,41.1945,-124.23233333333333,16.31,2.84,NC.KOM..EHZ,P,-1.0,2023-05-02 06:10:15.590
nc73882946,2023-05-02 06:10:03.790,41.1945,-124.23233333333333,16.31,2.84,NC.KRP..HHZ,P,-1.0,2023-05-02 06:10:08.210
nc73882946,2023-05-02 06:10:03.790,41.1945,-124.23233333333333,16.31,2.84,NC.KSXB..HHZ,P,1.0,2023-05-02 06:10:17.220
nc73882946,2023-05-02 06:10:03.790,41.1945,-124.23233333333333,16.31,2.84,NC.KTD..HNZ,P,1.0,2023-05-02 06:10:08.110
nc73882946,2023-05-02 06:10:03.790,41.1945,-124.23233333333333,16.31,2.84,NC.LBK..EHZ,P,-1.0,2023-05-02 06:10:24.120
nc73882946,2023-05-02 06:10:03.790,41.1945,-124.23233333333333,16.31,2.84,NC.LBO..EHZ,P,,2023-05-02 06:10:29.970
nc73882946,2023-05-02 06:10:03.790,41.1945,-124.23233333333333,16.31,2.84,NC.LBR..HHZ,P,,2023-05-02 06:10:31.780
nc73882946,2023-05-02 06:10:03.790,41.1945,-124.23233333333333,16.31,2.84,NC.LDL..HHZ,P,,2023-05-02 06:10:29.570
nc73882946,2023-05-02 06:10:03.790,41.1945,-124.23233333333333,16.31,2.84,NC.LGY..HHZ,P,,2023-05-02 06:10:29.900
nc73882946,2023-05-02 06:10:03.790,41.1945,-124.23233333333333,16.31,2.84,NC.LMC..HHZ,P,,2023-05-02 06:10:30.790
nc73882946,2023-05-02 06:10:03.790,41.1945,-124.23233333333333,16.31,2.84,NC.LSB..EHZ,P,,2023-05-02 06:10:28.040
nc73882946,2023-05-02 06:10:03.790,41.1945,-124.23233333333333,16.31,2.84,NC.LSF..EHZ,P,-1.0,2023-05-02 06:10:27.650
nc73882946,2023-05-02 06:10:03.790,41.1945,-124.23233333333333,16.31,2.84,NC.LSG..EHZ,P,,2023-05-02 06:10:29.050
nc73882946,2023-05-02 06:10:03.790,41.1945,-124.23233333333333,16.31,2.84,NC.LSH..EHZ,P,,2023-05-02 06:10:32.060
nc73882946,2023-05-02 06:10:03.790,41.1945,-124.23233333333333,16.31,2.84,NP.1581..HNZ,P,-1.0,2023-05-02 06:10:13.590
nc73882946,2023-05-02 06:10:03.790,41.1945,-124.23233333333333,16.31,2.84,NP.1582..HNZ,P,-1.0,2023-05-02 06:10:14.120
nc73882946,2023-05-02 06:10:03.790,41.1945,-124.23233333333333,16.31,2.84,NP.1586..HNZ,P,-1.0,2023-05-02 06:10:15.040
nc73882946,2023-05-02 06:10:03.790,41.1945,-124.23233333333333,16.31,2.84,PB.B035..EHZ,P,-1.0,2023-05-02 06:10:28.760
nc73882946,2023-05-02 06:10:03.790,41.1945,-124.23233333333333,16.31,2.84,PB.B036..EHZ,P,,2023-05-02 06:10:28.710
nc73882946,2023-05-02 06:10:03.790,41.1945,-124.23233333333333,16.31,2.84,PB.B039..EHZ,P,,2023-05-02 06:10:26.890
nc73882946,2023-05-02 06:10:03.790,41.1945,-124.23233333333333,16.31,2.84,PB.B040..EHZ,P,,2023-05-02 06:10:29.400
nc73882946,2023-05-02 06:10:03.790,41.1945,-124.23233333333333,16.31,2.84,PB.B045..EHZ,P,-1.0,2023-05-02 06:10:18.100
nc73882946,2023-05-02 06:10:03.790,41.1945,-124.23233333333333,16.31,2.84,PB.B046..EHZ,P,-1.0,2023-05-02 06:10:19.380
nc73882946,2023-05-02 06:10:03.790,41.1945,-124.23233333333333,16.31,2.84,PB.B047..EHZ,P,-1.0,2023-05-02 06:10:20.330
nc73882946,2023-05-02 06:10:03.790,41.1945,-124.23233333333333,16.31,2.84,PB.B049..EHZ,P,-1.0,2023-05-02 06:10:21.190
nc73882946,2023-05-02 06:10:03.790,41.1945,-124.23233333333333,16.31,2.84,PB.B932..EHZ,P,-1.0,2023-05-02 06:10:19.840
nc73882946,2023-05-02 06:10:03.790,41.1945,-124.23233333333333,16.31,2.84,PB.B935..EHZ,P,,2023-05-02 06:10:19.540
nc73882946,2023-05-02 06:10:03.790,41.1945,-124.23233333333333,16.31,2.84,UO.CAVE..HHZ,P,,2023-05-02 06:10:22.490
nc73882946,2023-05-02 06:10:03.790,41.1945,-124.23233333333333,16.31,2.84,UO.DING..HHZ,P,,2023-05-02 06:10:31.430
nc73882946,2023-05-02 06:10:03.790,41.1945,-124.23233333333333,16.31,2.84,UO.KBO..HHZ,P,,2023-05-02 06:10:22.300
nc73882946,2023-05-02 06:10:03.790,41.1945,-124.23233333333333,16.31,2.84,UO.ROGE..HHZ,P,1.0,2023-05-02 06:10:30.160
nc73882946,2023-05-02 06:10:03.790,41.1945,-124.23233333333333,16.31,2.84,UO.SALT..HHZ,P,,2023-05-02 06:10:34.190
nc73882946,2023-05-02 06:10:03.790,41.1945,-124.23233333333333,16.31,2.84,UO.SISQ..HHZ,P,,2023-05-02 06:10:24.270
nc73882946,2023-05-02 06:10:03.790,41.1945,-124.23233333333333,16.31,2.84,UO.WOOD..HHZ,P,,2023-05-02 06:10:34.170
nc73882946,2023-05-02 06:10:03.790,41.1945,-124.23233333333333,16.31,2.84,UW.BBO..HHZ,P,,2023-05-02 06:10:37.840
nc73882946,2023-05-02 06:10:03.790,41.1945,-124.23233333333333,16.31,2.84,UW.BROK..HNZ,P,,2023-05-02 06:10:20.370
nc73883011,2023-05-02 13:44:05.720,40.29083333333333,-124.44266666666667,11.67,2.33,BK.DCMP..HHZ,P,1.0,2023-05-02 13:44:26.330
nc73883011,2023-05-02 13:44:05.720,40.29083333333333,-124.44266666666667,11.67,2.33,BK.HAYF..HHZ,P,,2023-05-02 13:44:23.770
nc73883011,2023-05-02 13:44:05.720,40.29083333333333,-124.44266666666667,11.67,2.33,BK.JCC..HHZ,P,1.0,2023-05-02 13:44:17.870
nc73883011,2023-05-02 13:44:05.720,40.29083333333333,-124.44266666666667,11.67,2.33,BK.KNEE..HHZ,P,-1.0,2023-05-02 13:44:18.120
nc73883011,2023-05-02 13:44:05.720,40.29083333333333,-124.44266666666667,11.67,2.33,BK.MILL..HHZ,P,,2023-05-02 13:44:29.600
nc73883011,2023-05-02 13:44:05.720,40.29083333333333,-124.44266666666667,11.67,2.33,BK.PETL..HNZ,P,-1.0,2023-05-02 13:44:08.690
nc73883011,2023-05-02 13:44:05.720,40.29083333333333,-124.44266666666667,11.67,2.33,BK.PRDS..HHZ,P,-1.0,2023-05-02 13:44:13.430
nc73883011,2023-05-02 13:44:05.720,40.29083333333333,-124.44266666666667,11.67,2.33,BK.RBOW..HHZ,P,1.0,2023-05-02 13:44:11.800
nc73883011,2023-05-02 13:44:05.720,40.29083333333333,-124.44266666666667,11.67,2.33,BK.SANG..HHZ,P,,2023-05-02 13:44:34.010
nc73883011,2023-05-02 13:44:05.720,40.29083333333333,-124.44266666666667,11.67,2.33,BK.SBAR..HHZ,P,,2023-05-02 13:44:33.890
nc73883011,2023-05-02 13:44:05.720,40.29083333333333,-124.44266666666667,11.67,2.33,BK.SHWD..HHZ,P,-1.0,2023-05-02 13:44:24.710
nc73883011,2023-05-02 13:44:05.720,40.29083333333333,-124.44266666666667,11.67,2.33,BK.TRIN..HHZ,P,,2023-05-02 13:44:31.070
nc73883011,2023-05-02 13:44:05.720,40.29083333333333,-124.44266666666667,11.67,2.33,CE.79046..HNZ,P,-1.0,2023-05-02 13:44:19.980
nc73883011,2023-05-02 13:44:05.720,40.29083333333333,-124.44266666666667,11.67,2.33,CE.89688..HNZ,P,-1.0,2023-05-02 13:44:13.530
nc73883011,2023-05-02 13:44:05.720,40.29083333333333,-124.44266666666667,11.67,2.33,NC.GHO..EHZ,P,1.0,2023-05-02 13:44:29.520
nc73883011,2023-05-02 13:44:05.720,40.29083333333333,-124.44266666666667,11.67,2.33,NC.GMR..EHZ,P,,2023-05-02 13:44:28.730
nc73883011,2023-05-02 13:44:05.720,40.29083333333333,-124.44266666666667,11.67,2.33,NC.GNR..EHZ,P,,2023-05-02 13:44:27.120
nc73883011,2023-05-02 13:44:05.720,40.29083333333333,-124.44266666666667,11.67,2.33,NC.GWR..EHZ,P,,2023-05-02 13:44:29.220
nc73883011,2023-05-02 13:44:05.720,40.29083333333333,-124.44266666666667,11.67,2.33,NC.KBU..EHZ,P,,2023-05-02 13:44:15.490
nc73883011,2023-05-02 13:44:05.720,40.29083333333333,-124.44266666666667,11.67,2.33,NC.KCO..HNZ,P,-1.0,2023-05-02 13:44:09.760
nc73883011,2023-05-02 13:44:05.720,40.29083333333333,-124.44266666666667,11.67,2.33,NC.KCR..EHZ,P,1.0,2023-05-02 13:44:16.460
nc73883011,2023-05-02 13:44:05.720,40.29083333333333,-124.44266666666667,11.67,2.33,NC.KCT..HHZ,P,1.0,2023-05-02 13:44:10.860
nc73883011,2023-05-02 13:44:05.720,40.29083333333333,-124.44266666666667,11.67,2.33,NC.KFP..EHZ,P,,2023-05-02 13:44:24.120
nc73883011,2023-05-02 13:44:05.720,40.29083333333333,-124.44266666666667,11.67,2.33,NC.KHBB..HHZ,P,,2023-05-02 13:44:24.230
nc73883011,2023-05-02 13:44:05.720,40.29083333333333,-124.44266666666667,11.67,2.33,NC.KIP..EHZ,P,,2023-05-02 13:44:22.610
nc73883011,2023-05-02 13:44:05.720,40.29083333333333,-124.44266666666667,11.67,2.33,NC.KLR..EHZ,P,,2023-05-02 13:44:23.140
nc73883011,2023-05-02 13:44:05.720,40.29083333333333,-124.44266666666667,11.67,2.33,NC.KMR..HHZ,P,1.0,2023-05-02 13:44:18.460
nc73883011,2023-05-02 13:44:05.720,40.29083333333333,-124.44266666666667,11.67,2.33,NC.KPR..EHZ,P,1.0,2023-05-02 13:44:12.810
nc73883011,2023-05-02 13:44:05.720,40.29083333333333,-124.44266666666667,11.67,2.33,NC.KRK..EHZ,P,,2023-05-02 13:44:27.110
nc73883011,2023-05-02 13:44:05.720,40.29083333333333,-124.44266666666667,11.67,2.33,NC.KSXB..HHZ,P,,2023-05-02 13:44:31.860
nc73883011,2023-05-02 13:44:05.720,40.29083333333333,-124.44266666666667,11.67,2.33,NC.KTJ..HNZ,P,1.0,2023-05-02 13:44:14.770
nc73883011,2023-05-02 13:44:05.720,40.29083333333333,-124.44266666666667,11.67,2.33,NP.1582..HNZ,P,,2023-05-02 13:44:15.980
nc73883011,2023-05-02 13:44:05.720,40.29083333333333,-124.44266666666667,11.67,2.33,NP.1591..HNZ,P,,2023-05-02 13:44:17.500
nc73883011,2023-05-02 13:44:05.720,40.29083333333333,-124.44266666666667,11.67,2.33,PB.B045..EHZ,P,1.0,2023-05-02 13:44:13.790
nc73883011,2023-05-02 13:44:05.720,40.29083333333333,-124.44266666666667,11.67,2.33,PB.B046..EHZ,P,1.0,2023-05-02 13:44:09.210
nc73883011,2023-05-02 13:44:05.720,40.29083333333333,-124.44266666666667,11.67,2.33,PB.B047..EHZ,P,-1.0,2023-05-02 13:44:10.940
nc73883011,2023-05-02 13:44:05.720,40.29083333333333,-124.44266666666667,11.67,2.33,PB.B049..EHZ,P,,2023-05-02 13:44:15.800
nc73883011,2023-05-02 13:44:05.720,40.29083333333333,-124.44266666666667,11.67,2.33,PB.B932..EHZ,P,-1.0,2023-05-02 13:44:09.970
nc73883011,2023-05-02 13:44:05.720,40.29083333333333,-124.44266666666667,11.67,2.33,PB.B933..EHZ,P,-1.0,2023-05-02 13:44:14.730
nc73883011,2023-05-02 13:44:05.720,40.29083333333333,-124.44266666666667,11.67,2.33,PB.B935..EHZ,P,1.0,2023-05-02 13:44:19.910
nc73885286,2023-05-08 05:17:40.240,40.13283333333333,-123.07183333333333,40.25,2.81,BK.AONC..HHZ,P,,2023-05-08 05:17:54.460
