event_id,etime,elat,elon,edep,emag,station_id,phase_type,phase_polarity,phase_time
nc73858110,2023-03-17 11:55:13.960,40.28766666666667,-124.481,10.03,2.33,PB.B046..EHZ,P,1.0,2023-03-17 11:55:17.800
nc73858110,2023-03-17 11:55:13.960,40.28766666666667,-124.481,10.03,2.33,PB.B047..EHZ,P,-1.0,2023-03-17 11:55:19.680
nc73858110,2023-03-17 11:55:13.960,40.28766666666667,-124.481,10.03,2.33,PB.B049..EHZ,P,,2023-03-17 11:55:24.700
nc73858110,2023-03-17 11:55:13.960,40.28766666666667,-124.481,10.03,2.33,PB.B932..EHZ,P,-1.0,2023-03-17 11:55:18.680
nc73858110,2023-03-17 11:55:13.960,40.28766666666667,-124.481,10.03,2.33,PB.B935..EHZ,P,,2023-03-17 11:55:28.790
nc73858110,2023-03-17 11:55:13.960,40.28766666666667,-124.481,10.03,2.33,UO.CAVE..HHZ,P,,2023-03-17 11:55:45.660
nc73858110,2023-03-17 11:55:13.960,40.28766666666667,-124.481,10.03,2.33,UO.SISQ..HHZ,P,,2023-03-17 11:55:47.720
nc73858115,2023-03-17 11:55:53.300,40.3095,-124.46733333333333,8.81,1.82,BK.BLAS..HHZ,P,,2023-03-17 11:56:08.130
nc73858115,2023-03-17 11:55:53.300,40.3095,-124.46733333333333,8.81,1.82,BK.BRIC..HHZ,P,-1.0,2023-03-17 11:56:03.870
nc73858115,2023-03-17 11:55:53.300,40.3095,-124.46733333333333,8.81,1.82,BK.DCMP..HHZ,P,,2023-03-17 11:56:14.360
nc73858115,2023-03-17 11:55:53.300,40.3095,-124.46733333333333,8.81,1.82,BK.GHOP..HHZ,P,1.0,2023-03-17 11:56:01.720
nc73858115,2023-03-17 11:55:53.300,40.3095,-124.46733333333333,8.81,1.82,BK.JCC..HHZ,P,,2023-03-17 11:56:05.660
nc73858115,2023-03-17 11:55:53.300,40.3095,-124.46733333333333,8.81,1.82,BK.KNEE..HHZ,P,,2023-03-17 11:56:05.880
nc73858115,2023-03-17 11:55:53.300,40.3095,-124.46733333333333,8.81,1.82,BK.MILL..HHZ,P,,2023-03-17 11:56:17.350
nc73858115,2023-03-17 11:55:53.300,40.3095,-124.46733333333333,8.81,1.82,BK.PETL..HNZ,P,-1.0,2023-03-17 11:55:56.270
nc73858115,2023-03-17 11:55:53.300,40.3095,-124.46733333333333,8.81,1.82,BK.PRDS..HHZ,P,-1.0,2023-03-17 11:56:01.250
nc73858115,2023-03-17 11:55:53.300,40.3095,-124.46733333333333,8.81,1.82,BK.RBOW..HHZ,P,1.0,2023-03-17 11:55:59.600
nc73858115,2023-03-17 11:55:53.300,40.3095,-124.46733333333333,8.81,1.82,BK.SANG..HHZ,P,,2023-03-17 11:56:21.800
nc73858115,2023-03-17 11:55:53.300,40.3095,-124.46733333333333,8.81,1.82,BK.SCOT..HHZ,P,,2023-03-17 11:56:20.980
nc73858115,2023-03-17 11:55:53.300,40.3095,-124.46733333333333,8.81,1.82,BK.SHWD..HHZ,P,,2023-03-17 11:56:12.600
nc73858115,2023-03-17 11:55:53.300,40.3095,-124.46733333333333,8.81,1.82,CE.89688..HNZ,P,-1.0,2023-03-17 11:56:01.350
nc73858115,2023-03-17 11:55:53.300,40.3095,-124.46733333333333,8.81,1.82,NC.KBU..EHZ,P,,2023-03-17 11:56:03.050
nc73858115,2023-03-17 11:55:53.300,40.3095,-124.46733333333333,8.81,1.82,NC.KCO..HNZ,P,-1.0,2023-03-17 11:55:57.430
nc73858115,2023-03-17 11:55:53.300,40.3095,-124.46733333333333,8.81,1.82,NC.KCR..EHZ,P,1.0,2023-03-17 11:56:04.300
nc73858115,2023-03-17 11:55:53.300,40.3095,-124.46733333333333,8.81,1.82,NC.KCT..HHZ,P,1.0,2023-03-17 11:55:58.310
nc73858115,2023-03-17 11:55:53.300,40.3095,-124.46733333333333,8.81,1.82,NC.KFP..EHZ,P,,2023-03-17 11:56:12.260
nc73858115,2023-03-17 11:55:53.300,40.3095,-124.46733333333333,8.81,1.82,NC.KHMB..HHZ,P,,2023-03-17 11:56:09.010
nc73858115,2023-03-17 11:55:53.300,40.3095,-124.46733333333333,8.81,1.82,NC.KMR..HHZ,P,,2023-03-17 11:56:06.150
nc73858115,2023-03-17 11:55:53.300,40.3095,-124.46733333333333,8.81,1.82,NC.KPR..EHZ,P,1.0,2023-03-17 11:56:00.650
nc73858115,2023-03-17 11:55:53.300,40.3095,-124.46733333333333,8.81,1.82,NC.KSM..EHZ,P,-1.0,2023-03-17 11:55:59.120
nc73858115,2023-03-17 11:55:53.300,40.3095,-124.46733333333333,8.81,1.82,NC.KSXB..HHZ,P,,2023-03-17 11:56:19.610
nc73858115,2023-03-17 11:55:53.300,40.3095,-124.46733333333333,8.81,1.82,NC.KTJ..HNZ,P,,2023-03-17 11:56:02.860
nc73858115,2023-03-17 11:55:53.300,40.3095,-124.46733333333333,8.81,1.82,NP.1582..HNZ,P,,2023-03-17 11:56:03.590
nc73858115,2023-03-17 11:55:53.300,40.3095,-124.46733333333333,8.81,1.82,NP.1586..HNZ,P,1.0,2023-03-17 11:56:02.750
nc73858115,2023-03-17 11:55:53.300,40.3095,-124.46733333333333,8.81,1.82,PB.B045..EHZ,P,1.0,2023-03-17 11:56:01.590
nc73858115,2023-03-17 11:55:53.300,40.3095,-124.46733333333333,8.81,1.82,PB.B046..EHZ,P,1.0,2023-03-17 11:55:56.810
nc73858115,2023-03-17 11:55:53.300,40.3095,-124.46733333333333,8.81,1.82,PB.B047..EHZ,P,-1.0,2023-03-17 11:55:58.720
nc73858115,2023-03-17 11:55:53.300,40.3095,-124.46733333333333,8.81,1.82,PB.B049..EHZ,P,,2023-03-17 11:56:04.090
nc73858115,2023-03-17 11:55:53.300,40.3095,-124.46733333333333,8.81,1.82,PB.B932..EHZ,P,-1.0,2023-03-17 11:55:57.710
nc73858115,2023-03-17 11:55:53.300,40.3095,-124.46733333333333,8.81,1.82,PB.B935..EHZ,P,,2023-03-17 11:56:07.860
nc73860510,2023-03-22 07:12:34.600,40.4615,-123.63783333333333,22.27,1.76,BK.BAKR..HHZ,P,,2023-03-22 07:12:50.710
nc73860510,2023-03-22 07:12:34.600,40.4615,-123.63783333333333,22.27,1.76,BK.BLAS..HHZ,P,-1.0,2023-03-22 07:12:39.980
nc73860510,2023-03-22 07:12:34.600,40.4615,-123.63783333333333,22.27,1.76,BK.BRIC..HHZ,P,1.0,2023-03-22 07:12:43.360
nc73860510,2023-03-22 07:12:34.600,40.4615,-123.63783333333333,22.27,1.76,BK.DMOR..HHZ,P,,2023-03-22 07:12:37.150
nc73860510,2023-03-22 07:12:34.600,40.4615,-123.63783333333333,22.27,1.76,BK.HAYF..HHZ,P,1.0,2023-03-22 07:12:41.810
nc73860510,2023-03-22 07:12:34.600,40.4615,-123.63783333333333,22.27,1.76,BK.JCC..HHZ,P,,2023-03-22 07:12:44.120
nc73860510,2023-03-22 07:12:34.600,40.4615,-123.63783333333333,22.27,1.76,BK.KNEE..HHZ,P,-1.0,2023-03-22 07:12:42.350
nc73860510,2023-03-22 07:12:34.600,40.4615,-123.63783333333333,22.27,1.76,BK.PETY..HHZ,P,-1.0,2023-03-22 07:12:47.820
nc73860510,2023-03-22 07:12:34.600,40.4615,-123.63783333333333,22.27,1.76,BK.PRDS..HHZ,P,1.0,2023-03-22 07:12:44.110
nc73860510,2023-03-22 07:12:34.600,40.4615,-123.63783333333333,22.27,1.76,BK.RBOW..HHZ,P,1.0,2023-03-22 07:12:42.860
nc73860510,2023-03-22 07:12:34.600,40.4615,-123.63783333333333,22.27,1.76,BK.SAGE..HHZ,P,,2023-03-22 07:12:56.150
nc73860510,2023-03-22 07:12:34.600,40.4615,-123.63783333333333,22.27,1.76,BK.SCOT..HHZ,P,,2023-03-22 07:12:53.550
nc73860510,2023-03-22 07:12:34.600,40.4615,-123.63783333333333,22.27,1.76,BK.TRIN..HHZ,P,1.0,2023-03-22 07:12:50.080
nc73860510,2023-03-22 07:12:34.600,40.4615,-123.63783333333333,22.27,1.76,BK.WEAV..HHZ,P,,2023-03-22 07:12:45.500
nc73860510,2023-03-22 07:12:34.600,40.4615,-123.63783333333333,22.27,1.76,NC.KBU..EHZ,P,1.0,2023-03-22 07:12:41.230
nc73860510,2023-03-22 07:12:34.600,40.4615,-123.63783333333333,22.27,1.76,NC.KCR..EHZ,P,1.0,2023-03-22 07:12:39.790
nc73860510,2023-03-22 07:12:34.600,40.4615,-123.63783333333333,22.27,1.76,NC.KHBB..HHZ,P,1.0,2023-03-22 07:12:42.650
nc73860510,2023-03-22 07:12:34.600,40.4615,-123.63783333333333,22.27,1.76,NC.KHMB..HHZ,P,,2023-03-22 07:12:43.840
nc73860510,2023-03-22 07:12:34.600,40.4615,-123.63783333333333,22.27,1.76,NC.KLR..EHZ,P,-1.0,2023-03-22 07:12:44.220
nc73860510,2023-03-22 07:12:34.600,40.4615,-123.63783333333333,22.27,1.76,NC.KMR..HHZ,P,1.0,2023-03-22 07:12:41.160
nc73860510,2023-03-22 07:12:34.600,40.4615,-123.63783333333333,22.27,1.76,NC.KPR..EHZ,P,1.0,2023-03-22 07:12:43.060
nc73860510,2023-03-22 07:12:34.600,40.4615,-123.63783333333333,22.27,1.76,NC.KTJ..HNZ,P,-1.0,2023-03-22 07:12:44.260
nc73860510,2023-03-22 07:12:34.600,40.4615,-123.63783333333333,22.27,1.76,NC.LBK..EHZ,P,1.0,2023-03-22 07:12:51.470
nc73860510,2023-03-22 07:12:34.600,40.4615,-123.63783333333333,22.27,1.76,NC.LSG..EHZ,P,,2023-03-22 07:12:55.480
nc73860510,2023-03-22 07:12:34.600,40.4615,-123.63783333333333,22.27,1.76,NP.1591..HNZ,P,1.0,2023-03-22 07:12:42.960
nc73860510,2023-03-22 07:12:34.600,40.4615,-123.63783333333333,22.27,1.76,PB.B045..EHZ,P,1.0,2023-03-22 07:12:41.380
nc73860510,2023-03-22 07:12:34.600,40.4615,-123.63783333333333,22.27,1.76,PB.B046..EHZ,P,,2023-03-22 07:12:44.340
nc73860510,2023-03-22 07:12:34.600,40.4615,-123.63783333333333,22.27,1.76,PB.B047..EHZ,P,1.0,2023-03-22 07:12:43.740
nc73860510,2023-03-22 07:12:34.600,40.4615,-123.63783333333333,22.27,1.76,PB.B049..EHZ,P,1.0,2023-03-22 07:12:40.910
nc73860510,2023-03-22 07:12:34.600,40.4615,-123.63783333333333,22.27,1.76,PB.B932..EHZ,P,1.0,2023-03-22 07:12:43.840
nc73860510,2023-03-22 07:12:34.600,40.4615,-123.63783333333333,22.27,1.76,PB.B935..EHZ,P,-1.0,2023-03-22 07:12:39.010
nc73864900,2023-03-31 14:14:05.100,40.447833333333335,-123.91316666666667,19.13,1.8,BK.BRIC..HHZ,P,-1.0,2023-03-31 14:14:12.760
nc73864900,2023-03-31 14:14:05.100,40.447833333333335,-123.91316666666667,19.13,1.8,BK.HAYF..HHZ,P,1.0,2023-03-31 14:14:15.600
nc73864900,2023-03-31 14:14:05.100,40.447833333333335,-123.91316666666667,19.13,1.8,BK.JCC..HHZ,P,-1.0,2023-03-31 14:14:13.000
nc73864900,2023-03-31 14:14:05.100,40.447833333333335,-123.91316666666667,19.13,1.8,BK.KNEE..HHZ,P,,2023-03-31 14:14:11.610
nc73864900,2023-03-31 14:14:05.100,40.447833333333335,-123.91316666666667,19.13,1.8,BK.PETY..HHZ,P,,2023-03-31 14:14:21.160
nc73864900,2023-03-31 14:14:05.100,40.447833333333335,-123.91316666666667,19.13,1.8,BK.PRDS..HHZ,P,-1.0,2023-03-31 14:14:12.940
nc73864900,2023-03-31 14:14:05.100,40.447833333333335,-123.91316666666667,19.13,1.8,BK.RBOW..HHZ,P,1.0,2023-03-31 14:14:10.280
nc73864900,2023-03-31 14:14:05.100,40.447833333333335,-123.91316666666667,19.13,1.8,BK.SCOT..HHZ,P,,2023-03-31 14:14:25.970
nc73864900,2023-03-31 14:14:05.100,40.447833333333335,-123.91316666666667,19.13,1.8,BK.SHWD..HHZ,P,1.0,2023-03-31 14:14:21.780
nc73864900,2023-03-31 14:14:05.100,40.447833333333335,-123.91316666666667,19.13,1.8,BK.SIGP..HHZ,P,,2023-03-31 14:14:28.850
nc73864900,2023-03-31 14:14:05.100,40.447833333333335,-123.91316666666667,19.13,1.8,BK.TRIN..HHZ,P,,2023-03-31 14:14:23.140
nc73864900,2023-03-31 14:14:05.100,40.447833333333335,-123.91316666666667,19.13,1.8,BK.WEAV..HHZ,P,1.0,2023-03-31 14:14:19.340
nc73864900,2023-03-31 14:14:05.100,40.447833333333335,-123.91316666666667,19.13,1.8,NC.KBN..EHZ,P,,2023-03-31 14:14:19.920
nc73864900,2023-03-31 14:14:05.100,40.447833333333335,-123.91316666666667,19.13,1.8,NC.KBU..EHZ,P,1.0,2023-03-31 14:14:10.730
nc73864900,2023-03-31 14:14:05.100,40.447833333333335,-123.91316666666667,19.13,1.8,NC.KCO..HNZ,P,-1.0,2023-03-31 14:14:12.540
nc73864900,2023-03-31 14:14:05.100,40.447833333333335,-123.91316666666667,19.13,1.8,NC.KCR..EHZ,P,-1.0,2023-03-31 14:14:09.120
nc73864900,2023-03-31 14:14:05.100,40.447833333333335,-123.91316666666667,19.13,1.8,NC.KCT..HHZ,P,,2023-03-31 14:14:12.710
nc73864900,2023-03-31 14:14:05.100,40.447833333333335,-123.91316666666667,19.13,1.8,NC.KHBB..HHZ,P,1.0,2023-03-31 14:14:16.190
nc73864900,2023-03-31 14:14:05.100,40.447833333333335,-123.91316666666667,19.13,1.8,NC.KHMB..HHZ,P,,2023-03-31 14:14:14.590
nc73864900,2023-03-31 14:14:05.100,40.447833333333335,-123.91316666666667,19.13,1.8,NC.KLR..EHZ,P,1.0,2023-03-31 14:14:16.810
nc73864900,2023-03-31 14:14:05.100,40.447833333333335,-123.91316666666667,19.13,1.8,NC.KMR..HHZ,P,1.0,2023-03-31 14:14:11.940
nc73864900,2023-03-31 14:14:05.100,40.447833333333335,-123.91316666666667,19.13,1.8,NC.KPR..EHZ,P,,2023-03-31 14:14:10.620
nc73864900,2023-03-31 14:14:05.100,40.447833333333335,-123.91316666666667,19.13,1.8,NC.KRP..HHZ,P,,2023-03-31 14:14:18.040
nc73864900,2023-03-31 14:14:05.100,40.447833333333335,-123.91316666666667,19.13,1.8,NC.KTJ..HNZ,P,-1.0,2023-03-31 14:14:13.550
nc73864900,2023-03-31 14:14:05.100,40.447833333333335,-123.91316666666667,19.13,1.8,NC.LBK..EHZ,P,,2023-03-31 14:14:24.550
nc73864900,2023-03-31 14:14:05.100,40.447833333333335,-123.91316666666667,19.13,1.8,PB.B045..EHZ,P,1.0,2023-03-31 14:14:08.960
nc73864900,2023-03-31 14:14:05.100,40.447833333333335,-123.91316666666667,19.13,1.8,PB.B046..EHZ,P,1.0,2023-03-31 14:14:12.040
nc73864900,2023-03-31 14:14:05.100,40.447833333333335,-123.91316666666667,19.13,1.8,PB.B047..EHZ,P,1.0,2023-03-31 14:14:11.590
nc73864900,2023-03-31 14:14:05.100,40.447833333333335,-123.91316666666667,19.13,1.8,PB.B049..EHZ,P,-1.0,2023-03-31 14:14:10.660
nc73864900,2023-03-31 14:14:05.100,40.447833333333335,-123.91316666666667,19.13,1.8,PB.B932..EHZ,P,1.0,2023-03-31 14:14:11.630
nc73864900,2023-03-31 14:14:05.100,40.447833333333335,-123.91316666666667,19.13,1.8,PB.B935..EHZ,P,-1.0,2023-03-31 14:14:11.430
nc73866705,2023-04-04 13:47:13.180,40.23383333333334,-124.199,11.76,1.15,BK.BRIC..HHZ,P,-1.0,2023-04-04 13:47:19.410
nc73866705,2023-04-04 13:47:13.180,40.23383333333334,-124.199,11.76,1.15,BK.PETL..HNZ,P,,2023-04-04 13:47:16.690
nc73866705,2023-04-04 13:47:13.180,40.23383333333334,-124.199,11.76,1.15,BK.PRDS..HHZ,P,-1.0,2023-04-04 13:47:17.710
nc73866705,2023-04-04 13:47:13.180,40.23383333333334,-124.199,11.76,1.15,BK.RBOW..HHZ,P,-1.0,2023-04-04 13:47:16.740
nc73866705,2023-04-04 13:47:13.180,40.23383333333334,-124.199,11.76,1.15,CE.89688..HNZ,P,,2023-04-04 13:47:18.030
nc73866705,2023-04-04 13:47:13.180,40.23383333333334,-124.199,11.76,1.15,NC.KBU..EHZ,P,1.0,2023-04-04 13:47:19.570
nc73866705,2023-04-04 13:47:13.180,40.23383333333334,-124.199,11.76,1.15,NC.KCO..HNZ,P,1.0,2023-04-04 13:47:15.990
nc73866705,2023-04-04 13:47:13.180,40.23383333333334,-124.199,11.76,1.15,NC.KCT..HHZ,P,-1.0,2023-04-04 13:47:19.610
nc73866705,2023-04-04 13:47:13.180,40.23383333333334,-124.199,11.76,1.15,NC.KPR..EHZ,P,-1.0,2023-04-04 13:47:16.660
nc73866705,2023-04-04 13:47:13.180,40.23383333333334,-124.199,11.76,1.15,NC.KTJ..HNZ,P,-1.0,2023-04-04 13:47:18.960
nc73866705,2023-04-04 13:47:13.180,40.23383333333334,-124.199,11.76,1.15,PB.B045..EHZ,P,,2023-04-04 13:47:18.800
nc73866705,2023-04-04 13:47:13.180,40.23383333333334,-124.199,11.76,1.15,PB.B046..EHZ,P,-1.0,2023-04-04 13:47:16.420
nc73866705,2023-04-04 13:47:13.180,40.23383333333334,-124.199,11.76,1.15,PB.B047..EHZ,P,1.0,2023-04-04 13:47:15.610
nc73866705,2023-04-04 13:47:13.180,40.23383333333334,-124.199,11.76,1.15,PB.B932..EHZ,P,1.0,2023-04-04 13:47:15.530
nc73873665,2023-04-14 19:20:25.770,40.305166666666665,-124.4405,8.47,1.81,BK.BLAS..HHZ,P,1.0,2023-04-14 19:20:40.380
nc73873665,2023-04-14 19:20:25.770,40.305166666666665,-124.4405,8.47,1.81,BK.DCMP..HHZ,P,,2023-04-14 19:20:46.470
nc73873665,2023-04-14 19:20:25.770,40.305166666666665,-124.4405,8.47,1.81,BK.JCC..HHZ,P,-1.0,2023-04-14 19:20:38.050
nc73873665,2023-04-14 19:20:25.770,40.305166666666665,-124.4405,8.47,1.81,BK.KNEE..BHZ,P,-1.0,2023-04-14 19:20:38.240
nc73873665,2023-04-14 19:20:25.770,40.305166666666665,-124.4405,8.47,1.81,BK.PETL..HNZ,P,-1.0,2023-04-14 19:20:28.350
nc73873665,2023-04-14 19:20:25.770,40.305166666666665,-124.4405,8.47,1.81,BK.PRDS..HHZ,P,-1.0,2023-04-14 19:20:33.340
nc73873665,2023-04-14 19:20:25.770,40.305166666666665,-124.4405,8.47,1.81,BK.RBOW..HHZ,P,1.0,2023-04-14 19:20:31.750
nc73873665,2023-04-14 19:20:25.770,40.305166666666665,-124.4405,8.47,1.81,BK.SHWD..HHZ,P,,2023-04-14 19:20:44.810
nc73873665,2023-04-14 19:20:25.770,40.305166666666665,-124.4405,8.47,1.81,CE.89688..HNZ,P,1.0,2023-04-14 19:20:33.520
nc73873665,2023-04-14 19:20:25.770,40.305166666666665,-124.4405,8.47,1.81,NC.KBU..EHZ,P,-1.0,2023-04-14 19:20:35.750
nc73873665,2023-04-14 19:20:25.770,40.305166666666665,-124.4405,8.47,1.81,NC.KCO..HNZ,P,-1.0,2023-04-14 19:20:29.520
nc73873665,2023-04-14 19:20:25.770,40.305166666666665,-124.4405,8.47,1.81,NC.KCR..EHZ,P,1.0,2023-04-14 19:20:36.450
nc73873665,2023-04-14 19:20:25.770,40.305166666666665,-124.4405,8.47,1.81,NC.KCT..HHZ,P,1.0,2023-04-14 19:20:30.600
nc73873665,2023-04-14 19:20:25.770,40.305166666666665,-124.4405,8.47,1.81,NC.KFP..EHZ,P,-1.0,2023-04-14 19:20:44.380
nc73873665,2023-04-14 19:20:25.770,40.305166666666665,-124.4405,8.47,1.81,NC.KHMB..HHZ,P,,2023-04-14 19:20:41.260
nc73873665,2023-04-14 19:20:25.770,40.305166666666665,-124.4405,8.47,1.81,NC.KPPB..EHZ,P,,2023-04-14 19:20:42.390
nc73873665,2023-04-14 19:20:25.770,40.305166666666665,-124.4405,8.47,1.81,NC.KPR..EHZ,P,1.0,2023-04-14 19:20:32.770
nc73873665,2023-04-14 19:20:25.770,40.305166666666665,-124.4405,8.47,1.81,NC.KSM..EHZ,P,-1.0,2023-04-14 19:20:31.190
nc73873665,2023-04-14 19:20:25.770,40.305166666666665,-124.4405,8.47,1.81,NC.KTJ..HNZ,P,,2023-04-14 19:20:34.870
nc73873665,2023-04-14 19:20:25.770,40.305166666666665,-124.4405,8.47,1.81,NP.1586..HNZ,P,,2023-04-14 19:20:34.920
nc73873665,2023-04-14 19:20:25.770,40.305166666666665,-124.4405,8.47,1.81,PB.B045..EHZ,P,1.0,2023-04-14 19:20:33.730
nc73873665,2023-04-14 19:20:25.770,40.305166666666665,-124.4405,8.47,1.81,PB.B046..EHZ,P,1.0,2023-04-14 19:20:28.890
nc73873665,2023-04-14 19:20:25.770,40.305166666666665,-124.4405,8.47,1.81,PB.B047..EHZ,P,-1.0,2023-04-14 19:20:30.780
nc73873665,2023-04-14 19:20:25.770,40.305166666666665,-124.4405,8.47,1.81,PB.B049..EHZ,P,,2023-04-14 19:20:35.880
nc73873665,2023-04-14 19:20:25.770,40.305166666666665,-124.4405,8.47,1.81,PB.B932..EHZ,P,-1.0,2023-04-14 19:20:29.770
nc73873665,2023-04-14 19:20:25.770,40.305166666666665,-124.4405,8.47,1.81,PB.B935..EHZ,P,,2023-04-14 19:20:40.030
nc73875585,2023-04-19 22:54:30.710,40.352333333333334,-123.36133333333333,27.32,2.5,BK.BLAS..HHZ,P,-1.0,2023-04-19 22:54:36.280
nc73875585,2023-04-19 22:54:30.710,40.352333333333334,-123.36133333333333,27.32,2.5,BK.DANT..HHZ,P,,2023-04-19 22:54:51.070
nc73875585,2023-04-19 22:54:30.710,40.352333333333334,-123.36133333333333,27.32,2.5,BK.GHOP..HHZ,P,1.0,2023-04-19 22:54:40.450
nc73875585,2023-04-19 22:54:30.710,40.352333333333334,-123.36133333333333,27.32,2.5,BK.GTSB..HHZ,P,,2023-04-19 22:54:51.620
nc73875585,2023-04-19 22:54:30.710,40.352333333333334,-123.36133333333333,27.32,2.5,BK.HAYF..HHZ,P,-1.0,2023-04-19 22:54:36.710
nc73875585,2023-04-19 22:54:30.710,40.352333333333334,-123.36133333333333,27.32,2.5,BK.HUNT..HHZ,P,1.0,2023-04-19 22:54:37.110
nc73875585,2023-04-19 22:54:30.710,40.352333333333334,-123.36133333333333,27.32,2.5,BK.JCC..HHZ,P,,2023-04-19 22:54:43.080
nc73875585,2023-04-19 22:54:30.710,40.352333333333334,-123.36133333333333,27.32,2.5,BK.KNEE..HHZ,P,,2023-04-19 22:54:41.360
nc73875585,2023-04-19 22:54:30.710,40.352333333333334,-123.36133333333333,27.32,2.5,BK.LCOW..HHZ,P,1.0,2023-04-19 22:54:47.580
nc73875585,2023-04-19 22:54:30.710,40.352333333333334,-123.36133333333333,27.32,2.5,BK.PRDS..HHZ,P,,2023-04-19 22:54:41.740
nc73875585,2023-04-19 22:54:30.710,40.352333333333334,-123.36133333333333,27.32,2.5,BK.RBOW..HHZ,P,1.0,2023-04-19 22:54:41.460
nc73875585,2023-04-19 22:54:30.710,40.352333333333334,-123.36133333333333,27.32,2.5,BK.SAGE..HHZ,P,,2023-04-19 22:54:50.230
nc73875585,2023-04-19 22:54:30.710,40.352333333333334,-123.36133333333333,27.32,2.5,BK.SCOT..HHZ,P,,2023-04-19 22:54:50.240
nc73875585,2023-04-19 22:54:30.710,40.352333333333334,-123.36133333333333,27.32,2.5,BK.SHWD..HHZ,P,-1.0,2023-04-19 22:54:45.390
nc73875585,2023-04-19 22:54:30.710,40.352333333333334,-123.36133333333333,27.32,2.5,BK.TRIN..HHZ,P,,2023-04-19 22:54:45.360
nc73875585,2023-04-19 22:54:30.710,40.352333333333334,-123.36133333333333,27.32,2.5,BK.WEAV..HHZ,P,1.0,2023-04-19 22:54:40.510
nc73875585,2023-04-19 22:54:30.710,40.352333333333334,-123.36133333333333,27.32,2.5,NC.GCK..EHZ,P,,2023-04-19 22:54:50.690
nc73875585,2023-04-19 22:54:30.710,40.352333333333334,-123.36133333333333,27.32,2.5,NC.GROB..EHZ,P,1.0,2023-04-19 22:54:43.860
nc73875585,2023-04-19 22:54:30.710,40.352333333333334,-123.36133333333333,27.32,2.5,NC.KBN..EHZ,P,1.0,2023-04-19 22:54:40.720
nc73875585,2023-04-19 22:54:30.710,40.352333333333334,-123.36133333333333,27.32,2.5,NC.KBU..EHZ,P,1.0,2023-04-19 22:54:39.250
nc73875585,2023-04-19 22:54:30.710,40.352333333333334,-123.36133333333333,27.32,2.5,NC.KCR..EHZ,P,1.0,2023-04-19 22:54:38.770
nc73875585,2023-04-19 22:54:30.710,40.352333333333334,-123.36133333333333,27.32,2.5,NC.KCT..HHZ,P,,2023-04-19 22:54:44.230
nc73875585,2023-04-19 22:54:30.710,40.352333333333334,-123.36133333333333,27.32,2.5,NC.KFP..EHZ,P,1.0,2023-04-19 22:54:43.820
nc73875585,2023-04-19 22:54:30.710,40.352333333333334,-123.36133333333333,27.32,2.5,NC.KHBB..HHZ,P,-1.0,2023-04-19 22:54:38.400
nc73875585,2023-04-19 22:54:30.710,40.352333333333334,-123.36133333333333,27.32,2.5,NC.KHMB..HHZ,P,1.0,2023-04-19 22:54:42.260
